{"type":"FeatureCollection","features":[{"type":"Feature","properties":{"cve_ent":"HN01","nombre":"Atlántida"},"geometry":{"type":"MultiPolygon","coordinates":[[[[-87.376,15.848],[-87.186,15.796],[-87.095,15.788],[-87.05,15.776],[-87.019,15.778],[-86.974,15.763],[-86.915,15.755],[-86.884,15.764],[-86.832,15.767],[-86.782,15.797],[-86.666,15.788],[-86.639,15.797],[-86.589,15.798],[-86.492,15.815],[-86.434,15.781],[-86.45,15.782],[-86.443,15.758],[-86.449,15.737],[-86.443,15.724],[-86.403,15.722],[-86.405,15.714],[-86.394,15.699],[-86.399,15.695],[-86.397,15.68],[-86.386,15.683],[-86.383,15.676],[-86.362,15.676],[-86.363,15.606],[-86.382,15.596],[-86.408,15.593],[-86.401,15.574],[-86.471,15.598],[-86.525,15.582],[-86.535,15.592],[-86.574,15.586],[-86.641,15.605],[-86.696,15.583],[-86.732,15.558],[-86.765,15.549],[-86.764,15.545],[-86.803,15.548],[-86.808,15.556],[-86.837,15.543],[-86.84,15.549],[-86.85,15.547],[-86.851,15.565],[-86.859,15.567],[-86.876,15.557],[-86.898,15.554],[-86.907,15.561],[-86.927,15.546],[-86.971,15.547],[-86.984,15.556],[-87.029,15.513],[-87.044,15.51],[-87.049,15.488],[-87.073,15.474],[-87.091,15.473],[-87.108,15.456],[-87.151,15.46],[-87.179,15.421],[-87.191,15.428],[-87.215,15.424],[-87.246,15.438],[-87.275,15.439],[-87.286,15.448],[-87.312,15.442],[-87.323,15.455],[-87.345,15.458],[-87.362,15.443],[-87.38,15.437],[-87.386,15.447],[-87.392,15.444],[-87.39,15.452],[-87.399,15.448],[-87.399,15.456],[-87.41,15.455],[-87.419,15.466],[-87.423,15.463],[-87.426,15.481],[-87.438,15.484],[-87.431,15.491],[-87.441,15.498],[-87.434,15.533],[-87.45,15.531],[-87.459,15.546],[-87.514,15.514],[-87.528,15.523],[-87.57,15.508],[-87.621,15.507],[-87.598,15.553],[-87.621,15.555],[-87.626,15.567],[-87.676,15.582],[-87.683,15.644],[-87.692,15.66],[-87.737,15.684],[-87.747,15.7],[-87.773,15.706],[-87.777,15.731],[-87.755,15.734],[-87.767,15.75],[-87.764,15.76],[-87.777,15.775],[-87.785,15.758],[-87.781,15.776],[-87.791,15.79],[-87.802,15.789],[-87.794,15.796],[-87.797,15.812],[-87.786,15.806],[-87.779,15.81],[-87.784,15.828],[-87.769,15.821],[-87.774,15.826],[-87.772,15.841],[-87.765,15.844],[-87.774,15.85],[-87.771,15.858],[-87.751,15.879],[-87.745,15.88],[-87.747,15.874],[-87.729,15.879],[-87.729,15.908],[-87.719,15.919],[-87.656,15.891],[-87.644,15.899],[-87.643,15.907],[-87.633,15.905],[-87.621,15.921],[-87.601,15.928],[-87.629,15.907],[-87.612,15.869],[-87.545,15.807],[-87.49,15.783],[-87.461,15.781],[-87.449,15.786],[-87.431,15.805],[-87.431,15.814],[-87.392,15.82],[-87.375,15.839],[-87.376,15.848]],[[-86.45,15.778],[-86.45,15.777],[-86.449,15.778],[-86.45,15.778]]],[[[-87.637,15.909],[-87.638,15.91],[-87.637,15.91],[-87.637,15.909]]],[[[-87.627,15.915],[-87.626,15.916],[-87.626,15.915],[-87.627,15.915]]],[[[-87.599,15.928],[-87.598,15.929],[-87.598,15.928],[-87.599,15.928]]]]}},{"type":"Feature","properties":{"cve_ent":"HN02","nombre":"Colón"},"geometry":{"type":"MultiPolygon","coordinates":[[[[-85.786,15.577],[-85.788,15.551],[-85.814,15.544],[-85.835,15.516],[-85.865,15.523],[-85.866,15.529],[-85.892,15.524],[-85.896,15.517],[-85.892,15.497],[-85.935,15.459],[-85.948,15.46],[-85.967,15.439],[-85.968,15.421],[-85.978,15.42],[-85.982,15.412],[-85.994,15.412],[-86.013,15.396],[-86.029,15.397],[-86.03,15.386],[-86.045,15.384],[-86.053,15.395],[-86.09,15.398],[-86.093,15.385],[-86.105,15.391],[-86.129,15.372],[-86.165,15.369],[-86.232,15.408],[-86.232,15.437],[-86.243,15.45],[-86.23,15.459],[-86.235,15.471],[-86.229,15.476],[-86.229,15.5],[-86.238,15.524],[-86.253,15.523],[-86.259,15.513],[-86.268,15.519],[-86.268,15.508],[-86.288,15.505],[-86.307,15.512],[-86.302,15.524],[-86.305,15.537],[-86.314,15.536],[-86.315,15.541],[-86.377,15.536],[-86.408,15.593],[-86.364,15.604],[-86.362,15.676],[-86.383,15.676],[-86.386,15.683],[-86.397,15.68],[-86.399,15.695],[-86.394,15.699],[-86.405,15.714],[-86.403,15.722],[-86.443,15.724],[-86.449,15.737],[-86.443,15.758],[-86.45,15.782],[-86.445,15.783],[-86.437,15.78],[-86.434,15.781],[-86.456,15.794],[-86.412,15.778],[-86.395,15.787],[-86.359,15.781],[-86.332,15.802],[-86.291,15.81],[-86.26,15.834],[-86.251,15.834],[-86.251,15.845],[-86.222,15.871],[-86.201,15.881],[-86.16,15.888],[-86.127,15.9],[-86.126,15.905],[-86.075,15.898],[-86.005,15.902],[-85.939,15.927],[-85.914,15.962],[-85.911,15.99],[-85.917,16.003],[-85.937,16.012],[-85.982,16.005],[-85.997,16.018],[-86.009,16.02],[-86.013,16.024],[-86.009,16.028],[-85.865,16.009],[-85.727,15.972],[-85.691,15.957],[-85.593,15.898],[-85.477,15.86],[-85.436,15.864],[-85.43,15.873],[-85.392,15.88],[-85.289,15.879],[-85.228,15.89],[-85.173,15.912],[-85.117,15.959],[-85.07,15.983],[-85.028,15.987],[-85.0,15.982],[-85.0,15.071],[-85.098,15.181],[-85.237,15.215],[-85.378,15.403],[-85.544,15.471],[-85.673,15.596],[-85.708,15.569],[-85.747,15.57],[-85.762,15.586],[-85.786,15.577]],[[-86.161,15.751],[-86.162,15.75],[-86.121,15.784],[-86.161,15.751]],[[-85.748,15.9343],[-85.748,15.935],[-85.748,15.936],[-85.748,15.9343]]],[[[-86.45,15.777],[-86.45,15.778],[-86.449,15.778],[-86.45,15.777]]]]}},{"type":"Feature","properties":{"cve_ent":"HN03","nombre":"Comayagua"},"geometry":{"type":"Polygon","coordinates":[[[-87.773,14.236],[-87.74,14.237],[-87.734,14.247],[-87.714,14.253],[-87.701,14.25],[-87.681,14.266],[-87.678,14.258],[-87.67,14.263],[-87.668,14.257],[-87.663,14.267],[-87.657,14.263],[-87.654,14.269],[-87.65,14.262],[-87.639,14.267],[-87.641,14.279],[-87.632,14.277],[-87.624,14.287],[-87.635,14.304],[-87.626,14.314],[-87.637,14.317],[-87.64,14.333],[-87.635,14.341],[-87.641,14.346],[-87.637,14.354],[-87.647,14.362],[-87.645,14.371],[-87.658,14.373],[-87.701,14.347],[-87.754,14.372],[-87.783,14.374],[-87.789,14.392],[-87.836,14.395],[-87.855,14.427],[-87.848,14.433],[-87.852,14.448],[-87.881,14.478],[-87.887,14.492],[-87.903,14.501],[-87.901,14.528],[-87.91,14.536],[-87.943,14.543],[-87.953,14.569],[-87.951,14.582],[-87.966,14.6],[-87.964,14.612],[-87.978,14.618],[-87.99,14.614],[-88.0,14.627],[-88.041,14.641],[-88.064,14.64],[-88.076,14.665],[-88.057,14.682],[-88.073,14.708],[-88.087,14.712],[-88.081,14.724],[-88.051,14.758],[-88.033,14.763],[-87.996,14.794],[-87.967,14.8],[-87.958,14.814],[-87.884,14.86],[-87.876,14.876],[-87.856,14.887],[-87.851,14.903],[-87.829,14.904],[-87.815,14.917],[-87.81,14.913],[-87.801,14.919],[-87.799,14.931],[-87.783,14.927],[-87.779,14.944],[-87.76,14.946],[-87.744,14.956],[-87.734,14.975],[-87.743,14.986],[-87.74,15.014],[-87.702,15.011],[-87.695,15.018],[-87.69,15.013],[-87.674,15.018],[-87.67,15.024],[-87.652,15.017],[-87.637,15.022],[-87.621,15.007],[-87.611,15.021],[-87.585,15.024],[-87.59,15.038],[-87.573,15.038],[-87.563,15.052],[-87.546,15.057],[-87.52,15.042],[-87.507,15.025],[-87.505,14.995],[-87.496,14.99],[-87.497,14.983],[-87.475,14.979],[-87.478,14.97],[-87.462,14.971],[-87.46,14.954],[-87.465,14.946],[-87.452,14.937],[-87.459,14.928],[-87.453,14.926],[-87.456,14.915],[-87.45,14.909],[-87.433,14.911],[-87.424,14.904],[-87.403,14.911],[-87.377,14.939],[-87.357,14.941],[-87.343,14.93],[-87.318,14.927],[-87.313,14.932],[-87.299,14.913],[-87.29,14.925],[-87.278,14.927],[-87.254,14.898],[-87.219,14.885],[-87.217,14.878],[-87.224,14.87],[-87.211,14.862],[-87.211,14.847],[-87.246,14.846],[-87.263,14.829],[-87.266,14.811],[-87.251,14.788],[-87.254,14.767],[-87.249,14.753],[-87.256,14.725],[-87.268,14.725],[-87.265,14.711],[-87.271,14.703],[-87.265,14.699],[-87.284,14.686],[-87.294,14.687],[-87.306,14.675],[-87.315,14.678],[-87.318,14.666],[-87.313,14.663],[-87.33,14.666],[-87.324,14.646],[-87.331,14.641],[-87.326,14.632],[-87.332,14.632],[-87.336,14.607],[-87.359,14.607],[-87.366,14.61],[-87.366,14.617],[-87.404,14.623],[-87.408,14.575],[-87.469,14.524],[-87.455,14.476],[-87.44,14.473],[-87.414,14.447],[-87.402,14.45],[-87.403,14.431],[-87.419,14.421],[-87.396,14.416],[-87.385,14.398],[-87.402,14.345],[-87.437,14.335],[-87.451,14.339],[-87.464,14.335],[-87.468,14.327],[-87.461,14.264],[-87.43,14.245],[-87.425,14.224],[-87.433,14.215],[-87.472,14.211],[-87.498,14.181],[-87.491,14.17],[-87.542,14.134],[-87.586,14.141],[-87.617,14.108],[-87.615,14.088],[-87.654,14.085],[-87.661,14.071],[-87.688,14.048],[-87.692,14.068],[-87.687,14.084],[-87.697,14.104],[-87.714,14.095],[-87.738,14.131],[-87.786,14.138],[-87.785,14.153],[-87.769,14.163],[-87.788,14.19],[-87.825,14.2],[-87.83,14.228],[-87.781,14.244],[-87.773,14.236]],[[-87.412,14.575],[-87.413,14.575],[-87.412,14.574],[-87.412,14.575]],[[-87.751,14.73],[-87.752,14.73],[-87.751,14.729],[-87.751,14.73]]]}},{"type":"Feature","properties":{"cve_ent":"HN04","nombre":"Copán"},"geometry":{"type":"Polygon","coordinates":[[[-89.015,14.716],[-89.069,14.717],[-89.084,14.727],[-89.131,14.713],[-89.166,14.731],[-89.169,14.774],[-89.224,14.834],[-89.229,14.882],[-89.206,14.901],[-89.184,14.907],[-89.172,14.931],[-89.175,14.941],[-89.165,14.95],[-89.165,14.97],[-89.157,14.978],[-89.185,15.002],[-89.17,15.028],[-89.176,15.037],[-89.155,15.054],[-89.155,15.068],[-88.973,15.137],[-88.848,15.241],[-88.758,15.295],[-88.71,15.246],[-88.721,15.221],[-88.689,15.196],[-88.679,15.172],[-88.669,15.173],[-88.647,15.157],[-88.659,15.151],[-88.665,15.118],[-88.644,15.1],[-88.638,15.075],[-88.656,15.069],[-88.676,15.047],[-88.681,15.003],[-88.704,14.954],[-88.688,14.92],[-88.67,14.913],[-88.645,14.923],[-88.639,14.904],[-88.649,14.886],[-88.643,14.869],[-88.654,14.869],[-88.658,14.861],[-88.652,14.849],[-88.67,14.837],[-88.68,14.817],[-88.676,14.807],[-88.681,14.785],[-88.667,14.779],[-88.664,14.755],[-88.659,14.753],[-88.664,14.744],[-88.653,14.731],[-88.653,14.718],[-88.681,14.724],[-88.69,14.712],[-88.728,14.707],[-88.757,14.716],[-88.774,14.712],[-88.792,14.717],[-88.796,14.686],[-88.775,14.651],[-88.753,14.643],[-88.734,14.611],[-88.759,14.594],[-88.777,14.55],[-88.812,14.533],[-88.832,14.534],[-88.825,14.5],[-88.846,14.497],[-88.853,14.512],[-88.894,14.519],[-88.915,14.542],[-88.911,14.558],[-88.93,14.562],[-88.922,14.596],[-89.005,14.668],[-89.004,14.683],[-89.015,14.716]]]}},{"type":"Feature","properties":{"cve_ent":"HN05","nombre":"Cortés"},"geometry":{"type":"MultiPolygon","coordinates":[[[[-87.972,14.902],[-87.975,14.906],[-87.972,14.907],[-87.972,14.902]]],[[[-88.027,14.937],[-88.026,14.936],[-88.027,14.936],[-88.027,14.937]]],[[[-88.03,15.044],[-88.017,15.047],[-88.044,15.053],[-88.054,15.072],[-88.065,15.072],[-88.076,15.09],[-88.088,15.091],[-88.121,15.135],[-88.082,15.174],[-88.081,15.186],[-88.066,15.193],[-88.06,15.211],[-88.104,15.219],[-88.113,15.25],[-88.126,15.267],[-88.131,15.37],[-88.15,15.378],[-88.165,15.373],[-88.177,15.387],[-88.186,15.387],[-88.192,15.402],[-88.23,15.414],[-88.242,15.434],[-88.236,15.461],[-88.245,15.499],[-88.411,15.547],[-88.473,15.514],[-88.343,15.62],[-88.323,15.651],[-88.326,15.669],[-88.317,15.671],[-88.313,15.682],[-88.302,15.671],[-88.28,15.676],[-88.286,15.694],[-88.275,15.684],[-88.267,15.693],[-88.265,15.681],[-88.258,15.684],[-88.258,15.692],[-88.254,15.686],[-88.247,15.688],[-88.251,15.698],[-88.243,15.698],[-88.242,15.711],[-88.248,15.711],[-88.252,15.724],[-88.222,15.722],[-88.156,15.682],[-88.122,15.686],[-88.102,15.707],[-88.103,15.716],[-88.107,15.71],[-88.11,15.71],[-88.107,15.722],[-88.097,15.732],[-88.084,15.733],[-88.076,15.749],[-88.047,15.764],[-88.046,15.784],[-88.042,15.78],[-88.039,15.785],[-88.0,15.786],[-87.936,15.818],[-87.93,15.828],[-87.935,15.84],[-87.964,15.845],[-87.955,15.863],[-87.906,15.863],[-87.871,15.889],[-87.846,15.89],[-87.833,15.899],[-87.808,15.902],[-87.756,15.894],[-87.733,15.919],[-87.719,15.919],[-87.729,15.908],[-87.729,15.879],[-87.743,15.874],[-87.749,15.877],[-87.745,15.88],[-87.751,15.879],[-87.771,15.858],[-87.774,15.85],[-87.765,15.844],[-87.772,15.841],[-87.774,15.826],[-87.769,15.821],[-87.784,15.828],[-87.78,15.808],[-87.797,15.812],[-87.794,15.796],[-87.802,15.793],[-87.8,15.787],[-87.791,15.79],[-87.781,15.776],[-87.785,15.758],[-87.773,15.774],[-87.756,15.732],[-87.774,15.734],[-87.772,15.718],[-87.78,15.71],[-87.792,15.723],[-87.801,15.724],[-87.806,15.705],[-87.829,15.698],[-87.839,15.687],[-87.819,15.685],[-87.806,15.691],[-87.805,15.682],[-87.823,15.68],[-87.83,15.661],[-87.819,15.653],[-87.811,15.665],[-87.805,15.664],[-87.811,15.653],[-87.808,15.643],[-87.8,15.638],[-87.773,15.64],[-87.769,15.632],[-87.774,15.619],[-87.763,15.611],[-87.765,15.593],[-87.784,15.595],[-87.771,15.574],[-87.773,15.568],[-87.779,15.567],[-87.792,15.582],[-87.806,15.579],[-87.798,15.561],[-87.816,15.552],[-87.816,15.539],[-87.805,15.521],[-87.814,15.52],[-87.826,15.531],[-87.833,15.527],[-87.826,15.515],[-87.837,15.499],[-87.822,15.49],[-87.828,15.476],[-87.81,15.469],[-87.808,15.458],[-87.826,15.438],[-87.834,15.459],[-87.865,15.455],[-87.863,15.448],[-87.826,15.433],[-87.818,15.408],[-87.823,15.401],[-87.838,15.404],[-87.848,15.375],[-87.88,15.353],[-87.877,15.345],[-87.863,15.344],[-87.867,15.335],[-87.886,15.346],[-87.893,15.324],[-87.918,15.323],[-87.905,15.306],[-87.923,15.304],[-87.929,15.295],[-87.91,15.288],[-87.91,15.274],[-87.932,15.269],[-87.938,15.247],[-87.937,15.235],[-87.925,15.246],[-87.92,15.243],[-87.926,15.231],[-87.918,15.228],[-87.918,15.221],[-87.925,15.213],[-87.916,15.209],[-87.927,15.207],[-87.925,15.199],[-87.911,15.199],[-87.904,15.191],[-87.867,15.193],[-87.857,15.178],[-87.848,15.175],[-87.851,15.163],[-87.844,15.158],[-87.819,15.161],[-87.814,15.15],[-87.802,15.156],[-87.795,15.151],[-87.796,15.139],[-87.757,15.135],[-87.744,15.116],[-87.732,15.11],[-87.739,15.099],[-87.731,15.084],[-87.745,15.074],[-87.75,15.048],[-87.745,15.027],[-87.735,15.017],[-87.743,15.006],[-87.743,14.986],[-87.734,14.977],[-87.737,14.966],[-87.76,14.946],[-87.779,14.944],[-87.783,14.927],[-87.799,14.931],[-87.801,14.919],[-87.81,14.913],[-87.815,14.917],[-87.829,14.904],[-87.851,14.903],[-87.856,14.887],[-87.876,14.876],[-87.884,14.86],[-87.972,14.8],[-87.972,14.814],[-87.966,14.818],[-87.97,14.828],[-87.965,14.828],[-87.968,14.844],[-87.958,14.849],[-87.953,14.871],[-87.941,14.883],[-87.94,14.89],[-87.953,14.893],[-87.961,14.911],[-87.976,14.91],[-87.976,14.923],[-87.996,14.936],[-88.02,14.939],[-88.027,14.938],[-88.029,14.932],[-88.061,14.929],[-88.05,14.994],[-88.041,15.001],[-88.03,15.044]],[[-88.109,15.712],[-88.108,15.711],[-88.108,15.712],[-88.109,15.712]],[[-87.951,14.898],[-87.95,14.899],[-87.951,14.899],[-87.951,14.898]]],[[[-87.943,14.887],[-87.942,14.886],[-87.943,14.886],[-87.943,14.887]]]]}},{"type":"Feature","properties":{"cve_ent":"HN06","nombre":"Choluteca"},"geometry":{"type":"MultiPolygon","coordinates":[[[[-87.43,13.107],[-87.428,13.104],[-87.429,13.101],[-87.43,13.107]]],[[[-87.429,13.109],[-87.428,13.108],[-87.429,13.107],[-87.429,13.109]]],[[[-87.308,12.988],[-87.301,13.011],[-87.31,13.023],[-87.344,13.044],[-87.368,13.08],[-87.339,13.093],[-87.389,13.116],[-87.393,13.111],[-87.425,13.116],[-87.428,13.109],[-87.431,13.163],[-87.458,13.219],[-87.454,13.231],[-87.488,13.265],[-87.504,13.272],[-87.514,13.266],[-87.508,13.292],[-87.47,13.313],[-87.464,13.328],[-87.467,13.342],[-87.456,13.342],[-87.457,13.356],[-87.424,13.352],[-87.411,13.37],[-87.39,13.369],[-87.38,13.399],[-87.355,13.406],[-87.349,13.428],[-87.343,13.43],[-87.345,13.442],[-87.339,13.444],[-87.367,13.487],[-87.36,13.523],[-87.392,13.535],[-87.416,13.577],[-87.411,13.583],[-87.428,13.592],[-87.41,13.637],[-87.45,13.656],[-87.465,13.683],[-87.451,13.728],[-87.456,13.754],[-87.419,13.758],[-87.399,13.749],[-87.381,13.755],[-87.395,13.733],[-87.395,13.719],[-87.386,13.718],[-87.379,13.704],[-87.363,13.7],[-87.36,13.684],[-87.312,13.691],[-87.29,13.678],[-87.277,13.686],[-87.268,13.678],[-87.265,13.687],[-87.253,13.688],[-87.212,13.668],[-87.225,13.616],[-87.201,13.614],[-87.185,13.594],[-87.185,13.563],[-87.17,13.549],[-87.111,13.554],[-87.114,13.533],[-87.106,13.527],[-87.108,13.518],[-87.081,13.502],[-87.08,13.511],[-87.066,13.501],[-87.052,13.521],[-87.027,13.524],[-87.026,13.539],[-87.011,13.546],[-87.005,13.56],[-87.011,13.57],[-86.991,13.586],[-86.975,13.586],[-86.94,13.619],[-86.932,13.637],[-86.931,13.661],[-86.923,13.65],[-86.887,13.656],[-86.885,13.647],[-86.85,13.663],[-86.839,13.68],[-86.821,13.684],[-86.806,13.672],[-86.79,13.703],[-86.784,13.695],[-86.77,13.7],[-86.786,13.662],[-86.768,13.651],[-86.755,13.652],[-86.749,13.64],[-86.77,13.576],[-86.751,13.565],[-86.742,13.487],[-86.721,13.436],[-86.744,13.408],[-86.744,13.4],[-86.737,13.381],[-86.719,13.381],[-86.707,13.366],[-86.711,13.359],[-86.706,13.302],[-86.754,13.267],[-86.793,13.299],[-86.83,13.313],[-86.85,13.3],[-86.868,13.304],[-86.875,13.28],[-86.909,13.269],[-86.915,13.262],[-86.906,13.254],[-86.914,13.234],[-86.909,13.224],[-86.922,13.225],[-86.915,13.213],[-86.934,13.18],[-86.914,13.158],[-86.914,13.151],[-86.925,13.147],[-86.924,13.132],[-86.935,13.126],[-86.927,13.12],[-86.928,13.102],[-86.916,13.101],[-86.918,13.092],[-86.954,13.064],[-86.959,13.053],[-86.955,13.038],[-86.968,13.033],[-86.972,13.019],[-86.99,13.024],[-87.02,12.999],[-87.017,13.006],[-87.023,13.009],[-87.027,12.987],[-87.049,12.989],[-87.052,12.984],[-87.049,12.993],[-87.06,12.993],[-87.064,13.002],[-87.308,12.988]]],[[[-87.05,12.984],[-87.051,12.982],[-87.051,12.984],[-87.05,12.984]]]]}},{"type":"Feature","properties":{"cve_ent":"HN07","nombre":"El Paraíso"},"geometry":{"type":"Polygon","coordinates":[[[-87.051,13.521],[-87.063,13.502],[-87.08,13.511],[-87.081,13.502],[-87.108,13.518],[-87.106,13.527],[-87.114,13.533],[-87.111,13.554],[-87.141,13.548],[-87.154,13.553],[-87.172,13.55],[-87.185,13.563],[-87.184,13.592],[-87.201,13.614],[-87.225,13.616],[-87.212,13.668],[-87.184,13.686],[-87.124,13.653],[-87.132,13.672],[-87.116,13.698],[-87.1013,13.709],[-87.12,13.741],[-87.112,13.77],[-87.123,13.78],[-87.107,13.802],[-87.113,13.809],[-87.087,13.79],[-87.08,13.775],[-87.031,13.772],[-87.031,13.763],[-87.016,13.776],[-86.99,13.845],[-86.996,13.859],[-86.986,13.887],[-86.997,13.913],[-86.981,13.934],[-86.991,13.962],[-86.983,13.968],[-86.978,13.959],[-86.951,13.95],[-86.914,13.989],[-86.919,14.001],[-86.911,14.002],[-86.91,14.053],[-86.945,14.064],[-86.947,14.085],[-86.971,14.101],[-86.988,14.125],[-86.973,14.143],[-86.914,14.13],[-86.897,14.161],[-86.92,14.172],[-86.926,14.167],[-86.924,14.175],[-86.931,14.181],[-86.902,14.194],[-86.897,14.232],[-86.869,14.253],[-86.842,14.292],[-86.827,14.295],[-86.831,14.333],[-86.713,14.423],[-86.71,14.416],[-86.695,14.418],[-86.669,14.409],[-86.67,14.404],[-86.656,14.397],[-86.649,14.409],[-86.628,14.407],[-86.627,14.398],[-86.615,14.394],[-86.607,14.373],[-86.598,14.382],[-86.522,14.364],[-86.515,14.353],[-86.508,14.353],[-86.503,14.337],[-86.464,14.333],[-86.448,14.314],[-86.441,14.289],[-86.367,14.282],[-86.353,14.282],[-86.35,14.288],[-86.338,14.283],[-86.295,14.319],[-86.258,14.334],[-86.249,14.345],[-86.186,14.361],[-86.148,14.266],[-86.078,14.247],[-86.069,14.247],[-86.071,14.265],[-86.062,14.272],[-86.017,14.261],[-85.999,14.228],[-85.994,14.187],[-85.981,14.178],[-85.94,14.17],[-85.952,14.135],[-85.949,14.123],[-85.936,14.129],[-85.926,14.143],[-85.906,14.126],[-85.877,14.133],[-85.872,14.164],[-85.829,14.188],[-85.808,14.163],[-85.782,14.161],[-85.765,14.199],[-85.748,14.189],[-85.712,14.19],[-85.667,14.173],[-85.653,14.192],[-85.614,14.152],[-85.604,14.133],[-85.61,14.096],[-85.586,14.08],[-85.578,14.083],[-85.569,14.071],[-85.579,14.059],[-85.577,14.044],[-85.591,14.045],[-85.612,14.021],[-85.624,14.022],[-85.624,14.009],[-85.665,14.013],[-85.668,13.986],[-85.677,13.98],[-85.689,13.99],[-85.709,13.993],[-85.732,13.97],[-85.754,13.967],[-85.752,13.957],[-85.758,13.951],[-85.752,13.928],[-85.764,13.885],[-85.74,13.872],[-85.733,13.861],[-85.742,13.853],[-85.738,13.843],[-85.752,13.832],[-85.755,13.846],[-85.76,13.843],[-85.766,13.849],[-85.785,13.842],[-85.819,13.848],[-85.821,13.858],[-85.827,13.858],[-85.827,13.87],[-85.842,13.884],[-85.836,13.905],[-85.842,13.906],[-85.839,13.911],[-85.845,13.917],[-85.882,13.929],[-85.892,13.916],[-85.893,13.903],[-85.914,13.908],[-85.918,13.937],[-85.922,13.931],[-85.953,13.95],[-85.964,13.95],[-85.966,13.959],[-85.98,13.967],[-85.996,13.963],[-86.002,13.977],[-86.027,13.998],[-86.043,13.995],[-86.009,14.056],[-86.004,14.07],[-86.012,14.079],[-86.039,14.076],[-86.042,14.069],[-86.076,14.069],[-86.077,14.063],[-86.108,14.057],[-86.12,14.043],[-86.135,14.049],[-86.134,14.043],[-86.155,14.034],[-86.157,14.024],[-86.141,14.008],[-86.142,13.998],[-86.149,13.999],[-86.17,13.979],[-86.187,13.986],[-86.193,13.98],[-86.185,13.955],[-86.196,13.955],[-86.201,13.935],[-86.216,13.937],[-86.228,13.92],[-86.221,13.915],[-86.228,13.906],[-86.242,13.905],[-86.247,13.888],[-86.258,13.886],[-86.256,13.88],[-86.278,13.876],[-86.282,13.855],[-86.298,13.853],[-86.303,13.839],[-86.294,13.825],[-86.298,13.815],[-86.304,13.815],[-86.305,13.806],[-86.316,13.804],[-86.315,13.793],[-86.335,13.769],[-86.365,13.763],[-86.379,13.771],[-86.385,13.762],[-86.417,13.758],[-86.427,13.766],[-86.443,13.766],[-86.453,13.79],[-86.472,13.772],[-86.479,13.771],[-86.482,13.777],[-86.483,13.771],[-86.492,13.769],[-86.523,13.78],[-86.523,13.789],[-86.538,13.805],[-86.548,13.797],[-86.561,13.802],[-86.585,13.784],[-86.595,13.788],[-86.61,13.781],[-86.628,13.788],[-86.644,13.776],[-86.652,13.779],[-86.659,13.774],[-86.667,13.784],[-86.723,13.787],[-86.767,13.765],[-86.772,13.752],[-86.761,13.723],[-86.77,13.7],[-86.784,13.695],[-86.79,13.703],[-86.806,13.672],[-86.821,13.684],[-86.839,13.68],[-86.85,13.663],[-86.885,13.647],[-86.887,13.656],[-86.923,13.65],[-86.931,13.661],[-86.932,13.637],[-86.94,13.619],[-86.975,13.586],[-86.991,13.586],[-87.011,13.57],[-87.005,13.56],[-87.011,13.546],[-87.026,13.539],[-87.027,13.524],[-87.051,13.521]],[[-86.989,13.847],[-86.99,13.848],[-86.99,13.847],[-86.989,13.847]],[[-86.983,13.963],[-86.984,13.962],[-86.983,13.962],[-86.983,13.963]],[[-86.919,14.186],[-86.918,14.185],[-86.918,14.186],[-86.919,14.186]],[[-87.101,13.71],[-87.101,13.7092],[-87.1,13.71],[-87.101,13.71]],[[-86.568,13.944],[-86.556,13.961],[-86.567,13.946],[-86.568,13.944]]]}},{"type":"Feature","properties":{"cve_ent":"HN08","nombre":"Francisco Morazán"},"geometry":{"type":"MultiPolygon","coordinates":[[[[-87.459,13.67],[-87.518,13.691],[-87.544,13.717],[-87.584,13.713],[-87.63,13.741],[-87.649,13.744],[-87.65,13.75],[-87.642,13.787],[-87.645,13.83],[-87.615,13.873],[-87.615,13.891],[-87.602,13.897],[-87.6,13.945],[-87.591,13.966],[-87.599,13.972],[-87.592,13.981],[-87.605,14.001],[-87.604,14.034],[-87.617,14.108],[-87.581,14.144],[-87.542,14.134],[-87.491,14.17],[-87.498,14.181],[-87.472,14.211],[-87.433,14.215],[-87.425,14.224],[-87.43,14.245],[-87.461,14.264],[-87.468,14.327],[-87.464,14.335],[-87.451,14.339],[-87.437,14.335],[-87.402,14.345],[-87.385,14.394],[-87.396,14.416],[-87.42,14.423],[-87.407,14.425],[-87.402,14.45],[-87.414,14.447],[-87.44,14.473],[-87.455,14.476],[-87.469,14.524],[-87.408,14.575],[-87.404,14.623],[-87.366,14.617],[-87.366,14.61],[-87.359,14.607],[-87.336,14.607],[-87.332,14.632],[-87.326,14.632],[-87.331,14.641],[-87.324,14.646],[-87.33,14.666],[-87.313,14.663],[-87.318,14.666],[-87.315,14.678],[-87.306,14.675],[-87.294,14.687],[-87.284,14.686],[-87.265,14.699],[-87.271,14.703],[-87.265,14.711],[-87.268,14.725],[-87.256,14.725],[-87.249,14.753],[-87.254,14.767],[-87.251,14.788],[-87.266,14.811],[-87.263,14.829],[-87.246,14.846],[-87.211,14.847],[-87.209,14.858],[-87.223,14.875],[-87.214,14.882],[-87.208,14.875],[-87.199,14.876],[-87.193,14.892],[-87.199,14.896],[-87.197,14.907],[-87.217,14.912],[-87.208,14.925],[-87.214,14.949],[-87.2,14.962],[-87.185,14.97],[-87.187,15.011],[-87.174,15.029],[-87.162,15.025],[-87.137,15.028],[-87.135,15.033],[-87.107,15.032],[-87.082,15.017],[-87.031,15.025],[-86.991,15.015],[-86.97,14.976],[-86.933,14.962],[-86.931,14.952],[-86.903,14.939],[-86.914,14.934],[-86.925,14.918],[-86.923,14.907],[-86.936,14.897],[-86.929,14.868],[-86.919,14.864],[-86.904,14.826],[-86.911,14.823],[-86.909,14.807],[-86.891,14.799],[-86.894,14.796],[-86.901,14.771],[-86.879,14.746],[-86.851,14.664],[-86.829,14.642],[-86.806,14.64],[-86.796,14.63],[-86.797,14.623],[-86.762,14.599],[-86.76,14.586],[-86.74,14.577],[-86.751,14.532],[-86.743,14.51],[-86.729,14.506],[-86.734,14.479],[-86.711,14.433],[-86.713,14.423],[-86.831,14.332],[-86.827,14.295],[-86.842,14.292],[-86.869,14.253],[-86.897,14.232],[-86.902,14.194],[-86.931,14.181],[-86.924,14.175],[-86.926,14.167],[-86.92,14.172],[-86.897,14.161],[-86.914,14.13],[-86.973,14.143],[-86.988,14.125],[-86.971,14.101],[-86.947,14.085],[-86.945,14.064],[-86.91,14.053],[-86.911,14.002],[-86.919,14.001],[-86.914,13.989],[-86.951,13.95],[-86.978,13.959],[-86.983,13.968],[-86.991,13.962],[-86.981,13.934],[-86.997,13.913],[-86.986,13.887],[-86.996,13.859],[-86.99,13.845],[-87.023,13.767],[-87.031,13.763],[-87.031,13.772],[-87.08,13.775],[-87.087,13.79],[-87.113,13.809],[-87.107,13.802],[-87.123,13.78],[-87.112,13.77],[-87.12,13.741],[-87.1013,13.709],[-87.116,13.698],[-87.132,13.672],[-87.124,13.653],[-87.184,13.686],[-87.212,13.668],[-87.253,13.688],[-87.265,13.687],[-87.268,13.678],[-87.275,13.686],[-87.29,13.678],[-87.312,13.691],[-87.36,13.684],[-87.363,13.7],[-87.379,13.704],[-87.386,13.718],[-87.395,13.719],[-87.395,13.733],[-87.381,13.755],[-87.403,13.749],[-87.419,13.758],[-87.452,13.757],[-87.456,13.754],[-87.451,13.728],[-87.465,13.683],[-87.459,13.67]],[[-87.289,13.769],[-87.319,13.777],[-87.292,13.769],[-87.289,13.769]]],[[[-87.412,14.574],[-87.413,14.575],[-87.412,14.575],[-87.412,14.574]]],[[[-87.1,13.71],[-87.101,13.7092],[-87.101,13.71],[-87.1,13.71]]],[[[-87.19,14.967],[-87.19,14.966],[-87.191,14.966],[-87.19,14.967]]],[[[-86.99,13.847],[-86.99,13.848],[-86.989,13.847],[-86.99,13.847]]],[[[-86.983,13.962],[-86.984,13.963],[-86.983,13.963],[-86.983,13.962]]],[[[-86.919,14.186],[-86.918,14.185],[-86.919,14.185],[-86.919,14.186]]],[[[-86.894,14.794],[-86.893,14.793],[-86.894,14.793],[-86.894,14.794]]]]}},{"type":"Feature","properties":{"cve_ent":"HN09","nombre":"Gracias a Dios"},"geometry":{"type":"MultiPolygon","coordinates":[[[[-84.79,14.816],[-84.817,14.829],[-84.847,14.824],[-84.847,14.818],[-84.858,14.812],[-84.899,14.816],[-84.932,14.771],[-84.924,14.767],[-84.928,14.759],[-84.961,14.758],[-85.0,14.725],[-85.0,15.982],[-84.921,15.959],[-84.847,15.922],[-84.713,15.879],[-84.462,15.828],[-84.306,15.817],[-84.087,15.641],[-83.925,15.493],[-83.854,15.441],[-83.767,15.401],[-83.729,15.393],[-83.719,15.397],[-83.689,15.371],[-83.617,15.333],[-83.48,15.291],[-83.392,15.255],[-83.354,15.2],[-83.34,15.15],[-83.319,15.106],[-83.288,15.069],[-83.217,15.025],[-83.134,15.005],[-83.172,14.992],[-83.207,14.998],[-83.234,14.983],[-83.256,14.991],[-83.283,14.989],[-83.281,14.979],[-83.289,14.977],[-83.294,14.987],[-83.276,14.999],[-83.276,15.006],[-83.303,15.0],[-83.345,15.011],[-83.351,14.996],[-83.362,15.016],[-83.384,15.016],[-83.403,15.031],[-83.408,15.025],[-83.401,15.017],[-83.407,15.0],[-83.415,15.005],[-83.422,14.991],[-83.44,14.996],[-83.46,14.982],[-83.481,14.992],[-83.479,15.006],[-83.501,15.012],[-83.515,15.001],[-83.516,14.992],[-83.528,14.995],[-83.525,14.976],[-83.542,14.979],[-83.54,14.964],[-83.53,14.951],[-83.539,14.95],[-83.549,14.958],[-83.539,14.943],[-83.561,14.94],[-83.561,14.914],[-83.571,14.92],[-83.579,14.913],[-83.598,14.92],[-83.601,14.915],[-83.594,14.906],[-83.616,14.901],[-83.61,14.892],[-83.617,14.876],[-83.646,14.884],[-83.671,14.878],[-83.683,14.868],[-83.694,14.881],[-83.701,14.859],[-83.721,14.858],[-83.719,14.849],[-83.701,14.852],[-83.698,14.83],[-83.703,14.826],[-83.712,14.844],[-83.721,14.832],[-83.732,14.843],[-83.732,14.821],[-83.752,14.834],[-83.753,14.815],[-83.764,14.808],[-83.776,14.812],[-83.783,14.826],[-83.785,14.809],[-83.814,14.791],[-83.831,14.797],[-83.844,14.775],[-83.857,14.777],[-83.89,14.767],[-83.937,14.778],[-83.937,14.768],[-83.92,14.755],[-83.926,14.749],[-83.943,14.76],[-83.982,14.749],[-84.0,14.761],[-84.014,14.749],[-84.034,14.749],[-84.045,14.754],[-84.039,14.767],[-84.045,14.776],[-84.061,14.764],[-84.081,14.759],[-84.082,14.788],[-84.111,14.792],[-84.117,14.778],[-84.097,14.731],[-84.124,14.735],[-84.168,14.716],[-84.189,14.717],[-84.211,14.735],[-84.229,14.735],[-84.223,14.755],[-84.236,14.761],[-84.26,14.748],[-84.273,14.732],[-84.263,14.702],[-84.267,14.688],[-84.258,14.679],[-84.275,14.664],[-84.298,14.664],[-84.311,14.685],[-84.33,14.676],[-84.349,14.681],[-84.354,14.691],[-84.344,14.702],[-84.363,14.718],[-84.381,14.684],[-84.415,14.657],[-84.413,14.644],[-84.432,14.633],[-84.463,14.633],[-84.47,14.616],[-84.498,14.621],[-84.509,14.637],[-84.529,14.63],[-84.538,14.646],[-84.523,14.65],[-84.527,14.658],[-84.554,14.657],[-84.562,14.65],[-84.565,14.659],[-84.581,14.654],[-84.585,14.666],[-84.595,14.659],[-84.614,14.666],[-84.629,14.664],[-84.635,14.678],[-84.645,14.672],[-84.666,14.673],[-84.674,14.695],[-84.694,14.667],[-84.703,14.665],[-84.703,14.691],[-84.726,14.698],[-84.73,14.709],[-84.749,14.72],[-84.744,14.748],[-84.762,14.741],[-84.773,14.749],[-84.769,14.761],[-84.753,14.753],[-84.751,14.769],[-84.787,14.794],[-84.79,14.816]]],[[[-83.879,16.361],[-83.88,16.36],[-83.88,16.361],[-83.879,16.361]]],[[[-83.849,16.367],[-83.847,16.368],[-83.847,16.367],[-83.849,16.367]]],[[[-83.879,16.361],[-83.879,16.371],[-83.86,16.377],[-83.851,16.368],[-83.877,16.361],[-83.879,16.361]]],[[[-83.846,16.367],[-83.836,16.375],[-83.827,16.373],[-83.835,16.367],[-83.846,16.367]]]]}},{"type":"Feature","properties":{"cve_ent":"HN10","nombre":"Intibucá"},"geometry":{"type":"Polygon","coordinates":[[[-88.236,14.084],[-88.229,14.067],[-88.205,14.051],[-88.217,13.994],[-88.226,14.0],[-88.238,13.995],[-88.236,13.971],[-88.22,13.956],[-88.227,13.938],[-88.265,13.938],[-88.265,13.915],[-88.297,13.912],[-88.317,13.899],[-88.316,13.891],[-88.346,13.895],[-88.351,13.876],[-88.359,13.87],[-88.37,13.874],[-88.378,13.886],[-88.412,13.879],[-88.419,13.886],[-88.432,13.879],[-88.439,13.86],[-88.466,13.863],[-88.467,13.849],[-88.492,13.861],[-88.496,13.874],[-88.491,13.878],[-88.511,13.917],[-88.506,13.923],[-88.507,13.943],[-88.498,13.95],[-88.5,13.965],[-88.492,13.963],[-88.49,13.974],[-88.477,13.98],[-88.481,13.992],[-88.47,13.994],[-88.462,14.009],[-88.444,14.01],[-88.439,14.019],[-88.427,14.019],[-88.403,14.036],[-88.383,14.039],[-88.382,14.045],[-88.364,14.054],[-88.351,14.075],[-88.331,14.076],[-88.327,14.083],[-88.333,14.097],[-88.316,14.11],[-88.324,14.139],[-88.319,14.158],[-88.334,14.176],[-88.321,14.212],[-88.332,14.227],[-88.384,14.229],[-88.424,14.249],[-88.425,14.258],[-88.409,14.281],[-88.427,14.363],[-88.443,14.367],[-88.45,14.362],[-88.489,14.39],[-88.5,14.407],[-88.495,14.415],[-88.503,14.434],[-88.498,14.451],[-88.503,14.453],[-88.474,14.472],[-88.451,14.479],[-88.431,14.473],[-88.385,14.475],[-88.345,14.507],[-88.349,14.53],[-88.323,14.568],[-88.33,14.623],[-88.348,14.653],[-88.254,14.644],[-88.233,14.654],[-88.163,14.659],[-88.101,14.642],[-88.088,14.659],[-88.076,14.663],[-88.061,14.637],[-88.041,14.641],[-88.0,14.627],[-87.99,14.614],[-87.978,14.618],[-87.964,14.612],[-87.966,14.6],[-87.951,14.582],[-87.953,14.569],[-87.943,14.543],[-87.91,14.536],[-87.901,14.528],[-87.903,14.501],[-87.887,14.492],[-87.881,14.478],[-87.852,14.448],[-87.848,14.433],[-87.866,14.414],[-87.917,14.381],[-87.958,14.391],[-87.955,14.374],[-87.962,14.368],[-87.956,14.358],[-87.959,14.35],[-87.951,14.344],[-87.956,14.33],[-87.952,14.327],[-87.969,14.323],[-87.968,14.308],[-87.977,14.294],[-88.0,14.287],[-88.006,14.256],[-88.051,14.253],[-88.107,14.212],[-88.107,14.194],[-88.118,14.185],[-88.119,14.173],[-88.158,14.158],[-88.162,14.149],[-88.185,14.136],[-88.205,14.102],[-88.217,14.098],[-88.224,14.084],[-88.236,14.084]],[[-88.212,14.623],[-88.211,14.624],[-88.212,14.624],[-88.212,14.623]],[[-88.208,14.622],[-88.2063,14.622],[-88.208,14.623],[-88.208,14.622]],[[-88.206,14.621],[-88.2047,14.621],[-88.206,14.6218],[-88.206,14.621]],[[-88.203,14.62],[-88.203,14.62],[-88.203,14.62],[-88.203,14.62]],[[-88.1997,14.618],[-88.2,14.6182],[-88.2,14.618],[-88.1997,14.618]],[[-88.198,14.617],[-88.199,14.6176],[-88.199,14.617],[-88.198,14.617]],[[-88.195,14.616],[-88.1933,14.616],[-88.195,14.6164],[-88.195,14.616]],[[-88.191,14.615],[-88.1887,14.615],[-88.1916,14.6156],[-88.191,14.615]],[[-88.184,14.614],[-88.1853,14.6143],[-88.185,14.614],[-88.184,14.614]],[[-88.22,14.593],[-88.219,14.592],[-88.219,14.593],[-88.22,14.593]],[[-88.22,14.588],[-88.219,14.589],[-88.22,14.589],[-88.22,14.588]],[[-88.22,14.562],[-88.22,14.561],[-88.219,14.562],[-88.22,14.562]],[[-88.243,14.535],[-88.242,14.536],[-88.243,14.536],[-88.243,14.535]],[[-88.247,14.533],[-88.247,14.534],[-88.248,14.533],[-88.247,14.533]],[[-88.251,14.522],[-88.252,14.522],[-88.251,14.521],[-88.251,14.522]],[[-88.25,14.52],[-88.25,14.521],[-88.251,14.521],[-88.25,14.52]],[[-88.254,14.458],[-88.252,14.456],[-88.254,14.459],[-88.254,14.458]],[[-88.251,14.455],[-88.251,14.456],[-88.252,14.456],[-88.251,14.455]],[[-88.251,14.451],[-88.25,14.452],[-88.251,14.452],[-88.251,14.451]],[[-88.25,14.446],[-88.251,14.446],[-88.25,14.445],[-88.25,14.446]],[[-88.2457,14.414],[-88.246,14.415],[-88.246,14.414],[-88.2457,14.414]],[[-88.245,14.412],[-88.245,14.409],[-88.2433,14.407],[-88.245,14.412]],[[-88.206,14.344],[-88.223,14.353],[-88.218,14.35],[-88.206,14.344]],[[-88.028,14.29],[-88.027,14.29],[-88.027,14.291],[-88.028,14.29]],[[-88.042,14.312],[-88.041,14.312],[-88.042,14.313],[-88.042,14.312]],[[-88.062,14.335],[-88.069,14.339],[-88.044,14.32],[-88.062,14.335]],[[-88.068,14.34],[-88.069,14.34],[-88.069,14.339],[-88.068,14.34]],[[-88.066,14.34],[-88.067,14.341],[-88.067,14.34],[-88.066,14.34]],[[-88.065,14.341],[-88.066,14.342],[-88.066,14.341],[-88.065,14.341]],[[-88.065,14.343],[-88.066,14.344],[-88.066,14.343],[-88.065,14.343]],[[-88.061,14.345],[-88.062,14.346],[-88.062,14.345],[-88.061,14.345]],[[-88.06,14.351],[-88.061,14.352],[-88.061,14.35],[-88.06,14.351]],[[-88.059,14.354],[-88.06,14.355],[-88.06,14.353],[-88.059,14.354]],[[-88.058,14.356],[-88.059,14.357],[-88.059,14.356],[-88.058,14.356]],[[-88.058,14.357],[-88.057,14.358],[-88.058,14.358],[-88.058,14.357]],[[-88.054,14.357],[-88.055,14.358],[-88.055,14.357],[-88.054,14.357]],[[-88.057,14.37],[-88.058,14.369],[-88.057,14.369],[-88.057,14.37]],[[-88.058,14.37],[-88.059,14.371],[-88.059,14.37],[-88.058,14.37]],[[-88.058,14.374],[-88.059,14.373],[-88.058,14.373],[-88.058,14.374]],[[-88.057,14.374],[-88.057,14.375],[-88.058,14.375],[-88.058,14.374],[-88.057,14.374]],[[-88.056,14.377],[-88.057,14.378],[-88.057,14.376],[-88.056,14.377]],[[-88.058,14.38],[-88.057,14.379],[-88.057,14.38],[-88.058,14.38]],[[-88.058,14.383],[-88.059,14.382],[-88.058,14.382],[-88.058,14.383]],[[-88.063,14.392],[-88.062,14.392],[-88.063,14.393],[-88.063,14.392]],[[-88.066,14.404],[-88.067,14.403],[-88.066,14.403],[-88.066,14.404]],[[-88.066,14.405],[-88.067,14.406],[-88.067,14.405],[-88.066,14.405]],[[-88.065,14.406],[-88.064,14.407],[-88.066,14.407],[-88.065,14.406]],[[-88.065,14.409],[-88.064,14.408],[-88.064,14.409],[-88.065,14.409]],[[-88.063,14.411],[-88.064,14.412],[-88.064,14.411],[-88.063,14.411]],[[-88.062,14.413],[-88.063,14.414],[-88.063,14.413],[-88.062,14.413]],[[-88.061,14.414],[-88.06,14.416],[-88.061,14.416],[-88.061,14.414]],[[-88.06,14.416],[-88.059,14.417],[-88.06,14.417],[-88.06,14.416]],[[-88.058,14.419],[-88.059,14.418],[-88.058,14.418],[-88.058,14.419]],[[-88.057,14.42],[-88.058,14.42],[-88.058,14.419],[-88.057,14.42]],[[-88.054,14.421],[-88.055,14.422],[-88.055,14.421],[-88.054,14.421]],[[-88.052,14.422],[-88.053,14.423],[-88.053,14.422],[-88.052,14.422]],[[-88.013,14.272],[-88.012,14.273],[-88.013,14.273],[-88.013,14.272]],[[-88.144,14.619],[-88.143,14.62],[-88.144,14.62],[-88.144,14.619]],[[-88.15,14.618],[-88.149,14.617],[-88.149,14.618],[-88.15,14.618]],[[-88.153,14.616],[-88.154,14.617],[-88.154,14.616],[-88.153,14.616]],[[-88.16,14.609],[-88.161,14.61],[-88.161,14.609],[-88.16,14.609]],[[-88.161,14.604],[-88.16,14.605],[-88.161,14.605],[-88.161,14.604]],[[-88.163,14.601],[-88.162,14.602],[-88.163,14.602],[-88.163,14.601]],[[-88.15,14.567],[-88.149,14.567],[-88.163,14.601],[-88.15,14.567]],[[-88.15,14.566],[-88.152,14.566],[-88.152,14.565],[-88.15,14.566]],[[-88.155,14.558],[-88.156,14.562],[-88.155,14.557],[-88.155,14.558]],[[-88.1536,14.5556],[-88.154,14.556],[-88.155,14.557],[-88.1536,14.5556]],[[-88.151,14.545],[-88.152,14.554],[-88.151,14.5417],[-88.151,14.545]],[[-88.149,14.519],[-88.1501,14.5305],[-88.149,14.517],[-88.149,14.519]],[[-88.128,14.518],[-88.116,14.443],[-88.125,14.501],[-88.128,14.518]],[[-88.069,14.4305],[-88.069,14.431],[-88.116,14.443],[-88.069,14.4305]],[[-88.067,14.431],[-88.068,14.4303],[-88.067,14.43],[-88.067,14.431]],[[-88.063,14.428],[-88.064,14.43],[-88.065,14.43],[-88.063,14.428]],[[-88.063,14.428],[-88.062,14.427],[-88.062,14.428],[-88.063,14.428]],[[-88.058,14.426],[-88.057,14.425],[-88.057,14.426],[-88.058,14.426]],[[-88.056,14.425],[-88.056,14.424],[-88.055,14.424],[-88.056,14.425]],[[-88.055,14.423],[-88.054,14.423],[-88.055,14.424],[-88.055,14.423]]]}},{"type":"Feature","properties":{"cve_ent":"HN11","nombre":"Islas de la Bahía"},"geometry":{"type":"MultiPolygon","coordinates":[[[[-86.478,15.946],[-86.479,15.945],[-86.479,15.946],[-86.478,15.946]]],[[[-86.478,15.949],[-86.477,15.948],[-86.478,15.948],[-86.478,15.949]]],[[[-86.519,15.952],[-86.517,15.953],[-86.517,15.952],[-86.519,15.952]]],[[[-86.476,15.952],[-86.475,15.953],[-86.475,15.952],[-86.476,15.952]]],[[[-86.507,15.956],[-86.498,15.965],[-86.498,15.953],[-86.507,15.956]]],[[[-86.472,15.96],[-86.473,15.962],[-86.472,15.962],[-86.472,15.96]]],[[[-86.487,15.974],[-86.479,15.981],[-86.471,15.979],[-86.474,15.965],[-86.487,15.974]]],[[[-86.978,16.056],[-86.98,16.055],[-86.98,16.056],[-86.978,16.056]]],[[[-86.975,16.059],[-86.977,16.06],[-86.975,16.06],[-86.975,16.059]]],[[[-86.973,16.061],[-86.974,16.062],[-86.973,16.062],[-86.973,16.061]]],[[[-86.967,16.063],[-86.969,16.064],[-86.967,16.064],[-86.967,16.063]]],[[[-86.966,16.065],[-86.964,16.063],[-86.965,16.063],[-86.966,16.065]]],[[[-86.963,16.065],[-86.962,16.066],[-86.962,16.065],[-86.963,16.065]]],[[[-86.983,16.099],[-86.958,16.109],[-86.946,16.107],[-86.935,16.123],[-86.91,16.115],[-86.9,16.123],[-86.883,16.124],[-86.871,16.113],[-86.883,16.102],[-86.882,16.092],[-86.888,16.087],[-86.894,16.087],[-86.888,16.089],[-86.893,16.096],[-86.902,16.097],[-86.909,16.089],[-86.911,16.094],[-86.923,16.088],[-86.914,16.09],[-86.916,16.083],[-86.954,16.069],[-86.967,16.069],[-86.971,16.077],[-86.991,16.082],[-86.983,16.099]],[[-86.913,16.099],[-86.905,16.095],[-86.904,16.097],[-86.913,16.099]]],[[[-86.537,16.313],[-86.536,16.31],[-86.538,16.309],[-86.537,16.313]]],[[[-86.586,16.316],[-86.544,16.347],[-86.526,16.354],[-86.519,16.349],[-86.517,16.358],[-86.511,16.354],[-86.496,16.367],[-86.486,16.365],[-86.463,16.379],[-86.444,16.377],[-86.4,16.405],[-86.393,16.403],[-86.352,16.422],[-86.347,16.418],[-86.315,16.429],[-86.285,16.431],[-86.26,16.425],[-86.197,16.431],[-86.191,16.426],[-86.204,16.424],[-86.224,16.409],[-86.231,16.42],[-86.259,16.418],[-86.262,16.412],[-86.261,16.42],[-86.269,16.42],[-86.275,16.41],[-86.297,16.415],[-86.299,16.407],[-86.318,16.404],[-86.323,16.393],[-86.336,16.394],[-86.337,16.409],[-86.337,16.392],[-86.341,16.396],[-86.351,16.392],[-86.354,16.398],[-86.354,16.391],[-86.363,16.387],[-86.366,16.396],[-86.373,16.386],[-86.38,16.393],[-86.385,16.389],[-86.375,16.382],[-86.382,16.378],[-86.387,16.385],[-86.39,16.368],[-86.411,16.37],[-86.415,16.36],[-86.42,16.37],[-86.42,16.359],[-86.434,16.359],[-86.435,16.364],[-86.44,16.357],[-86.454,16.355],[-86.452,16.35],[-86.46,16.348],[-86.461,16.353],[-86.475,16.34],[-86.475,16.334],[-86.486,16.336],[-86.482,16.332],[-86.486,16.323],[-86.496,16.321],[-86.499,16.33],[-86.507,16.32],[-86.548,16.315],[-86.602,16.267],[-86.595,16.31],[-86.589,16.308],[-86.586,16.316]],[[-86.224,16.425],[-86.225,16.424],[-86.224,16.424],[-86.224,16.425]],[[-86.261,16.42],[-86.26,16.421],[-86.261,16.421],[-86.261,16.42]],[[-86.354,16.399],[-86.355,16.399],[-86.354,16.398],[-86.354,16.399]],[[-86.486,16.333],[-86.487,16.332],[-86.486,16.332],[-86.486,16.333]],[[-86.494,16.322],[-86.495,16.323],[-86.495,16.322],[-86.494,16.322]],[[-86.226,16.42],[-86.224,16.422],[-86.225,16.422],[-86.226,16.42]]],[[[-86.471,16.341],[-86.469,16.339],[-86.471,16.339],[-86.471,16.341]]],[[[-86.467,15.957],[-86.466,15.956],[-86.467,15.956],[-86.467,15.957]]],[[[-86.466,15.958],[-86.465,15.959],[-86.465,15.958],[-86.466,15.958]]],[[[-86.465,15.96],[-86.464,15.959],[-86.465,15.959],[-86.465,15.96]]],[[[-86.462,16.348],[-86.464,16.346],[-86.464,16.347],[-86.462,16.348]]],[[[-86.445,16.35],[-86.444,16.352],[-86.444,16.35],[-86.445,16.35]]],[[[-86.443,16.352],[-86.442,16.353],[-86.442,16.352],[-86.443,16.352]]],[[[-86.436,16.357],[-86.438,16.359],[-86.436,16.36],[-86.436,16.357]]],[[[-86.371,16.383],[-86.373,16.385],[-86.371,16.386],[-86.371,16.383]]],[[[-86.358,16.388],[-86.357,16.387],[-86.358,16.387],[-86.358,16.388]]],[[[-86.356,16.389],[-86.355,16.388],[-86.356,16.388],[-86.356,16.389]]],[[[-86.348,16.39],[-86.351,16.391],[-86.348,16.391],[-86.348,16.39]]],[[[-86.352,16.391],[-86.351,16.392],[-86.351,16.391],[-86.352,16.391]]],[[[-86.348,16.392],[-86.347,16.391],[-86.348,16.391],[-86.348,16.392]]],[[[-86.287,16.404],[-86.281,16.403],[-86.287,16.403],[-86.287,16.404]]],[[[-86.289,16.406],[-86.287,16.404],[-86.289,16.404],[-86.289,16.406]]],[[[-86.316,16.429],[-86.315,16.43],[-86.315,16.429],[-86.316,16.429]]],[[[-85.886,16.405],[-85.881,16.408],[-85.886,16.404],[-85.886,16.405]]],[[[-86.272,16.41],[-86.275,16.409],[-86.275,16.41],[-86.272,16.41]]],[[[-86.207,16.417],[-86.201,16.413],[-86.206,16.412],[-86.207,16.417]]],[[[-86.184,16.428],[-86.191,16.433],[-86.184,16.436],[-86.184,16.428]]],[[[-86.167,16.429],[-86.157,16.443],[-86.122,16.446],[-86.14,16.43],[-86.15,16.436],[-86.167,16.429]]],[[[-85.849,16.44],[-85.851,16.441],[-85.849,16.441],[-85.849,16.44]]],[[[-85.887,16.44],[-85.886,16.443],[-85.886,16.44],[-85.887,16.44]]],[[[-85.848,16.441],[-85.849,16.443],[-85.848,16.443],[-85.848,16.441]]],[[[-85.84,16.449],[-85.839,16.448],[-85.84,16.448],[-85.84,16.449]]],[[[-85.867,16.452],[-85.865,16.453],[-85.865,16.452],[-85.867,16.452]]],[[[-85.83,16.46],[-85.829,16.459],[-85.83,16.459],[-85.83,16.46]]],[[[-85.95,16.408],[-85.931,16.454],[-85.915,16.452],[-85.914,16.469],[-85.888,16.501],[-85.876,16.505],[-85.868,16.5],[-85.867,16.51],[-85.857,16.517],[-85.842,16.514],[-85.848,16.506],[-85.831,16.503],[-85.822,16.509],[-85.823,16.502],[-85.816,16.499],[-85.819,16.492],[-85.84,16.484],[-85.853,16.486],[-85.848,16.468],[-85.858,16.454],[-85.878,16.456],[-85.892,16.444],[-85.904,16.443],[-85.897,16.438],[-85.933,16.411],[-85.947,16.403],[-85.95,16.408]]],[[[-85.827,16.469],[-85.826,16.467],[-85.828,16.467],[-85.827,16.469]]],[[[-85.824,16.47],[-85.825,16.472],[-85.824,16.472],[-85.824,16.47]]],[[[-85.822,16.48],[-85.821,16.481],[-85.821,16.48],[-85.822,16.48]]],[[[-85.907,16.481],[-85.906,16.482],[-85.906,16.481],[-85.907,16.481]]]]}},{"type":"Feature","properties":{"cve_ent":"HN12","nombre":"La Paz"},"geometry":{"type":"Polygon","coordinates":[[[-87.799,13.891],[-87.803,13.921],[-87.831,13.919],[-87.844,13.898],[-87.856,13.894],[-87.881,13.903],[-87.907,13.902],[-87.914,13.898],[-87.912,13.893],[-87.922,13.894],[-87.922,13.885],[-87.933,13.894],[-87.952,13.892],[-87.96,13.903],[-87.964,13.893],[-87.987,13.888],[-88.006,13.871],[-88.013,13.872],[-88.016,13.892],[-88.044,13.923],[-88.046,13.933],[-88.064,13.944],[-88.073,13.993],[-88.11,14.001],[-88.164,13.984],[-88.197,13.997],[-88.217,13.994],[-88.205,14.051],[-88.216,14.063],[-88.225,14.063],[-88.237,14.082],[-88.228,14.088],[-88.224,14.084],[-88.217,14.098],[-88.205,14.102],[-88.185,14.136],[-88.162,14.149],[-88.158,14.158],[-88.119,14.173],[-88.118,14.185],[-88.107,14.194],[-88.107,14.212],[-88.056,14.251],[-88.007,14.255],[-88.0,14.287],[-87.977,14.294],[-87.968,14.308],[-87.969,14.323],[-87.952,14.327],[-87.956,14.33],[-87.951,14.344],[-87.959,14.35],[-87.956,14.358],[-87.962,14.368],[-87.955,14.374],[-87.958,14.391],[-87.917,14.381],[-87.855,14.427],[-87.836,14.395],[-87.789,14.392],[-87.783,14.374],[-87.754,14.372],[-87.701,14.347],[-87.658,14.373],[-87.649,14.368],[-87.646,14.372],[-87.647,14.362],[-87.637,14.354],[-87.641,14.349],[-87.635,14.341],[-87.64,14.333],[-87.637,14.317],[-87.626,14.314],[-87.635,14.304],[-87.624,14.286],[-87.629,14.287],[-87.632,14.277],[-87.641,14.279],[-87.636,14.271],[-87.643,14.264],[-87.663,14.267],[-87.669,14.257],[-87.67,14.263],[-87.678,14.258],[-87.681,14.266],[-87.701,14.25],[-87.714,14.253],[-87.734,14.247],[-87.74,14.237],[-87.776,14.235],[-87.781,14.244],[-87.816,14.229],[-87.818,14.235],[-87.833,14.223],[-87.825,14.2],[-87.788,14.19],[-87.769,14.163],[-87.785,14.153],[-87.786,14.138],[-87.738,14.131],[-87.714,14.095],[-87.697,14.104],[-87.687,14.084],[-87.692,14.068],[-87.688,14.048],[-87.661,14.071],[-87.654,14.085],[-87.615,14.088],[-87.604,14.034],[-87.605,14.001],[-87.592,13.981],[-87.599,13.972],[-87.591,13.966],[-87.6,13.945],[-87.602,13.897],[-87.615,13.891],[-87.615,13.873],[-87.645,13.83],[-87.669,13.834],[-87.68,13.846],[-87.705,13.852],[-87.745,13.841],[-87.75,13.86],[-87.799,13.891]]]}},{"type":"Feature","properties":{"cve_ent":"HN13","nombre":"Lempira"},"geometry":{"type":"MultiPolygon","coordinates":[[[[-88.607,14.005],[-88.627,14.023],[-88.641,14.017],[-88.663,14.025],[-88.67,14.01],[-88.683,14.011],[-88.681,14.021],[-88.69,14.03],[-88.711,14.036],[-88.739,14.058],[-88.731,14.102],[-88.742,14.117],[-88.774,14.103],[-88.831,14.106],[-88.84,14.131],[-88.848,14.132],[-88.849,14.149],[-88.859,14.153],[-88.861,14.173],[-88.873,14.184],[-88.901,14.191],[-88.903,14.206],[-88.942,14.203],[-88.971,14.212],[-88.974,14.22],[-88.966,14.233],[-88.973,14.257],[-88.966,14.273],[-88.982,14.3],[-88.956,14.313],[-88.947,14.326],[-88.948,14.342],[-88.918,14.344],[-88.887,14.356],[-88.879,14.369],[-88.88,14.412],[-88.859,14.407],[-88.855,14.397],[-88.836,14.384],[-88.806,14.385],[-88.826,14.404],[-88.82,14.427],[-88.796,14.413],[-88.737,14.441],[-88.74,14.452],[-88.731,14.462],[-88.734,14.476],[-88.716,14.511],[-88.715,14.534],[-88.722,14.544],[-88.752,14.541],[-88.777,14.55],[-88.759,14.594],[-88.734,14.611],[-88.753,14.643],[-88.775,14.651],[-88.796,14.686],[-88.795,14.712],[-88.788,14.718],[-88.774,14.712],[-88.757,14.716],[-88.728,14.707],[-88.69,14.712],[-88.681,14.724],[-88.653,14.718],[-88.653,14.731],[-88.664,14.744],[-88.659,14.753],[-88.664,14.755],[-88.667,14.779],[-88.681,14.785],[-88.676,14.807],[-88.68,14.817],[-88.67,14.837],[-88.654,14.845],[-88.658,14.86],[-88.654,14.869],[-88.643,14.869],[-88.649,14.875],[-88.649,14.886],[-88.639,14.9],[-88.645,14.923],[-88.624,14.919],[-88.611,14.932],[-88.609,14.948],[-88.556,14.935],[-88.533,14.872],[-88.489,14.812],[-88.471,14.818],[-88.455,14.853],[-88.444,14.858],[-88.424,14.853],[-88.414,14.835],[-88.38,14.838],[-88.364,14.823],[-88.39,14.769],[-88.375,14.736],[-88.355,14.719],[-88.317,14.735],[-88.32,14.685],[-88.348,14.653],[-88.33,14.623],[-88.323,14.568],[-88.349,14.53],[-88.345,14.507],[-88.385,14.475],[-88.431,14.473],[-88.451,14.479],[-88.472,14.473],[-88.503,14.453],[-88.498,14.451],[-88.503,14.434],[-88.495,14.415],[-88.5,14.407],[-88.489,14.39],[-88.45,14.362],[-88.443,14.367],[-88.427,14.363],[-88.409,14.281],[-88.425,14.258],[-88.424,14.249],[-88.384,14.229],[-88.332,14.227],[-88.321,14.212],[-88.334,14.176],[-88.319,14.158],[-88.324,14.139],[-88.316,14.108],[-88.327,14.106],[-88.333,14.097],[-88.327,14.079],[-88.351,14.075],[-88.364,14.054],[-88.382,14.045],[-88.383,14.039],[-88.403,14.036],[-88.427,14.019],[-88.439,14.019],[-88.444,14.01],[-88.462,14.009],[-88.47,13.994],[-88.481,13.992],[-88.477,13.98],[-88.49,13.974],[-88.492,13.963],[-88.527,13.986],[-88.568,13.978],[-88.587,14.008],[-88.607,14.005]]],[[[-88.831,14.105],[-88.832,14.104],[-88.832,14.106],[-88.831,14.105]]]]}},{"type":"Feature","properties":{"cve_ent":"HN14","nombre":"Ocotepeque"},"geometry":{"type":"Polygon","coordinates":[[[-89.094,14.4],[-89.114,14.401],[-89.149,14.353],[-89.168,14.366],[-89.209,14.373],[-89.211,14.386],[-89.276,14.401],[-89.299,14.416],[-89.323,14.411],[-89.356,14.421],[-89.323,14.447],[-89.351,14.426],[-89.356,14.469],[-89.302,14.495],[-89.306,14.507],[-89.288,14.516],[-89.284,14.533],[-89.263,14.548],[-89.239,14.585],[-89.203,14.583],[-89.194,14.575],[-89.169,14.571],[-89.151,14.583],[-89.147,14.612],[-89.153,14.618],[-89.146,14.63],[-89.158,14.67],[-89.149,14.676],[-89.129,14.715],[-89.084,14.727],[-89.069,14.717],[-89.014,14.716],[-89.005,14.668],[-88.922,14.596],[-88.93,14.562],[-88.911,14.558],[-88.915,14.542],[-88.894,14.519],[-88.853,14.512],[-88.846,14.497],[-88.825,14.5],[-88.83,14.512],[-88.826,14.52],[-88.832,14.527],[-88.826,14.537],[-88.812,14.533],[-88.777,14.55],[-88.752,14.541],[-88.722,14.544],[-88.715,14.534],[-88.716,14.511],[-88.734,14.476],[-88.731,14.462],[-88.74,14.452],[-88.737,14.441],[-88.796,14.413],[-88.82,14.427],[-88.826,14.404],[-88.806,14.385],[-88.836,14.384],[-88.855,14.397],[-88.859,14.407],[-88.88,14.412],[-88.879,14.369],[-88.887,14.356],[-88.918,14.344],[-88.948,14.342],[-88.947,14.326],[-88.956,14.313],[-88.982,14.3],[-88.966,14.273],[-88.973,14.257],[-88.968,14.226],[-88.992,14.259],[-89.014,14.271],[-89.025,14.27],[-89.022,14.314],[-89.035,14.316],[-89.035,14.332],[-89.083,14.341],[-89.084,14.382],[-89.094,14.4]]]}},{"type":"Feature","properties":{"cve_ent":"HN15","nombre":"Olancho"},"geometry":{"type":"Polygon","coordinates":[[[-86.71,14.416],[-86.711,14.433],[-86.734,14.479],[-86.729,14.506],[-86.743,14.51],[-86.751,14.532],[-86.74,14.577],[-86.76,14.586],[-86.762,14.599],[-86.797,14.623],[-86.796,14.63],[-86.806,14.64],[-86.829,14.642],[-86.851,14.664],[-86.879,14.746],[-86.901,14.771],[-86.894,14.796],[-86.891,14.799],[-86.909,14.807],[-86.911,14.823],[-86.904,14.826],[-86.919,14.864],[-86.929,14.868],[-86.936,14.897],[-86.923,14.907],[-86.925,14.918],[-86.914,14.934],[-86.903,14.939],[-86.931,14.952],[-86.933,14.962],[-86.961,14.969],[-86.99,15.005],[-86.99,15.018],[-86.968,15.044],[-86.925,15.04],[-86.919,15.068],[-86.882,15.083],[-86.886,15.103],[-86.88,15.104],[-86.881,15.119],[-86.862,15.141],[-86.868,15.147],[-86.856,15.17],[-86.868,15.24],[-86.857,15.258],[-86.848,15.257],[-86.82,15.272],[-86.818,15.285],[-86.793,15.279],[-86.774,15.296],[-86.762,15.289],[-86.753,15.27],[-86.701,15.265],[-86.664,15.284],[-86.665,15.292],[-86.65,15.303],[-86.646,15.336],[-86.634,15.341],[-86.616,15.337],[-86.596,15.353],[-86.55,15.369],[-86.517,15.391],[-86.501,15.386],[-86.475,15.395],[-86.476,15.406],[-86.438,15.4],[-86.426,15.383],[-86.428,15.377],[-86.411,15.37],[-86.404,15.373],[-86.391,15.347],[-86.397,15.326],[-86.382,15.323],[-86.291,15.375],[-86.279,15.374],[-86.232,15.408],[-86.165,15.369],[-86.151,15.367],[-86.14,15.375],[-86.129,15.372],[-86.117,15.378],[-86.105,15.391],[-86.093,15.385],[-86.09,15.398],[-86.053,15.395],[-86.045,15.384],[-86.03,15.386],[-86.029,15.397],[-86.013,15.396],[-86.007,15.405],[-86.0,15.403],[-85.994,15.412],[-85.968,15.421],[-85.968,15.437],[-85.959,15.449],[-85.948,15.46],[-85.935,15.459],[-85.892,15.497],[-85.896,15.517],[-85.887,15.528],[-85.866,15.529],[-85.865,15.523],[-85.835,15.516],[-85.814,15.544],[-85.788,15.551],[-85.785,15.578],[-85.762,15.586],[-85.747,15.57],[-85.714,15.568],[-85.701,15.572],[-85.673,15.596],[-85.544,15.471],[-85.378,15.403],[-85.237,15.215],[-85.098,15.181],[-85.0,15.071],[-85.0,14.724],[-85.029,14.703],[-85.021,14.692],[-85.028,14.672],[-85.046,14.672],[-85.051,14.662],[-85.051,14.651],[-85.032,14.647],[-85.024,14.634],[-85.026,14.625],[-85.043,14.61],[-85.022,14.607],[-85.043,14.575],[-85.087,14.552],[-85.102,14.556],[-85.122,14.586],[-85.152,14.572],[-85.142,14.563],[-85.14,14.552],[-85.148,14.544],[-85.139,14.522],[-85.15,14.485],[-85.185,14.467],[-85.18,14.429],[-85.188,14.425],[-85.192,14.407],[-85.201,14.408],[-85.206,14.386],[-85.221,14.377],[-85.219,14.368],[-85.196,14.365],[-85.194,14.351],[-85.199,14.346],[-85.193,14.329],[-85.182,14.333],[-85.181,14.315],[-85.153,14.302],[-85.158,14.288],[-85.177,14.271],[-85.188,14.248],[-85.198,14.257],[-85.241,14.252],[-85.268,14.262],[-85.284,14.261],[-85.294,14.25],[-85.313,14.256],[-85.341,14.249],[-85.342,14.232],[-85.356,14.232],[-85.364,14.212],[-85.37,14.214],[-85.369,14.225],[-85.381,14.224],[-85.384,14.219],[-85.375,14.216],[-85.374,14.197],[-85.381,14.197],[-85.375,14.183],[-85.399,14.163],[-85.401,14.145],[-85.395,14.139],[-85.405,14.134],[-85.404,14.124],[-85.426,14.117],[-85.429,14.107],[-85.445,14.106],[-85.456,14.114],[-85.467,14.093],[-85.478,14.095],[-85.479,14.084],[-85.494,14.088],[-85.494,14.076],[-85.506,14.089],[-85.507,14.064],[-85.522,14.06],[-85.52,14.047],[-85.562,14.051],[-85.555,14.064],[-85.568,14.063],[-85.578,14.083],[-85.586,14.08],[-85.61,14.096],[-85.604,14.133],[-85.614,14.152],[-85.653,14.192],[-85.667,14.173],[-85.712,14.19],[-85.748,14.189],[-85.765,14.199],[-85.782,14.161],[-85.808,14.163],[-85.829,14.188],[-85.872,14.164],[-85.877,14.133],[-85.906,14.126],[-85.926,14.143],[-85.936,14.129],[-85.949,14.123],[-85.952,14.135],[-85.94,14.17],[-85.981,14.178],[-85.994,14.187],[-85.999,14.228],[-86.017,14.261],[-86.062,14.272],[-86.071,14.265],[-86.069,14.247],[-86.078,14.247],[-86.148,14.266],[-86.186,14.361],[-86.249,14.345],[-86.258,14.334],[-86.295,14.319],[-86.338,14.283],[-86.35,14.288],[-86.353,14.282],[-86.367,14.282],[-86.441,14.289],[-86.448,14.314],[-86.464,14.333],[-86.503,14.337],[-86.508,14.353],[-86.515,14.353],[-86.522,14.364],[-86.598,14.382],[-86.607,14.373],[-86.615,14.394],[-86.627,14.398],[-86.628,14.407],[-86.649,14.409],[-86.656,14.397],[-86.67,14.404],[-86.669,14.409],[-86.695,14.418],[-86.71,14.416]],[[-86.894,14.794],[-86.893,14.793],[-86.893,14.794],[-86.894,14.794]]]}},{"type":"Feature","properties":{"cve_ent":"HN16","nombre":"Santa Bárbara"},"geometry":{"type":"Polygon","coordinates":[[[-88.355,14.719],[-88.375,14.736],[-88.39,14.769],[-88.364,14.823],[-88.38,14.838],[-88.414,14.835],[-88.424,14.853],[-88.444,14.858],[-88.455,14.853],[-88.471,14.818],[-88.489,14.812],[-88.533,14.872],[-88.556,14.935],[-88.611,14.948],[-88.611,14.932],[-88.624,14.919],[-88.645,14.923],[-88.67,14.913],[-88.693,14.927],[-88.704,14.954],[-88.681,15.003],[-88.676,15.047],[-88.656,15.069],[-88.638,15.075],[-88.644,15.1],[-88.665,15.118],[-88.659,15.151],[-88.647,15.157],[-88.669,15.173],[-88.679,15.172],[-88.689,15.196],[-88.721,15.221],[-88.71,15.246],[-88.758,15.295],[-88.678,15.343],[-88.611,15.409],[-88.592,15.422],[-88.57,15.427],[-88.562,15.444],[-88.473,15.514],[-88.411,15.547],[-88.247,15.501],[-88.238,15.486],[-88.242,15.469],[-88.236,15.461],[-88.242,15.434],[-88.23,15.414],[-88.192,15.402],[-88.186,15.387],[-88.177,15.387],[-88.165,15.373],[-88.15,15.378],[-88.131,15.37],[-88.126,15.267],[-88.113,15.25],[-88.104,15.219],[-88.06,15.211],[-88.066,15.193],[-88.081,15.186],[-88.082,15.174],[-88.121,15.135],[-88.088,15.091],[-88.076,15.09],[-88.065,15.072],[-88.054,15.072],[-88.044,15.053],[-88.026,15.049],[-88.034,15.041],[-88.041,15.001],[-88.05,14.994],[-88.061,14.929],[-88.031,14.934],[-88.042,14.918],[-88.038,14.911],[-88.033,14.914],[-88.029,14.887],[-88.006,14.882],[-87.999,14.873],[-88.015,14.82],[-88.004,14.796],[-87.996,14.794],[-88.033,14.763],[-88.051,14.758],[-88.086,14.718],[-88.087,14.712],[-88.073,14.708],[-88.057,14.682],[-88.101,14.642],[-88.163,14.659],[-88.233,14.654],[-88.254,14.644],[-88.348,14.653],[-88.32,14.685],[-88.317,14.735],[-88.355,14.719]],[[-88.04,14.912],[-88.042,14.913],[-88.042,14.912],[-88.04,14.912]],[[-88.604,15.298],[-88.602,15.297],[-88.601,15.297],[-88.604,15.298]],[[-88.038,14.91],[-88.039,14.909],[-88.038,14.909],[-88.038,14.91]],[[-88.039,14.91],[-88.04,14.911],[-88.04,14.91],[-88.039,14.91]],[[-88.031,14.887],[-88.032,14.888],[-88.032,14.887],[-88.031,14.887]]]}},{"type":"Feature","properties":{"cve_ent":"HN17","nombre":"Valle"},"geometry":{"type":"MultiPolygon","coordinates":[[[[-87.661,13.278],[-87.655,13.295],[-87.64,13.298],[-87.626,13.288],[-87.619,13.291],[-87.612,13.274],[-87.615,13.257],[-87.631,13.249],[-87.66,13.251],[-87.661,13.278]]],[[[-87.664,13.276],[-87.667,13.278],[-87.664,13.277],[-87.664,13.276]]],[[[-87.632,13.298],[-87.629,13.296],[-87.632,13.296],[-87.632,13.298]]],[[[-87.701,13.308],[-87.7,13.309],[-87.7,13.308],[-87.701,13.308]]],[[[-87.7,13.315],[-87.706,13.312],[-87.706,13.315],[-87.7,13.315]]],[[[-87.678,13.304],[-87.685,13.315],[-87.675,13.331],[-87.667,13.317],[-87.677,13.313],[-87.678,13.304]]],[[[-87.714,13.321],[-87.712,13.323],[-87.713,13.321],[-87.714,13.321]]],[[[-87.721,13.327],[-87.719,13.325],[-87.722,13.324],[-87.721,13.327]]],[[[-87.71,13.335],[-87.705,13.328],[-87.717,13.328],[-87.72,13.335],[-87.71,13.335]]],[[[-87.741,13.348],[-87.743,13.347],[-87.743,13.348],[-87.741,13.348]]],[[[-87.658,13.354],[-87.659,13.354],[-87.658,13.355],[-87.658,13.354]]],[[[-87.635,13.376],[-87.634,13.377],[-87.634,13.376],[-87.635,13.376]]],[[[-87.82,13.411],[-87.793,13.412],[-87.785,13.43],[-87.775,13.425],[-87.759,13.441],[-87.747,13.436],[-87.74,13.445],[-87.721,13.445],[-87.72,13.505],[-87.733,13.511],[-87.747,13.506],[-87.754,13.519],[-87.762,13.508],[-87.781,13.511],[-87.778,13.52],[-87.793,13.526],[-87.781,13.535],[-87.787,13.543],[-87.779,13.565],[-87.783,13.572],[-87.772,13.575],[-87.769,13.595],[-87.754,13.604],[-87.755,13.69],[-87.732,13.715],[-87.726,13.732],[-87.737,13.748],[-87.73,13.75],[-87.709,13.787],[-87.712,13.815],[-87.742,13.83],[-87.746,13.838],[-87.731,13.848],[-87.705,13.852],[-87.68,13.846],[-87.669,13.834],[-87.645,13.83],[-87.642,13.787],[-87.649,13.744],[-87.63,13.741],[-87.584,13.713],[-87.544,13.717],[-87.518,13.691],[-87.466,13.675],[-87.45,13.656],[-87.41,13.637],[-87.428,13.592],[-87.411,13.583],[-87.416,13.577],[-87.392,13.535],[-87.36,13.523],[-87.367,13.487],[-87.339,13.445],[-87.345,13.442],[-87.343,13.43],[-87.349,13.428],[-87.355,13.406],[-87.381,13.401],[-87.382,13.395],[-87.392,13.405],[-87.404,13.404],[-87.397,13.407],[-87.398,13.415],[-87.41,13.422],[-87.419,13.416],[-87.423,13.418],[-87.425,13.413],[-87.423,13.414],[-87.42,13.413],[-87.428,13.397],[-87.447,13.416],[-87.459,13.418],[-87.468,13.404],[-87.479,13.41],[-87.485,13.402],[-87.482,13.397],[-87.508,13.382],[-87.511,13.384],[-87.512,13.369],[-87.503,13.372],[-87.502,13.36],[-87.518,13.359],[-87.519,13.357],[-87.519,13.356],[-87.519,13.349],[-87.532,13.344],[-87.559,13.357],[-87.547,13.373],[-87.559,13.367],[-87.569,13.369],[-87.569,13.38],[-87.593,13.382],[-87.587,13.388],[-87.618,13.375],[-87.612,13.393],[-87.599,13.396],[-87.6,13.407],[-87.604,13.411],[-87.607,13.411],[-87.607,13.42],[-87.608,13.402],[-87.615,13.41],[-87.63,13.413],[-87.63,13.418],[-87.613,13.42],[-87.619,13.439],[-87.62,13.437],[-87.625,13.438],[-87.6,13.463],[-87.612,13.46],[-87.622,13.467],[-87.647,13.463],[-87.647,13.455],[-87.657,13.455],[-87.658,13.443],[-87.661,13.451],[-87.667,13.452],[-87.662,13.442],[-87.677,13.434],[-87.681,13.428],[-87.667,13.435],[-87.652,13.431],[-87.656,13.427],[-87.65,13.414],[-87.665,13.404],[-87.659,13.391],[-87.672,13.393],[-87.674,13.383],[-87.68,13.383],[-87.684,13.38],[-87.676,13.379],[-87.68,13.37],[-87.693,13.373],[-87.694,13.366],[-87.716,13.364],[-87.718,13.357],[-87.745,13.353],[-87.742,13.367],[-87.752,13.359],[-87.765,13.377],[-87.786,13.378],[-87.77,13.387],[-87.769,13.397],[-87.772,13.388],[-87.794,13.383],[-87.8,13.387],[-87.797,13.393],[-87.808,13.398],[-87.82,13.411]],[[-87.392,13.405],[-87.391,13.407],[-87.392,13.407],[-87.392,13.405]],[[-87.403,13.42],[-87.401,13.42],[-87.401,13.421],[-87.403,13.42]],[[-87.421,13.418],[-87.42,13.419],[-87.421,13.419],[-87.421,13.418]],[[-87.423,13.418],[-87.425,13.419],[-87.425,13.418],[-87.423,13.418]],[[-87.426,13.419],[-87.425,13.421],[-87.426,13.421],[-87.426,13.419]],[[-87.425,13.413],[-87.427,13.412],[-87.425,13.409],[-87.425,13.413]],[[-87.464,13.419],[-87.456,13.423],[-87.461,13.425],[-87.464,13.419]],[[-87.464,13.419],[-87.465,13.418],[-87.464,13.418],[-87.464,13.419]],[[-87.476,13.41],[-87.474,13.41],[-87.468,13.409],[-87.465,13.41],[-87.472,13.412],[-87.476,13.41]],[[-87.467,13.412],[-87.467,13.417],[-87.471,13.42],[-87.476,13.419],[-87.475,13.416],[-87.479,13.416],[-87.474,13.415],[-87.472,13.419],[-87.467,13.412]],[[-87.48,13.409],[-87.485,13.41],[-87.485,13.409],[-87.48,13.409]],[[-87.485,13.409],[-87.486,13.408],[-87.485,13.408],[-87.485,13.409]],[[-87.486,13.408],[-87.487,13.404],[-87.486,13.404],[-87.486,13.408]],[[-87.51,13.384],[-87.509,13.385],[-87.51,13.385],[-87.51,13.384]],[[-87.544,13.352],[-87.543,13.353],[-87.544,13.353],[-87.544,13.352]],[[-87.556,13.357],[-87.556,13.358],[-87.557,13.357],[-87.556,13.357]],[[-87.567,13.382],[-87.568,13.376],[-87.567,13.376],[-87.567,13.382]],[[-87.569,13.382],[-87.568,13.384],[-87.569,13.384],[-87.569,13.382]],[[-87.587,13.384],[-87.586,13.383],[-87.586,13.384],[-87.587,13.384]],[[-87.586,13.383],[-87.585,13.382],[-87.585,13.383],[-87.586,13.383]],[[-87.585,13.384],[-87.58,13.384],[-87.58,13.385],[-87.585,13.384]],[[-87.58,13.386],[-87.578,13.385],[-87.578,13.388],[-87.58,13.386]],[[-87.579,13.388],[-87.58,13.389],[-87.58,13.388],[-87.579,13.388]],[[-87.581,13.389],[-87.58,13.391],[-87.583,13.392],[-87.581,13.389]],[[-87.583,13.392],[-87.584,13.393],[-87.584,13.392],[-87.583,13.392]],[[-87.582,13.393],[-87.578,13.394],[-87.576,13.397],[-87.578,13.398],[-87.582,13.393]],[[-87.576,13.396],[-87.575,13.395],[-87.575,13.396],[-87.576,13.396]],[[-87.575,13.395],[-87.574,13.394],[-87.574,13.395],[-87.575,13.395]],[[-87.575,13.394],[-87.577,13.393],[-87.575,13.392],[-87.575,13.394]],[[-87.598,13.385],[-87.599,13.386],[-87.599,13.385],[-87.598,13.385]],[[-87.658,13.455],[-87.657,13.457],[-87.658,13.457],[-87.658,13.455]],[[-87.66,13.457],[-87.659,13.458],[-87.66,13.459],[-87.66,13.457]],[[-87.679,13.432],[-87.68,13.433],[-87.68,13.432],[-87.679,13.432]],[[-87.684,13.434],[-87.684,13.439],[-87.688,13.44],[-87.684,13.434]],[[-87.681,13.429],[-87.682,13.43],[-87.682,13.429],[-87.681,13.429]],[[-87.682,13.43],[-87.683,13.431],[-87.683,13.43],[-87.682,13.43]],[[-87.683,13.431],[-87.685,13.432],[-87.685,13.431],[-87.683,13.431]],[[-87.686,13.429],[-87.689,13.43],[-87.689,13.429],[-87.686,13.429]],[[-87.69,13.427],[-87.692,13.431],[-87.693,13.426],[-87.69,13.427]],[[-87.767,13.393],[-87.766,13.392],[-87.766,13.393],[-87.767,13.393]],[[-87.803,13.396],[-87.802,13.397],[-87.803,13.397],[-87.803,13.396]],[[-87.659,13.428],[-87.66,13.427],[-87.659,13.427],[-87.659,13.428]],[[-87.661,13.428],[-87.66,13.431],[-87.661,13.431],[-87.661,13.428]],[[-87.696,13.421],[-87.697,13.42],[-87.696,13.42],[-87.696,13.421]],[[-87.697,13.42],[-87.698,13.419],[-87.697,13.419],[-87.697,13.42]],[[-87.688,13.442],[-87.689,13.443],[-87.689,13.442],[-87.688,13.442]],[[-87.686,13.446],[-87.684,13.444],[-87.684,13.446],[-87.686,13.446]],[[-87.687,13.445],[-87.688,13.446],[-87.688,13.445],[-87.687,13.445]],[[-87.688,13.447],[-87.689,13.448],[-87.689,13.447],[-87.688,13.447]],[[-87.689,13.447],[-87.69,13.446],[-87.689,13.446],[-87.689,13.447]],[[-87.69,13.446],[-87.692,13.446],[-87.69,13.445],[-87.69,13.446]],[[-87.67,13.446],[-87.669,13.447],[-87.671,13.447],[-87.671,13.446],[-87.67,13.446]],[[-87.673,13.447],[-87.674,13.451],[-87.676,13.45],[-87.673,13.447]],[[-87.674,13.452],[-87.67,13.452],[-87.67,13.457],[-87.674,13.452]],[[-87.671,13.457],[-87.672,13.458],[-87.672,13.457],[-87.671,13.457]],[[-87.672,13.458],[-87.674,13.459],[-87.674,13.458],[-87.672,13.458]],[[-87.675,13.458],[-87.675,13.461],[-87.676,13.461],[-87.677,13.457],[-87.675,13.456],[-87.674,13.457],[-87.675,13.458]],[[-87.67,13.446],[-87.671,13.444],[-87.67,13.444],[-87.67,13.446]],[[-87.676,13.445],[-87.677,13.444],[-87.676,13.444],[-87.676,13.445]],[[-87.677,13.444],[-87.678,13.443],[-87.677,13.443],[-87.677,13.444]],[[-87.685,13.462],[-87.686,13.463],[-87.686,13.462],[-87.685,13.462]],[[-87.686,13.463],[-87.687,13.464],[-87.687,13.463],[-87.686,13.463]],[[-87.686,13.464],[-87.685,13.465],[-87.686,13.465],[-87.686,13.464]],[[-87.68,13.468],[-87.681,13.469],[-87.681,13.468],[-87.68,13.468]],[[-87.681,13.47],[-87.682,13.47],[-87.681,13.469],[-87.681,13.47]],[[-87.682,13.471],[-87.683,13.471],[-87.682,13.47],[-87.682,13.471]],[[-87.683,13.471],[-87.684,13.472],[-87.684,13.471],[-87.683,13.471]],[[-87.686,13.472],[-87.685,13.474],[-87.687,13.474],[-87.686,13.472]],[[-87.661,13.46],[-87.666,13.46],[-87.661,13.459],[-87.661,13.46]],[[-87.664,13.463],[-87.661,13.462],[-87.661,13.463],[-87.664,13.463]],[[-87.661,13.463],[-87.66,13.465],[-87.661,13.465],[-87.661,13.463]],[[-87.661,13.465],[-87.662,13.467],[-87.664,13.465],[-87.661,13.465]],[[-87.662,13.467],[-87.663,13.468],[-87.663,13.467],[-87.662,13.467]],[[-87.666,13.461],[-87.667,13.462],[-87.667,13.461],[-87.666,13.461]],[[-87.667,13.464],[-87.665,13.465],[-87.667,13.465],[-87.667,13.464]],[[-87.667,13.465],[-87.668,13.466],[-87.668,13.465],[-87.667,13.465]],[[-87.667,13.466],[-87.666,13.467],[-87.667,13.467],[-87.667,13.466]],[[-87.667,13.467],[-87.668,13.468],[-87.668,13.467],[-87.667,13.467]],[[-87.804,13.4],[-87.803,13.401],[-87.804,13.401],[-87.804,13.4]],[[-87.803,13.404],[-87.802,13.403],[-87.801,13.405],[-87.803,13.404]],[[-87.799,13.397],[-87.8,13.395],[-87.799,13.395],[-87.799,13.397]],[[-87.786,13.386],[-87.785,13.387],[-87.786,13.387],[-87.786,13.386]],[[-87.672,13.394],[-87.671,13.395],[-87.672,13.395],[-87.672,13.394]],[[-87.657,13.428],[-87.658,13.429],[-87.658,13.428],[-87.657,13.428]],[[-87.694,13.424],[-87.695,13.423],[-87.694,13.423],[-87.694,13.424]],[[-87.694,13.43],[-87.693,13.428],[-87.693,13.43],[-87.694,13.43]],[[-87.692,13.449],[-87.691,13.447],[-87.69,13.449],[-87.692,13.449]],[[-87.693,13.448],[-87.694,13.449],[-87.694,13.448],[-87.693,13.448]],[[-87.676,13.446],[-87.676,13.447],[-87.677,13.447],[-87.676,13.446]],[[-87.68,13.457],[-87.681,13.458],[-87.681,13.457],[-87.68,13.457]],[[-87.677,13.462],[-87.684,13.462],[-87.677,13.461],[-87.677,13.462]],[[-87.684,13.464],[-87.68,13.466],[-87.684,13.466],[-87.684,13.464]],[[-87.688,13.474],[-87.689,13.475],[-87.689,13.474],[-87.688,13.474]],[[-87.667,13.458],[-87.666,13.459],[-87.667,13.459],[-87.667,13.458]],[[-87.669,13.462],[-87.67,13.463],[-87.67,13.462],[-87.669,13.462]],[[-87.798,13.401],[-87.799,13.399],[-87.798,13.399],[-87.798,13.401]],[[-87.487,13.403],[-87.486,13.402],[-87.486,13.403],[-87.487,13.403]],[[-87.478,13.412],[-87.481,13.411],[-87.478,13.411],[-87.478,13.412]],[[-87.482,13.414],[-87.48,13.417],[-87.483,13.417],[-87.482,13.414]],[[-87.519,13.36],[-87.518,13.361],[-87.519,13.361],[-87.519,13.36]],[[-87.518,13.361],[-87.517,13.362],[-87.518,13.362],[-87.518,13.361]],[[-87.539,13.353],[-87.541,13.352],[-87.539,13.352],[-87.539,13.353]],[[-87.538,13.353],[-87.538,13.354],[-87.539,13.354],[-87.539,13.353],[-87.538,13.353]],[[-87.539,13.354],[-87.54,13.355],[-87.54,13.354],[-87.539,13.354]],[[-87.532,13.355],[-87.533,13.354],[-87.532,13.354],[-87.532,13.355]],[[-87.532,13.354],[-87.531,13.353],[-87.531,13.354],[-87.532,13.354]],[[-87.531,13.355],[-87.531,13.357],[-87.529,13.358],[-87.532,13.358],[-87.532,13.355],[-87.531,13.355]],[[-87.537,13.357],[-87.536,13.357],[-87.537,13.358],[-87.537,13.357]],[[-87.537,13.358],[-87.538,13.359],[-87.538,13.358],[-87.537,13.358]],[[-87.555,13.359],[-87.555,13.358],[-87.554,13.359],[-87.555,13.359]],[[-87.554,13.359],[-87.553,13.36],[-87.554,13.36],[-87.554,13.359]],[[-87.566,13.375],[-87.563,13.378],[-87.566,13.378],[-87.566,13.375]],[[-87.563,13.374],[-87.562,13.373],[-87.562,13.374],[-87.563,13.374]],[[-87.56,13.374],[-87.558,13.372],[-87.558,13.373],[-87.56,13.374]],[[-87.562,13.377],[-87.56,13.375],[-87.561,13.378],[-87.562,13.377]],[[-87.575,13.384],[-87.574,13.385],[-87.575,13.385],[-87.575,13.384]],[[-87.574,13.384],[-87.573,13.383],[-87.573,13.384],[-87.574,13.384]],[[-87.573,13.392],[-87.572,13.392],[-87.572,13.393],[-87.572,13.395],[-87.574,13.393],[-87.573,13.392]],[[-87.571,13.391],[-87.57,13.39],[-87.57,13.391],[-87.571,13.391]],[[-87.57,13.392],[-87.569,13.392],[-87.57,13.393],[-87.57,13.392]],[[-87.52,13.356],[-87.521,13.355],[-87.52,13.355],[-87.52,13.356]],[[-87.52,13.361],[-87.521,13.358],[-87.52,13.358],[-87.52,13.361]],[[-87.524,13.361],[-87.523,13.358],[-87.523,13.361],[-87.524,13.361]],[[-87.524,13.363],[-87.526,13.362],[-87.524,13.362],[-87.524,13.363]],[[-87.507,13.362],[-87.508,13.361],[-87.507,13.361],[-87.507,13.362]],[[-87.538,13.355],[-87.537,13.356],[-87.538,13.356],[-87.538,13.355]],[[-87.536,13.356],[-87.535,13.355],[-87.535,13.356],[-87.536,13.356]],[[-87.529,13.351],[-87.53,13.353],[-87.53,13.351],[-87.529,13.351]],[[-87.529,13.359],[-87.53,13.36],[-87.53,13.359],[-87.529,13.359]],[[-87.552,13.36],[-87.551,13.361],[-87.552,13.361],[-87.552,13.36]],[[-87.549,13.363],[-87.548,13.362],[-87.548,13.363],[-87.549,13.363]],[[-87.562,13.37],[-87.561,13.371],[-87.562,13.371],[-87.562,13.37]],[[-87.56,13.378],[-87.559,13.379],[-87.56,13.379],[-87.56,13.378]],[[-87.578,13.383],[-87.577,13.382],[-87.577,13.383],[-87.578,13.383]],[[-87.576,13.381],[-87.574,13.382],[-87.576,13.383],[-87.576,13.381]],[[-87.466,13.418],[-87.467,13.419],[-87.467,13.418],[-87.466,13.418]],[[-87.467,13.419],[-87.468,13.42],[-87.468,13.419],[-87.467,13.419]],[[-87.478,13.419],[-87.477,13.418],[-87.477,13.419],[-87.478,13.419]],[[-87.478,13.419],[-87.479,13.42],[-87.479,13.419],[-87.478,13.419]],[[-87.432,13.41],[-87.431,13.409],[-87.431,13.41],[-87.432,13.41]],[[-87.432,13.409],[-87.434,13.408],[-87.432,13.408],[-87.432,13.409]],[[-87.434,13.409],[-87.435,13.41],[-87.435,13.409],[-87.434,13.409]],[[-87.435,13.41],[-87.436,13.411],[-87.436,13.41],[-87.435,13.41]],[[-87.424,13.421],[-87.423,13.421],[-87.423,13.422],[-87.423,13.423],[-87.424,13.421]],[[-87.422,13.422],[-87.422,13.423],[-87.423,13.422],[-87.422,13.422]],[[-87.425,13.425],[-87.426,13.424],[-87.425,13.424],[-87.425,13.425]],[[-87.426,13.425],[-87.427,13.426],[-87.427,13.425],[-87.426,13.425]],[[-87.379,13.407],[-87.38,13.408],[-87.38,13.407],[-87.379,13.407]],[[-87.379,13.408],[-87.378,13.409],[-87.379,13.409],[-87.379,13.408]],[[-87.389,13.408],[-87.39,13.409],[-87.39,13.408],[-87.389,13.408]],[[-87.391,13.409],[-87.39,13.411],[-87.391,13.411],[-87.391,13.409]],[[-87.391,13.411],[-87.393,13.412],[-87.393,13.411],[-87.391,13.411]],[[-87.393,13.411],[-87.394,13.41],[-87.393,13.41],[-87.393,13.411]],[[-87.394,13.41],[-87.395,13.409],[-87.394,13.409],[-87.394,13.41]],[[-87.395,13.409],[-87.396,13.408],[-87.395,13.408],[-87.395,13.409]],[[-87.442,13.412],[-87.441,13.413],[-87.442,13.414],[-87.442,13.412]],[[-87.442,13.415],[-87.443,13.416],[-87.443,13.414],[-87.442,13.415]],[[-87.441,13.417],[-87.44,13.418],[-87.441,13.418],[-87.441,13.417]],[[-87.44,13.417],[-87.439,13.416],[-87.439,13.417],[-87.44,13.417]],[[-87.438,13.415],[-87.437,13.416],[-87.438,13.416],[-87.438,13.415]],[[-87.437,13.416],[-87.436,13.417],[-87.437,13.417],[-87.437,13.416]],[[-87.436,13.418],[-87.437,13.419],[-87.437,13.418],[-87.436,13.418]],[[-87.436,13.419],[-87.435,13.42],[-87.436,13.42],[-87.436,13.419]],[[-87.427,13.408],[-87.426,13.407],[-87.426,13.408],[-87.427,13.408]],[[-87.429,13.409],[-87.43,13.408],[-87.429,13.408],[-87.429,13.409]],[[-87.436,13.413],[-87.437,13.412],[-87.436,13.412],[-87.436,13.413]],[[-87.434,13.415],[-87.435,13.416],[-87.435,13.415],[-87.434,13.415]],[[-87.432,13.413],[-87.432,13.416],[-87.433,13.413],[-87.432,13.413]],[[-87.382,13.405],[-87.381,13.402],[-87.381,13.405],[-87.382,13.405]],[[-87.388,13.407],[-87.387,13.408],[-87.388,13.408],[-87.388,13.407]],[[-87.431,13.401],[-87.43,13.402],[-87.431,13.402],[-87.431,13.401]],[[-87.431,13.403],[-87.43,13.404],[-87.431,13.405],[-87.431,13.403]],[[-87.44,13.412],[-87.439,13.413],[-87.44,13.413],[-87.44,13.412]],[[-87.442,13.418],[-87.443,13.418],[-87.443,13.417],[-87.442,13.418]],[[-87.439,13.422],[-87.438,13.421],[-87.438,13.422],[-87.439,13.422]],[[-87.433,13.417],[-87.434,13.42],[-87.434,13.417],[-87.433,13.417]]],[[[-87.676,13.457],[-87.675,13.458],[-87.675,13.457],[-87.676,13.457]]],[[[-87.597,13.3],[-87.595,13.301],[-87.595,13.299],[-87.597,13.3]]],[[[-87.599,13.302],[-87.6,13.303],[-87.599,13.303],[-87.599,13.302]]],[[[-87.588,13.302],[-87.589,13.302],[-87.588,13.303],[-87.588,13.302]]],[[[-87.66,13.335],[-87.656,13.366],[-87.648,13.363],[-87.643,13.373],[-87.621,13.364],[-87.613,13.365],[-87.603,13.38],[-87.587,13.377],[-87.591,13.37],[-87.579,13.363],[-87.595,13.359],[-87.595,13.355],[-87.587,13.35],[-87.575,13.347],[-87.575,13.344],[-87.579,13.342],[-87.575,13.324],[-87.582,13.319],[-87.581,13.307],[-87.609,13.313],[-87.617,13.307],[-87.644,13.317],[-87.66,13.335]],[[-87.613,13.365],[-87.612,13.364],[-87.612,13.365],[-87.613,13.365]],[[-87.592,13.376],[-87.593,13.375],[-87.592,13.375],[-87.592,13.376]],[[-87.586,13.364],[-87.587,13.363],[-87.586,13.363],[-87.586,13.364]],[[-87.591,13.352],[-87.592,13.35],[-87.59,13.35],[-87.591,13.352]],[[-87.592,13.312],[-87.593,13.313],[-87.593,13.312],[-87.592,13.312]],[[-87.588,13.364],[-87.589,13.363],[-87.588,13.363],[-87.588,13.364]],[[-87.589,13.364],[-87.59,13.365],[-87.59,13.364],[-87.589,13.364]],[[-87.595,13.369],[-87.596,13.371],[-87.596,13.369],[-87.595,13.369]],[[-87.596,13.369],[-87.597,13.367],[-87.596,13.367],[-87.596,13.369]],[[-87.582,13.337],[-87.584,13.338],[-87.584,13.337],[-87.582,13.337]],[[-87.579,13.344],[-87.578,13.343],[-87.578,13.344],[-87.579,13.344]],[[-87.58,13.344],[-87.581,13.343],[-87.58,13.343],[-87.58,13.344]],[[-87.597,13.361],[-87.598,13.36],[-87.597,13.36],[-87.597,13.361]],[[-87.589,13.362],[-87.588,13.361],[-87.588,13.362],[-87.589,13.362]],[[-87.594,13.375],[-87.595,13.373],[-87.594,13.373],[-87.594,13.375]],[[-87.599,13.367],[-87.6,13.366],[-87.599,13.366],[-87.599,13.367]],[[-87.6,13.377],[-87.6,13.376],[-87.599,13.377],[-87.6,13.377]]],[[[-87.593,13.355],[-87.563,13.359],[-87.561,13.355],[-87.564,13.354],[-87.542,13.342],[-87.572,13.333],[-87.576,13.342],[-87.57,13.349],[-87.593,13.355]],[[-87.563,13.356],[-87.565,13.357],[-87.565,13.356],[-87.563,13.356]],[[-87.555,13.347],[-87.555,13.346],[-87.554,13.347],[-87.555,13.347]],[[-87.556,13.346],[-87.556,13.345],[-87.555,13.346],[-87.556,13.346]],[[-87.561,13.345],[-87.56,13.344],[-87.56,13.345],[-87.561,13.345]]],[[[-87.519,13.356],[-87.518,13.357],[-87.518,13.356],[-87.519,13.356]]],[[[-87.571,13.371],[-87.57,13.372],[-87.57,13.371],[-87.571,13.371]]],[[[-87.587,13.37],[-87.582,13.374],[-87.581,13.37],[-87.587,13.37]]],[[[-87.476,13.391],[-87.475,13.391],[-87.476,13.39],[-87.476,13.391]]],[[[-87.573,13.393],[-87.572,13.393],[-87.573,13.392],[-87.573,13.393]]],[[[-87.479,13.408],[-87.47,13.403],[-87.476,13.4],[-87.478,13.39],[-87.479,13.408]]],[[[-87.604,13.41],[-87.605,13.409],[-87.605,13.41],[-87.604,13.41]]],[[[-87.473,13.379],[-87.474,13.38],[-87.473,13.38],[-87.473,13.379]]],[[[-87.475,13.38],[-87.474,13.381],[-87.474,13.38],[-87.475,13.38]]],[[[-87.419,13.377],[-87.408,13.373],[-87.426,13.358],[-87.427,13.379],[-87.418,13.405],[-87.416,13.395],[-87.411,13.393],[-87.414,13.385],[-87.403,13.379],[-87.406,13.374],[-87.413,13.379],[-87.419,13.377]],[[-87.416,13.387],[-87.414,13.39],[-87.415,13.39],[-87.416,13.387]],[[-87.419,13.377],[-87.42,13.378],[-87.42,13.377],[-87.419,13.377]],[[-87.422,13.378],[-87.417,13.383],[-87.419,13.386],[-87.422,13.378]],[[-87.419,13.386],[-87.417,13.387],[-87.419,13.39],[-87.419,13.386]],[[-87.418,13.39],[-87.416,13.391],[-87.419,13.392],[-87.418,13.39]],[[-87.416,13.391],[-87.415,13.392],[-87.416,13.392],[-87.416,13.391]],[[-87.414,13.391],[-87.414,13.392],[-87.415,13.391],[-87.414,13.391]],[[-87.413,13.392],[-87.413,13.393],[-87.414,13.392],[-87.413,13.392]],[[-87.421,13.386],[-87.422,13.386],[-87.421,13.385],[-87.421,13.386]],[[-87.423,13.376],[-87.422,13.377],[-87.423,13.377],[-87.423,13.376]],[[-87.423,13.383],[-87.422,13.382],[-87.422,13.383],[-87.423,13.383]],[[-87.419,13.369],[-87.42,13.368],[-87.419,13.368],[-87.419,13.369]],[[-87.42,13.375],[-87.421,13.374],[-87.42,13.374],[-87.42,13.375]],[[-87.42,13.39],[-87.421,13.389],[-87.42,13.389],[-87.42,13.39]],[[-87.417,13.396],[-87.418,13.395],[-87.417,13.395],[-87.417,13.396]],[[-87.415,13.394],[-87.416,13.393],[-87.415,13.393],[-87.415,13.394]],[[-87.415,13.381],[-87.414,13.382],[-87.415,13.382],[-87.415,13.381]]],[[[-87.413,13.401],[-87.397,13.397],[-87.394,13.402],[-87.387,13.395],[-87.379,13.394],[-87.389,13.386],[-87.39,13.37],[-87.403,13.372],[-87.399,13.381],[-87.413,13.386],[-87.41,13.39],[-87.413,13.401]],[[-87.404,13.398],[-87.402,13.397],[-87.402,13.398],[-87.404,13.398]],[[-87.399,13.38],[-87.398,13.379],[-87.398,13.38],[-87.399,13.38]],[[-87.398,13.379],[-87.397,13.378],[-87.397,13.379],[-87.398,13.379]],[[-87.398,13.378],[-87.399,13.377],[-87.398,13.377],[-87.398,13.378]],[[-87.397,13.378],[-87.397,13.376],[-87.396,13.376],[-87.397,13.378]],[[-87.397,13.38],[-87.395,13.379],[-87.395,13.38],[-87.397,13.38]],[[-87.399,13.383],[-87.393,13.381],[-87.392,13.383],[-87.399,13.383]],[[-87.407,13.387],[-87.403,13.385],[-87.404,13.388],[-87.407,13.387]],[[-87.398,13.384],[-87.399,13.385],[-87.399,13.384],[-87.398,13.384]],[[-87.4,13.385],[-87.4,13.384],[-87.399,13.385],[-87.4,13.385]],[[-87.399,13.388],[-87.398,13.396],[-87.4,13.396],[-87.399,13.388]],[[-87.4,13.392],[-87.401,13.393],[-87.401,13.392],[-87.4,13.392]],[[-87.408,13.393],[-87.407,13.392],[-87.407,13.393],[-87.408,13.393]],[[-87.408,13.392],[-87.409,13.39],[-87.408,13.39],[-87.408,13.392]],[[-87.408,13.39],[-87.407,13.389],[-87.407,13.39],[-87.408,13.39]],[[-87.396,13.375],[-87.395,13.374],[-87.395,13.375],[-87.396,13.375]],[[-87.393,13.378],[-87.392,13.377],[-87.392,13.378],[-87.393,13.378]],[[-87.39,13.385],[-87.391,13.386],[-87.391,13.385],[-87.39,13.385]],[[-87.389,13.395],[-87.388,13.394],[-87.388,13.395],[-87.389,13.395]],[[-87.39,13.391],[-87.391,13.39],[-87.39,13.39],[-87.39,13.391]],[[-87.394,13.39],[-87.392,13.389],[-87.392,13.39],[-87.394,13.39]],[[-87.396,13.387],[-87.395,13.389],[-87.396,13.389],[-87.396,13.387]],[[-87.396,13.392],[-87.395,13.393],[-87.396,13.393],[-87.396,13.392]],[[-87.407,13.396],[-87.405,13.397],[-87.407,13.397],[-87.407,13.396]],[[-87.402,13.394],[-87.403,13.396],[-87.403,13.394],[-87.402,13.394]],[[-87.392,13.392],[-87.394,13.393],[-87.394,13.391],[-87.392,13.392]]],[[[-87.469,13.402],[-87.46,13.407],[-87.464,13.395],[-87.454,13.392],[-87.447,13.397],[-87.445,13.386],[-87.431,13.384],[-87.443,13.374],[-87.468,13.373],[-87.472,13.381],[-87.478,13.386],[-87.469,13.389],[-87.472,13.391],[-87.469,13.393],[-87.471,13.395],[-87.469,13.402]],[[-87.469,13.389],[-87.469,13.387],[-87.467,13.389],[-87.469,13.389]],[[-87.47,13.392],[-87.465,13.391],[-87.465,13.392],[-87.47,13.392]],[[-87.465,13.392],[-87.464,13.393],[-87.465,13.393],[-87.465,13.392]],[[-87.464,13.393],[-87.463,13.394],[-87.464,13.394],[-87.464,13.393]],[[-87.462,13.39],[-87.46,13.389],[-87.46,13.39],[-87.462,13.39]],[[-87.459,13.389],[-87.46,13.387],[-87.459,13.387],[-87.459,13.389]],[[-87.461,13.385],[-87.462,13.384],[-87.461,13.384],[-87.461,13.385]],[[-87.462,13.385],[-87.463,13.386],[-87.463,13.385],[-87.462,13.385]],[[-87.463,13.385],[-87.464,13.384],[-87.463,13.384],[-87.463,13.385]],[[-87.464,13.381],[-87.465,13.383],[-87.465,13.381],[-87.464,13.381]],[[-87.465,13.38],[-87.467,13.381],[-87.467,13.38],[-87.465,13.38]],[[-87.467,13.379],[-87.47,13.38],[-87.47,13.379],[-87.467,13.379]],[[-87.452,13.391],[-87.449,13.392],[-87.452,13.392],[-87.452,13.391]],[[-87.453,13.391],[-87.453,13.39],[-87.452,13.391],[-87.453,13.391]],[[-87.467,13.4],[-87.466,13.401],[-87.467,13.401],[-87.467,13.4]],[[-87.466,13.4],[-87.465,13.399],[-87.465,13.4],[-87.466,13.4]],[[-87.464,13.399],[-87.464,13.4],[-87.465,13.399],[-87.464,13.399]],[[-87.465,13.395],[-87.466,13.394],[-87.465,13.394],[-87.465,13.395]],[[-87.466,13.397],[-87.469,13.395],[-87.466,13.396],[-87.466,13.397]],[[-87.446,13.385],[-87.445,13.384],[-87.445,13.385],[-87.446,13.385]],[[-87.447,13.385],[-87.448,13.384],[-87.447,13.384],[-87.447,13.385]],[[-87.46,13.383],[-87.459,13.386],[-87.46,13.386],[-87.46,13.383]],[[-87.466,13.376],[-87.465,13.376],[-87.465,13.377],[-87.466,13.376]],[[-87.442,13.378],[-87.441,13.377],[-87.441,13.378],[-87.442,13.378]],[[-87.439,13.38],[-87.44,13.379],[-87.439,13.379],[-87.439,13.38]],[[-87.443,13.38],[-87.441,13.381],[-87.443,13.381],[-87.443,13.38]]],[[[-87.473,13.388],[-87.476,13.396],[-87.474,13.399],[-87.471,13.394],[-87.473,13.388]],[[-87.473,13.392],[-87.474,13.393],[-87.474,13.392],[-87.473,13.392]]],[[[-87.388,13.399],[-87.387,13.398],[-87.388,13.398],[-87.388,13.399]]],[[[-87.388,13.4],[-87.389,13.399],[-87.389,13.4],[-87.388,13.4]]],[[[-87.458,13.394],[-87.459,13.411],[-87.446,13.414],[-87.454,13.408],[-87.453,13.402],[-87.435,13.401],[-87.431,13.39],[-87.441,13.386],[-87.447,13.398],[-87.458,13.394]],[[-87.437,13.39],[-87.438,13.391],[-87.438,13.39],[-87.437,13.39]],[[-87.436,13.392],[-87.437,13.393],[-87.437,13.392],[-87.436,13.392]],[[-87.436,13.397],[-87.435,13.396],[-87.435,13.397],[-87.436,13.397]],[[-87.438,13.4],[-87.439,13.399],[-87.438,13.399],[-87.438,13.4]]],[[[-87.447,13.405],[-87.444,13.403],[-87.453,13.405],[-87.452,13.408],[-87.447,13.405]]],[[[-87.445,13.407],[-87.446,13.406],[-87.446,13.407],[-87.445,13.407]]],[[[-87.443,13.41],[-87.443,13.409],[-87.444,13.409],[-87.443,13.41]]],[[[-87.461,13.41],[-87.46,13.411],[-87.46,13.41],[-87.461,13.41]]],[[[-87.459,13.411],[-87.46,13.415],[-87.457,13.414],[-87.459,13.411]]],[[[-87.413,13.412],[-87.412,13.417],[-87.408,13.418],[-87.408,13.416],[-87.413,13.412]]]]}},{"type":"Feature","properties":{"cve_ent":"HN18","nombre":"Yoro"},"geometry":{"type":"Polygon","coordinates":[[[-87.621,15.507],[-87.57,15.508],[-87.528,15.523],[-87.514,15.514],[-87.459,15.546],[-87.45,15.531],[-87.434,15.533],[-87.441,15.498],[-87.431,15.491],[-87.438,15.484],[-87.426,15.481],[-87.423,15.463],[-87.419,15.466],[-87.41,15.455],[-87.399,15.456],[-87.399,15.448],[-87.39,15.452],[-87.392,15.444],[-87.386,15.447],[-87.38,15.437],[-87.362,15.443],[-87.345,15.458],[-87.323,15.455],[-87.312,15.442],[-87.286,15.448],[-87.275,15.439],[-87.246,15.438],[-87.215,15.424],[-87.191,15.428],[-87.179,15.421],[-87.151,15.46],[-87.108,15.456],[-87.091,15.473],[-87.073,15.474],[-87.049,15.488],[-87.044,15.51],[-87.029,15.513],[-86.984,15.556],[-86.971,15.547],[-86.927,15.546],[-86.907,15.561],[-86.898,15.554],[-86.876,15.557],[-86.859,15.567],[-86.851,15.565],[-86.85,15.547],[-86.84,15.549],[-86.837,15.543],[-86.808,15.556],[-86.803,15.548],[-86.774,15.544],[-86.732,15.558],[-86.696,15.583],[-86.641,15.605],[-86.574,15.586],[-86.535,15.592],[-86.525,15.582],[-86.471,15.598],[-86.401,15.574],[-86.379,15.547],[-86.377,15.536],[-86.321,15.542],[-86.305,15.537],[-86.302,15.524],[-86.307,15.512],[-86.288,15.505],[-86.268,15.508],[-86.268,15.519],[-86.259,15.513],[-86.253,15.523],[-86.238,15.524],[-86.229,15.5],[-86.229,15.476],[-86.235,15.471],[-86.23,15.459],[-86.243,15.45],[-86.232,15.437],[-86.232,15.408],[-86.279,15.374],[-86.291,15.375],[-86.373,15.324],[-86.397,15.326],[-86.391,15.347],[-86.404,15.373],[-86.411,15.37],[-86.428,15.377],[-86.426,15.383],[-86.438,15.4],[-86.476,15.406],[-86.475,15.395],[-86.501,15.386],[-86.517,15.391],[-86.55,15.369],[-86.596,15.353],[-86.616,15.337],[-86.634,15.341],[-86.646,15.336],[-86.65,15.303],[-86.665,15.292],[-86.664,15.284],[-86.701,15.265],[-86.753,15.27],[-86.762,15.289],[-86.774,15.296],[-86.793,15.279],[-86.818,15.285],[-86.82,15.272],[-86.848,15.257],[-86.857,15.258],[-86.868,15.24],[-86.856,15.17],[-86.868,15.147],[-86.862,15.141],[-86.881,15.119],[-86.88,15.104],[-86.886,15.103],[-86.882,15.083],[-86.919,15.068],[-86.925,15.04],[-86.964,15.046],[-86.991,15.015],[-87.031,15.025],[-87.082,15.017],[-87.107,15.032],[-87.135,15.033],[-87.137,15.028],[-87.162,15.025],[-87.174,15.029],[-87.187,15.011],[-87.185,14.97],[-87.191,14.964],[-87.2,14.962],[-87.214,14.949],[-87.208,14.925],[-87.217,14.912],[-87.197,14.907],[-87.199,14.896],[-87.193,14.892],[-87.199,14.876],[-87.208,14.875],[-87.212,14.882],[-87.254,14.898],[-87.278,14.927],[-87.29,14.925],[-87.299,14.913],[-87.313,14.932],[-87.318,14.927],[-87.343,14.93],[-87.357,14.941],[-87.377,14.939],[-87.403,14.911],[-87.424,14.904],[-87.433,14.911],[-87.45,14.909],[-87.456,14.915],[-87.453,14.926],[-87.459,14.928],[-87.452,14.937],[-87.465,14.946],[-87.46,14.954],[-87.462,14.971],[-87.478,14.97],[-87.475,14.979],[-87.497,14.983],[-87.496,14.99],[-87.505,14.995],[-87.507,15.025],[-87.541,15.057],[-87.563,15.052],[-87.573,15.038],[-87.59,15.038],[-87.585,15.024],[-87.611,15.021],[-87.621,15.007],[-87.637,15.022],[-87.652,15.017],[-87.67,15.024],[-87.689,15.013],[-87.695,15.018],[-87.702,15.011],[-87.735,15.01],[-87.75,15.048],[-87.745,15.074],[-87.731,15.084],[-87.739,15.099],[-87.732,15.11],[-87.744,15.116],[-87.757,15.135],[-87.794,15.138],[-87.796,15.152],[-87.806,15.156],[-87.814,15.15],[-87.819,15.161],[-87.844,15.158],[-87.851,15.163],[-87.848,15.175],[-87.857,15.178],[-87.867,15.193],[-87.904,15.191],[-87.911,15.199],[-87.926,15.2],[-87.926,15.208],[-87.916,15.209],[-87.925,15.213],[-87.918,15.221],[-87.918,15.228],[-87.926,15.231],[-87.92,15.243],[-87.925,15.246],[-87.937,15.235],[-87.938,15.247],[-87.932,15.269],[-87.91,15.274],[-87.91,15.288],[-87.929,15.295],[-87.923,15.304],[-87.905,15.306],[-87.918,15.323],[-87.893,15.324],[-87.886,15.346],[-87.867,15.335],[-87.863,15.344],[-87.877,15.345],[-87.88,15.353],[-87.848,15.375],[-87.838,15.404],[-87.823,15.401],[-87.818,15.408],[-87.826,15.433],[-87.863,15.448],[-87.865,15.455],[-87.834,15.459],[-87.827,15.438],[-87.81,15.455],[-87.809,15.468],[-87.828,15.476],[-87.822,15.49],[-87.838,15.502],[-87.826,15.515],[-87.833,15.527],[-87.822,15.53],[-87.807,15.519],[-87.805,15.527],[-87.815,15.535],[-87.816,15.552],[-87.798,15.561],[-87.806,15.579],[-87.792,15.582],[-87.779,15.567],[-87.773,15.568],[-87.771,15.574],[-87.784,15.595],[-87.764,15.594],[-87.763,15.611],[-87.774,15.619],[-87.769,15.632],[-87.773,15.64],[-87.805,15.64],[-87.811,15.647],[-87.804,15.659],[-87.809,15.666],[-87.819,15.653],[-87.83,15.661],[-87.823,15.68],[-87.805,15.682],[-87.806,15.691],[-87.819,15.685],[-87.838,15.689],[-87.827,15.699],[-87.806,15.705],[-87.803,15.721],[-87.795,15.725],[-87.785,15.711],[-87.747,15.7],[-87.737,15.684],[-87.697,15.666],[-87.683,15.644],[-87.676,15.582],[-87.626,15.567],[-87.621,15.555],[-87.598,15.553],[-87.621,15.507]],[[-87.19,14.967],[-87.191,14.966],[-87.19,14.966],[-87.19,14.967]]]}}]}