{"type":"FeatureCollection","features":[{"type":"Feature","properties":{"cve_ent":"01","cve_mun":"001","cvegeo":"01001","nombre":"Aguascalientes"},"geometry":{"type":"Polygon","coordinates":[[[-102.0978,22.0232],[-102.0972,21.9961],[-102.0687,21.9779],[-102.0709,21.974],[-102.0682,21.971],[-102.0694,21.969],[-102.0943,21.9723],[-102.0924,21.9611],[-102.0973,21.9609],[-102.1009,21.9649],[-102.1005,21.9727],[-102.1319,21.9768],[-102.138,21.9432],[-102.131,21.9397],[-102.1313,21.9372],[-102.1642,21.9371],[-102.1661,21.9195],[-102.162,21.9196],[-102.1621,21.9078],[-102.1554,21.9108],[-102.1571,21.8692],[-102.1751,21.8705],[-102.176,21.8438],[-102.1676,21.8429],[-102.1708,21.832],[-102.1579,21.8297],[-102.1604,21.8113],[-102.1505,21.8096],[-102.1535,21.7889],[-102.146,21.7878],[-102.1406,21.797],[-102.1408,21.7945],[-102.1326,21.7932],[-102.132,21.7966],[-102.1173,21.7941],[-102.115,21.8002],[-102.1076,21.7991],[-102.105,21.803],[-102.0717,21.7947],[-102.0688,21.7989],[-102.0645,21.7962],[-102.072,21.7827],[-102.0831,21.7871],[-102.0946,21.7777],[-102.0862,21.7673],[-102.1021,21.761],[-102.1043,21.751],[-102.1159,21.7447],[-102.1156,21.736],[-102.1209,21.7364],[-102.1256,21.7257],[-102.1283,21.7267],[-102.1363,21.7205],[-102.1421,21.7054],[-102.1473,21.7058],[-102.1549,21.7],[-102.1666,21.7025],[-102.1664,21.706],[-102.1714,21.707],[-102.1779,21.6882],[-102.2143,21.6948],[-102.2142,21.6866],[-102.2185,21.6834],[-102.218,21.6777],[-102.2264,21.6578],[-102.2376,21.652],[-102.2509,21.6551],[-102.2752,21.654],[-102.2794,21.6644],[-102.304,21.6667],[-102.3026,21.6546],[-102.2954,21.6531],[-102.3102,21.6266],[-102.3211,21.6301],[-102.3257,21.6223],[-102.3669,21.6428],[-102.3695,21.6506],[-102.3851,21.652],[-102.4075,21.6595],[-102.4046,21.6656],[-102.4415,21.6734],[-102.4512,21.682],[-102.4539,21.681],[-102.4525,21.6784],[-102.4611,21.6793],[-102.4521,21.6869],[-102.4569,21.6981],[-102.4758,21.6949],[-102.4765,21.7021],[-102.5425,21.7326],[-102.541,21.7356],[-102.5525,21.7427],[-102.5831,21.7439],[-102.5831,21.7471],[-102.5766,21.7458],[-102.5768,21.7489],[-102.5666,21.7548],[-102.5594,21.7551],[-102.5573,21.7673],[-102.5517,21.7673],[-102.5556,21.7752],[-102.5539,21.78],[-102.535,21.7813],[-102.5296,21.7845],[-102.5448,21.8025],[-102.54,21.8072],[-102.5281,21.8124],[-102.5191,21.8099],[-102.5156,21.8164],[-102.5081,21.8135],[-102.4955,21.8165],[-102.4618,21.8146],[-102.463,21.8174],[-102.4565,21.8176],[-102.4513,21.8296],[-102.4366,21.8413],[-102.4306,21.8655],[-102.4215,21.8775],[-102.4205,21.8864],[-102.4099,21.8925],[-102.3887,21.8941],[-102.3966,21.9059],[-102.3895,21.9048],[-102.3883,21.9093],[-102.3659,21.9054],[-102.3638,21.9168],[-102.3462,21.9124],[-102.3463,21.9274],[-102.3392,21.9276],[-102.3434,21.939],[-102.3084,21.9344],[-102.3085,21.9477],[-102.2907,21.9446],[-102.2905,21.9469],[-102.2831,21.9468],[-102.2788,21.9584],[-102.2723,21.9573],[-102.2741,21.9538],[-102.2664,21.9516],[-102.267,21.944],[-102.2646,21.9434],[-102.2345,21.9569],[-102.23,21.9614],[-102.2276,21.9748],[-102.2032,21.9716],[-102.2078,21.9947],[-102.2291,21.9992],[-102.2272,22.01],[-102.2234,22.0106],[-102.2228,22.0315],[-102.2093,22.0288],[-102.2079,22.0379],[-102.1797,22.0332],[-102.1767,22.0412],[-102.1662,22.0397],[-102.171,22.0257],[-102.1578,22.0264],[-102.1584,22.0166],[-102.1532,22.0225],[-102.1346,22.029],[-102.1446,22.0354],[-102.1385,22.0602],[-102.1409,22.0753],[-102.1181,22.0749],[-102.1037,22.0574],[-102.1125,22.0515],[-102.1105,22.0472],[-102.1172,22.0427],[-102.116,22.0373],[-102.1096,22.0272],[-102.0978,22.0232]]]}},{"type":"Feature","properties":{"cve_ent":"01","cve_mun":"002","cvegeo":"01002","nombre":"Asientos"},"geometry":{"type":"Polygon","coordinates":[[[-102.0519,22.2914],[-102.0373,22.299],[-102.0299,22.289],[-102.0292,22.269],[-102.0225,22.2416],[-102.0025,22.2414],[-101.9997,22.2337],[-102.001,22.1681],[-102.0295,22.1687],[-102.0377,22.1598],[-102.0411,22.1618],[-102.0452,22.1537],[-102.0171,22.154],[-102.0259,22.1298],[-101.986,22.1208],[-101.9676,22.1112],[-101.8643,22.0415],[-101.8623,22.0467],[-101.8542,22.0443],[-101.8615,22.0359],[-101.8592,22.0344],[-101.8611,22.0221],[-101.8583,22.0209],[-101.8611,22.0211],[-101.861,21.9987],[-101.8638,21.99],[-101.8913,21.9766],[-101.8947,21.9897],[-101.9068,21.992],[-101.9126,21.9975],[-101.9094,21.989],[-101.9001,21.9867],[-101.8982,21.9833],[-101.8958,21.9633],[-101.8978,21.9584],[-101.9481,22.0088],[-101.9532,22.0091],[-101.9614,22.0181],[-101.9574,22.0096],[-101.9919,22.0079],[-101.9875,22.0392],[-102.0076,22.0399],[-102.0114,22.0337],[-102.0228,22.0443],[-102.0221,22.0527],[-102.0343,22.0694],[-102.05,22.0611],[-102.0432,22.0566],[-102.0406,22.0583],[-102.0341,22.052],[-102.0454,22.0491],[-102.0508,22.042],[-102.0548,22.0459],[-102.0601,22.0444],[-102.0649,22.0174],[-102.0978,22.0232],[-102.1096,22.0272],[-102.116,22.0373],[-102.1172,22.0427],[-102.1105,22.0472],[-102.1125,22.0515],[-102.1037,22.0574],[-102.1181,22.0749],[-102.1409,22.0753],[-102.1473,22.0863],[-102.1566,22.0912],[-102.1564,22.0979],[-102.1629,22.1003],[-102.1714,22.0838],[-102.1803,22.0843],[-102.1846,22.0652],[-102.1943,22.0665],[-102.1961,22.0711],[-102.199,22.071],[-102.1925,22.1015],[-102.2193,22.1049],[-102.216,22.127],[-102.218,22.1296],[-102.2142,22.1304],[-102.2132,22.1353],[-102.2159,22.1376],[-102.2045,22.1451],[-102.2042,22.1609],[-102.1863,22.1612],[-102.1757,22.1295],[-102.1678,22.1254],[-102.1642,22.1407],[-102.1489,22.1547],[-102.1364,22.1495],[-102.1346,22.1542],[-102.1279,22.1536],[-102.1281,22.1645],[-102.1334,22.1733],[-102.1371,22.1915],[-102.1281,22.2007],[-102.133,22.2028],[-102.1328,22.2152],[-102.1465,22.2338],[-102.1301,22.2411],[-102.1241,22.287],[-102.1066,22.2854],[-102.1052,22.2808],[-102.0909,22.2912],[-102.0896,22.289],[-102.0756,22.3061],[-102.0567,22.2999],[-102.0557,22.2953],[-102.0584,22.2937],[-102.0519,22.2914]]]}},{"type":"Feature","properties":{"cve_ent":"01","cve_mun":"003","cvegeo":"01003","nombre":"Calvillo"},"geometry":{"type":"Polygon","coordinates":[[[-102.5763,21.9678],[-102.58,21.954],[-102.585,21.9518],[-102.5826,21.9406],[-102.5935,21.9422],[-102.5954,21.9342],[-102.593,21.9321],[-102.5928,21.9174],[-102.5842,21.9164],[-102.5894,21.9128],[-102.5832,21.912],[-102.5799,21.9057],[-102.5903,21.8984],[-102.58,21.8991],[-102.5905,21.8791],[-102.5849,21.8778],[-102.5859,21.8667],[-102.5989,21.8648],[-102.5958,21.8472],[-102.5898,21.8431],[-102.5918,21.8299],[-102.5853,21.8291],[-102.5889,21.807],[-102.5699,21.8167],[-102.5523,21.8175],[-102.5408,21.8064],[-102.5448,21.8025],[-102.5296,21.7845],[-102.535,21.7813],[-102.5539,21.78],[-102.5556,21.7752],[-102.5517,21.7673],[-102.5573,21.7673],[-102.5594,21.7551],[-102.5666,21.7548],[-102.5768,21.7489],[-102.5766,21.7458],[-102.5831,21.7471],[-102.5831,21.7439],[-102.5963,21.744],[-102.5968,21.755],[-102.6012,21.7558],[-102.6063,21.7511],[-102.6181,21.7557],[-102.6335,21.7673],[-102.6435,21.7619],[-102.6509,21.7654],[-102.6596,21.7624],[-102.6676,21.7645],[-102.6788,21.7532],[-102.6907,21.7524],[-102.6973,21.7415],[-102.6963,21.7288],[-102.714,21.7301],[-102.7156,21.7341],[-102.7221,21.7196],[-102.7373,21.7156],[-102.7416,21.721],[-102.7441,21.7192],[-102.7722,21.7378],[-102.7757,21.7346],[-102.7795,21.7399],[-102.7783,21.7427],[-102.7852,21.7457],[-102.7923,21.755],[-102.806,21.764],[-102.8169,21.7665],[-102.8211,21.7734],[-102.8201,21.7785],[-102.8313,21.7972],[-102.8424,21.7985],[-102.8423,21.8048],[-102.846,21.8],[-102.8533,21.7991],[-102.8518,21.8119],[-102.8475,21.8189],[-102.8503,21.8251],[-102.8473,21.8334],[-102.8581,21.8332],[-102.8646,21.8435],[-102.8736,21.8496],[-102.8728,21.8564],[-102.8634,21.8638],[-102.8605,21.8803],[-102.8557,21.8838],[-102.8492,21.9067],[-102.8434,21.9124],[-102.8462,21.9154],[-102.8383,21.9393],[-102.8337,21.9403],[-102.8232,21.9555],[-102.801,22.0039],[-102.7915,22.016],[-102.7833,22.0177],[-102.7823,22.0281],[-102.769,22.0378],[-102.7705,22.0416],[-102.761,22.0463],[-102.7532,22.0633],[-102.7558,22.0737],[-102.7472,22.0794],[-102.687,22.1065],[-102.6848,22.1032],[-102.6926,22.0902],[-102.6912,22.0862],[-102.684,22.0867],[-102.6768,22.1002],[-102.6675,22.0933],[-102.669,22.0876],[-102.6618,22.0859],[-102.6594,22.0901],[-102.6435,22.0935],[-102.6208,22.0815],[-102.613,22.0711],[-102.6086,22.0532],[-102.6156,22.0466],[-102.6176,22.0375],[-102.6022,22.0401],[-102.6023,22.0485],[-102.5929,22.0474],[-102.5975,22.0142],[-102.5808,22.0123],[-102.584,21.989],[-102.5785,21.9793],[-102.5818,21.9688],[-102.5763,21.9678]]]}},{"type":"Feature","properties":{"cve_ent":"01","cve_mun":"004","cvegeo":"01004","nombre":"Cosío"},"geometry":{"type":"Polygon","coordinates":[[[-102.2549,22.3789],[-102.2525,22.3679],[-102.2389,22.3546],[-102.2424,22.3468],[-102.241,22.3418],[-102.2451,22.342],[-102.2472,22.3244],[-102.255,22.3249],[-102.2561,22.3211],[-102.243,22.3203],[-102.2472,22.3108],[-102.2462,22.2984],[-102.254,22.2994],[-102.255,22.2932],[-102.2622,22.2945],[-102.2616,22.2857],[-102.2776,22.2817],[-102.2798,22.2878],[-102.2928,22.2915],[-102.2967,22.2895],[-102.2946,22.3008],[-102.3069,22.3031],[-102.3155,22.3087],[-102.3165,22.3129],[-102.3053,22.3192],[-102.3042,22.332],[-102.3624,22.3288],[-102.3627,22.3465],[-102.3495,22.3467],[-102.3393,22.3615],[-102.3784,22.3609],[-102.3593,22.385],[-102.3629,22.3887],[-102.3214,22.3885],[-102.321,22.4183],[-102.312,22.4408],[-102.3118,22.4569],[-102.2983,22.4596],[-102.2901,22.4199],[-102.2818,22.4138],[-102.274,22.4143],[-102.2709,22.4118],[-102.2731,22.4088],[-102.2674,22.4066],[-102.2552,22.3874],[-102.2503,22.3872],[-102.2506,22.3809],[-102.2549,22.3789]]]}},{"type":"Feature","properties":{"cve_ent":"01","cve_mun":"005","cvegeo":"01005","nombre":"Jesús María"},"geometry":{"type":"Polygon","coordinates":[[[-102.3194,22.0404],[-102.3065,22.0358],[-102.3096,22.0326],[-102.3095,22.0256],[-102.3064,22.0331],[-102.2791,22.0332],[-102.2806,22.0212],[-102.2656,22.0207],[-102.265,22.0097],[-102.2701,22.0042],[-102.283,22.0097],[-102.2837,22.003],[-102.2779,21.9991],[-102.2736,22.0003],[-102.2808,21.9852],[-102.274,21.9861],[-102.2692,21.9828],[-102.2704,21.9762],[-102.2836,21.9805],[-102.2831,21.9849],[-102.2888,21.9799],[-102.2892,21.9741],[-102.2869,21.9769],[-102.2735,21.9726],[-102.2831,21.9468],[-102.2905,21.9469],[-102.2907,21.9446],[-102.3085,21.9477],[-102.3084,21.9344],[-102.3434,21.939],[-102.3392,21.9276],[-102.3463,21.9274],[-102.3462,21.9124],[-102.3638,21.9168],[-102.3659,21.9054],[-102.3883,21.9093],[-102.3895,21.9048],[-102.3966,21.9059],[-102.3887,21.8941],[-102.4099,21.8925],[-102.4205,21.8864],[-102.4215,21.8775],[-102.4306,21.8655],[-102.4366,21.8413],[-102.4513,21.8296],[-102.4565,21.8176],[-102.463,21.8174],[-102.4618,21.8146],[-102.4955,21.8165],[-102.5081,21.8135],[-102.5156,21.8164],[-102.5191,21.8099],[-102.5281,21.8124],[-102.5408,21.8064],[-102.5523,21.8175],[-102.5612,21.8177],[-102.5813,21.8124],[-102.5889,21.807],[-102.5853,21.8291],[-102.5918,21.8299],[-102.5898,21.8431],[-102.5958,21.8472],[-102.5989,21.8648],[-102.5859,21.8667],[-102.5849,21.8778],[-102.5905,21.8791],[-102.58,21.8991],[-102.5903,21.8984],[-102.5799,21.9057],[-102.5832,21.912],[-102.5894,21.9128],[-102.5842,21.9164],[-102.5928,21.9174],[-102.593,21.9321],[-102.5954,21.9342],[-102.5935,21.9422],[-102.5826,21.9406],[-102.585,21.9518],[-102.58,21.954],[-102.5763,21.9678],[-102.5552,21.9621],[-102.5504,21.9706],[-102.542,21.971],[-102.5388,21.9666],[-102.5324,21.9706],[-102.5105,21.9736],[-102.5082,21.9768],[-102.4989,21.9698],[-102.49,21.9681],[-102.4954,21.9847],[-102.4992,21.9839],[-102.4997,21.9913],[-102.505,21.9928],[-102.5014,22.0032],[-102.489,22.0018],[-102.4887,21.9956],[-102.4726,21.9965],[-102.4681,21.9813],[-102.4601,21.9827],[-102.4518,21.9797],[-102.4473,21.9867],[-102.4237,21.9887],[-102.4222,21.9908],[-102.4333,21.9951],[-102.4266,22.0184],[-102.4209,22.0196],[-102.4162,22.0281],[-102.4166,22.0404],[-102.3873,22.0403],[-102.3832,22.0443],[-102.3817,22.0591],[-102.3622,22.0459],[-102.357,22.0504],[-102.3548,22.0628],[-102.3364,22.0592],[-102.3357,22.0507],[-102.3267,22.05],[-102.3251,22.0459],[-102.3346,22.0464],[-102.333,22.0358],[-102.3381,22.0357],[-102.3371,22.0268],[-102.3323,22.0267],[-102.3326,22.0324],[-102.3216,22.0346],[-102.3194,22.0404]]]}},{"type":"Feature","properties":{"cve_ent":"01","cve_mun":"006","cvegeo":"01006","nombre":"Pabellón de Arteaga"},"geometry":{"type":"Polygon","coordinates":[[[-102.2042,22.1609],[-102.2045,22.1451],[-102.2159,22.1376],[-102.2132,22.1353],[-102.2142,22.1304],[-102.218,22.1296],[-102.216,22.127],[-102.2193,22.1049],[-102.1925,22.1015],[-102.199,22.071],[-102.191,22.0661],[-102.194,22.0574],[-102.2004,22.0549],[-102.2034,22.0619],[-102.1983,22.064],[-102.1993,22.0691],[-102.2025,22.0679],[-102.204,22.0719],[-102.2257,22.078],[-102.2229,22.0816],[-102.2262,22.0861],[-102.2605,22.0872],[-102.2608,22.0794],[-102.2645,22.0796],[-102.2685,22.0799],[-102.2731,22.0879],[-102.2793,22.0892],[-102.2852,22.0826],[-102.2963,22.0843],[-102.2965,22.0755],[-102.2875,22.0742],[-102.2861,22.063],[-102.2915,22.0549],[-102.3001,22.0509],[-102.3103,22.0372],[-102.3194,22.0404],[-102.3216,22.0346],[-102.3326,22.0324],[-102.3323,22.0267],[-102.3371,22.0268],[-102.3381,22.0357],[-102.333,22.0358],[-102.3346,22.0464],[-102.3251,22.0459],[-102.3267,22.05],[-102.3357,22.0507],[-102.3376,22.0601],[-102.3548,22.0628],[-102.357,22.0504],[-102.3622,22.0459],[-102.3817,22.0591],[-102.3832,22.0443],[-102.3873,22.0403],[-102.4166,22.0404],[-102.4185,22.0805],[-102.3862,22.0903],[-102.3805,22.1271],[-102.3543,22.117],[-102.3506,22.1466],[-102.3032,22.1405],[-102.2997,22.1457],[-102.293,22.1463],[-102.2965,22.1552],[-102.2959,22.1696],[-102.2807,22.1695],[-102.2766,22.1706],[-102.2767,22.1736],[-102.2669,22.1724],[-102.2651,22.1755],[-102.26,22.1733],[-102.2596,22.1831],[-102.2511,22.183],[-102.247,22.1793],[-102.2469,22.171],[-102.228,22.1707],[-102.2042,22.1609]]]}},{"type":"Feature","properties":{"cve_ent":"01","cve_mun":"007","cvegeo":"01007","nombre":"Rincón de Romos"},"geometry":{"type":"Polygon","coordinates":[[[-102.189,22.3624],[-102.1907,22.3526],[-102.1941,22.3506],[-102.1848,22.3404],[-102.1904,22.3191],[-102.1884,22.3178],[-102.2131,22.3144],[-102.2177,22.2947],[-102.2309,22.2993],[-102.2314,22.2965],[-102.2387,22.2974],[-102.2401,22.2929],[-102.25,22.2892],[-102.2466,22.28],[-102.2534,22.2798],[-102.2553,22.2719],[-102.2502,22.2711],[-102.2567,22.2657],[-102.2542,22.2606],[-102.2571,22.259],[-102.2545,22.2516],[-102.2568,22.2467],[-102.2532,22.2406],[-102.2572,22.233],[-102.254,22.2278],[-102.2773,22.2254],[-102.2765,22.1875],[-102.2592,22.1864],[-102.2591,22.1742],[-102.2767,22.1736],[-102.2766,22.1706],[-102.2807,22.1695],[-102.2959,22.1696],[-102.2965,22.1552],[-102.293,22.1463],[-102.2997,22.1457],[-102.3032,22.1405],[-102.3506,22.1466],[-102.3538,22.1206],[-102.3606,22.1266],[-102.3568,22.1419],[-102.3682,22.143],[-102.3741,22.1358],[-102.3799,22.1386],[-102.3719,22.1709],[-102.3804,22.1721],[-102.3811,22.1869],[-102.3762,22.1946],[-102.3927,22.2041],[-102.3692,22.2044],[-102.361,22.231],[-102.3891,22.2276],[-102.3992,22.2317],[-102.407,22.2283],[-102.4203,22.2352],[-102.4252,22.2345],[-102.4275,22.2301],[-102.4427,22.2359],[-102.4419,22.273],[-102.4513,22.2624],[-102.4522,22.2736],[-102.458,22.278],[-102.4565,22.2863],[-102.4501,22.288],[-102.4561,22.3232],[-102.4622,22.3228],[-102.461,22.3318],[-102.4681,22.3324],[-102.4712,22.3363],[-102.4686,22.3519],[-102.4511,22.3521],[-102.3879,22.3641],[-102.3784,22.3609],[-102.3393,22.3615],[-102.3495,22.3467],[-102.3627,22.3465],[-102.3624,22.3288],[-102.3042,22.332],[-102.3053,22.3192],[-102.3165,22.3129],[-102.3155,22.3087],[-102.3069,22.3031],[-102.2946,22.3008],[-102.2967,22.2895],[-102.2928,22.2915],[-102.2798,22.2878],[-102.2796,22.2816],[-102.2616,22.2857],[-102.2622,22.2945],[-102.255,22.2932],[-102.254,22.2994],[-102.2462,22.2984],[-102.2472,22.3108],[-102.243,22.3203],[-102.2561,22.3211],[-102.255,22.3249],[-102.2472,22.3244],[-102.2451,22.342],[-102.241,22.3418],[-102.2424,22.3468],[-102.2389,22.3546],[-102.2525,22.3679],[-102.2532,22.3745],[-102.212,22.3727],[-102.212,22.3625],[-102.189,22.3624]]]}},{"type":"Feature","properties":{"cve_ent":"01","cve_mun":"008","cvegeo":"01008","nombre":"San José de Gracia"},"geometry":{"type":"Polygon","coordinates":[[[-102.3538,22.1206],[-102.3543,22.117],[-102.3805,22.1271],[-102.3862,22.0903],[-102.4185,22.0805],[-102.4162,22.0281],[-102.4209,22.0196],[-102.4266,22.0184],[-102.4333,21.9951],[-102.4222,21.9908],[-102.4237,21.9887],[-102.4473,21.9867],[-102.4518,21.9797],[-102.4601,21.9827],[-102.4681,21.9813],[-102.4726,21.9965],[-102.4887,21.9956],[-102.489,22.0018],[-102.5014,22.0032],[-102.505,21.9928],[-102.4997,21.9913],[-102.4992,21.9839],[-102.4954,21.9847],[-102.49,21.9681],[-102.4989,21.9698],[-102.5082,21.9768],[-102.5105,21.9736],[-102.5324,21.9706],[-102.5388,21.9666],[-102.542,21.971],[-102.5504,21.9706],[-102.5552,21.9621],[-102.5818,21.9688],[-102.5785,21.9793],[-102.584,21.989],[-102.5808,22.0123],[-102.5975,22.0142],[-102.5929,22.0474],[-102.6023,22.0485],[-102.6022,22.0401],[-102.6176,22.0375],[-102.6156,22.0466],[-102.6086,22.0532],[-102.613,22.0711],[-102.6208,22.0815],[-102.6435,22.0935],[-102.6594,22.0901],[-102.6618,22.0859],[-102.669,22.0876],[-102.6675,22.0933],[-102.6768,22.1002],[-102.684,22.0867],[-102.6912,22.0862],[-102.6926,22.0902],[-102.6848,22.1032],[-102.687,22.1065],[-102.6935,22.1047],[-102.6909,22.1066],[-102.6901,22.1234],[-102.6834,22.1299],[-102.6863,22.1375],[-102.6817,22.1411],[-102.6824,22.1459],[-102.6743,22.1478],[-102.6694,22.1596],[-102.6755,22.1685],[-102.6759,22.1756],[-102.6667,22.1809],[-102.6693,22.194],[-102.6611,22.1909],[-102.6516,22.1931],[-102.6553,22.195],[-102.6458,22.2043],[-102.6437,22.2212],[-102.6393,22.226],[-102.67,22.2457],[-102.6687,22.2919],[-102.5126,22.2924],[-102.5066,22.2938],[-102.5013,22.3043],[-102.4891,22.3035],[-102.4702,22.3092],[-102.4661,22.3223],[-102.4561,22.3232],[-102.4501,22.288],[-102.4565,22.2863],[-102.458,22.278],[-102.4522,22.2736],[-102.4513,22.2624],[-102.4419,22.273],[-102.4427,22.2359],[-102.4275,22.2301],[-102.4252,22.2345],[-102.4203,22.2352],[-102.407,22.2283],[-102.3992,22.2317],[-102.3891,22.2276],[-102.361,22.231],[-102.3692,22.2044],[-102.3927,22.2041],[-102.3762,22.1946],[-102.3811,22.1869],[-102.3804,22.1721],[-102.3719,22.1709],[-102.3799,22.1386],[-102.3741,22.1358],[-102.3682,22.143],[-102.3568,22.1419],[-102.3606,22.1266],[-102.3538,22.1206]]]}},{"type":"Feature","properties":{"cve_ent":"01","cve_mun":"009","cvegeo":"01009","nombre":"Tepezalá"},"geometry":{"type":"Polygon","coordinates":[[[-102.1807,22.3504],[-102.1498,22.3472],[-102.1532,22.2904],[-102.1241,22.287],[-102.1301,22.2411],[-102.1465,22.2338],[-102.1328,22.2152],[-102.133,22.2028],[-102.1281,22.2007],[-102.1371,22.1915],[-102.1265,22.1576],[-102.1279,22.1536],[-102.1354,22.1538],[-102.1364,22.1495],[-102.1489,22.1547],[-102.1642,22.1407],[-102.1678,22.1254],[-102.1757,22.1295],[-102.1863,22.1612],[-102.2014,22.1599],[-102.228,22.1707],[-102.2469,22.171],[-102.2462,22.1779],[-102.2511,22.183],[-102.2765,22.1875],[-102.2773,22.2254],[-102.254,22.2278],[-102.2572,22.233],[-102.2532,22.2406],[-102.2568,22.2467],[-102.2545,22.2516],[-102.2571,22.259],[-102.2542,22.2606],[-102.2567,22.2657],[-102.2502,22.2711],[-102.2553,22.2719],[-102.2534,22.2798],[-102.2466,22.28],[-102.25,22.2892],[-102.2401,22.2929],[-102.2387,22.2974],[-102.2314,22.2965],[-102.2309,22.2993],[-102.2177,22.2947],[-102.2131,22.3144],[-102.1884,22.3178],[-102.1904,22.3191],[-102.1848,22.3404],[-102.1941,22.3506],[-102.1907,22.3526],[-102.189,22.3624],[-102.1774,22.3624],[-102.1807,22.3504]]]}},{"type":"Feature","properties":{"cve_ent":"01","cve_mun":"010","cvegeo":"01010","nombre":"El Llano"},"geometry":{"type":"Polygon","coordinates":[[[-101.9481,22.0088],[-101.8904,21.951],[-101.8858,21.9326],[-101.8818,21.9381],[-101.8846,21.9392],[-101.8727,21.9465],[-101.8353,21.9418],[-101.838,21.9073],[-101.8802,21.9101],[-102.02,21.8625],[-102.0208,21.8512],[-102.0384,21.8532],[-102.0417,21.8231],[-102.0551,21.8164],[-102.0529,21.8133],[-102.058,21.8019],[-102.0645,21.7962],[-102.0688,21.7989],[-102.0717,21.7947],[-102.105,21.803],[-102.1076,21.7991],[-102.115,21.8002],[-102.1173,21.7941],[-102.132,21.7966],[-102.1326,21.7932],[-102.1408,21.7945],[-102.1406,21.797],[-102.146,21.7878],[-102.1535,21.7889],[-102.1505,21.8096],[-102.1604,21.8113],[-102.1579,21.8297],[-102.1708,21.832],[-102.1676,21.8429],[-102.176,21.8438],[-102.1751,21.8705],[-102.1571,21.8692],[-102.1554,21.9108],[-102.1621,21.9078],[-102.162,21.9196],[-102.1661,21.9195],[-102.1642,21.9371],[-102.1313,21.9372],[-102.131,21.9397],[-102.138,21.9432],[-102.1319,21.9768],[-102.1005,21.9727],[-102.1009,21.9649],[-102.0973,21.9609],[-102.0924,21.9611],[-102.0943,21.9723],[-102.0694,21.969],[-102.0687,21.9779],[-102.0972,21.9961],[-102.0978,22.0232],[-102.0649,22.0174],[-102.0601,22.0444],[-102.0548,22.0459],[-102.0508,22.042],[-102.0454,22.0491],[-102.0341,22.052],[-102.0406,22.0583],[-102.0432,22.0566],[-102.05,22.0611],[-102.0343,22.0694],[-102.0221,22.0527],[-102.0228,22.0443],[-102.0114,22.0337],[-102.0076,22.0399],[-101.9875,22.0392],[-101.9919,22.0079],[-101.9574,22.0096],[-101.9614,22.0181],[-101.9532,22.0091],[-101.9481,22.0088]]]}},{"type":"Feature","properties":{"cve_ent":"01","cve_mun":"011","cvegeo":"01011","nombre":"San Francisco de los Romo"},"geometry":{"type":"Polygon","coordinates":[[[-102.1409,22.0753],[-102.1385,22.0602],[-102.1446,22.0354],[-102.1346,22.029],[-102.1532,22.0225],[-102.1584,22.0166],[-102.1578,22.0264],[-102.171,22.0257],[-102.1662,22.0397],[-102.1767,22.0412],[-102.1797,22.0332],[-102.2079,22.0379],[-102.2093,22.0288],[-102.2228,22.0315],[-102.2234,22.0106],[-102.2272,22.01],[-102.2291,21.9992],[-102.2078,21.9947],[-102.2032,21.9716],[-102.2276,21.9748],[-102.23,21.9614],[-102.2345,21.9569],[-102.2667,21.9431],[-102.2664,21.9516],[-102.2741,21.9538],[-102.2723,21.9573],[-102.2788,21.9584],[-102.2735,21.9726],[-102.2892,21.9758],[-102.2887,21.9802],[-102.2831,21.9849],[-102.2836,21.9805],[-102.2704,21.9762],[-102.2692,21.9828],[-102.274,21.9861],[-102.2808,21.9852],[-102.2736,22.0003],[-102.2779,21.9991],[-102.2837,22.003],[-102.283,22.0097],[-102.2701,22.0042],[-102.265,22.0097],[-102.2656,22.0207],[-102.2806,22.0212],[-102.2791,22.0332],[-102.3064,22.0331],[-102.3095,22.0256],[-102.3096,22.0326],[-102.3065,22.0358],[-102.3103,22.0372],[-102.2861,22.063],[-102.2875,22.0742],[-102.2965,22.0755],[-102.2963,22.0843],[-102.2852,22.0826],[-102.2793,22.0892],[-102.2731,22.0879],[-102.2685,22.0799],[-102.2608,22.0794],[-102.2605,22.0872],[-102.2262,22.0861],[-102.2229,22.0816],[-102.2257,22.078],[-102.204,22.0719],[-102.2025,22.0679],[-102.1993,22.0691],[-102.1983,22.064],[-102.2034,22.0619],[-102.2004,22.0549],[-102.194,22.0574],[-102.191,22.0661],[-102.1846,22.0652],[-102.1803,22.0843],[-102.1714,22.0838],[-102.1629,22.1003],[-102.1564,22.0979],[-102.1566,22.0912],[-102.1473,22.0863],[-102.1409,22.0753]]]}}]}