{"type":"FeatureCollection","features":[{"type":"Feature","properties":{"cve_ent":"02","cve_mun":"001","cvegeo":"02001","nombre":"Ensenada"},"geometry":{"type":"MultiPolygon","coordinates":[[[[-115.2163,28.3777],[-115.2119,28.3723],[-115.2068,28.3731],[-115.2041,28.3645],[-115.1977,28.3655],[-115.1973,28.3618],[-115.1942,28.3617],[-115.1953,28.3323],[-115.1862,28.3147],[-115.1741,28.3062],[-115.174,28.2888],[-115.1638,28.2604],[-115.1701,28.2437],[-115.1736,28.2149],[-115.1696,28.2024],[-115.1598,28.1922],[-115.1566,28.166],[-115.1605,28.1504],[-115.1576,28.1441],[-115.1592,28.1378],[-115.1748,28.1238],[-115.1863,28.1054],[-115.1859,28.099],[-115.1824,28.096],[-115.1852,28.0975],[-115.1834,28.0938],[-115.188,28.0866],[-115.1815,28.0695],[-115.1895,28.055],[-115.1809,28.0406],[-115.1856,28.0371],[-115.1853,28.0314],[-115.1963,28.0381],[-115.21,28.0395],[-115.2159,28.0366],[-115.2161,28.0334],[-115.2209,28.0354],[-115.2239,28.031],[-115.2298,28.0295],[-115.2327,28.0299],[-115.2326,28.0345],[-115.2457,28.034],[-115.2554,28.0375],[-115.2521,28.0432],[-115.2655,28.0729],[-115.2783,28.0867],[-115.2895,28.0928],[-115.3069,28.0948],[-115.318,28.0912],[-115.3195,28.0871],[-115.3343,28.0862],[-115.3384,28.0793],[-115.3438,28.08],[-115.3454,28.0743],[-115.3507,28.0741],[-115.3597,28.081],[-115.3565,28.0803],[-115.3584,28.0842],[-115.3528,28.0877],[-115.353,28.0913],[-115.3559,28.0917],[-115.3522,28.0952],[-115.3561,28.107],[-115.3522,28.1082],[-115.353,28.1172],[-115.3463,28.1172],[-115.3381,28.1212],[-115.3381,28.1239],[-115.335,28.1228],[-115.3162,28.1378],[-115.243,28.2209],[-115.2449,28.2268],[-115.2406,28.227],[-115.238,28.2319],[-115.2525,28.2564],[-115.254,28.2694],[-115.2579,28.2734],[-115.2538,28.2862],[-115.2644,28.294],[-115.2616,28.2947],[-115.2629,28.3001],[-115.2571,28.2991],[-115.2574,28.3048],[-115.2541,28.3041],[-115.2551,28.3109],[-115.2496,28.3116],[-115.2477,28.3157],[-115.2494,28.3269],[-115.2459,28.329],[-115.2516,28.3367],[-115.2505,28.3399],[-115.2399,28.3424],[-115.2458,28.3543],[-115.2431,28.3532],[-115.2359,28.3614],[-115.2296,28.3625],[-115.2284,28.3662],[-115.2314,28.3693],[-115.2292,28.3726],[-115.2163,28.3777]]],[[[-115.8743,32.3862],[-115.8478,31.9901],[-115.5605,31.559],[-115.4637,31.4794],[-115.3946,30.9718],[-115.3425,30.815],[-115.3078,30.7724],[-115.3257,30.7334],[-115.5534,30.7193],[-115.5772,31.0477],[-115.5575,31.0749],[-115.572,31.0793],[-115.5869,31.0899],[-115.6028,31.0752],[-115.6112,31.0817],[-115.6228,31.0993],[-115.6205,31.1014],[-115.6269,31.1201],[-115.6423,31.1264],[-115.6928,31.1218],[-115.6917,31.1157],[-115.7215,31.1008],[-115.7311,31.1047],[-115.7423,31.1044],[-115.7442,31.1148],[-115.7499,31.0903],[-115.7741,31.0628],[-115.8233,31.0761],[-115.8527,31.0805],[-115.8918,31.0806],[-115.9114,31.0694],[-115.9367,31.0625],[-115.9608,31.0444],[-115.9867,31.0471],[-115.9963,31.0368],[-116.0257,31.042],[-116.0515,31.0157],[-116.0586,31.0218],[-116.0863,31.0143],[-116.0946,30.9826],[-116.0989,30.9825],[-116.1084,30.991],[-116.1144,30.983],[-116.1345,30.9781],[-116.1466,30.9814],[-116.139,30.9627],[-116.2213,30.9178],[-116.2329,30.9315],[-116.2455,30.9334],[-116.2715,30.9678],[-116.2848,30.9694],[-116.2998,30.9606],[-116.3183,30.9557],[-116.3305,30.9593],[-116.3385,30.9723],[-116.3387,30.9853],[-116.3288,31.0169],[-116.3132,31.0957],[-116.3095,31.1524],[-116.3256,31.1807],[-116.3352,31.1903],[-116.3399,31.2077],[-116.3525,31.2138],[-116.3529,31.2252],[-116.3635,31.247],[-116.3842,31.2664],[-116.3924,31.2836],[-116.3999,31.2837],[-116.4068,31.2922],[-116.4165,31.2928],[-116.4173,31.3028],[-116.4252,31.3098],[-116.433,31.312],[-116.4402,31.325],[-116.4455,31.3234],[-116.4507,31.3314],[-116.4555,31.3287],[-116.4573,31.3326],[-116.4541,31.3325],[-116.453,31.336],[-116.4557,31.3467],[-116.4666,31.3498],[-116.4686,31.3602],[-116.4736,31.3603],[-116.4875,31.3693],[-116.4868,31.38],[-116.502,31.4058],[-116.5006,31.4108],[-116.5129,31.4146],[-116.5123,31.4193],[-116.5217,31.4345],[-116.5445,31.447],[-116.5473,31.446],[-116.5506,31.4521],[-116.571,31.4649],[-116.5826,31.4664],[-116.5966,31.4607],[-116.6025,31.4633],[-116.6087,31.4972],[-116.6342,31.5172],[-116.6485,31.5161],[-116.6467,31.5193],[-116.6602,31.5289],[-116.6594,31.5338],[-116.6665,31.5402],[-116.6646,31.5467],[-116.6692,31.5526],[-116.6785,31.5548],[-116.6808,31.5508],[-116.685,31.5504],[-116.6911,31.5533],[-116.6879,31.5591],[-116.6921,31.5714],[-116.6815,31.5712],[-116.6767,31.5743],[-116.6763,31.5783],[-116.6538,31.5792],[-116.6516,31.5824],[-116.6508,31.5881],[-116.6546,31.5939],[-116.6639,31.6001],[-116.6676,31.6179],[-116.6542,31.6423],[-116.6499,31.6645],[-116.6799,31.6966],[-116.6766,31.6973],[-116.6777,31.6997],[-116.6917,31.7039],[-116.6884,31.7068],[-116.6933,31.7092],[-116.6965,31.716],[-116.7033,31.7161],[-116.7061,31.7116],[-116.7074,31.7144],[-116.7082,31.7115],[-116.714,31.7139],[-116.7171,31.718],[-116.7149,31.725],[-116.7243,31.7226],[-116.7266,31.7338],[-116.7286,31.7318],[-116.7329,31.736],[-116.7343,31.7342],[-116.7366,31.7414],[-116.744,31.7439],[-116.7416,31.7499],[-116.7275,31.7491],[-116.6977,31.7327],[-116.6821,31.7291],[-116.6722,31.719],[-116.6619,31.7191],[-116.6434,31.7343],[-116.6256,31.7723],[-116.619,31.7755],[-116.623,31.7647],[-116.6256,31.7645],[-116.6249,31.7544],[-116.6315,31.7515],[-116.6345,31.736],[-116.638,31.7354],[-116.6359,31.7332],[-116.6401,31.7265],[-116.6528,31.7203],[-116.649,31.7183],[-116.6475,31.7093],[-116.6413,31.7094],[-116.6477,31.7162],[-116.6324,31.733],[-116.6281,31.7326],[-116.6267,31.7378],[-116.6292,31.7376],[-116.6216,31.75],[-116.62,31.7634],[-116.6111,31.7668],[-116.61,31.7709],[-116.6104,31.7748],[-116.6155,31.7751],[-116.6198,31.78],[-116.6121,31.8017],[-116.6096,31.8203],[-116.613,31.8414],[-116.6179,31.845],[-116.6213,31.8412],[-116.621,31.846],[-116.6161,31.8459],[-116.6202,31.851],[-116.6178,31.8529],[-116.621,31.8563],[-116.6232,31.8552],[-116.6204,31.8538],[-116.6243,31.8526],[-116.6249,31.8555],[-116.6218,31.8576],[-116.6264,31.8602],[-116.6316,31.8592],[-116.6293,31.8561],[-116.6335,31.855],[-116.6288,31.8515],[-116.6253,31.844],[-116.6261,31.8403],[-116.6262,31.8444],[-116.64,31.8602],[-116.659,31.8633],[-116.6603,31.8612],[-116.6593,31.8633],[-116.6626,31.8643],[-116.6639,31.8618],[-116.66,31.8604],[-116.6689,31.8614],[-116.6994,31.8948],[-116.7058,31.8939],[-116.7025,31.8906],[-116.7206,31.9024],[-116.7463,31.9021],[-116.7563,31.9137],[-116.7565,31.9446],[-116.762,31.9615],[-116.7688,31.9709],[-116.7804,31.9777],[-116.7907,31.9767],[-116.7995,31.9821],[-116.8242,31.9771],[-116.8334,31.9789],[-116.8413,31.9864],[-116.8515,31.9856],[-116.8606,31.9994],[-116.8645,32.0001],[-116.8644,32.0042],[-116.881,32.0187],[-116.8871,32.0344],[-116.8845,32.0431],[-116.8876,32.0489],[-116.8831,32.0503],[-116.8849,32.0544],[-116.8821,32.0533],[-116.8789,32.0542],[-116.8778,32.0557],[-116.8788,32.0547],[-116.88,32.0546],[-116.8779,32.0565],[-116.8797,32.057],[-116.8804,32.0547],[-116.8853,32.0553],[-116.8823,32.0563],[-116.8812,32.0676],[-116.8823,32.0796],[-116.8866,32.0862],[-116.8845,32.0883],[-116.5293,32.2454],[-116.1462,32.2374],[-115.8743,32.3862]]],[[[-116.7985,31.8068],[-116.7879,31.8048],[-116.7869,31.791],[-116.7985,31.8068]]],[[[-116.8044,31.8135],[-116.8008,31.8112],[-116.8014,31.8059],[-116.8027,31.8098],[-116.8093,31.8099],[-116.8044,31.8135]]]]}},{"type":"Feature","properties":{"cve_ent":"02","cve_mun":"002","cvegeo":"02002","nombre":"Mexicali"},"geometry":{"type":"MultiPolygon","coordinates":[[[[-114.7591,31.8124],[-114.7436,31.7958],[-114.7478,31.7985],[-114.7344,31.7698],[-114.714,31.7488],[-114.6687,31.7188],[-114.6535,31.6949],[-114.6506,31.6799],[-114.6682,31.6763],[-114.6695,31.6829],[-114.688,31.6869],[-114.696,31.6994],[-114.7116,31.7103],[-114.6941,31.695],[-114.6897,31.6817],[-114.693,31.6791],[-114.7002,31.6803],[-114.7043,31.687],[-114.7109,31.6816],[-114.7175,31.6812],[-114.7253,31.6864],[-114.7221,31.6946],[-114.7255,31.6932],[-114.7308,31.6974],[-114.7407,31.6951],[-114.7639,31.7057],[-114.7911,31.73],[-114.8002,31.7631],[-114.7999,31.8126],[-114.7862,31.8187],[-114.7697,31.8168],[-114.7591,31.8124]]],[[[-114.7844,32.6255],[-114.7904,32.6211],[-114.8042,32.625],[-114.809,32.6169],[-114.8013,32.5884],[-114.8123,32.5622],[-114.8082,32.5593],[-114.7949,32.561],[-114.7918,32.5578],[-114.8043,32.5443],[-114.8032,32.53],[-114.8106,32.5218],[-114.8078,32.5103],[-114.8131,32.5029],[-114.8159,32.483],[-114.8238,32.4801],[-114.8325,32.4814],[-114.8392,32.4754],[-114.8491,32.4734],[-114.8676,32.4813],[-114.8734,32.4892],[-114.8839,32.4923],[-114.8973,32.4878],[-114.9001,32.4835],[-114.929,32.4848],[-114.935,32.4819],[-114.9394,32.4684],[-114.9319,32.4397],[-114.9415,32.4311],[-114.9483,32.4193],[-114.9615,32.4117],[-114.9607,32.4027],[-114.9536,32.3966],[-114.9545,32.3934],[-114.964,32.3942],[-114.9685,32.3907],[-114.9632,32.3767],[-114.9619,32.3547],[-114.9666,32.3388],[-114.9902,32.3202],[-114.9935,32.3117],[-115.0076,32.3054],[-115.0364,32.2778],[-115.0427,32.2701],[-115.0417,32.2613],[-115.053,32.2452],[-115.0471,32.2431],[-115.042,32.233],[-115.0058,32.2064],[-114.9753,32.178],[-114.9897,32.1464],[-114.957,32.0386],[-114.9674,31.9969],[-114.9655,31.9184],[-114.9451,31.9101],[-114.9379,31.8908],[-114.9136,31.8813],[-114.9097,31.8673],[-114.8907,31.8723],[-114.8716,31.8645],[-114.857,31.8665],[-114.8432,31.8636],[-114.8257,31.8288],[-114.8189,31.8209],[-114.8069,31.8167],[-114.8107,31.7846],[-114.8148,31.7728],[-114.8182,31.7726],[-114.8197,31.768],[-114.8217,31.7329],[-114.8134,31.7182],[-114.819,31.7131],[-114.8127,31.7092],[-114.8057,31.696],[-114.8009,31.6965],[-114.8055,31.6939],[-114.8025,31.6895],[-114.7968,31.6884],[-114.7939,31.6776],[-114.7909,31.6764],[-114.7916,31.6658],[-114.7858,31.6477],[-114.7888,31.6425],[-114.7832,31.637],[-114.7858,31.6353],[-114.7836,31.6312],[-114.7872,31.6282],[-114.7866,31.6235],[-114.7923,31.6214],[-114.7916,31.6146],[-114.8052,31.6091],[-114.8119,31.6135],[-114.8103,31.6094],[-114.8146,31.6091],[-114.8126,31.6083],[-114.8141,31.6065],[-114.8194,31.6085],[-114.822,31.616],[-114.8307,31.621],[-114.8404,31.6095],[-114.8389,31.6041],[-114.8416,31.6028],[-114.838,31.5923],[-114.8464,31.5953],[-114.8475,31.5887],[-114.8553,31.5855],[-114.8524,31.5788],[-114.8564,31.5759],[-114.8543,31.5704],[-114.8622,31.5417],[-114.8614,31.5357],[-114.8687,31.528],[-114.8613,31.5103],[-114.8581,31.5095],[-114.858,31.5017],[-114.8561,31.5026],[-114.8586,31.4887],[-114.853,31.4868],[-114.8578,31.4866],[-114.8531,31.4731],[-114.8554,31.4459],[-114.86,31.4362],[-114.8567,31.4326],[-114.863,31.4308],[-114.8551,31.4296],[-114.8539,31.4272],[-114.8586,31.4288],[-114.8595,31.4256],[-114.8566,31.4249],[-114.8635,31.4219],[-114.8624,31.4185],[-114.8703,31.422],[-114.8681,31.414],[-114.8707,31.4129],[-114.8738,31.4004],[-114.8651,31.4009],[-114.8594,31.3956],[-114.8618,31.3932],[-114.8568,31.3945],[-114.8571,31.3896],[-114.9878,31.3616],[-115.0298,31.4484],[-115.0532,31.4405],[-115.0695,31.4764],[-115.0751,31.5611],[-115.0723,31.675],[-115.0563,31.7125],[-115.1066,31.8055],[-115.1475,31.8258],[-115.1771,31.8467],[-115.1812,31.857],[-115.1834,31.8328],[-115.1875,31.8303],[-115.2277,31.8176],[-115.2928,31.7911],[-115.3119,31.8046],[-115.3833,31.7723],[-115.5373,31.6698],[-115.5666,31.6434],[-115.6045,31.624],[-115.8478,31.9901],[-115.8743,32.3862],[-115.8822,32.5933],[-115.8793,32.6361],[-114.7197,32.7187],[-114.7461,32.676],[-114.7502,32.6617],[-114.7623,32.6516],[-114.7646,32.6432],[-114.7814,32.6326],[-114.7844,32.6255]]]]}},{"type":"Feature","properties":{"cve_ent":"02","cve_mun":"003","cvegeo":"02003","nombre":"Tecate"},"geometry":{"type":"Polygon","coordinates":[[[-115.8743,32.3862],[-116.1462,32.2374],[-116.5293,32.2454],[-116.6068,32.2112],[-116.6098,32.2151],[-116.6109,32.2442],[-116.6143,32.243],[-116.6209,32.2653],[-116.6353,32.2743],[-116.6892,32.2861],[-116.6911,32.3263],[-116.6567,32.354],[-116.6539,32.351],[-116.6394,32.3638],[-116.6658,32.3875],[-116.653,32.3983],[-116.6685,32.4113],[-116.6755,32.4551],[-116.6815,32.459],[-116.6911,32.4835],[-116.7157,32.473],[-116.7211,32.4804],[-116.7245,32.48],[-116.7122,32.5085],[-116.7111,32.5203],[-116.7201,32.5241],[-116.7234,32.5207],[-116.7312,32.5215],[-116.7307,32.5263],[-116.7373,32.5282],[-116.7427,32.5387],[-116.751,32.5415],[-116.7553,32.5566],[-116.7332,32.5582],[-116.7388,32.5668],[-115.8793,32.6361],[-115.8822,32.5933],[-115.8743,32.3862]]]}},{"type":"Feature","properties":{"cve_ent":"02","cve_mun":"004","cvegeo":"02004","nombre":"Tijuana"},"geometry":{"type":"MultiPolygon","coordinates":[[[[-116.7553,32.5566],[-116.751,32.5415],[-116.7427,32.5387],[-116.7373,32.5282],[-116.7307,32.5263],[-116.7312,32.5215],[-116.7234,32.5207],[-116.7201,32.5241],[-116.7111,32.5203],[-116.7122,32.5085],[-116.7245,32.48],[-116.7211,32.4804],[-116.7157,32.473],[-116.6911,32.4835],[-116.6815,32.459],[-116.6755,32.4551],[-116.6685,32.4113],[-116.653,32.3983],[-116.6658,32.3875],[-116.6394,32.3638],[-116.6539,32.351],[-116.6567,32.354],[-116.6911,32.3263],[-116.6892,32.2861],[-116.6353,32.2743],[-116.6209,32.2653],[-116.6143,32.243],[-116.6109,32.2442],[-116.6098,32.2151],[-116.6068,32.2112],[-116.6723,32.1824],[-116.8225,32.2983],[-116.9493,32.2984],[-116.9493,32.3153],[-116.9068,32.3351],[-116.9493,32.3433],[-116.9493,32.3659],[-116.9624,32.3788],[-116.9742,32.3748],[-116.9858,32.4019],[-117.0202,32.4135],[-117.0201,32.4164],[-117.0379,32.4143],[-117.0393,32.4111],[-117.0461,32.4124],[-117.0524,32.4169],[-117.0506,32.4208],[-117.0629,32.4264],[-117.0674,32.4105],[-117.0922,32.4087],[-117.1027,32.4389],[-117.1133,32.4505],[-117.1245,32.4853],[-117.1245,32.5343],[-116.7388,32.5668],[-116.7332,32.5582],[-116.7553,32.5566]]],[[[-117.2508,32.4197],[-117.2422,32.4114],[-117.24,32.3911],[-117.2443,32.395],[-117.2443,32.405],[-117.2492,32.4108],[-117.2508,32.4197]]],[[[-117.2598,32.4189],[-117.2594,32.4198],[-117.2573,32.4185],[-117.2595,32.4188],[-117.2596,32.4147],[-117.2598,32.4189]]],[[[-117.2989,32.4455],[-117.2967,32.4437],[-117.2941,32.4337],[-117.3,32.4403],[-117.2989,32.4455]]]]}},{"type":"Feature","properties":{"cve_ent":"02","cve_mun":"005","cvegeo":"02005","nombre":"Playas de Rosarito"},"geometry":{"type":"Polygon","coordinates":[[[-116.6723,32.1824],[-116.8845,32.0883],[-116.8884,32.1325],[-116.9011,32.1626],[-116.9078,32.1651],[-116.9073,32.1761],[-116.9119,32.1815],[-116.9099,32.183],[-116.9132,32.1862],[-116.9147,32.2055],[-116.9233,32.2277],[-116.9355,32.2419],[-116.9571,32.2519],[-117.0044,32.264],[-117.0109,32.2686],[-117.0203,32.2673],[-117.0256,32.27],[-117.0311,32.2796],[-117.0393,32.2856],[-117.0513,32.3229],[-117.0575,32.3341],[-117.0596,32.3317],[-117.0589,32.3374],[-117.0713,32.3648],[-117.0759,32.3683],[-117.0711,32.3694],[-117.0713,32.37],[-117.0762,32.3688],[-117.0754,32.3672],[-117.0767,32.368],[-117.0755,32.3727],[-117.091,32.3978],[-117.0964,32.4156],[-117.0943,32.4165],[-117.0922,32.4087],[-117.0674,32.4105],[-117.0629,32.4264],[-117.0506,32.4208],[-117.0524,32.4169],[-117.0461,32.4124],[-117.0393,32.4111],[-117.0379,32.4143],[-117.0201,32.4164],[-117.0202,32.4135],[-116.9858,32.4019],[-116.9742,32.3748],[-116.9624,32.3788],[-116.9493,32.3659],[-116.9493,32.3433],[-116.9068,32.3351],[-116.9493,32.3153],[-116.9493,32.2984],[-116.8225,32.2983],[-116.6723,32.1824]]]}},{"type":"Feature","properties":{"cve_ent":"02","cve_mun":"006","cvegeo":"02006","nombre":"San Quintín"},"geometry":{"type":"MultiPolygon","coordinates":[[[[-112.307,28.3909],[-112.2968,28.3814],[-112.3008,28.3778],[-112.2997,28.3729],[-112.3157,28.3786],[-112.3201,28.3762],[-112.3206,28.3822],[-112.3165,28.3822],[-112.315,28.387],[-112.3101,28.387],[-112.307,28.3909]]],[[[-112.8923,28.6783],[-112.8674,28.6711],[-112.8602,28.673],[-112.8479,28.662],[-112.8387,28.6612],[-112.8375,28.657],[-112.803,28.6358],[-112.7978,28.6274],[-112.7843,28.6188],[-112.78,28.6103],[-112.764,28.6023],[-112.759,28.5939],[-112.7526,28.5915],[-112.7722,28.5769],[-112.7826,28.5804],[-112.7835,28.5862],[-112.7893,28.5873],[-112.7919,28.5993],[-112.7989,28.6106],[-112.8085,28.6156],[-112.8099,28.6192],[-112.8298,28.6273],[-112.8438,28.6402],[-112.8535,28.6411],[-112.8557,28.6442],[-112.8678,28.644],[-112.8668,28.6529],[-112.8721,28.655],[-112.8782,28.6658],[-112.8914,28.6747],[-112.8923,28.6783]]],[[[-115.6205,31.1014],[-115.6228,31.0993],[-115.6112,31.0817],[-115.6028,31.0752],[-115.5869,31.0899],[-115.572,31.0793],[-115.5575,31.0749],[-115.5772,31.0477],[-115.5534,30.7193],[-115.3257,30.7334],[-115.3078,30.7724],[-115.2365,30.7721],[-115.2148,30.679],[-115.1563,30.6036],[-115.0963,30.5594],[-115.1009,30.5463],[-115.1211,30.5178],[-115.1059,30.4963],[-115.127,30.4668],[-115.122,30.4218],[-115.0893,30.4288],[-115.0486,30.4509],[-114.9687,30.406],[-114.9662,30.3578],[-114.9525,30.3061],[-114.8754,30.2262],[-114.8455,30.1232],[-114.841,30.0746],[-114.7872,30.0557],[-114.6914,29.9978],[-114.486,29.5931],[-114.3396,29.5493],[-114.2814,29.3595],[-114.2248,29.3243],[-114.1084,29.292],[-114.0279,29.286],[-113.9993,29.2946],[-113.9666,29.2987],[-113.959,29.3592],[-113.9298,29.3963],[-113.9316,29.4167],[-113.9227,29.4306],[-113.8931,29.4341],[-113.8818,29.4448],[-113.8485,29.439],[-113.8358,29.4556],[-113.8314,29.4491],[-113.8321,29.4352],[-113.8258,29.4294],[-113.8055,29.4262],[-113.7976,29.4179],[-113.7885,29.4176],[-113.7857,29.4136],[-113.7722,29.4097],[-113.7616,29.3915],[-113.726,29.3668],[-113.7166,29.3491],[-113.707,29.3419],[-113.6949,29.3245],[-113.6844,29.3195],[-113.6684,29.3046],[-113.6583,29.302],[-113.6566,29.2974],[-113.6375,29.2836],[-113.6253,29.2533],[-113.653,29.2242],[-113.6563,29.2093],[-113.6392,29.1981],[-113.643,29.1843],[-113.6362,29.1789],[-113.6353,29.1734],[-113.6272,29.1754],[-113.6209,29.1609],[-113.6129,29.1601],[-113.6091,29.1637],[-113.6051,29.1459],[-113.5933,29.1304],[-113.583,29.127],[-113.5779,29.1193],[-113.5714,29.1166],[-113.5629,29.0859],[-113.5574,29.082],[-113.5506,29.0678],[-113.5387,29.058],[-113.539,29.0399],[-113.5345,29.0323],[-113.5383,29.0311],[-113.5371,29.0365],[-113.5411,29.0393],[-113.5491,29.04],[-113.5607,29.0233],[-113.5631,29.0073],[-113.5607,28.9993],[-113.5472,28.985],[-113.5465,28.9666],[-113.5418,28.9558],[-113.5425,28.9538],[-113.5454,28.9625],[-113.5562,28.9539],[-113.5574,28.9467],[-113.5476,28.9333],[-113.5453,28.9233],[-113.5348,28.906],[-113.527,28.9],[-113.5261,28.8931],[-113.5035,28.8894],[-113.4795,28.8943],[-113.479,28.9027],[-113.4715,28.9142],[-113.478,28.9178],[-113.477,28.92],[-113.4831,28.9206],[-113.4874,28.928],[-113.486,28.9325],[-113.4803,28.9318],[-113.4832,28.9379],[-113.4815,28.9418],[-113.4744,28.9435],[-113.48,28.9478],[-113.47,28.9493],[-113.4579,28.9439],[-113.4468,28.9512],[-113.4555,28.9442],[-113.4526,28.9393],[-113.4472,28.9397],[-113.4479,28.9456],[-113.441,28.9487],[-113.4383,28.9598],[-113.433,28.9521],[-113.4241,28.9491],[-113.4287,28.9351],[-113.4144,28.9237],[-113.405,28.9263],[-113.4061,28.9316],[-113.4013,28.9357],[-113.3855,28.9396],[-113.3827,28.9357],[-113.3863,28.9292],[-113.3911,28.9291],[-113.3939,28.915],[-113.3678,28.9039],[-113.3781,28.9021],[-113.3805,28.8938],[-113.3677,28.8772],[-113.3572,28.8739],[-113.366,28.8703],[-113.3703,28.8612],[-113.3707,28.8372],[-113.3641,28.8224],[-113.3514,28.8169],[-113.356,28.813],[-113.3539,28.8055],[-113.3405,28.8021],[-113.312,28.8034],[-113.3028,28.8095],[-113.3026,28.8126],[-113.2952,28.8137],[-113.2949,28.8186],[-113.2856,28.8199],[-113.287,28.8254],[-113.2833,28.8281],[-113.2687,28.8316],[-113.2598,28.8407],[-113.2516,28.8407],[-113.2488,28.8369],[-113.2453,28.8388],[-113.2426,28.8341],[-113.234,28.8358],[-113.2305,28.828],[-113.2207,28.825],[-113.2139,28.8147],[-113.2123,28.8031],[-113.2012,28.7982],[-113.1964,28.7925],[-113.1987,28.7792],[-113.1939,28.774],[-113.1919,28.765],[-113.1947,28.7494],[-113.1893,28.7302],[-113.1855,28.7275],[-113.1821,28.7152],[-113.1751,28.7115],[-113.1767,28.7048],[-113.1729,28.7034],[-113.1732,28.6952],[-113.1688,28.6919],[-113.1688,28.6844],[-113.1588,28.6601],[-113.1347,28.6421],[-113.1288,28.6323],[-113.1302,28.598],[-113.1145,28.5584],[-113.1137,28.527],[-113.1038,28.5054],[-113.0914,28.497],[-113.0805,28.494],[-113.075,28.485],[-113.0387,28.4751],[-113.0344,28.4662],[-113.0154,28.4575],[-113.0012,28.4545],[-112.971,28.4568],[-112.903,28.4751],[-112.885,28.4633],[-112.8882,28.4567],[-112.8834,28.4565],[-112.8827,28.451],[-112.8742,28.4501],[-112.8825,28.4379],[-112.8801,28.4343],[-112.8685,28.4321],[-112.8667,28.4253],[-112.8625,28.4266],[-112.8664,28.4322],[-112.8607,28.4339],[-112.859,28.4402],[-112.8465,28.4408],[-112.8478,28.4301],[-112.8442,28.422],[-112.8511,28.4194],[-112.8598,28.4039],[-112.855,28.3987],[-112.8535,28.3874],[-112.8493,28.3821],[-112.8547,28.3736],[-112.8529,28.366],[-112.8559,28.3652],[-112.8695,28.3368],[-112.8755,28.3116],[-112.8738,28.3041],[-112.8683,28.2998],[-112.8732,28.2825],[-112.8634,28.268],[-112.8429,28.2536],[-112.8239,28.2287],[-112.8046,28.2083],[-112.8014,28.2084],[-112.8017,28.2037],[-112.7866,28.1967],[-112.796,28.1877],[-112.7976,28.1744],[-112.8062,28.1607],[-112.8118,28.1376],[-112.8125,28.1169],[-112.8084,28.111],[-112.8098,28.1073],[-112.803,28.0845],[-112.7925,28.0776],[-112.7888,28.0678],[-112.8005,28.0524],[-112.8046,28.0276],[-112.7997,28.0151],[-112.7906,28.0066],[-112.7648,28.0],[-114.2054,28.0],[-114.1756,28.0335],[-114.1363,28.0851],[-114.1197,28.0815],[-114.116,28.0717],[-114.1151,28.0483],[-114.1354,28.0295],[-114.1331,28.0179],[-114.1275,28.0128],[-114.1232,28.0153],[-114.1249,28.0211],[-114.1137,28.0259],[-114.1198,28.0365],[-114.1185,28.0373],[-114.115,28.0291],[-114.1127,28.0253],[-114.1117,28.0248],[-114.1116,28.0242],[-114.1107,28.0236],[-114.1135,28.0277],[-114.1077,28.0335],[-114.1022,28.0366],[-114.0934,28.036],[-114.0946,28.0314],[-114.099,28.0338],[-114.0972,28.031],[-114.1036,28.0236],[-114.1017,28.0213],[-114.107,28.0226],[-114.1014,28.0175],[-114.1026,28.0196],[-114.0997,28.0196],[-114.1021,28.0242],[-114.0837,28.0264],[-114.079,28.0411],[-114.0726,28.0465],[-114.0612,28.0462],[-114.0648,28.0523],[-114.0779,28.0568],[-114.0783,28.0545],[-114.0918,28.0649],[-114.0901,28.0621],[-114.0965,28.0654],[-114.0924,28.0579],[-114.0992,28.0591],[-114.1017,28.0995],[-114.1027,28.0967],[-114.1006,28.1081],[-114.1099,28.1194],[-114.1065,28.1299],[-114.0793,28.1716],[-114.0654,28.207],[-114.0593,28.2087],[-114.0574,28.2051],[-114.0612,28.2044],[-114.0578,28.2025],[-114.0638,28.185],[-114.061,28.1714],[-114.0665,28.1559],[-114.077,28.1457],[-114.0746,28.1343],[-114.0761,28.115],[-114.0609,28.0822],[-114.058,28.0822],[-114.0588,28.086],[-114.0557,28.0812],[-114.0481,28.0799],[-114.0493,28.0864],[-114.0404,28.0907],[-114.0483,28.1043],[-114.054,28.1233],[-114.0505,28.1478],[-114.0392,28.1615],[-114.039,28.1707],[-114.0449,28.1759],[-114.0461,28.1732],[-114.0563,28.1728],[-114.0516,28.1806],[-114.0544,28.1846],[-114.0501,28.1905],[-114.0368,28.1808],[-114.0354,28.1854],[-114.0474,28.193],[-114.0513,28.201],[-114.0524,28.2239],[-114.0643,28.2424],[-114.0647,28.2458],[-114.0591,28.2474],[-114.067,28.2587],[-114.0648,28.2604],[-114.0777,28.2633],[-114.0798,28.2685],[-114.0764,28.2717],[-114.0792,28.2711],[-114.0804,28.2686],[-114.0793,28.2642],[-114.0752,28.2577],[-114.0785,28.2593],[-114.0799,28.2569],[-114.0764,28.2509],[-114.0749,28.25],[-114.074,28.2491],[-114.074,28.2484],[-114.0826,28.2571],[-114.0816,28.2517],[-114.0866,28.2551],[-114.0888,28.2527],[-114.0865,28.2492],[-114.0925,28.25],[-114.082,28.2464],[-114.0913,28.2459],[-114.0958,28.2407],[-114.1031,28.2388],[-114.1154,28.243],[-114.1168,28.2518],[-114.125,28.2568],[-114.0909,28.3228],[-114.064,28.387],[-114.0499,28.4315],[-114.0455,28.4637],[-114.0505,28.473],[-114.0683,28.4867],[-114.0692,28.5141],[-114.0795,28.5218],[-114.0866,28.5228],[-114.0964,28.5461],[-114.1165,28.559],[-114.1333,28.5633],[-114.1496,28.5595],[-114.1613,28.5692],[-114.1565,28.5855],[-114.1552,28.6086],[-114.1639,28.6406],[-114.1838,28.6571],[-114.2144,28.6621],[-114.2247,28.6666],[-114.2402,28.6663],[-114.2395,28.664],[-114.2476,28.6586],[-114.2454,28.6529],[-114.259,28.664],[-114.2692,28.66],[-114.2717,28.6646],[-114.2706,28.6905],[-114.279,28.6953],[-114.2828,28.7039],[-114.3016,28.7056],[-114.3015,28.711],[-114.3052,28.7131],[-114.3073,28.7201],[-114.316,28.7269],[-114.3407,28.7322],[-114.3472,28.7309],[-114.3432,28.7531],[-114.344,28.7577],[-114.3476,28.7577],[-114.3517,28.765],[-114.3486,28.7723],[-114.3598,28.7799],[-114.3607,28.7945],[-114.3731,28.8114],[-114.379,28.8132],[-114.3862,28.8066],[-114.3969,28.8162],[-114.3987,28.8333],[-114.4054,28.8372],[-114.4029,28.8384],[-114.4063,28.8626],[-114.4174,28.8795],[-114.4265,28.8839],[-114.4378,28.8758],[-114.4404,28.8895],[-114.4497,28.9065],[-114.453,28.909],[-114.4612,28.9073],[-114.4888,28.932],[-114.5055,28.9349],[-114.5114,28.93],[-114.5259,28.9319],[-114.5295,28.9278],[-114.5276,28.9234],[-114.531,28.9178],[-114.5364,28.9278],[-114.5456,28.9343],[-114.5435,28.9395],[-114.5487,28.9555],[-114.5625,28.9704],[-114.5765,28.9751],[-114.5846,28.9698],[-114.5814,28.9653],[-114.5921,28.9698],[-114.5915,28.9735],[-114.5985,28.9756],[-114.5978,28.9814],[-114.6014,28.9863],[-114.6023,28.992],[-114.5994,28.9934],[-114.6021,28.9956],[-114.5994,29.0002],[-114.6047,29.0015],[-114.6012,29.0046],[-114.6008,29.0112],[-114.6069,29.0201],[-114.6047,29.0274],[-114.6086,29.0574],[-114.6126,29.0638],[-114.6185,29.0632],[-114.6211,29.078],[-114.6273,29.0902],[-114.6361,29.098],[-114.6521,29.0967],[-114.6758,29.1132],[-114.6833,29.109],[-114.6964,29.1104],[-114.7026,29.1012],[-114.7104,29.1114],[-114.7161,29.1101],[-114.7175,29.1208],[-114.7227,29.1264],[-114.7254,29.1358],[-114.729,29.1379],[-114.7346,29.1353],[-114.7368,29.1388],[-114.7345,29.1423],[-114.7356,29.1616],[-114.7444,29.1824],[-114.7519,29.1849],[-114.7543,29.1817],[-114.7685,29.1964],[-114.7735,29.1976],[-114.777,29.1941],[-114.7816,29.198],[-114.7858,29.197],[-114.7972,29.211],[-114.8052,29.209],[-114.8126,29.2136],[-114.823,29.2357],[-114.8316,29.2414],[-114.8375,29.2369],[-114.8462,29.2461],[-114.8507,29.26],[-114.8587,29.2656],[-114.8635,29.2757],[-114.8735,29.2844],[-114.8792,29.2845],[-114.8876,29.2979],[-114.8996,29.3046],[-114.9041,29.3121],[-114.9116,29.3146],[-114.9505,29.3606],[-114.9676,29.3754],[-114.9824,29.3823],[-115.012,29.3853],[-115.0302,29.3979],[-115.044,29.4016],[-115.0732,29.4165],[-115.0953,29.4167],[-115.1069,29.4214],[-115.1302,29.418],[-115.1402,29.4226],[-115.1538,29.4207],[-115.1792,29.4315],[-115.1895,29.4281],[-115.199,29.4528],[-115.2113,29.4724],[-115.2294,29.4864],[-115.2382,29.5029],[-115.2533,29.5162],[-115.2772,29.5252],[-115.2987,29.5407],[-115.3162,29.5429],[-115.3412,29.556],[-115.3696,29.5604],[-115.3786,29.5581],[-115.3938,29.5747],[-115.4077,29.5779],[-115.4149,29.5924],[-115.428,29.6008],[-115.4441,29.6177],[-115.4579,29.6251],[-115.4784,29.6268],[-115.4931,29.6168],[-115.5061,29.6171],[-115.5246,29.6353],[-115.5406,29.6431],[-115.5566,29.6613],[-115.5637,29.6637],[-115.5742,29.6815],[-115.5861,29.693],[-115.6022,29.698],[-115.6193,29.695],[-115.6787,29.7439],[-115.6868,29.745],[-115.6993,29.7548],[-115.6865,29.8075],[-115.6848,29.8338],[-115.7019,29.9],[-115.7234,29.9285],[-115.7429,29.9479],[-115.7883,29.9594],[-115.8038,29.9583],[-115.8115,29.9479],[-115.8135,29.9499],[-115.8094,29.9562],[-115.8114,29.9588],[-115.7965,30.0096],[-115.7813,30.0909],[-115.7901,30.111],[-115.7881,30.1169],[-115.8023,30.134],[-115.8002,30.1408],[-115.803,30.152],[-115.7963,30.1816],[-115.7947,30.2122],[-115.7964,30.2509],[-115.8034,30.2806],[-115.8161,30.3086],[-115.8263,30.3186],[-115.8403,30.3474],[-115.8621,30.3675],[-115.9011,30.3931],[-115.9193,30.4008],[-115.9394,30.404],[-115.9668,30.3989],[-115.9873,30.3882],[-115.9853,30.3949],[-115.9716,30.4106],[-115.9682,30.4063],[-115.964,30.4109],[-115.959,30.4083],[-115.9372,30.411],[-115.9433,30.4196],[-115.9413,30.4261],[-115.9435,30.4261],[-115.9417,30.4333],[-115.944,30.434],[-115.9398,30.4334],[-115.9452,30.4364],[-115.9444,30.437],[-115.9413,30.4362],[-115.9409,30.4365],[-115.9438,30.4388],[-115.9386,30.4427],[-115.9438,30.4464],[-115.9337,30.4581],[-115.9507,30.4626],[-115.9609,30.4797],[-115.9682,30.4862],[-115.978,30.4848],[-115.9822,30.4942],[-115.977,30.4953],[-115.977,30.4987],[-115.9928,30.4989],[-115.9892,30.5115],[-115.9925,30.5051],[-115.9984,30.5044],[-115.9996,30.4975],[-115.9878,30.4913],[-115.981,30.4823],[-115.9783,30.4842],[-115.9798,30.4782],[-115.9749,30.4768],[-115.9746,30.4765],[-115.9742,30.476],[-115.9741,30.4757],[-115.9787,30.4722],[-115.9776,30.4693],[-115.9723,30.4665],[-115.969,30.4692],[-115.963,30.4632],[-115.9636,30.4537],[-115.9579,30.451],[-115.9566,30.446],[-115.9612,30.4421],[-115.9573,30.4381],[-115.965,30.436],[-115.9713,30.4269],[-115.9782,30.4273],[-115.9932,30.4408],[-115.9953,30.4513],[-116.0033,30.4542],[-116.0149,30.4501],[-116.0215,30.4559],[-116.0273,30.4542],[-116.0145,30.4415],[-116.0165,30.4376],[-116.0137,30.4287],[-115.9947,30.4066],[-115.9962,30.3868],[-115.979,30.3644],[-115.9845,30.3569],[-115.9888,30.3568],[-115.9948,30.3606],[-116.0008,30.3596],[-116.0075,30.3655],[-116.0052,30.3858],[-116.012,30.4169],[-116.0201,30.4324],[-116.0321,30.4369],[-116.0359,30.458],[-116.0443,30.4636],[-116.043,30.4671],[-116.0485,30.4725],[-116.0484,30.4927],[-116.0436,30.5036],[-116.0322,30.5743],[-116.0281,30.6648],[-116.0325,30.6974],[-116.0468,30.7189],[-116.0495,30.7669],[-116.0537,30.7857],[-116.0644,30.807],[-116.0747,30.8168],[-116.0872,30.8218],[-116.0964,30.819],[-116.1066,30.8236],[-116.1511,30.8606],[-116.1609,30.8636],[-116.169,30.8605],[-116.1764,30.8629],[-116.1912,30.8782],[-116.2049,30.8872],[-116.2103,30.9056],[-116.2166,30.9155],[-116.2215,30.9178],[-116.139,30.9627],[-116.1466,30.9814],[-116.1345,30.9781],[-116.1144,30.983],[-116.1084,30.991],[-116.0989,30.9825],[-116.0946,30.9826],[-116.0863,31.0143],[-116.0586,31.0218],[-116.0515,31.0157],[-116.0257,31.042],[-115.9963,31.0368],[-115.9867,31.0471],[-115.9608,31.0444],[-115.9367,31.0625],[-115.9114,31.0694],[-115.8918,31.0806],[-115.8527,31.0805],[-115.8233,31.0761],[-115.7741,31.0628],[-115.7499,31.0903],[-115.7442,31.1148],[-115.7423,31.1044],[-115.7311,31.1047],[-115.7215,31.1008],[-115.6917,31.1157],[-115.6928,31.1218],[-115.6423,31.1264],[-115.6269,31.1201],[-115.6205,31.1014]]],[[[-112.9314,28.7094],[-112.9208,28.6997],[-112.9158,28.6982],[-112.9132,28.7007],[-112.9096,28.6965],[-112.8976,28.6972],[-112.8984,28.6847],[-112.8951,28.6799],[-112.9146,28.6913],[-112.9314,28.6964],[-112.9348,28.7015],[-112.9314,28.7094]]],[[[-112.9043,28.6993],[-112.9037,28.6985],[-112.9047,28.6981],[-112.9043,28.6993]]],[[[-112.9618,28.735],[-112.9529,28.7256],[-112.9527,28.7285],[-112.9508,28.7274],[-112.9463,28.7172],[-112.9518,28.7248],[-112.9579,28.7226],[-112.9584,28.7278],[-112.9657,28.7311],[-112.9618,28.735]]],[[[-112.9641,28.7247],[-112.9619,28.7233],[-112.9645,28.7238],[-112.9641,28.7247]]],[[[-112.9667,28.7344],[-112.966,28.7333],[-112.9671,28.7338],[-112.9667,28.7344]]],[[[-112.9856,28.8265],[-112.9751,28.8251],[-112.9767,28.821],[-112.9863,28.824],[-112.9856,28.8265]]],[[[-112.9992,28.8369],[-112.999,28.8363],[-112.9996,28.8366],[-112.9992,28.8369]]],[[[-113.0277,28.8876],[-113.03,28.8858],[-113.0313,28.8876],[-113.0277,28.8876]]],[[[-113.0391,28.9001],[-113.0327,28.8993],[-113.0326,28.8961],[-113.0404,28.8845],[-113.0445,28.8837],[-113.048,28.8944],[-113.0445,28.8901],[-113.0408,28.8908],[-113.0374,28.8969],[-113.0391,28.9001]]],[[[-113.0436,28.9121],[-113.0433,28.9107],[-113.0443,28.9112],[-113.0436,28.9121]]],[[[-113.0829,29.0685],[-113.0866,29.0623],[-113.0926,29.0629],[-113.0951,29.0619],[-113.0973,29.0616],[-113.0975,29.0618],[-113.0923,29.0641],[-113.098,29.0631],[-113.0959,29.0668],[-113.0829,29.0685]]],[[[-113.526,29.5508],[-113.5114,29.5494],[-113.5115,29.5382],[-113.4744,29.5311],[-113.4764,29.5259],[-113.4617,29.5181],[-113.4563,29.5108],[-113.4463,29.5066],[-113.4356,29.4932],[-113.431,29.4921],[-113.4254,29.4739],[-113.4172,29.4706],[-113.4171,29.4666],[-113.4066,29.4607],[-113.3934,29.4592],[-113.393,29.4493],[-113.3848,29.4436],[-113.3839,29.4336],[-113.3728,29.4219],[-113.3616,29.4013],[-113.3633,29.3954],[-113.352,29.3873],[-113.3518,29.3829],[-113.362,29.3738],[-113.3666,29.361],[-113.3761,29.3495],[-113.3701,29.3236],[-113.3707,29.3124],[-113.3668,29.3079],[-113.345,29.2957],[-113.3044,29.2913],[-113.2944,29.2813],[-113.2884,29.2808],[-113.2827,29.2884],[-113.2785,29.2874],[-113.276,29.2905],[-113.2743,29.2848],[-113.2605,29.2897],[-113.261,29.2838],[-113.2555,29.2828],[-113.2375,29.2891],[-113.2072,29.2847],[-113.1835,29.2896],[-113.1676,29.2789],[-113.1768,29.2651],[-113.1786,29.2477],[-113.1771,29.2325],[-113.1728,29.227],[-113.1724,29.1969],[-113.167,29.191],[-113.174,29.1661],[-113.1746,29.1278],[-113.1632,29.1058],[-113.1539,29.095],[-113.1559,29.0792],[-113.1484,29.0662],[-113.1247,29.0613],[-113.1235,29.0564],[-113.1002,29.0562],[-113.1152,29.0286],[-113.1161,28.987],[-113.1224,28.9874],[-113.1393,29.0028],[-113.1497,29.006],[-113.1546,29.015],[-113.1886,29.0284],[-113.2004,29.048],[-113.244,29.0671],[-113.2488,29.0731],[-113.2499,29.084],[-113.2598,29.0917],[-113.264,29.1046],[-113.2868,29.1294],[-113.2983,29.1367],[-113.3007,29.1451],[-113.3135,29.1482],[-113.3197,29.1572],[-113.3247,29.1573],[-113.3304,29.1623],[-113.3316,29.1595],[-113.3506,29.1686],[-113.3639,29.1874],[-113.3859,29.1963],[-113.4044,29.2095],[-113.4042,29.2133],[-113.4303,29.243],[-113.4278,29.255],[-113.4302,29.2591],[-113.4348,29.2594],[-113.4428,29.2757],[-113.4496,29.2801],[-113.4561,29.2783],[-113.4647,29.2813],[-113.474,29.2778],[-113.4791,29.2812],[-113.4969,29.2838],[-113.4968,29.2888],[-113.5033,29.2977],[-113.5073,29.3232],[-113.5255,29.3348],[-113.5314,29.3518],[-113.5393,29.3566],[-113.5457,29.3716],[-113.5561,29.3769],[-113.5573,29.3859],[-113.5664,29.3924],[-113.5699,29.4001],[-113.5882,29.4089],[-113.5924,29.4175],[-113.5884,29.4274],[-113.5944,29.4384],[-113.5923,29.451],[-113.5852,29.4643],[-113.5779,29.4682],[-113.5755,29.4807],[-113.5683,29.4891],[-113.5636,29.5052],[-113.5646,29.5118],[-113.57,29.5153],[-113.5691,29.5217],[-113.5723,29.522],[-113.568,29.5286],[-113.5721,29.5384],[-113.5587,29.546],[-113.5604,29.5362],[-113.556,29.5341],[-113.5529,29.5379],[-113.5536,29.5343],[-113.5455,29.534],[-113.5407,29.5387],[-113.535,29.538],[-113.5248,29.5433],[-113.526,29.5508]]],[[[-113.3575,28.8265],[-113.3583,28.8274],[-113.3574,28.8279],[-113.3575,28.8265]]],[[[-113.3591,28.8834],[-113.3581,28.8825],[-113.3599,28.8827],[-113.3591,28.8834]]],[[[-113.3836,28.9241],[-113.3853,28.9247],[-113.3848,28.9265],[-113.3836,28.9241]]],[[[-113.4696,29.0243],[-113.4642,29.0216],[-113.4603,29.0132],[-113.4663,29.0139],[-113.4696,29.0243]]],[[[-113.4746,28.9572],[-113.4764,28.9554],[-113.4774,28.9559],[-113.4746,28.9572]]],[[[-113.476,28.9673],[-113.4814,28.9673],[-113.4808,28.9743],[-113.4851,28.9789],[-113.4771,28.9749],[-113.476,28.9673]]],[[[-113.4823,28.9564],[-113.483,28.9559],[-113.4831,28.9561],[-113.4823,28.9564]]],[[[-113.511,29.0963],[-113.5022,29.0899],[-113.5082,29.0802],[-113.503,29.0768],[-113.5055,29.0633],[-113.4992,29.0549],[-113.5026,29.0495],[-113.4968,29.0474],[-113.4958,29.0414],[-113.4892,29.0377],[-113.5047,29.0392],[-113.5072,29.0421],[-113.5031,29.0456],[-113.507,29.0473],[-113.5025,29.0475],[-113.5029,29.0491],[-113.5069,29.0475],[-113.5143,29.0532],[-113.5097,29.062],[-113.5156,29.0706],[-113.5148,29.077],[-113.5218,29.0783],[-113.5277,29.0946],[-113.511,29.0963]]],[[[-113.499,29.0274],[-113.4983,29.0274],[-113.4983,29.0271],[-113.499,29.0274]]],[[[-113.5122,29.0025],[-113.502,28.994],[-113.5089,28.9932],[-113.5114,28.9887],[-113.517,28.9938],[-113.5154,28.9994],[-113.5123,28.9998],[-113.5156,29.002],[-113.5122,29.0025]]],[[[-113.5051,29.0142],[-113.5065,29.0139],[-113.5051,29.0149],[-113.5051,29.0142]]],[[[-113.5111,29.0118],[-113.5141,29.0097],[-113.5159,29.0097],[-113.5152,29.0116],[-113.5111,29.0118]]],[[[-113.5144,29.0163],[-113.5108,29.0141],[-113.5111,29.0134],[-113.5164,29.0134],[-113.5144,29.0163]]],[[[-113.513,29.0614],[-113.5123,29.0618],[-113.5126,29.0611],[-113.513,29.0614]]],[[[-113.5219,29.0696],[-113.516,29.0674],[-113.5149,29.0648],[-113.5219,29.0696]]],[[[-113.5207,28.997],[-113.5183,28.9977],[-113.5181,28.9951],[-113.5207,28.997]]],[[[-113.5212,28.9984],[-113.5197,28.9989],[-113.5201,28.9979],[-113.5212,28.9984]]],[[[-113.5239,29.0055],[-113.5211,29.0053],[-113.5243,29.0016],[-113.5239,29.0055]]],[[[-113.525,29.0133],[-113.5241,29.012],[-113.525,29.0107],[-113.525,29.0133]]],[[[-113.53,29.0985],[-113.5273,29.0981],[-113.5308,29.0962],[-113.53,29.0985]]],[[[-113.5398,29.5664],[-113.5344,29.562],[-113.5453,29.5654],[-113.5398,29.5664]]],[[[-113.5587,29.5543],[-113.5575,29.5488],[-113.559,29.5461],[-113.5587,29.5543]]],[[[-113.5647,29.5623],[-113.5598,29.5611],[-113.5605,29.5553],[-113.5622,29.5602],[-113.564,29.5523],[-113.5758,29.546],[-113.5793,29.561],[-113.5667,29.5665],[-113.5647,29.5623]]],[[[-113.6082,29.1681],[-113.6069,29.1668],[-113.6081,29.166],[-113.6082,29.1681]]],[[[-114.1156,28.0964],[-114.1157,28.0936],[-114.1163,28.0962],[-114.1171,28.0958],[-114.1178,28.0872],[-114.1217,28.0948],[-114.1156,28.0964]]],[[[-114.2787,28.6704],[-114.2777,28.6687],[-114.2794,28.6693],[-114.2787,28.6704]]],[[[-114.2809,28.6933],[-114.2784,28.6938],[-114.2786,28.693],[-114.2809,28.6933]]],[[[-114.3524,28.7678],[-114.3511,28.7671],[-114.3523,28.7672],[-114.3524,28.7678]]],[[[-114.6158,28.9657],[-114.6162,28.9653],[-114.6162,28.9657],[-114.6158,28.9657]]],[[[-115.4997,29.615],[-115.4997,29.614],[-115.5003,29.6145],[-115.4997,29.615]]],[[[-115.5453,28.3115],[-115.5422,28.3063],[-115.5368,28.3047],[-115.5368,28.3002],[-115.5437,28.2914],[-115.5479,28.2975],[-115.5459,28.302],[-115.5499,28.3045],[-115.5486,28.3101],[-115.5453,28.3115]]],[[[-115.5734,28.3135],[-115.5653,28.3112],[-115.5609,28.3081],[-115.5706,28.3083],[-115.5734,28.3135]]],[[[-115.5924,28.3168],[-115.5826,28.3057],[-115.5753,28.3109],[-115.5759,28.3023],[-115.5799,28.3021],[-115.5807,28.2957],[-115.5828,28.2992],[-115.5905,28.2952],[-115.5918,28.2994],[-115.5966,28.2969],[-115.6064,28.3002],[-115.6018,28.3056],[-115.6014,28.3159],[-115.5976,28.3141],[-115.5924,28.3168]]],[[[-115.7909,29.797],[-115.7882,29.7934],[-115.7951,29.7866],[-115.7949,29.7926],[-115.7909,29.797]]],[[[-116.1123,30.4971],[-116.108,30.4957],[-116.1044,30.4855],[-116.0999,30.4849],[-116.1017,30.4831],[-116.1099,30.4803],[-116.123,30.4847],[-116.1234,30.4915],[-116.1123,30.4971]]],[[[-118.2619,29.1833],[-118.2706,29.175],[-118.2737,29.163],[-118.2824,29.1578],[-118.2882,29.1444],[-118.2875,29.1331],[-118.2816,29.1165],[-118.2824,29.1086],[-118.2535,29.0947],[-118.2281,29.062],[-118.2229,29.0383],[-118.2243,29.0253],[-118.2215,29.0108],[-118.2297,28.9954],[-118.229,28.975],[-118.221,28.9626],[-118.2276,28.937],[-118.2279,28.9218],[-118.2386,28.9153],[-118.2482,28.891],[-118.2609,28.8835],[-118.2705,28.889],[-118.2957,28.8795],[-118.2957,28.8853],[-118.2861,28.8893],[-118.2825,28.8962],[-118.2878,28.9111],[-118.286,28.9124],[-118.2931,28.919],[-118.2925,28.9277],[-118.2984,28.9357],[-118.294,28.9439],[-118.2982,28.9517],[-118.2929,28.953],[-118.2909,28.9677],[-118.2939,28.9721],[-118.3029,28.9718],[-118.3136,28.98],[-118.3053,28.9866],[-118.3095,28.9987],[-118.305,29.0045],[-118.3141,29.0196],[-118.3171,29.0378],[-118.3265,29.0493],[-118.3388,29.0552],[-118.3455,29.0673],[-118.3609,29.0727],[-118.3647,29.0775],[-118.3512,29.1146],[-118.3545,29.1221],[-118.3536,29.1294],[-118.3653,29.1464],[-118.3439,29.1636],[-118.3331,29.1697],[-118.321,29.1698],[-118.3185,29.1751],[-118.3081,29.1707],[-118.2949,29.1715],[-118.2887,29.1803],[-118.2797,29.1807],[-118.2647,29.1906],[-118.2607,29.1889],[-118.2619,29.1833]]]]}},{"type":"Feature","properties":{"cve_ent":"02","cve_mun":"007","cvegeo":"02007","nombre":"San Felipe"},"geometry":{"type":"MultiPolygon","coordinates":[[[[-115.1066,31.8055],[-115.0563,31.7125],[-115.0723,31.675],[-115.0751,31.5611],[-115.0697,31.4781],[-115.0669,31.4691],[-115.0532,31.4405],[-115.0298,31.4484],[-114.9878,31.3616],[-114.8566,31.3908],[-114.8559,31.3841],[-114.8528,31.3827],[-114.8579,31.3808],[-114.8632,31.3695],[-114.8611,31.3648],[-114.8657,31.3643],[-114.8691,31.3566],[-114.8674,31.3531],[-114.8703,31.3545],[-114.8718,31.3458],[-114.8747,31.3461],[-114.8791,31.3382],[-114.8829,31.3114],[-114.8796,31.3108],[-114.8855,31.3059],[-114.883,31.3066],[-114.8844,31.3036],[-114.8795,31.2972],[-114.8842,31.2868],[-114.8901,31.2845],[-114.8892,31.2724],[-114.8846,31.2716],[-114.8947,31.2648],[-114.8865,31.26],[-114.8814,31.2628],[-114.8866,31.2585],[-114.8827,31.255],[-114.8811,31.2393],[-114.8854,31.2196],[-114.8841,31.2061],[-114.8909,31.1537],[-114.8842,31.1185],[-114.8703,31.094],[-114.8559,31.0786],[-114.8322,31.0667],[-114.8229,31.0542],[-114.8142,31.0522],[-114.8117,31.044],[-114.8243,31.0395],[-114.8327,31.0221],[-114.8341,31.0017],[-114.8285,30.9968],[-114.8246,30.9991],[-114.8219,30.9968],[-114.8248,30.9986],[-114.8294,30.9939],[-114.8264,30.9915],[-114.8211,30.9959],[-114.8246,30.9919],[-114.823,30.988],[-114.8106,30.9787],[-114.7202,30.937],[-114.7104,30.9082],[-114.7109,30.8911],[-114.7065,30.8841],[-114.7053,30.8673],[-114.7021,30.8662],[-114.7097,30.8452],[-114.703,30.8256],[-114.697,30.8173],[-114.7002,30.7698],[-114.6932,30.7446],[-114.7054,30.7123],[-114.6944,30.6774],[-114.6985,30.6321],[-114.6778,30.5887],[-114.6655,30.578],[-114.6525,30.5572],[-114.6488,30.527],[-114.6413,30.5183],[-114.6303,30.4894],[-114.631,30.4775],[-114.6392,30.454],[-114.6305,30.4193],[-114.6367,30.4045],[-114.6345,30.3957],[-114.6436,30.377],[-114.6407,30.3673],[-114.6353,30.3642],[-114.6373,30.3578],[-114.6348,30.3495],[-114.6361,30.3447],[-114.6383,30.3488],[-114.6416,30.3488],[-114.6391,30.3393],[-114.6443,30.3369],[-114.644,30.3235],[-114.6465,30.3206],[-114.6445,30.3148],[-114.6516,30.2973],[-114.6516,30.2899],[-114.6562,30.2842],[-114.6551,30.2773],[-114.6411,30.2664],[-114.6397,30.2585],[-114.652,30.2416],[-114.6505,30.2253],[-114.668,30.2005],[-114.6677,30.1914],[-114.6525,30.1749],[-114.6453,30.1573],[-114.6402,30.1525],[-114.6389,30.1456],[-114.6352,30.1429],[-114.6332,30.1264],[-114.6275,30.1195],[-114.6081,30.1117],[-114.6018,30.1049],[-114.597,30.0887],[-114.5833,30.0714],[-114.5834,30.0524],[-114.5778,30.0445],[-114.5762,30.0331],[-114.5659,30.0269],[-114.5651,30.0111],[-114.5512,30.0018],[-114.5506,29.9968],[-114.5387,29.9835],[-114.5407,29.9774],[-114.5362,29.9703],[-114.4875,29.9488],[-114.4709,29.9135],[-114.4475,29.9081],[-114.4393,29.9078],[-114.4365,29.9106],[-114.413,29.8907],[-114.4091,29.8783],[-114.4148,29.8568],[-114.4133,29.8481],[-114.4016,29.8313],[-114.3941,29.828],[-114.4032,29.8276],[-114.4096,29.8212],[-114.4097,29.816],[-114.3983,29.8097],[-114.4012,29.8049],[-114.3991,29.8032],[-114.3974,29.8075],[-114.3929,29.8101],[-114.3961,29.7946],[-114.3877,29.7786],[-114.3726,29.7702],[-114.3613,29.7723],[-114.3535,29.7685],[-114.3456,29.7604],[-114.3424,29.7466],[-114.3299,29.7427],[-114.3079,29.741],[-114.3039,29.7452],[-114.3027,29.7415],[-114.2953,29.7426],[-114.2872,29.7494],[-114.2883,29.7529],[-114.2814,29.7597],[-114.291,29.7567],[-114.2927,29.7672],[-114.2845,29.7652],[-114.2803,29.7725],[-114.2759,29.7699],[-114.2716,29.7724],[-114.2648,29.768],[-114.2627,29.7622],[-114.2594,29.7671],[-114.2585,29.7598],[-114.2432,29.7627],[-114.2298,29.7508],[-114.2075,29.7438],[-114.1999,29.7272],[-114.1814,29.7081],[-114.1665,29.7016],[-114.1593,29.6911],[-114.1489,29.6939],[-114.1443,29.6913],[-114.1323,29.6718],[-114.1148,29.66],[-114.1108,29.653],[-114.064,29.6295],[-114.0591,29.616],[-114.0466,29.5969],[-114.0312,29.5941],[-114.0272,29.5867],[-114.0151,29.5782],[-113.9951,29.5779],[-113.9802,29.5667],[-113.9743,29.5563],[-113.9575,29.5402],[-113.9516,29.5386],[-113.9431,29.5242],[-113.9305,29.5201],[-113.928,29.5126],[-113.9163,29.5056],[-113.8969,29.4849],[-113.8802,29.4775],[-113.8622,29.4622],[-113.8362,29.4561],[-113.8485,29.439],[-113.8818,29.4448],[-113.8931,29.4341],[-113.9227,29.4306],[-113.9316,29.4167],[-113.9298,29.3963],[-113.959,29.3592],[-113.9666,29.2987],[-113.9993,29.2946],[-114.0279,29.286],[-114.1084,29.292],[-114.2248,29.3243],[-114.2814,29.3595],[-114.3396,29.5493],[-114.486,29.5931],[-114.6914,29.9978],[-114.7872,30.0557],[-114.841,30.0746],[-114.8455,30.1232],[-114.8754,30.2262],[-114.9525,30.3061],[-114.9662,30.3578],[-114.9687,30.406],[-115.0486,30.4509],[-115.0893,30.4288],[-115.122,30.4218],[-115.127,30.4668],[-115.1059,30.4963],[-115.1211,30.5178],[-115.1009,30.5463],[-115.0963,30.5594],[-115.1563,30.6036],[-115.2148,30.679],[-115.2365,30.7721],[-115.3078,30.7724],[-115.3425,30.815],[-115.3946,30.9718],[-115.4637,31.4794],[-115.5605,31.559],[-115.6036,31.6244],[-115.5666,31.6434],[-115.5373,31.6698],[-115.3833,31.7723],[-115.3119,31.8046],[-115.2928,31.7911],[-115.2277,31.8176],[-115.1875,31.8303],[-115.1834,31.8328],[-115.1812,31.857],[-115.1771,31.8467],[-115.1475,31.8258],[-115.1066,31.8055]]],[[[-114.3821,29.8226],[-114.3784,29.8139],[-114.3699,29.809],[-114.3696,29.8063],[-114.3807,29.8131],[-114.3858,29.8098],[-114.3895,29.8113],[-114.3897,29.8083],[-114.3923,29.8098],[-114.392,29.8186],[-114.396,29.8195],[-114.3821,29.8226]]],[[[-114.3909,29.9934],[-114.387,29.992],[-114.3896,29.9887],[-114.3909,29.9934]]],[[[-114.4172,29.9879],[-114.402,29.9828],[-114.3917,29.9618],[-114.4094,29.9555],[-114.4153,29.9487],[-114.4113,29.956],[-114.4124,29.961],[-114.4196,29.9624],[-114.4187,29.9657],[-114.4237,29.967],[-114.4156,29.9751],[-114.4158,29.9815],[-114.4201,29.9851],[-114.4172,29.9879]]],[[[-114.4737,30.0221],[-114.4733,30.0142],[-114.475,30.013],[-114.48,30.0202],[-114.4737,30.0221]]],[[[-114.4911,30.0474],[-114.4913,30.0533],[-114.4892,30.0547],[-114.4865,30.0512],[-114.4911,30.0474]]],[[[-114.5504,30.094],[-114.5401,30.0923],[-114.5352,30.0833],[-114.5418,30.0835],[-114.5469,30.0904],[-114.5539,30.0898],[-114.5504,30.094]]],[[[-114.6255,30.1312],[-114.6272,30.1304],[-114.6265,30.1314],[-114.6255,30.1312]]],[[[-114.7451,31.5305],[-114.759,31.5286],[-114.7725,31.5329],[-114.775,31.5388],[-114.7679,31.5467],[-114.7717,31.5587],[-114.7546,31.5519],[-114.7465,31.5401],[-114.7451,31.5305]]]]}}]}