{"type":"FeatureCollection","features":[{"type":"Feature","properties":{"cve_ent":"03","cve_mun":"001","cvegeo":"03001","nombre":"Comondú"},"geometry":{"type":"MultiPolygon","coordinates":[[[[-110.6893,25.3116],[-110.7034,25.2904],[-110.7108,25.2674],[-110.7196,25.2607],[-110.7302,25.2618],[-110.7357,25.2824],[-110.7315,25.292],[-110.7169,25.3042],[-110.6989,25.305],[-110.6893,25.3116]]],[[[-110.6975,25.2056],[-110.6955,25.1993],[-110.7047,25.1941],[-110.6975,25.2056]]],[[[-110.8619,25.1294],[-110.8603,25.1287],[-110.8612,25.128],[-110.8619,25.1294]]],[[[-112.3806,26.5903],[-112.3643,26.5884],[-112.36,26.5831],[-112.3558,26.5887],[-112.3393,26.5845],[-112.3303,26.5873],[-112.3253,26.5805],[-112.3179,26.5801],[-112.3076,26.5708],[-112.3007,26.5702],[-112.2934,26.5749],[-112.2823,26.5624],[-112.275,26.5603],[-112.2767,26.5536],[-112.2534,26.5556],[-112.227,26.5373],[-112.226,26.5318],[-112.1172,26.5303],[-112.117,26.5161],[-112.1089,26.5145],[-112.1036,26.524],[-112.0965,26.5238],[-112.0761,26.539],[-112.0692,26.533],[-112.0602,26.5325],[-112.0565,26.5189],[-112.0484,26.5237],[-112.0454,26.5312],[-112.0408,26.5324],[-112.011,26.5234],[-112.0127,26.5207],[-111.9756,26.5078],[-111.9641,26.4982],[-111.9553,26.5138],[-111.9469,26.5133],[-111.9285,26.5277],[-111.9165,26.5271],[-111.9141,26.5366],[-111.8921,26.5413],[-111.8676,26.5594],[-111.86,26.5585],[-111.8489,26.5632],[-111.838,26.5557],[-111.8152,26.5634],[-111.805,26.5492],[-111.7947,26.5441],[-111.7847,26.5477],[-111.7815,26.5461],[-111.7726,26.5541],[-111.7754,26.5465],[-111.7737,26.5436],[-111.7887,26.4092],[-111.7231,26.3151],[-111.7344,26.2976],[-111.7409,26.2939],[-111.7563,26.2921],[-111.7571,26.2796],[-111.7631,26.2744],[-111.7462,26.2474],[-111.7132,26.1821],[-111.7253,26.1778],[-111.7109,26.1214],[-111.6642,26.0848],[-111.6668,26.0696],[-111.6623,26.0478],[-111.6688,26.046],[-111.6799,26.0292],[-111.691,26.0238],[-111.6762,26.024],[-111.6647,26.013],[-111.6826,26.0144],[-111.6761,26.0019],[-111.6754,25.9308],[-111.6709,25.9211],[-111.6761,25.9095],[-111.6705,25.9097],[-111.6553,25.8154],[-111.6493,25.7543],[-111.6366,25.7211],[-111.6534,25.7079],[-111.6249,25.6494],[-111.5978,25.6217],[-111.5873,25.6018],[-111.5577,25.5916],[-111.5218,25.5877],[-111.5234,25.5743],[-111.4786,25.5764],[-111.4428,25.5348],[-111.4282,25.5375],[-111.4085,25.4916],[-111.3866,25.498],[-111.3821,25.4899],[-111.3744,25.4934],[-111.3672,25.4843],[-111.3496,25.4881],[-111.3304,25.4613],[-111.3076,25.4402],[-111.2521,25.416],[-111.2318,25.4235],[-111.1575,25.4798],[-111.0983,25.4742],[-111.0762,25.4604],[-111.0805,25.4425],[-111.0584,25.4391],[-111.0604,25.4312],[-111.045,25.4294],[-111.0157,25.3594],[-111.0178,25.3471],[-111.0517,25.3378],[-111.0388,25.2186],[-110.9207,25.203],[-110.916,25.1908],[-110.9064,25.183],[-110.9124,25.1745],[-110.9075,25.1459],[-110.8931,25.1308],[-110.8794,25.1263],[-110.881,25.124],[-110.8752,25.1189],[-110.8754,25.1125],[-110.8691,25.1057],[-110.8845,25.0832],[-110.8786,25.0709],[-110.9764,25.021],[-110.986,25.0227],[-110.9928,25.0197],[-110.9914,24.9875],[-111.0014,24.986],[-110.9905,24.9742],[-110.9892,24.9429],[-110.9972,24.9351],[-110.9945,24.9311],[-111.0011,24.9237],[-111.0067,24.9226],[-111.0191,24.9273],[-111.0252,24.922],[-111.0327,24.9322],[-111.0472,24.9372],[-111.0515,24.9359],[-111.0651,24.9486],[-111.0699,24.9483],[-111.0737,24.9531],[-111.0786,24.9491],[-111.0887,24.9586],[-111.0996,24.9565],[-111.1246,24.9598],[-111.1402,24.9326],[-111.1395,24.9163],[-111.1338,24.9093],[-111.1477,24.8868],[-111.1358,24.8817],[-111.1355,24.8787],[-111.1406,24.8753],[-111.1421,24.8778],[-111.148,24.8754],[-111.1503,24.8679],[-111.155,24.8709],[-111.1596,24.8676],[-111.1639,24.8713],[-111.1609,24.8733],[-111.1641,24.8762],[-111.1672,24.8721],[-111.172,24.8767],[-111.1716,24.874],[-111.1763,24.8729],[-111.1768,24.8777],[-111.181,24.8749],[-111.1889,24.8763],[-111.1912,24.8484],[-111.2285,24.8494],[-111.2293,24.8632],[-111.2767,24.8518],[-111.2733,24.8704],[-111.3003,24.862],[-111.318,24.8755],[-111.3441,24.7722],[-111.3443,24.7602],[-111.3625,24.7739],[-111.3863,24.7689],[-111.3998,24.7699],[-111.4175,24.7641],[-111.4447,24.7753],[-111.4592,24.7685],[-111.4818,24.7674],[-111.5353,24.7335],[-111.5422,24.7478],[-111.5785,24.7216],[-111.5787,24.685],[-111.6679,24.6505],[-111.6666,24.6122],[-111.6822,24.5836],[-111.6862,24.5867],[-111.6884,24.5844],[-111.6985,24.5876],[-111.6996,24.5835],[-111.6953,24.581],[-111.7,24.5699],[-111.7053,24.5731],[-111.7116,24.5712],[-111.7103,24.5689],[-111.7146,24.5696],[-111.708,24.5618],[-111.6981,24.5581],[-111.7029,24.5641],[-111.6995,24.5651],[-111.6909,24.5573],[-111.6965,24.5557],[-111.6938,24.5532],[-111.7031,24.5449],[-111.7097,24.5457],[-111.7073,24.5405],[-111.7035,24.5411],[-111.7086,24.5386],[-111.7003,24.538],[-111.7095,24.5384],[-111.7248,24.5414],[-111.7294,24.5405],[-111.727,24.5394],[-111.732,24.5412],[-111.7338,24.544],[-111.734,24.5469],[-111.7335,24.544],[-111.7299,24.5462],[-111.73,24.5421],[-111.729,24.5478],[-111.7225,24.5463],[-111.7252,24.5448],[-111.7209,24.5421],[-111.7159,24.5428],[-111.7191,24.5478],[-111.7151,24.5506],[-111.7069,24.5463],[-111.7052,24.5489],[-111.707,24.5546],[-111.712,24.5561],[-111.7197,24.556],[-111.724,24.5524],[-111.7297,24.5558],[-111.8208,24.4702],[-111.7979,24.4615],[-111.7809,24.4625],[-111.7501,24.4419],[-111.7497,24.4342],[-111.7403,24.4248],[-111.7421,24.4172],[-111.7357,24.4144],[-111.7336,24.406],[-111.7267,24.4018],[-111.7231,24.3943],[-111.711,24.3865],[-111.7034,24.3701],[-111.6912,24.3816],[-111.6868,24.3804],[-111.6982,24.3667],[-111.6992,24.3566],[-111.6946,24.3508],[-111.6948,24.3461],[-111.703,24.3248],[-111.7101,24.3194],[-111.7104,24.3048],[-111.7253,24.3279],[-111.7458,24.3483],[-111.8133,24.3932],[-111.8739,24.4387],[-111.9091,24.4572],[-111.9185,24.4677],[-111.9271,24.4689],[-111.9485,24.4888],[-111.9971,24.5066],[-112.0065,24.5152],[-112.0582,24.5406],[-112.0765,24.5425],[-112.1019,24.5585],[-112.0991,24.5627],[-112.1011,24.5743],[-112.1149,24.5999],[-112.132,24.6174],[-112.1463,24.6206],[-112.1557,24.6382],[-112.1593,24.6397],[-112.1579,24.6444],[-112.1704,24.6475],[-112.1746,24.6526],[-112.1682,24.6606],[-112.1667,24.6709],[-112.1609,24.673],[-112.1504,24.6667],[-112.1436,24.6709],[-112.1369,24.6873],[-112.1362,24.7006],[-112.1396,24.7224],[-112.147,24.7378],[-112.178,24.7669],[-112.2138,24.7857],[-112.2429,24.7881],[-112.2556,24.7842],[-112.2615,24.7789],[-112.258,24.756],[-112.26,24.75],[-112.2701,24.7586],[-112.2749,24.7747],[-112.2864,24.7806],[-112.2901,24.7872],[-112.3049,24.7939],[-112.3,24.8045],[-112.3015,24.8084],[-112.2897,24.8118],[-112.2748,24.8402],[-112.2154,24.9883],[-112.1987,25.0344],[-112.1582,25.1707],[-112.1392,25.2548],[-112.1356,25.2612],[-112.129,25.2645],[-112.1248,25.2819],[-112.1284,25.2864],[-112.136,25.2885],[-112.139,25.3011],[-112.1243,25.3349],[-112.112,25.3894],[-112.1038,25.4482],[-112.107,25.485],[-112.1024,25.4893],[-112.0974,25.4885],[-112.1028,25.5138],[-112.0976,25.5922],[-112.0981,25.6805],[-112.0957,25.6858],[-112.099,25.6978],[-112.1008,25.7481],[-112.1072,25.7795],[-112.1166,25.7997],[-112.1293,25.815],[-112.1389,25.8515],[-112.163,25.8995],[-112.1752,25.9448],[-112.193,25.9875],[-112.2343,26.0353],[-112.2587,26.0521],[-112.2764,26.0587],[-112.2775,26.0615],[-112.271,26.0708],[-112.2758,26.072],[-112.2775,26.0681],[-112.2829,26.0664],[-112.2854,26.0611],[-112.2815,26.0653],[-112.282,26.0614],[-112.2786,26.0625],[-112.2789,26.0605],[-112.2897,26.0552],[-112.3086,26.0717],[-112.3123,26.1013],[-112.328,26.1453],[-112.3475,26.1808],[-112.3749,26.2104],[-112.3746,26.2153],[-112.3639,26.2174],[-112.3701,26.2183],[-112.3662,26.2216],[-112.3773,26.2146],[-112.4104,26.2453],[-112.4548,26.2621],[-112.4737,26.2587],[-112.4775,26.2543],[-112.4754,26.2437],[-112.4782,26.2385],[-112.4978,26.2316],[-112.5182,26.2426],[-112.5419,26.2621],[-112.5791,26.2817],[-112.5796,26.2829],[-112.5792,26.2839],[-112.5752,26.2814],[-112.5709,26.2865],[-112.5815,26.2846],[-112.5947,26.2941],[-112.614,26.3021],[-112.6192,26.309],[-112.6129,26.305],[-112.6109,26.3128],[-112.6155,26.3193],[-112.6147,26.3148],[-112.6173,26.3178],[-112.6168,26.3114],[-112.6202,26.3104],[-112.6349,26.3206],[-112.653,26.3252],[-112.6612,26.3195],[-112.6728,26.3195],[-112.68,26.3147],[-112.6856,26.3269],[-112.7129,26.3585],[-112.7594,26.3889],[-112.7617,26.3962],[-112.7653,26.3961],[-112.7611,26.3931],[-112.764,26.3914],[-112.7899,26.4059],[-112.7853,26.4073],[-112.8188,26.4326],[-112.8185,26.4378],[-112.7895,26.424],[-112.7619,26.4349],[-112.7787,26.5],[-112.775,26.5493],[-112.7685,26.5373],[-112.7604,26.5359],[-112.7518,26.5389],[-112.7449,26.5309],[-112.7392,26.5294],[-112.718,26.5021],[-112.7089,26.5071],[-112.6692,26.5058],[-112.6612,26.5098],[-112.6581,26.5188],[-112.6484,26.5274],[-112.6456,26.5186],[-112.6362,26.508],[-112.6294,26.5044],[-112.6287,26.5072],[-112.6345,26.5112],[-112.626,26.5118],[-112.6242,26.5147],[-112.6147,26.5026],[-112.6117,26.5031],[-112.5991,26.5825],[-112.5577,26.5778],[-112.4088,26.5818],[-112.409,26.5664],[-112.3806,26.5903]]],[[[-110.916,25.2099],[-110.9166,25.2092],[-110.9171,25.2099],[-110.916,25.2099]]],[[[-110.9225,25.2476],[-110.9208,25.2466],[-110.9229,25.2468],[-110.9225,25.2476]]],[[[-110.9546,25.3285],[-110.9535,25.3294],[-110.9529,25.3286],[-110.9546,25.3285]]],[[[-112.1195,25.495],[-112.1201,25.4952],[-112.1196,25.4954],[-112.1195,25.495]]],[[[-112.1204,25.4964],[-112.1203,25.4956],[-112.1208,25.496],[-112.1204,25.4964]]]]}},{"type":"Feature","properties":{"cve_ent":"03","cve_mun":"002","cvegeo":"03002","nombre":"Mulegé"},"geometry":{"type":"MultiPolygon","coordinates":[[[[-111.4347,26.6414],[-111.4282,26.6369],[-111.4251,26.6245],[-111.4304,26.6241],[-111.4322,26.6321],[-111.4369,26.6368],[-111.4347,26.6414]]],[[[-111.8158,26.8955],[-111.8083,26.8871],[-111.8014,26.8889],[-111.7916,26.8745],[-111.7667,26.8613],[-111.76,26.8527],[-111.7483,26.8462],[-111.7268,26.8202],[-111.7216,26.807],[-111.6821,26.7802],[-111.666,26.7813],[-111.6669,26.7729],[-111.6587,26.7653],[-111.6561,26.7566],[-111.6487,26.7532],[-111.647,26.745],[-111.6355,26.7432],[-111.6316,26.7393],[-111.6265,26.7411],[-111.6268,26.7328],[-111.6106,26.7276],[-111.6077,26.7191],[-111.5971,26.7171],[-111.594,26.7119],[-111.5823,26.7125],[-111.5793,26.7066],[-111.572,26.7079],[-111.5734,26.7043],[-111.5693,26.6987],[-111.5612,26.697],[-111.5638,26.6767],[-111.5678,26.6701],[-111.5653,26.6354],[-111.568,26.632],[-111.563,26.6208],[-111.5674,26.6183],[-111.5643,26.6166],[-111.5704,26.5855],[-111.5676,26.5634],[-111.5612,26.5557],[-111.5649,26.5503],[-111.5939,26.5384],[-111.6137,26.5237],[-111.6157,26.5289],[-111.6306,26.54],[-111.64,26.5391],[-111.6495,26.5564],[-111.6468,26.5589],[-111.6554,26.5619],[-111.6792,26.5529],[-111.693,26.5663],[-111.6775,26.5856],[-111.6803,26.5965],[-111.6921,26.6013],[-111.6946,26.6104],[-111.7085,26.6192],[-111.7154,26.6309],[-111.7289,26.6387],[-111.7413,26.653],[-111.7593,26.6609],[-111.7644,26.6669],[-111.7657,26.6767],[-111.7965,26.6908],[-111.7988,26.7007],[-111.8083,26.7156],[-111.8144,26.7158],[-111.8165,26.7213],[-111.8134,26.7326],[-111.8177,26.7493],[-111.8157,26.7666],[-111.8235,26.7837],[-111.823,26.794],[-111.8272,26.8053],[-111.8247,26.823],[-111.8365,26.834],[-111.8382,26.848],[-111.8455,26.8564],[-111.8437,26.8681],[-111.8523,26.8749],[-111.8512,26.8794],[-111.8461,26.882],[-111.8324,26.8839],[-111.822,26.8963],[-111.8158,26.8955]]],[[[-114.2054,28.0],[-112.7648,28.0],[-112.7563,27.9675],[-112.7669,27.9394],[-112.7613,27.9123],[-112.7658,27.904],[-112.7613,27.8967],[-112.762,27.8925],[-112.7678,27.8895],[-112.7716,27.8632],[-112.76,27.8478],[-112.7428,27.838],[-112.7355,27.8267],[-112.7283,27.8231],[-112.7239,27.8265],[-112.7197,27.8255],[-112.721,27.819],[-112.7137,27.8059],[-112.7171,27.7982],[-112.716,27.7859],[-112.7072,27.7794],[-112.7078,27.7646],[-112.7012,27.7514],[-112.6806,27.7307],[-112.676,27.7216],[-112.6694,27.7159],[-112.6639,27.7154],[-112.6611,27.7094],[-112.6441,27.7104],[-112.6381,27.7061],[-112.6423,27.7028],[-112.6432,27.6953],[-112.6417,27.7016],[-112.6372,27.7048],[-112.6337,27.6948],[-112.6233,27.6876],[-112.6232,27.6782],[-112.6026,27.6692],[-112.6052,27.6676],[-112.6016,27.6689],[-112.5981,27.6647],[-112.6002,27.6565],[-112.5954,27.6505],[-112.5732,27.6425],[-112.5608,27.6451],[-112.5409,27.6382],[-112.53,27.638],[-112.5182,27.6298],[-112.4875,27.6211],[-112.4743,27.6126],[-112.4748,27.6066],[-112.4678,27.5992],[-112.4615,27.597],[-112.4502,27.5987],[-112.4365,27.5904],[-112.4188,27.5905],[-112.4124,27.5835],[-112.4022,27.5818],[-112.3917,27.5703],[-112.372,27.563],[-112.3697,27.5579],[-112.3603,27.5526],[-112.3555,27.5345],[-112.3376,27.5189],[-112.3301,27.5176],[-112.3237,27.4932],[-112.3243,27.4707],[-112.3181,27.4608],[-112.322,27.4533],[-112.3217,27.4433],[-112.3176,27.4377],[-112.315,27.437],[-112.315,27.4358],[-112.3124,27.4339],[-112.3121,27.4329],[-112.3175,27.4352],[-112.318,27.4289],[-112.306,27.4193],[-112.2979,27.4042],[-112.304,27.3949],[-112.3022,27.3839],[-112.2911,27.3718],[-112.287,27.3736],[-112.2861,27.3727],[-112.2917,27.3696],[-112.2869,27.3644],[-112.2702,27.3576],[-112.2685,27.3451],[-112.263,27.3419],[-112.2605,27.3381],[-112.266,27.341],[-112.262,27.3376],[-112.2623,27.3333],[-112.2435,27.3256],[-112.2439,27.3174],[-112.2413,27.3258],[-112.2345,27.3149],[-112.2313,27.2962],[-112.2172,27.2809],[-112.2127,27.2654],[-112.2038,27.2546],[-112.1955,27.2507],[-112.195,27.25],[-112.1934,27.2443],[-112.1936,27.2344],[-112.1957,27.2282],[-112.1993,27.2245],[-112.2024,27.2114],[-112.2045,27.2071],[-112.1996,27.2248],[-112.1952,27.2298],[-112.1937,27.2436],[-112.1961,27.2506],[-112.2017,27.2476],[-112.2043,27.249],[-112.2061,27.2495],[-112.2072,27.2493],[-112.1995,27.2459],[-112.1981,27.2415],[-112.211,27.221],[-112.2131,27.2243],[-112.2164,27.224],[-112.2123,27.2208],[-112.2157,27.2106],[-112.2129,27.2043],[-112.191,27.1947],[-112.1668,27.1719],[-112.1651,27.1651],[-112.1319,27.1582],[-112.1138,27.1467],[-112.1122,27.1405],[-112.0975,27.1331],[-112.0867,27.1308],[-112.0707,27.134],[-112.0672,27.1283],[-112.0551,27.1231],[-112.0439,27.1237],[-112.0092,27.1168],[-111.9928,27.0965],[-111.9727,27.0978],[-111.9522,27.0949],[-111.953,27.0831],[-111.9442,27.0793],[-111.9483,27.0739],[-111.946,27.0699],[-111.9583,27.0648],[-111.968,27.0698],[-111.9736,27.0681],[-111.9885,27.0561],[-112.0065,27.033],[-112.0145,27.004],[-112.0144,26.9733],[-112.0076,26.9575],[-111.9861,26.9407],[-111.976,26.9366],[-111.9637,26.915],[-111.9559,26.9142],[-111.957,26.9053],[-111.9525,26.9012],[-111.9566,26.9038],[-111.9737,26.8975],[-111.9825,26.8887],[-111.973,26.8971],[-111.9535,26.8992],[-111.949,26.8907],[-111.9374,26.8833],[-111.9158,26.8774],[-111.9124,26.8736],[-111.9119,26.8578],[-111.9021,26.8532],[-111.8944,26.843],[-111.8725,26.8317],[-111.8725,26.8185],[-111.863,26.8055],[-111.8617,26.7842],[-111.8746,26.7763],[-111.8781,26.7621],[-111.8765,26.7558],[-111.8834,26.7656],[-111.8913,26.7633],[-111.8897,26.7607],[-111.8975,26.753],[-111.8912,26.7516],[-111.891,26.7489],[-111.9012,26.742],[-111.8999,26.7383],[-111.9073,26.7312],[-111.9027,26.7256],[-111.9074,26.7259],[-111.909,26.7197],[-111.9024,26.7132],[-111.8981,26.7159],[-111.8912,26.7133],[-111.8909,26.7103],[-111.8844,26.7107],[-111.8863,26.7084],[-111.8832,26.6999],[-111.8763,26.6986],[-111.8767,26.7049],[-111.863,26.6933],[-111.8518,26.6725],[-111.8493,26.6612],[-111.8511,26.6498],[-111.8461,26.644],[-111.836,26.6413],[-111.8364,26.6379],[-111.8311,26.6393],[-111.8313,26.6364],[-111.8178,26.6333],[-111.8113,26.6249],[-111.8065,26.6263],[-111.8023,26.6109],[-111.7944,26.6028],[-111.7926,26.5906],[-111.787,26.5866],[-111.7829,26.5682],[-111.7636,26.5565],[-111.7644,26.5495],[-111.7675,26.5501],[-111.7677,26.5548],[-111.7754,26.5539],[-111.7815,26.5461],[-111.798,26.5447],[-111.805,26.5492],[-111.8152,26.5634],[-111.838,26.5557],[-111.8489,26.5632],[-111.86,26.5585],[-111.8662,26.5598],[-111.8772,26.5541],[-111.8804,26.5477],[-111.8878,26.5469],[-111.8921,26.5413],[-111.9138,26.5368],[-111.9165,26.5271],[-111.9285,26.5277],[-111.9469,26.5133],[-111.9553,26.5138],[-111.9641,26.4982],[-111.9756,26.5078],[-112.0127,26.5207],[-112.011,26.5234],[-112.0408,26.5324],[-112.0454,26.5312],[-112.0484,26.5237],[-112.0565,26.5189],[-112.0602,26.5325],[-112.0692,26.533],[-112.0761,26.539],[-112.0965,26.5238],[-112.1036,26.524],[-112.1089,26.5145],[-112.117,26.5161],[-112.1172,26.5303],[-112.226,26.5318],[-112.227,26.5373],[-112.2524,26.5551],[-112.2644,26.5567],[-112.2767,26.5536],[-112.275,26.5603],[-112.2823,26.5624],[-112.2934,26.5749],[-112.3007,26.5702],[-112.3082,26.5709],[-112.3179,26.5801],[-112.3253,26.5805],[-112.3303,26.5873],[-112.3393,26.5845],[-112.3558,26.5887],[-112.36,26.5831],[-112.3643,26.5884],[-112.3806,26.5903],[-112.409,26.5664],[-112.4088,26.5818],[-112.5577,26.5778],[-112.5991,26.5825],[-112.6117,26.5031],[-112.6213,26.5079],[-112.6242,26.5147],[-112.626,26.5118],[-112.6345,26.5112],[-112.6287,26.5072],[-112.6294,26.5044],[-112.6362,26.508],[-112.6456,26.5186],[-112.6484,26.5274],[-112.6581,26.5188],[-112.6612,26.5098],[-112.6692,26.5058],[-112.7089,26.5071],[-112.718,26.5021],[-112.7392,26.5294],[-112.7449,26.5309],[-112.7518,26.5389],[-112.7604,26.5359],[-112.7685,26.5373],[-112.775,26.5493],[-112.7787,26.5],[-112.7619,26.4349],[-112.7895,26.424],[-112.8185,26.4378],[-112.8188,26.4326],[-112.7853,26.4073],[-112.7899,26.4059],[-112.8791,26.4764],[-112.9126,26.4985],[-112.9584,26.5212],[-112.9629,26.5291],[-112.9371,26.531],[-112.9303,26.5276],[-112.9338,26.5305],[-112.9251,26.5308],[-112.9197,26.5287],[-112.9273,26.5286],[-112.9187,26.527],[-112.9186,26.5244],[-112.9026,26.521],[-112.899,26.5168],[-112.9001,26.5083],[-112.8961,26.504],[-112.8844,26.5021],[-112.884,26.4989],[-112.8773,26.4969],[-112.8791,26.4954],[-112.8788,26.4948],[-112.8685,26.4936],[-112.8476,26.4793],[-112.8495,26.4751],[-112.8419,26.4752],[-112.8356,26.468],[-112.8362,26.4633],[-112.8326,26.4668],[-112.8138,26.4576],[-112.8238,26.4719],[-112.826,26.4736],[-112.8228,26.4668],[-112.8344,26.474],[-112.8345,26.4812],[-112.8415,26.4824],[-112.8539,26.491],[-112.8643,26.5034],[-112.8794,26.5134],[-112.8918,26.5165],[-112.8931,26.5211],[-112.9059,26.5296],[-112.9315,26.537],[-112.9494,26.5366],[-112.9497,26.5408],[-112.9541,26.5429],[-112.9563,26.5419],[-112.9518,26.5402],[-112.9527,26.5379],[-112.9653,26.5349],[-112.9732,26.5353],[-112.9819,26.5425],[-112.9842,26.5422],[-112.9719,26.5337],[-112.9765,26.5298],[-112.9816,26.5305],[-112.9964,26.5461],[-113.0341,26.5713],[-113.0596,26.593],[-113.0618,26.6002],[-113.0641,26.5991],[-113.0807,26.6158],[-113.1065,26.6299],[-113.1348,26.6361],[-113.1311,26.64],[-113.1245,26.6388],[-113.1246,26.652],[-113.1189,26.6543],[-113.1167,26.6513],[-113.1158,26.6553],[-113.1183,26.6549],[-113.112,26.6593],[-113.1008,26.6563],[-113.0991,26.6501],[-113.0864,26.6414],[-113.0883,26.6312],[-113.0821,26.6228],[-113.0815,26.6273],[-113.0773,26.6282],[-113.0814,26.6355],[-113.0763,26.6285],[-113.07,26.6396],[-113.0625,26.6403],[-113.0564,26.6365],[-113.0529,26.6402],[-113.0924,26.6844],[-113.097,26.6974],[-113.102,26.698],[-113.1026,26.7014],[-113.1031,26.6988],[-113.114,26.7153],[-113.1218,26.7175],[-113.1302,26.7262],[-113.1467,26.7514],[-113.1494,26.7532],[-113.1519,26.7488],[-113.1504,26.7552],[-113.1409,26.7583],[-113.1508,26.7722],[-113.1499,26.7771],[-113.1439,26.7764],[-113.1406,26.7808],[-113.1496,26.793],[-113.1422,26.7962],[-113.1359,26.7917],[-113.1284,26.7918],[-113.1248,26.7932],[-113.1264,26.7968],[-113.1345,26.7945],[-113.1464,26.8025],[-113.1524,26.7901],[-113.1626,26.7965],[-113.1697,26.7956],[-113.1743,26.7904],[-113.1701,26.7845],[-113.1706,26.7746],[-113.1714,26.7763],[-113.1731,26.7769],[-113.1733,26.7778],[-113.1739,26.7779],[-113.1767,26.7716],[-113.1729,26.766],[-113.1756,26.764],[-113.1797,26.7669],[-113.1797,26.7607],[-113.1823,26.766],[-113.1861,26.7645],[-113.1816,26.7598],[-113.186,26.7588],[-113.186,26.756],[-113.1864,26.761],[-113.1884,26.7645],[-113.1895,26.7617],[-113.2007,26.7627],[-113.2041,26.765],[-113.2039,26.7675],[-113.2044,26.7681],[-113.2046,26.7642],[-113.2031,26.763],[-113.2102,26.7627],[-113.2232,26.7744],[-113.2332,26.7745],[-113.2357,26.7816],[-113.2435,26.7852],[-113.2433,26.79],[-113.2358,26.7871],[-113.2267,26.7961],[-113.2219,26.7943],[-113.2172,26.7974],[-113.2141,26.7894],[-113.1952,26.7926],[-113.1947,26.7961],[-113.2001,26.7965],[-113.2005,26.7991],[-113.2093,26.7963],[-113.2003,26.8059],[-113.187,26.8096],[-113.1813,26.8214],[-113.172,26.8234],[-113.1683,26.8307],[-113.1482,26.8453],[-113.1383,26.858],[-113.1316,26.8925],[-113.1395,26.9173],[-113.1386,26.9375],[-113.1501,26.9704],[-113.1656,26.9928],[-113.1696,26.9939],[-113.1764,26.9893],[-113.1697,26.9867],[-113.1693,26.9796],[-113.1742,26.974],[-113.1819,26.9753],[-113.188,26.9681],[-113.201,26.928],[-113.2017,26.9177],[-113.1965,26.8955],[-113.204,26.8729],[-113.2038,26.8505],[-113.2312,26.8352],[-113.2415,26.8356],[-113.2529,26.8453],[-113.2605,26.8373],[-113.2648,26.8216],[-113.2718,26.8195],[-113.2663,26.8156],[-113.2687,26.8143],[-113.2683,26.7976],[-113.2724,26.7915],[-113.2715,26.7873],[-113.2732,26.788],[-113.2736,26.7874],[-113.2636,26.7838],[-113.2692,26.7756],[-113.2688,26.7663],[-113.2714,26.7659],[-113.2662,26.7649],[-113.2667,26.7532],[-113.2852,26.7523],[-113.3272,26.7801],[-113.3687,26.7975],[-113.4222,26.8067],[-113.4574,26.8051],[-113.4611,26.8103],[-113.4543,26.8115],[-113.446,26.8081],[-113.4136,26.807],[-113.4173,26.8102],[-113.4486,26.8103],[-113.4121,26.8135],[-113.413,26.8167],[-113.4102,26.8184],[-113.4147,26.818],[-113.4137,26.8152],[-113.4236,26.8164],[-113.4201,26.8178],[-113.42,26.818],[-113.4202,26.819],[-113.4271,26.8149],[-113.4328,26.8164],[-113.4251,26.8234],[-113.4224,26.8215],[-113.421,26.8257],[-113.4102,26.8218],[-113.4001,26.8117],[-113.391,26.8151],[-113.3962,26.8258],[-113.4087,26.8255],[-113.417,26.8326],[-113.4332,26.8265],[-113.4383,26.8322],[-113.4592,26.8308],[-113.4654,26.8296],[-113.4668,26.8242],[-113.4709,26.8233],[-113.4702,26.8156],[-113.4744,26.8254],[-113.4811,26.8233],[-113.4874,26.8135],[-113.4746,26.8128],[-113.4739,26.8107],[-113.4807,26.8087],[-113.4745,26.8068],[-113.4638,26.8126],[-113.4665,26.804],[-113.5105,26.7895],[-113.5215,26.753],[-113.549,26.7375],[-113.5453,26.7272],[-113.547,26.7189],[-113.5697,26.7149],[-113.5768,26.7047],[-113.6064,26.7127],[-113.6395,26.7297],[-113.662,26.7598],[-113.6826,26.7777],[-113.7007,26.7888],[-113.6984,26.7919],[-113.666,26.7753],[-113.665,26.7671],[-113.6595,26.7603],[-113.6445,26.7565],[-113.6487,26.7567],[-113.6432,26.7535],[-113.646,26.7429],[-113.6434,26.7384],[-113.6273,26.7328],[-113.6195,26.7235],[-113.5895,26.7141],[-113.5929,26.7217],[-113.5979,26.7214],[-113.5972,26.719],[-113.6064,26.7324],[-113.6187,26.7309],[-113.6214,26.733],[-113.6197,26.7327],[-113.6178,26.7345],[-113.6215,26.7335],[-113.6266,26.7402],[-113.637,26.7397],[-113.6417,26.7585],[-113.6477,26.762],[-113.6562,26.7618],[-113.6574,26.7648],[-113.656,26.7632],[-113.6539,26.7642],[-113.658,26.7653],[-113.6586,26.7715],[-113.6617,26.7723],[-113.6592,26.7737],[-113.6621,26.7735],[-113.6709,26.7856],[-113.6731,26.7854],[-113.6743,26.7874],[-113.6749,26.7878],[-113.6756,26.7879],[-113.6736,26.7829],[-113.677,26.7836],[-113.6819,26.7884],[-113.6772,26.7866],[-113.6766,26.7866],[-113.6763,26.7868],[-113.6757,26.7879],[-113.6917,26.7959],[-113.6921,26.7936],[-113.7033,26.7941],[-113.7084,26.7889],[-113.7158,26.7905],[-113.726,26.8005],[-113.734,26.7998],[-113.742,26.827],[-113.7672,26.885],[-113.7872,26.918],[-113.8215,26.9496],[-113.8553,26.9708],[-113.9072,26.9914],[-113.9522,26.999],[-113.9667,26.9976],[-113.9759,26.9932],[-113.983,26.9722],[-114.0005,26.9726],[-113.9987,26.9712],[-114.0031,26.9695],[-114.0043,26.9735],[-114.0186,26.9845],[-114.0395,27.0128],[-114.0528,27.0202],[-114.0525,27.0332],[-114.0603,27.0502],[-114.0906,27.0865],[-114.1276,27.1132],[-114.1575,27.1287],[-114.196,27.1427],[-114.2606,27.1516],[-114.29,27.1435],[-114.2958,27.1358],[-114.2929,27.1279],[-114.2963,27.1227],[-114.2984,27.1288],[-114.3127,27.1418],[-114.3239,27.1481],[-114.3281,27.147],[-114.3318,27.156],[-114.3622,27.1629],[-114.3822,27.1795],[-114.3962,27.182],[-114.398,27.1756],[-114.415,27.1687],[-114.4208,27.1734],[-114.4257,27.1717],[-114.4272,27.1748],[-114.4344,27.1765],[-114.433,27.1834],[-114.4272,27.1892],[-114.428,27.1976],[-114.4344,27.2092],[-114.4558,27.2205],[-114.4793,27.2168],[-114.4808,27.2239],[-114.4878,27.2283],[-114.4851,27.2334],[-114.4886,27.2474],[-114.4847,27.2624],[-114.4886,27.2787],[-114.4856,27.2839],[-114.4882,27.3458],[-114.4996,27.3918],[-114.5141,27.4169],[-114.5268,27.4289],[-114.542,27.4374],[-114.5458,27.4366],[-114.5495,27.4424],[-114.564,27.4505],[-114.5768,27.4518],[-114.5919,27.4712],[-114.6019,27.4787],[-114.6097,27.479],[-114.622,27.486],[-114.6325,27.4861],[-114.6343,27.4901],[-114.64,27.49],[-114.6407,27.494],[-114.6493,27.4958],[-114.653,27.5],[-114.6685,27.5063],[-114.6891,27.5088],[-114.7132,27.5215],[-114.7288,27.5211],[-114.7379,27.5242],[-114.7394,27.5322],[-114.7452,27.5323],[-114.7495,27.5433],[-114.7589,27.5483],[-114.7684,27.5817],[-114.7802,27.602],[-114.7936,27.615],[-114.8117,27.6266],[-114.8304,27.6311],[-114.8439,27.6276],[-114.8441,27.6175],[-114.847,27.6169],[-114.8647,27.6315],[-114.8616,27.6337],[-114.8631,27.638],[-114.874,27.6434],[-114.8715,27.6499],[-114.8566,27.6378],[-114.8511,27.6405],[-114.8473,27.6479],[-114.8473,27.657],[-114.8496,27.6575],[-114.8457,27.6652],[-114.8464,27.6757],[-114.8534,27.6864],[-114.8659,27.6953],[-114.8782,27.6992],[-114.8795,27.6956],[-114.8865,27.6952],[-114.8935,27.69],[-114.8931,27.681],[-114.9027,27.6746],[-114.8994,27.6684],[-114.9006,27.6635],[-114.9339,27.678],[-114.9333,27.6852],[-114.938,27.6866],[-114.9355,27.6882],[-114.9367,27.6983],[-114.9449,27.7105],[-114.9539,27.7163],[-114.9902,27.7288],[-114.9974,27.7253],[-114.9986,27.7177],[-115.0047,27.719],[-115.0055,27.7157],[-115.0068,27.7164],[-115.0097,27.7285],[-115.017,27.7393],[-115.0259,27.7407],[-115.0235,27.7441],[-115.0254,27.7509],[-115.0343,27.7601],[-115.0318,27.7698],[-115.0355,27.7827],[-115.0414,27.7917],[-115.0467,27.7941],[-115.0458,27.7997],[-115.0505,27.8068],[-115.0521,27.82],[-115.0824,27.8479],[-115.072,27.8558],[-115.0548,27.8618],[-115.0271,27.8468],[-115.0167,27.8322],[-115.0091,27.8288],[-114.9761,27.8252],[-114.9145,27.8346],[-114.8811,27.8281],[-114.866,27.8305],[-114.8529,27.8265],[-114.8512,27.8201],[-114.835,27.8093],[-114.7873,27.8157],[-114.771,27.812],[-114.762,27.8058],[-114.7443,27.8051],[-114.7369,27.8085],[-114.7216,27.8049],[-114.7172,27.7945],[-114.7026,27.7882],[-114.6839,27.7866],[-114.67,27.7894],[-114.6599,27.7813],[-114.6423,27.7816],[-114.6387,27.7769],[-114.6054,27.7739],[-114.5697,27.7844],[-114.5604,27.7819],[-114.5331,27.7862],[-114.5009,27.7721],[-114.4567,27.7893],[-114.4004,27.8185],[-114.3947,27.8148],[-114.3963,27.8129],[-114.3967,27.8152],[-114.3984,27.8153],[-114.3968,27.8127],[-114.4028,27.8164],[-114.4065,27.8145],[-114.4024,27.8128],[-114.4015,27.8077],[-114.3952,27.8052],[-114.3952,27.8081],[-114.3943,27.8052],[-114.3908,27.8042],[-114.3946,27.8088],[-114.3911,27.8102],[-114.3864,27.8031],[-114.385,27.8088],[-114.3811,27.8054],[-114.3804,27.8088],[-114.3744,27.8063],[-114.3726,27.8109],[-114.3672,27.8106],[-114.3664,27.8136],[-114.36,27.8151],[-114.3502,27.8122],[-114.347,27.8076],[-114.3378,27.8081],[-114.3398,27.8067],[-114.336,27.8018],[-114.3372,27.8061],[-114.3337,27.8029],[-114.3365,27.8016],[-114.3308,27.789],[-114.3305,27.7911],[-114.3247,27.7877],[-114.3303,27.7979],[-114.3271,27.7941],[-114.3278,27.7986],[-114.3341,27.8047],[-114.3357,27.8097],[-114.3379,27.8125],[-114.3396,27.8136],[-114.336,27.8091],[-114.343,27.8145],[-114.3423,27.8169],[-114.3402,27.8148],[-114.3414,27.8178],[-114.337,27.8134],[-114.3364,27.8155],[-114.3363,27.8125],[-114.3376,27.8129],[-114.3295,27.8025],[-114.3347,27.8121],[-114.3315,27.8084],[-114.3333,27.826],[-114.3307,27.8255],[-114.3357,27.8306],[-114.3303,27.8276],[-114.3338,27.8349],[-114.3284,27.8305],[-114.3309,27.8361],[-114.3263,27.832],[-114.329,27.838],[-114.3248,27.837],[-114.3322,27.8426],[-114.3324,27.8463],[-114.3284,27.8425],[-114.3288,27.8455],[-114.3285,27.846],[-114.3242,27.8415],[-114.3242,27.844],[-114.3233,27.8397],[-114.3227,27.8438],[-114.3277,27.8492],[-114.3336,27.8504],[-114.3272,27.8513],[-114.3324,27.8591],[-114.3371,27.8589],[-114.3353,27.8563],[-114.3412,27.8578],[-114.3385,27.8508],[-114.3465,27.8541],[-114.3437,27.847],[-114.3497,27.8492],[-114.3486,27.8454],[-114.3522,27.8482],[-114.3508,27.8458],[-114.3551,27.8449],[-114.3536,27.8412],[-114.3569,27.8341],[-114.3653,27.8425],[-114.3626,27.8366],[-114.3691,27.8422],[-114.3709,27.8381],[-114.377,27.836],[-114.3737,27.8318],[-114.3803,27.8331],[-114.3821,27.8261],[-114.3794,27.8277],[-114.3783,27.8267],[-114.3831,27.8206],[-114.3898,27.8171],[-114.3912,27.8225],[-114.3803,27.8357],[-114.3418,27.8635],[-114.3207,27.8727],[-114.3072,27.8723],[-114.2963,27.8662],[-114.2932,27.8597],[-114.2951,27.8463],[-114.2949,27.8525],[-114.299,27.8574],[-114.303,27.8567],[-114.296,27.8456],[-114.2956,27.8349],[-114.2965,27.8307],[-114.2987,27.8274],[-114.2963,27.8384],[-114.3039,27.8462],[-114.2978,27.837],[-114.309,27.8417],[-114.2994,27.8285],[-114.2998,27.8247],[-114.3019,27.8222],[-114.301,27.8241],[-114.3032,27.825],[-114.3024,27.823],[-114.3037,27.8141],[-114.3048,27.8119],[-114.3042,27.8182],[-114.3118,27.8271],[-114.3054,27.8184],[-114.3141,27.8277],[-114.3184,27.8271],[-114.3225,27.8213],[-114.319,27.8141],[-114.3202,27.8177],[-114.3069,27.8081],[-114.3058,27.8018],[-114.307,27.8066],[-114.3115,27.807],[-114.3073,27.8029],[-114.3114,27.8059],[-114.312,27.8004],[-114.3073,27.7962],[-114.3086,27.7935],[-114.3131,27.7954],[-114.3102,27.7903],[-114.3147,27.7944],[-114.3161,27.7902],[-114.3119,27.7845],[-114.3131,27.7816],[-114.3125,27.7837],[-114.3151,27.7861],[-114.3154,27.7859],[-114.3177,27.7825],[-114.316,27.7791],[-114.3205,27.7797],[-114.3185,27.7763],[-114.3211,27.776],[-114.3154,27.772],[-114.3139,27.7769],[-114.3155,27.779],[-114.3154,27.7794],[-114.3148,27.7797],[-114.3117,27.7739],[-114.3124,27.7683],[-114.2987,27.7479],[-114.2832,27.7339],[-114.2703,27.728],[-114.2577,27.7081],[-114.2475,27.7011],[-114.2462,27.7034],[-114.2402,27.6957],[-114.2277,27.6887],[-114.2001,27.6913],[-114.1912,27.684],[-114.1749,27.6802],[-114.161,27.6722],[-114.1471,27.6567],[-114.1527,27.6621],[-114.1426,27.6431],[-114.1265,27.5988],[-114.1296,27.5949],[-114.1283,27.5879],[-114.1131,27.5866],[-114.1147,27.5899],[-114.1123,27.5883],[-114.1138,27.5922],[-114.1109,27.5923],[-114.1081,27.6001],[-114.1123,27.5865],[-114.1076,27.6006],[-114.107,27.6009],[-114.1107,27.5899],[-114.1026,27.5904],[-114.1016,27.5859],[-114.1014,27.5888],[-114.0975,27.5907],[-114.0994,27.589],[-114.0961,27.5905],[-114.0934,27.5873],[-114.0924,27.5901],[-114.0913,27.5874],[-114.0802,27.5967],[-114.0721,27.593],[-114.0744,27.5999],[-114.083,27.6026],[-114.0897,27.6119],[-114.091,27.61],[-114.0901,27.6122],[-114.0561,27.6425],[-114.0605,27.6368],[-114.0442,27.6422],[-114.021,27.6613],[-113.9697,27.6586],[-113.9619,27.6563],[-113.9594,27.6515],[-113.9576,27.657],[-113.9636,27.6648],[-113.956,27.6558],[-113.9543,27.6612],[-113.9394,27.6672],[-113.9407,27.6703],[-113.9261,27.6784],[-113.9266,27.686],[-113.9248,27.6844],[-113.921,27.6972],[-113.9251,27.7009],[-113.9158,27.7095],[-113.9275,27.7273],[-113.9416,27.7316],[-113.9411,27.7338],[-113.9483,27.7333],[-113.9424,27.7416],[-113.9452,27.7449],[-113.9484,27.747],[-113.9438,27.7418],[-113.9475,27.7369],[-113.9524,27.7377],[-113.969,27.7497],[-113.9718,27.7509],[-113.9728,27.7487],[-113.9744,27.7488],[-113.9731,27.752],[-113.9748,27.7487],[-113.9775,27.7451],[-113.9766,27.7428],[-113.9775,27.7439],[-113.9776,27.7446],[-113.9774,27.7455],[-113.9731,27.753],[-113.9722,27.7528],[-113.9819,27.7593],[-113.987,27.7586],[-113.9879,27.7542],[-113.9906,27.7621],[-113.9926,27.7583],[-113.9984,27.7601],[-114.0016,27.7531],[-114.0103,27.7494],[-114.0101,27.746],[-114.0113,27.7479],[-114.0305,27.7434],[-114.028,27.741],[-114.0288,27.7413],[-114.0316,27.7438],[-114.0398,27.7573],[-114.0452,27.7897],[-114.0523,27.7872],[-114.0556,27.8001],[-114.0712,27.8122],[-114.0815,27.8059],[-114.0782,27.8031],[-114.0827,27.8043],[-114.0849,27.8025],[-114.0855,27.8007],[-114.0778,27.8005],[-114.0773,27.8039],[-114.0733,27.8015],[-114.0797,27.7987],[-114.065,27.7866],[-114.0543,27.7632],[-114.053,27.7659],[-114.0511,27.7633],[-114.0426,27.7427],[-114.0443,27.7374],[-114.0705,27.7324],[-114.0744,27.7367],[-114.0701,27.731],[-114.0764,27.7318],[-114.0749,27.7269],[-114.0789,27.7283],[-114.0783,27.723],[-114.0822,27.7266],[-114.0794,27.7249],[-114.0787,27.7312],[-114.0748,27.7328],[-114.0769,27.7391],[-114.0765,27.7342],[-114.0827,27.7264],[-114.1053,27.7139],[-114.1015,27.7126],[-114.1002,27.7154],[-114.0979,27.7154],[-114.096,27.7141],[-114.1002,27.7149],[-114.0983,27.7069],[-114.1168,27.7115],[-114.1146,27.7122],[-114.1233,27.7114],[-114.1464,27.7262],[-114.1505,27.7354],[-114.1464,27.7373],[-114.1479,27.7483],[-114.1571,27.7632],[-114.159,27.7762],[-114.1699,27.7882],[-114.1706,27.7839],[-114.1723,27.7855],[-114.1773,27.7995],[-114.1758,27.8132],[-114.1658,27.822],[-114.1618,27.8294],[-114.1644,27.8264],[-114.1667,27.8297],[-114.1779,27.8196],[-114.1786,27.8229],[-114.1739,27.831],[-114.1698,27.8309],[-114.1647,27.8343],[-114.17,27.8322],[-114.169,27.8384],[-114.1414,27.8675],[-114.1394,27.8715],[-114.141,27.8691],[-114.1417,27.8715],[-114.1335,27.8824],[-114.1357,27.875],[-114.1343,27.8735],[-114.1304,27.8731],[-114.1283,27.8776],[-114.1343,27.8739],[-114.1344,27.8794],[-114.1287,27.8809],[-114.1293,27.8877],[-114.1303,27.8877],[-114.1309,27.8867],[-114.1313,27.8865],[-114.1321,27.8862],[-114.1297,27.889],[-114.1273,27.89],[-114.1518,27.8989],[-114.1353,27.8946],[-114.1313,27.8954],[-114.1327,27.8971],[-114.1588,27.9016],[-114.1666,27.9069],[-114.1652,27.9093],[-114.1678,27.9106],[-114.1684,27.912],[-114.1703,27.9081],[-114.178,27.9144],[-114.2032,27.9159],[-114.1724,27.9223],[-114.1668,27.9167],[-114.1664,27.9118],[-114.1681,27.9125],[-114.1695,27.9126],[-114.1674,27.9122],[-114.1676,27.9106],[-114.164,27.9095],[-114.1521,27.9194],[-114.1468,27.9129],[-114.1494,27.9101],[-114.1473,27.9055],[-114.1456,27.9068],[-114.1479,27.9042],[-114.1516,27.9033],[-114.1443,27.9018],[-114.1471,27.9042],[-114.144,27.9074],[-114.1422,27.9062],[-114.1431,27.9041],[-114.1429,27.9039],[-114.142,27.9038],[-114.143,27.9041],[-114.1415,27.9053],[-114.1425,27.908],[-114.1452,27.9083],[-114.1423,27.9106],[-114.1443,27.9106],[-114.151,27.9202],[-114.1463,27.9178],[-114.1478,27.9164],[-114.1475,27.9159],[-114.1466,27.9157],[-114.1423,27.9203],[-114.1373,27.9196],[-114.1358,27.9166],[-114.1349,27.9162],[-114.1343,27.9164],[-114.1359,27.9189],[-114.1382,27.9203],[-114.1398,27.9209],[-114.1435,27.9206],[-114.1466,27.9185],[-114.1486,27.9205],[-114.1535,27.9208],[-114.1639,27.9151],[-114.1656,27.9175],[-114.1588,27.9221],[-114.1577,27.9269],[-114.166,27.9284],[-114.1636,27.9376],[-114.1587,27.9345],[-114.1542,27.936],[-114.1539,27.9379],[-114.1566,27.9423],[-114.149,27.9428],[-114.1442,27.9397],[-114.1495,27.9436],[-114.1551,27.9434],[-114.1574,27.9419],[-114.1549,27.9358],[-114.1638,27.9382],[-114.1683,27.9285],[-114.1637,27.9232],[-114.1658,27.9193],[-114.1726,27.9241],[-114.1699,27.9378],[-114.1714,27.9491],[-114.1663,27.9517],[-114.1626,27.948],[-114.1591,27.9479],[-114.1641,27.9524],[-114.169,27.9523],[-114.1738,27.948],[-114.1734,27.9442],[-114.1776,27.9431],[-114.1815,27.9486],[-114.1793,27.9485],[-114.1867,27.9531],[-114.1807,27.943],[-114.1746,27.9395],[-114.1755,27.9257],[-114.1794,27.9223],[-114.1973,27.9238],[-114.1924,27.929],[-114.1792,27.9301],[-114.1822,27.9312],[-114.196,27.9283],[-114.2034,27.9203],[-114.2133,27.9325],[-114.2098,27.9229],[-114.2249,27.9298],[-114.2169,27.9226],[-114.2188,27.9198],[-114.2156,27.9197],[-114.2329,27.9169],[-114.2365,27.9205],[-114.2335,27.9168],[-114.2427,27.9121],[-114.2638,27.8875],[-114.2677,27.8882],[-114.2744,27.9021],[-114.2739,27.9297],[-114.2054,28.0]]],[[[-111.889,27.4556],[-111.8691,27.4545],[-111.8559,27.4407],[-111.8575,27.4333],[-111.8599,27.4306],[-111.883,27.4274],[-111.8953,27.4306],[-111.9028,27.4421],[-111.9002,27.4509],[-111.889,27.4556]]],[[[-111.9109,27.0363],[-111.9159,27.0339],[-111.9162,27.0373],[-111.9088,27.0429],[-111.9109,27.0363]]],[[[-111.9092,27.059],[-111.9098,27.0597],[-111.9092,27.0599],[-111.9092,27.059]]],[[[-111.9144,26.8792],[-111.9137,26.8783],[-111.9154,26.8776],[-111.9144,26.8792]]],[[[-112.0879,27.2584],[-112.0649,27.2398],[-112.0639,27.2347],[-112.0587,27.2343],[-112.0564,27.2297],[-112.0466,27.2246],[-112.0506,27.2172],[-112.0434,27.2084],[-112.0487,27.204],[-112.0594,27.1797],[-112.0654,27.1836],[-112.0756,27.1776],[-112.0848,27.1857],[-112.0832,27.1906],[-112.0862,27.1897],[-112.0873,27.1917],[-112.0845,27.1929],[-112.0884,27.216],[-112.0969,27.2304],[-112.1084,27.2386],[-112.1036,27.2409],[-112.1024,27.2486],[-112.0979,27.2496],[-112.0926,27.2585],[-112.0879,27.2584]]],[[[-112.0691,27.1654],[-112.0678,27.1649],[-112.0677,27.1641],[-112.0691,27.1654]]],[[[-112.7414,27.8424],[-112.7371,27.8422],[-112.7365,27.8412],[-112.7414,27.8424]]],[[[-112.76,27.9022],[-112.7605,27.9025],[-112.7597,27.9034],[-112.76,27.9022]]],[[[-113.227,26.7322],[-113.229,26.7314],[-113.2121,26.7277],[-113.2032,26.7222],[-113.197,26.7235],[-113.1959,26.7189],[-113.1906,26.7216],[-113.1758,26.7188],[-113.167,26.7078],[-113.1697,26.7067],[-113.1605,26.6981],[-113.1624,26.6949],[-113.1576,26.6968],[-113.1545,26.6934],[-113.1526,26.6874],[-113.1551,26.6851],[-113.1491,26.6829],[-113.1478,26.6754],[-113.1355,26.6631],[-113.1356,26.6582],[-113.1442,26.6576],[-113.1904,26.6853],[-113.2401,26.6971],[-113.2615,26.7089],[-113.2629,26.7149],[-113.2377,26.733],[-113.227,26.7322]]],[[[-113.1564,26.9159],[-113.156,26.9092],[-113.1524,26.9094],[-113.1493,26.9045],[-113.1497,26.8948],[-113.1547,26.891],[-113.1519,26.8987],[-113.1625,26.9035],[-113.1619,26.9118],[-113.1564,26.9159]]],[[[-113.162,26.9317],[-113.162,26.9253],[-113.16,26.9197],[-113.1621,26.9252],[-113.1678,26.9279],[-113.162,26.9317]]],[[[-113.239,26.7715],[-113.1955,26.7497],[-113.1904,26.7445],[-113.1925,26.7388],[-113.1972,26.7428],[-113.1982,26.7394],[-113.2092,26.7368],[-113.2092,26.7408],[-113.2104,26.7418],[-113.2085,26.7424],[-113.2074,26.7435],[-113.2105,26.7423],[-113.2098,26.7371],[-113.2151,26.7386],[-113.2147,26.7476],[-113.2208,26.7519],[-113.2235,26.7582],[-113.2185,26.7552],[-113.2191,26.7597],[-113.227,26.7646],[-113.2238,26.7572],[-113.239,26.7715]]],[[[-114.1754,27.7695],[-114.166,27.7634],[-114.159,27.7454],[-114.1602,27.7409],[-114.1646,27.7422],[-114.146,27.7214],[-114.1731,27.7436],[-114.1797,27.7572],[-114.1834,27.7528],[-114.1845,27.7678],[-114.1799,27.7694],[-114.1793,27.7661],[-114.1754,27.7695]]],[[[-114.2267,27.7679],[-114.2127,27.7512],[-114.2171,27.7559],[-114.2201,27.7539],[-114.1852,27.7213],[-114.2035,27.7317],[-114.2147,27.7335],[-114.2187,27.7376],[-114.2162,27.741],[-114.2282,27.7459],[-114.2233,27.7366],[-114.2475,27.7435],[-114.2489,27.7554],[-114.2397,27.7553],[-114.2331,27.7494],[-114.236,27.7538],[-114.2338,27.7565],[-114.2298,27.7498],[-114.2309,27.7521],[-114.2259,27.7512],[-114.2268,27.7583],[-114.2293,27.7596],[-114.231,27.7567],[-114.2328,27.7591],[-114.2302,27.765],[-114.228,27.7604],[-114.2259,27.7597],[-114.2288,27.7621],[-114.2261,27.7648],[-114.2211,27.7601],[-114.2258,27.7652],[-114.2282,27.7646],[-114.2267,27.7679]]],[[[-114.2933,27.1106],[-114.289,27.1013],[-114.2899,27.0985],[-114.2953,27.1015],[-114.2933,27.1106]]],[[[-114.294,27.113],[-114.2935,27.1122],[-114.2942,27.1128],[-114.294,27.113]]],[[[-114.3848,27.146],[-114.3711,27.1479],[-114.3721,27.1454],[-114.3848,27.146]]],[[[-114.71,27.5149],[-114.7095,27.5146],[-114.71,27.5146],[-114.71,27.5149]]],[[[-114.711,27.514],[-114.7102,27.5138],[-114.7111,27.5139],[-114.711,27.514]]],[[[-114.7112,27.5158],[-114.7107,27.5155],[-114.711,27.5154],[-114.7112,27.5158]]],[[[-115.2144,27.8963],[-115.1986,27.8866],[-115.1909,27.8855],[-115.1826,27.8758],[-115.1621,27.8704],[-115.1603,27.8627],[-115.1663,27.8528],[-115.175,27.8484],[-115.1783,27.8497],[-115.1766,27.8564],[-115.1828,27.8606],[-115.1791,27.8613],[-115.1802,27.8662],[-115.1953,27.8806],[-115.2132,27.8843],[-115.2188,27.8882],[-115.2201,27.8928],[-115.2144,27.8963]]],[[[-115.2243,27.8936],[-115.2223,27.8936],[-115.2228,27.8927],[-115.2243,27.8936]]]]}},{"type":"Feature","properties":{"cve_ent":"03","cve_mun":"003","cvegeo":"03003","nombre":"La Paz"},"geometry":{"type":"MultiPolygon","coordinates":[[[[-110.8483,25.0732],[-110.8465,25.0694],[-110.8288,25.0629],[-110.8248,25.0577],[-110.8265,25.047],[-110.8141,25.0332],[-110.7983,25.0295],[-110.79,25.0359],[-110.7747,25.0229],[-110.7571,25.014],[-110.7619,25.0058],[-110.7572,25.0009],[-110.7599,24.9989],[-110.7583,24.996],[-110.7519,24.9942],[-110.7488,24.9878],[-110.7515,24.9818],[-110.7497,24.966],[-110.7428,24.957],[-110.7338,24.9518],[-110.7322,24.9443],[-110.7217,24.9352],[-110.7203,24.9254],[-110.7137,24.9202],[-110.7052,24.9216],[-110.6989,24.915],[-110.6995,24.9124],[-110.7021,24.9148],[-110.7061,24.9126],[-110.7081,24.9079],[-110.704,24.9076],[-110.7037,24.901],[-110.6921,24.8924],[-110.6904,24.8859],[-110.6853,24.884],[-110.6888,24.8759],[-110.684,24.8674],[-110.6847,24.8575],[-110.6753,24.8448],[-110.6734,24.8291],[-110.6646,24.8161],[-110.6646,24.8102],[-110.6571,24.8062],[-110.6621,24.7924],[-110.6653,24.7657],[-110.6818,24.7458],[-110.6882,24.7302],[-110.69,24.7075],[-110.6942,24.7014],[-110.7067,24.6981],[-110.7183,24.6879],[-110.7286,24.6695],[-110.7335,24.6363],[-110.7404,24.6182],[-110.7402,24.5872],[-110.7332,24.5629],[-110.7381,24.5518],[-110.7292,24.5148],[-110.687,24.4627],[-110.6893,24.4509],[-110.6845,24.4451],[-110.6923,24.4338],[-110.6925,24.4208],[-110.6895,24.4166],[-110.6932,24.4061],[-110.6833,24.3952],[-110.6785,24.3966],[-110.6834,24.3948],[-110.6815,24.389],[-110.6851,24.3815],[-110.6793,24.3724],[-110.6815,24.358],[-110.6551,24.3284],[-110.6549,24.3242],[-110.6402,24.315],[-110.6415,24.3081],[-110.635,24.2917],[-110.6222,24.2732],[-110.6163,24.2702],[-110.6115,24.2556],[-110.582,24.2403],[-110.5761,24.2265],[-110.564,24.2201],[-110.5649,24.2165],[-110.5604,24.2119],[-110.5291,24.2014],[-110.4698,24.1863],[-110.4001,24.1743],[-110.3652,24.1731],[-110.336,24.1777],[-110.3248,24.1765],[-110.3274,24.1668],[-110.3408,24.1588],[-110.371,24.149],[-110.3778,24.1494],[-110.3856,24.1622],[-110.4091,24.1727],[-110.4248,24.1748],[-110.4335,24.1714],[-110.4302,24.1634],[-110.4261,24.1634],[-110.4312,24.148],[-110.4295,24.1421],[-110.4152,24.1285],[-110.424,24.1222],[-110.4172,24.1093],[-110.3921,24.1039],[-110.3671,24.1142],[-110.3621,24.1109],[-110.3549,24.1125],[-110.3494,24.1152],[-110.3511,24.1175],[-110.3472,24.1209],[-110.3503,24.1229],[-110.3501,24.1265],[-110.3456,24.1237],[-110.3481,24.126],[-110.3467,24.1362],[-110.352,24.1425],[-110.3284,24.1523],[-110.3256,24.1549],[-110.3276,24.1562],[-110.3227,24.1575],[-110.3261,24.1572],[-110.3244,24.1587],[-110.3225,24.1574],[-110.3244,24.1559],[-110.3217,24.1562],[-110.3195,24.1619],[-110.3047,24.1751],[-110.2998,24.2118],[-110.3008,24.216],[-110.3025,24.2171],[-110.3031,24.2166],[-110.3052,24.2166],[-110.3058,24.2174],[-110.3012,24.2187],[-110.2994,24.2148],[-110.2984,24.215],[-110.3006,24.2189],[-110.3125,24.2202],[-110.3124,24.228],[-110.3065,24.2332],[-110.3147,24.2421],[-110.3135,24.2504],[-110.319,24.2434],[-110.3275,24.2443],[-110.3111,24.2613],[-110.3242,24.2579],[-110.3208,24.2658],[-110.3248,24.2695],[-110.323,24.2714],[-110.3318,24.2771],[-110.3297,24.2699],[-110.3333,24.2678],[-110.3331,24.2611],[-110.3306,24.2572],[-110.3365,24.2585],[-110.3371,24.2753],[-110.3335,24.2791],[-110.3284,24.2785],[-110.3275,24.282],[-110.3298,24.2854],[-110.3348,24.2843],[-110.3309,24.2897],[-110.3375,24.2954],[-110.3302,24.2968],[-110.327,24.3012],[-110.3336,24.3002],[-110.3327,24.3059],[-110.3374,24.3028],[-110.3353,24.3126],[-110.3399,24.3159],[-110.3375,24.3178],[-110.324,24.3149],[-110.3196,24.3188],[-110.3172,24.312],[-110.3146,24.3155],[-110.3163,24.3221],[-110.3226,24.3191],[-110.3343,24.3286],[-110.3248,24.3362],[-110.3055,24.3393],[-110.2972,24.3524],[-110.2731,24.3522],[-110.2686,24.3486],[-110.2503,24.3456],[-110.2456,24.3502],[-110.231,24.3402],[-110.2302,24.3349],[-110.2354,24.331],[-110.2355,24.3177],[-110.2169,24.3087],[-110.2167,24.3031],[-110.2119,24.2981],[-110.2013,24.2978],[-110.1933,24.2939],[-110.1844,24.2807],[-110.1847,24.2691],[-110.1744,24.2524],[-110.1514,24.2492],[-110.1482,24.2449],[-110.1417,24.244],[-110.1374,24.2355],[-110.1237,24.2261],[-110.1166,24.2275],[-110.1012,24.2169],[-110.0893,24.2162],[-110.0888,24.2131],[-110.0787,24.2093],[-110.0728,24.2006],[-110.0639,24.1984],[-110.0572,24.1902],[-110.0402,24.1786],[-110.0314,24.1762],[-110.0297,24.1719],[-110.0177,24.17],[-110.0085,24.1598],[-110.0033,24.1378],[-109.9979,24.1294],[-109.9994,24.1165],[-109.9937,24.1082],[-109.9888,24.0512],[-109.9842,24.0437],[-109.9698,24.0383],[-109.9498,24.0371],[-109.9448,24.0323],[-109.9298,24.029],[-109.8823,24.0386],[-109.8325,24.0611],[-109.8266,24.0608],[-109.8253,24.04],[-109.8178,24.0329],[-109.809,24.0313],[-109.804,24.0219],[-109.8063,24.0144],[-109.8127,24.0108],[-109.8139,23.9987],[-109.8221,23.9914],[-109.83,23.9921],[-109.8365,23.9812],[-109.8342,23.9793],[-109.8386,23.971],[-109.8353,23.9662],[-109.84,23.9499],[-109.8376,23.933],[-109.8318,23.9197],[-109.8241,23.9105],[-109.8044,23.8995],[-109.8005,23.8915],[-109.7728,23.8751],[-109.754,23.8571],[-109.7486,23.847],[-109.7353,23.8397],[-109.7339,23.8332],[-109.7128,23.8092],[-109.6993,23.799],[-109.7093,23.7766],[-109.7132,23.7377],[-109.7119,23.7286],[-109.7008,23.711],[-109.7,23.7001],[-109.6957,23.6922],[-109.6978,23.6715],[-109.7038,23.6699],[-109.7015,23.6683],[-109.7018,23.6587],[-109.6974,23.653],[-109.7071,23.6502],[-109.7176,23.6412],[-109.7266,23.639],[-109.7399,23.641],[-109.7477,23.6378],[-109.7502,23.6321],[-109.7659,23.6293],[-109.7698,23.6248],[-109.7693,23.6189],[-109.7788,23.6129],[-109.7809,23.6081],[-109.7968,23.6039],[-109.8129,23.6147],[-109.8193,23.6007],[-109.8564,23.6142],[-109.8654,23.598],[-109.8637,23.5844],[-109.8958,23.578],[-109.9314,23.6101],[-109.9338,23.4892],[-109.8741,23.4604],[-109.8458,23.4567],[-109.853,23.4214],[-109.9357,23.4791],[-109.9881,23.4568],[-109.9947,23.4005],[-110.0256,23.3909],[-110.0127,23.3834],[-109.9693,23.384],[-109.9631,23.3427],[-109.9253,23.2739],[-109.9374,23.2747],[-109.9497,23.2614],[-109.9519,23.2275],[-109.9585,23.2217],[-109.9772,23.2363],[-109.9505,23.1849],[-109.9643,23.1771],[-109.9751,23.1792],[-109.9396,23.1641],[-109.9457,23.1351],[-109.9959,23.1592],[-110.0004,23.1426],[-110.0056,23.1451],[-110.0032,23.1697],[-110.048,23.1387],[-110.1204,23.1142],[-110.1302,23.1396],[-110.1333,23.1603],[-110.1533,23.2295],[-110.155,23.2579],[-110.1589,23.2633],[-110.1602,23.2896],[-110.1664,23.3128],[-110.1744,23.3274],[-110.1833,23.3337],[-110.1983,23.3631],[-110.2077,23.3728],[-110.209,23.3799],[-110.2154,23.383],[-110.2132,23.389],[-110.2152,23.3939],[-110.2262,23.4006],[-110.2242,23.404],[-110.2301,23.4034],[-110.2302,23.4094],[-110.2342,23.4132],[-110.2311,23.4169],[-110.2342,23.4263],[-110.2643,23.4767],[-110.2767,23.4884],[-110.2982,23.5254],[-110.3162,23.5475],[-110.3461,23.5734],[-110.3835,23.5986],[-110.4386,23.6248],[-110.5145,23.6527],[-110.5572,23.6723],[-110.6125,23.7074],[-110.6833,23.7687],[-110.8234,23.9171],[-110.853,23.9437],[-110.8748,23.9558],[-110.8894,23.9765],[-110.9545,24.0339],[-111.0081,24.0707],[-111.0076,24.0773],[-111.0107,24.0821],[-111.0298,24.0984],[-111.1145,24.1522],[-111.1727,24.1815],[-111.2744,24.2429],[-111.4028,24.3085],[-111.5126,24.3523],[-111.5561,24.364],[-111.5907,24.3685],[-111.6946,24.3508],[-111.6992,24.3566],[-111.6983,24.3663],[-111.6868,24.3804],[-111.6912,24.3816],[-111.7036,24.3703],[-111.7052,24.3785],[-111.711,24.3865],[-111.7231,24.3943],[-111.7267,24.4018],[-111.7336,24.406],[-111.7357,24.4144],[-111.7421,24.4172],[-111.7403,24.4248],[-111.7497,24.4342],[-111.7501,24.4419],[-111.7809,24.4625],[-111.7979,24.4615],[-111.8204,24.4691],[-111.7297,24.5558],[-111.724,24.5524],[-111.7197,24.556],[-111.712,24.5561],[-111.707,24.5546],[-111.7052,24.5489],[-111.7069,24.5463],[-111.7151,24.5506],[-111.7191,24.5478],[-111.7159,24.5428],[-111.7209,24.5421],[-111.7252,24.5448],[-111.7225,24.5463],[-111.729,24.5478],[-111.7275,24.5454],[-111.73,24.5421],[-111.7299,24.5462],[-111.7335,24.544],[-111.734,24.5469],[-111.7338,24.544],[-111.732,24.5412],[-111.727,24.5394],[-111.7294,24.5405],[-111.7248,24.5414],[-111.7095,24.5384],[-111.7003,24.538],[-111.7086,24.5386],[-111.7035,24.5411],[-111.7073,24.5405],[-111.7097,24.5457],[-111.7031,24.5449],[-111.6938,24.5532],[-111.6965,24.5557],[-111.6909,24.5573],[-111.6995,24.5651],[-111.7029,24.5641],[-111.6981,24.5581],[-111.708,24.5618],[-111.7146,24.5696],[-111.7103,24.5689],[-111.7116,24.5712],[-111.7053,24.5731],[-111.7,24.5699],[-111.6953,24.581],[-111.6996,24.5835],[-111.6985,24.5876],[-111.6884,24.5844],[-111.6862,24.5867],[-111.6822,24.5836],[-111.6666,24.6122],[-111.6679,24.6505],[-111.5787,24.685],[-111.5785,24.7216],[-111.5422,24.7478],[-111.5353,24.7335],[-111.4818,24.7674],[-111.4592,24.7685],[-111.4447,24.7753],[-111.4175,24.7641],[-111.3998,24.7699],[-111.3863,24.7689],[-111.3625,24.7739],[-111.3443,24.7602],[-111.3441,24.7722],[-111.318,24.8755],[-111.3003,24.862],[-111.2733,24.8704],[-111.2767,24.8518],[-111.2293,24.8632],[-111.2285,24.8494],[-111.1912,24.8484],[-111.1894,24.8762],[-111.181,24.8749],[-111.1768,24.8777],[-111.1763,24.8729],[-111.1716,24.874],[-111.172,24.8767],[-111.1672,24.8721],[-111.1641,24.8762],[-111.1609,24.8733],[-111.1637,24.871],[-111.1585,24.8673],[-111.155,24.8709],[-111.1503,24.8679],[-111.148,24.8754],[-111.1421,24.8778],[-111.1406,24.8753],[-111.1355,24.8787],[-111.1358,24.8817],[-111.1477,24.8868],[-111.1338,24.9093],[-111.1395,24.9163],[-111.1402,24.9326],[-111.1246,24.9598],[-111.0996,24.9565],[-111.0887,24.9586],[-111.0786,24.9491],[-111.0737,24.9531],[-111.0699,24.9483],[-111.0651,24.9486],[-111.0515,24.9359],[-111.0472,24.9372],[-111.0327,24.9322],[-111.0252,24.922],[-111.0191,24.9273],[-111.0016,24.9234],[-110.9945,24.9311],[-110.9972,24.9351],[-110.9892,24.9429],[-110.9905,24.9742],[-111.0014,24.986],[-110.9914,24.9875],[-110.9928,25.0197],[-110.986,25.0227],[-110.9764,25.021],[-110.8786,25.0709],[-110.8845,25.0832],[-110.8698,25.1028],[-110.864,25.0916],[-110.863,25.0807],[-110.8483,25.0732]]],[[[-109.7991,24.1558],[-109.8025,24.1367],[-109.818,24.1428],[-109.8637,24.1475],[-109.8736,24.153],[-109.8719,24.1595],[-109.8932,24.1868],[-109.922,24.2604],[-109.9233,24.2715],[-109.9183,24.2909],[-109.9395,24.325],[-109.9343,24.3759],[-109.9308,24.3758],[-109.9224,24.3655],[-109.9183,24.351],[-109.9082,24.3407],[-109.901,24.3251],[-109.8898,24.3128],[-109.8822,24.2921],[-109.8698,24.2704],[-109.8575,24.2583],[-109.855,24.2479],[-109.8472,24.2397],[-109.8425,24.2272],[-109.8197,24.2048],[-109.8098,24.1821],[-109.8083,24.1704],[-109.7991,24.1558]]],[[[-110.1491,24.2525],[-110.1486,24.2519],[-110.1496,24.252],[-110.1491,24.2525]]],[[[-110.3618,24.5335],[-110.3357,24.5235],[-110.3214,24.5023],[-110.3115,24.5006],[-110.3055,24.5036],[-110.3022,24.4948],[-110.3065,24.4872],[-110.2994,24.4782],[-110.2923,24.4774],[-110.2891,24.4729],[-110.2938,24.4587],[-110.3096,24.4546],[-110.3134,24.4402],[-110.308,24.4253],[-110.3183,24.4206],[-110.3276,24.4024],[-110.339,24.405],[-110.3481,24.4013],[-110.3516,24.4054],[-110.3449,24.4147],[-110.3494,24.4181],[-110.3546,24.415],[-110.3469,24.4308],[-110.3496,24.4334],[-110.3627,24.437],[-110.3705,24.4289],[-110.3727,24.4356],[-110.3721,24.4402],[-110.3717,24.4379],[-110.3665,24.4432],[-110.3762,24.4411],[-110.3715,24.4461],[-110.3786,24.449],[-110.3545,24.4565],[-110.3559,24.4591],[-110.3712,24.4574],[-110.3682,24.463],[-110.3564,24.469],[-110.3765,24.4675],[-110.3635,24.4815],[-110.3865,24.4747],[-110.3859,24.4791],[-110.3893,24.4817],[-110.3829,24.4887],[-110.3851,24.4916],[-110.3909,24.4905],[-110.3849,24.4942],[-110.3914,24.4937],[-110.3893,24.4977],[-110.3933,24.4973],[-110.3804,24.5071],[-110.3973,24.5098],[-110.3876,24.5161],[-110.3994,24.5185],[-110.3921,24.5223],[-110.3825,24.5222],[-110.3618,24.5335]]],[[[-110.3396,24.2891],[-110.3373,24.2884],[-110.3415,24.2859],[-110.3396,24.2891]]],[[[-110.3982,24.5914],[-110.3812,24.5838],[-110.3804,24.5709],[-110.3677,24.5625],[-110.3673,24.5562],[-110.3613,24.554],[-110.3608,24.543],[-110.3679,24.5307],[-110.3695,24.5346],[-110.3753,24.5346],[-110.378,24.5401],[-110.3817,24.5391],[-110.3845,24.5314],[-110.3933,24.5328],[-110.389,24.539],[-110.3991,24.5363],[-110.3828,24.5496],[-110.3749,24.5516],[-110.3831,24.557],[-110.4066,24.5448],[-110.4099,24.5476],[-110.4041,24.5523],[-110.4115,24.5539],[-110.3969,24.5571],[-110.3924,24.5633],[-110.4026,24.5615],[-110.401,24.5656],[-110.4057,24.5663],[-110.4058,24.5689],[-110.4142,24.5646],[-110.4145,24.5683],[-110.4013,24.5802],[-110.396,24.5808],[-110.4019,24.5856],[-110.3982,24.5914]]],[[[-110.3866,24.4665],[-110.3841,24.4658],[-110.3885,24.4655],[-110.3866,24.4665]]],[[[-110.3829,24.4576],[-110.3847,24.4568],[-110.3849,24.4571],[-110.3829,24.4576]]],[[[-110.3983,24.4864],[-110.4018,24.4817],[-110.4085,24.4799],[-110.4048,24.4849],[-110.3983,24.4864]]],[[[-110.4038,24.599],[-110.3995,24.5988],[-110.4044,24.5978],[-110.4038,24.599]]],[[[-110.511,25.115],[-110.5095,25.1113],[-110.5114,25.1115],[-110.511,25.115]]],[[[-110.7068,25.105],[-110.6943,25.0931],[-110.689,25.072],[-110.6813,25.0614],[-110.6691,25.0525],[-110.6032,25.0396],[-110.5892,25.0312],[-110.5886,25.0232],[-110.5826,25.0224],[-110.5826,25.0182],[-110.5752,25.0161],[-110.5755,25.005],[-110.5687,24.9974],[-110.5661,24.9883],[-110.5703,24.9541],[-110.5524,24.9253],[-110.5471,24.9083],[-110.5332,24.8928],[-110.5323,24.8877],[-110.5256,24.883],[-110.5307,24.8773],[-110.5518,24.8723],[-110.5679,24.8731],[-110.5788,24.8646],[-110.5898,24.865],[-110.5837,24.8665],[-110.5735,24.8786],[-110.5745,24.8883],[-110.6107,24.9079],[-110.6176,24.9152],[-110.6416,24.9143],[-110.6415,24.9197],[-110.6352,24.9288],[-110.6428,24.9411],[-110.6556,24.9483],[-110.6595,24.972],[-110.6731,24.9904],[-110.6738,25.0066],[-110.6782,25.0171],[-110.682,25.0204],[-110.6968,25.0215],[-110.7046,25.0305],[-110.7137,25.0316],[-110.7175,25.0544],[-110.7127,25.0652],[-110.7109,25.1009],[-110.7068,25.105]]],[[[-110.5663,24.8401],[-110.5686,24.829],[-110.5603,24.8225],[-110.5652,24.8142],[-110.5683,24.8158],[-110.565,24.8184],[-110.5676,24.8227],[-110.5769,24.8203],[-110.5869,24.8282],[-110.5811,24.8383],[-110.5703,24.8436],[-110.5663,24.8401]]],[[[-110.5812,24.8531],[-110.58,24.853],[-110.5806,24.8522],[-110.5812,24.8531]]],[[[-110.6032,24.8751],[-110.6038,24.8744],[-110.6036,24.8772],[-110.6032,24.8751]]],[[[-110.6053,24.8433],[-110.6054,24.8433],[-110.6052,24.8435],[-110.6053,24.8433]]]]}},{"type":"Feature","properties":{"cve_ent":"03","cve_mun":"008","cvegeo":"03008","nombre":"Los Cabos"},"geometry":{"type":"MultiPolygon","coordinates":[[[[-109.6979,23.6707],[-109.6966,23.6621],[-109.6762,23.6452],[-109.6409,23.6326],[-109.6364,23.6267],[-109.5832,23.6123],[-109.587,23.608],[-109.5872,23.6008],[-109.5847,23.5995],[-109.5845,23.6038],[-109.5834,23.5983],[-109.5831,23.6029],[-109.585,23.6053],[-109.5805,23.6025],[-109.5849,23.6072],[-109.5829,23.6112],[-109.5831,23.6061],[-109.5753,23.6009],[-109.5201,23.5846],[-109.5159,23.5717],[-109.5095,23.5677],[-109.4791,23.5609],[-109.4684,23.5552],[-109.4792,23.5339],[-109.4796,23.5199],[-109.4606,23.4872],[-109.4463,23.4773],[-109.4444,23.4682],[-109.4391,23.4624],[-109.4282,23.4566],[-109.4231,23.4454],[-109.4266,23.4425],[-109.4319,23.4136],[-109.4274,23.4055],[-109.4153,23.4036],[-109.4173,23.3946],[-109.4132,23.3883],[-109.4159,23.3819],[-109.4231,23.3828],[-109.4317,23.3768],[-109.426,23.3613],[-109.4277,23.3461],[-109.4242,23.3386],[-109.4276,23.3175],[-109.4249,23.3061],[-109.439,23.2734],[-109.436,23.2463],[-109.4379,23.2363],[-109.4503,23.2205],[-109.4585,23.1961],[-109.4748,23.1814],[-109.4769,23.1745],[-109.4926,23.1578],[-109.4949,23.1503],[-109.5088,23.1419],[-109.5177,23.1268],[-109.5269,23.1214],[-109.5362,23.1087],[-109.5653,23.0964],[-109.5764,23.0841],[-109.6088,23.0807],[-109.6272,23.0717],[-109.6686,23.0607],[-109.6704,23.0559],[-109.6727,23.0641],[-109.6772,23.0636],[-109.6715,23.0555],[-109.6798,23.0488],[-109.7003,23.0402],[-109.7143,23.0292],[-109.7179,23.0129],[-109.7129,23.0056],[-109.7214,23.0018],[-109.733,22.9893],[-109.7597,22.9839],[-109.7635,22.9781],[-109.7948,22.964],[-109.8015,22.9524],[-109.8067,22.95],[-109.8085,22.9332],[-109.8293,22.9155],[-109.8401,22.9104],[-109.8449,22.9015],[-109.8643,22.8988],[-109.8669,22.896],[-109.8721,22.8985],[-109.8881,22.8966],[-109.9029,22.8886],[-109.9054,22.8817],[-109.9085,22.8816],[-109.9095,22.8863],[-109.9115,22.8856],[-109.9093,22.8822],[-109.9102,22.8825],[-109.9112,22.8808],[-109.9103,22.8821],[-109.9091,22.8819],[-109.9114,22.8804],[-109.91,22.8786],[-109.9056,22.8808],[-109.894,22.8768],[-109.8969,22.8749],[-109.9257,22.8717],[-109.9684,22.8736],[-109.9829,22.8802],[-110.0162,22.9034],[-110.0614,22.9491],[-110.0647,22.9606],[-110.0839,22.988],[-110.0906,23.009],[-110.0986,23.0194],[-110.1137,23.0966],[-110.1204,23.1142],[-110.048,23.1387],[-110.0032,23.1697],[-110.0056,23.1451],[-110.0004,23.1426],[-109.9959,23.1592],[-109.9457,23.1351],[-109.9396,23.1641],[-109.9751,23.1792],[-109.9643,23.1771],[-109.9505,23.1849],[-109.9772,23.2363],[-109.9585,23.2217],[-109.9519,23.2275],[-109.9497,23.2614],[-109.9374,23.2747],[-109.9253,23.2739],[-109.9631,23.3427],[-109.9693,23.384],[-110.0127,23.3834],[-110.0256,23.3909],[-109.9947,23.4005],[-109.9881,23.4568],[-109.9357,23.4791],[-109.853,23.4214],[-109.8458,23.4567],[-109.8741,23.4604],[-109.9338,23.4892],[-109.9314,23.6101],[-109.8958,23.578],[-109.8637,23.5844],[-109.8654,23.598],[-109.8564,23.6142],[-109.8193,23.6007],[-109.8129,23.6147],[-109.7968,23.6039],[-109.7809,23.6081],[-109.7788,23.6129],[-109.7693,23.6189],[-109.7668,23.6289],[-109.7502,23.6321],[-109.7477,23.6378],[-109.7399,23.641],[-109.7266,23.639],[-109.7176,23.6412],[-109.7071,23.6502],[-109.6974,23.653],[-109.7018,23.6587],[-109.7015,23.6683],[-109.7038,23.6699],[-109.6979,23.6707]]],[[[-109.8933,22.8763],[-109.893,22.8759],[-109.8933,22.8757],[-109.8933,22.8763]]],[[[-109.8942,22.8749],[-109.8947,22.8753],[-109.8942,22.8755],[-109.8942,22.8749]]]]}},{"type":"Feature","properties":{"cve_ent":"03","cve_mun":"009","cvegeo":"03009","nombre":"Loreto"},"geometry":{"type":"MultiPolygon","coordinates":[[[[-110.7729,25.7123],[-110.7696,25.6953],[-110.7631,25.6906],[-110.7695,25.6776],[-110.7611,25.6531],[-110.7574,25.6297],[-110.7551,25.6012],[-110.7602,25.5975],[-110.7587,25.5937],[-110.775,25.6046],[-110.78,25.604],[-110.7801,25.6013],[-110.7863,25.6061],[-110.7924,25.6267],[-110.805,25.6473],[-110.8024,25.6512],[-110.8055,25.6592],[-110.7999,25.6671],[-110.8002,25.6803],[-110.7965,25.682],[-110.7989,25.6847],[-110.7923,25.6929],[-110.7933,25.6957],[-110.7888,25.6959],[-110.7849,25.7012],[-110.7806,25.7122],[-110.7729,25.7123]]],[[[-111.693,26.5663],[-111.6792,26.5529],[-111.6554,26.5619],[-111.6468,26.5589],[-111.6495,26.5564],[-111.64,26.5391],[-111.6306,26.54],[-111.6157,26.5289],[-111.6143,26.5237],[-111.5939,26.5384],[-111.5649,26.5503],[-111.5612,26.5557],[-111.5399,26.5437],[-111.5008,26.5301],[-111.4759,26.5308],[-111.4724,26.5355],[-111.4604,26.5377],[-111.4634,26.5327],[-111.4621,26.5286],[-111.4562,26.5225],[-111.4421,26.5183],[-111.4439,26.5152],[-111.4527,26.515],[-111.4532,26.509],[-111.4569,26.5059],[-111.4551,26.488],[-111.4602,26.4794],[-111.4664,26.4785],[-111.4646,26.4749],[-111.4681,26.4727],[-111.4674,26.4674],[-111.472,26.4595],[-111.4679,26.4409],[-111.469,26.4125],[-111.4625,26.4018],[-111.4511,26.393],[-111.4404,26.39],[-111.4321,26.3797],[-111.4292,26.3839],[-111.4248,26.381],[-111.4275,26.3769],[-111.4214,26.3728],[-111.4241,26.3699],[-111.4344,26.3697],[-111.434,26.3625],[-111.4306,26.3622],[-111.4229,26.3494],[-111.4124,26.3464],[-111.4055,26.3483],[-111.4039,26.3422],[-111.3961,26.3409],[-111.3871,26.3235],[-111.3888,26.3152],[-111.3823,26.2994],[-111.383,26.2806],[-111.3898,26.2811],[-111.395,26.2767],[-111.3942,26.2661],[-111.3975,26.2548],[-111.3884,26.2435],[-111.3836,26.2236],[-111.3775,26.2159],[-111.379,26.1883],[-111.3736,26.1788],[-111.3651,26.1749],[-111.3614,26.1676],[-111.3545,26.1283],[-111.3503,26.1259],[-111.3445,26.1113],[-111.3238,26.1003],[-111.3249,26.0843],[-111.3187,26.0759],[-111.3201,26.0669],[-111.3286,26.0586],[-111.3285,26.0486],[-111.3454,26.0292],[-111.3445,26.0214],[-111.3384,26.0149],[-111.3391,26.0076],[-111.3364,26.0052],[-111.3395,26.0044],[-111.3353,26.0031],[-111.3381,25.9993],[-111.3383,25.9876],[-111.3551,25.97],[-111.3586,25.9607],[-111.3527,25.9455],[-111.3552,25.9288],[-111.3479,25.9219],[-111.3437,25.9224],[-111.3456,25.9206],[-111.3368,25.9075],[-111.3386,25.8978],[-111.336,25.8865],[-111.3421,25.8777],[-111.3338,25.863],[-111.3312,25.8453],[-111.3331,25.8362],[-111.3251,25.8309],[-111.3178,25.8317],[-111.316,25.8371],[-111.3026,25.8249],[-111.2997,25.8178],[-111.292,25.8128],[-111.2976,25.8078],[-111.302,25.808],[-111.2999,25.8132],[-111.309,25.8148],[-111.3088,25.8185],[-111.3052,25.8195],[-111.3057,25.826],[-111.311,25.8317],[-111.3173,25.83],[-111.3139,25.825],[-111.3166,25.8245],[-111.3159,25.8166],[-111.3197,25.8158],[-111.3138,25.8124],[-111.3151,25.816],[-111.3137,25.8141],[-111.3128,25.8159],[-111.3106,25.8156],[-111.311,25.8126],[-111.3071,25.8117],[-111.3113,25.7916],[-111.3036,25.7706],[-111.2898,25.7639],[-111.2782,25.7502],[-111.2602,25.7449],[-111.2543,25.7402],[-111.246,25.7306],[-111.2463,25.7244],[-111.2431,25.7214],[-111.234,25.7205],[-111.2338,25.7263],[-111.2239,25.7253],[-111.217,25.7062],[-111.2118,25.7025],[-111.216,25.6911],[-111.2102,25.6751],[-111.2042,25.6712],[-111.2066,25.6665],[-111.1999,25.6549],[-111.2012,25.6383],[-111.1981,25.631],[-111.1953,25.631],[-111.1934,25.6135],[-111.1809,25.5974],[-111.1719,25.595],[-111.1739,25.5893],[-111.1691,25.5856],[-111.1706,25.5834],[-111.1647,25.5733],[-111.1451,25.5656],[-111.1446,25.5552],[-111.136,25.5424],[-111.1262,25.5369],[-111.1213,25.5282],[-111.1136,25.5247],[-111.1027,25.5241],[-111.0999,25.5288],[-111.0943,25.5253],[-111.0743,25.5251],[-111.0696,25.5311],[-111.0695,25.5266],[-111.075,25.5231],[-111.073,25.5168],[-111.0678,25.5139],[-111.0605,25.5132],[-111.0599,25.5195],[-111.0532,25.5212],[-111.0494,25.5157],[-111.0405,25.5156],[-111.0385,25.5215],[-111.0335,25.5164],[-111.0165,25.5146],[-111.0143,25.5048],[-111.0186,25.5051],[-111.0226,25.4971],[-111.0134,25.4772],[-111.02,25.4754],[-111.0192,25.4621],[-111.0262,25.458],[-111.0249,25.444],[-111.0204,25.4408],[-111.0133,25.4215],[-111.0037,25.4162],[-111.0006,25.3879],[-110.9938,25.379],[-110.9942,25.3742],[-110.9873,25.3708],[-110.9884,25.368],[-110.9812,25.3564],[-110.9797,25.3415],[-110.9661,25.3303],[-110.9555,25.3294],[-110.9576,25.3229],[-110.9467,25.3133],[-110.9439,25.3054],[-110.9475,25.3041],[-110.9474,25.2972],[-110.9331,25.2916],[-110.939,25.2862],[-110.9338,25.2776],[-110.9366,25.2727],[-110.9411,25.2741],[-110.9445,25.2715],[-110.9462,25.2577],[-110.9387,25.2443],[-110.9413,25.2375],[-110.9342,25.2159],[-110.9257,25.2098],[-110.9217,25.2104],[-110.9207,25.203],[-111.0388,25.2186],[-111.0517,25.3378],[-111.0178,25.3471],[-111.0157,25.3594],[-111.045,25.4294],[-111.0604,25.4312],[-111.0584,25.4391],[-111.0805,25.4425],[-111.0762,25.4604],[-111.0983,25.4742],[-111.1575,25.4798],[-111.2318,25.4235],[-111.2521,25.416],[-111.3076,25.4402],[-111.3304,25.4613],[-111.3496,25.4881],[-111.3672,25.4843],[-111.3744,25.4934],[-111.3821,25.4899],[-111.3866,25.498],[-111.4085,25.4916],[-111.4282,25.5375],[-111.4428,25.5348],[-111.4786,25.5764],[-111.5234,25.5743],[-111.5218,25.5877],[-111.5577,25.5916],[-111.5873,25.6018],[-111.5978,25.6217],[-111.6292,25.6569],[-111.6534,25.7079],[-111.6366,25.7211],[-111.6493,25.7543],[-111.6553,25.8154],[-111.6705,25.9097],[-111.6761,25.9095],[-111.6709,25.9211],[-111.6754,25.9308],[-111.6761,26.0019],[-111.6826,26.0144],[-111.6647,26.013],[-111.6762,26.024],[-111.691,26.0238],[-111.6799,26.0292],[-111.6688,26.046],[-111.6623,26.0478],[-111.6668,26.0696],[-111.6642,26.0848],[-111.7109,26.1214],[-111.7253,26.1778],[-111.7132,26.1821],[-111.7462,26.2474],[-111.7631,26.2744],[-111.7571,26.2796],[-111.7563,26.2921],[-111.7409,26.2939],[-111.7344,26.2976],[-111.7231,26.3151],[-111.7887,26.4092],[-111.7737,26.5436],[-111.7754,26.5465],[-111.7726,26.5541],[-111.7666,26.5542],[-111.7675,26.5501],[-111.7601,26.5473],[-111.7483,26.5471],[-111.7392,26.5379],[-111.7144,26.5502],[-111.693,26.5663]]],[[[-111.0358,25.7144],[-111.0318,25.7025],[-111.0264,25.7012],[-111.0255,25.6961],[-111.0173,25.6936],[-111.0133,25.6788],[-111.0136,25.6695],[-111.0298,25.6498],[-111.0469,25.6644],[-111.0455,25.6756],[-111.0571,25.6961],[-111.0596,25.7073],[-111.0441,25.7071],[-111.0419,25.7128],[-111.0358,25.7144]]],[[[-111.0426,25.7403],[-111.0445,25.7394],[-111.0439,25.7432],[-111.0426,25.7403]]],[[[-111.0486,25.7425],[-111.0499,25.7418],[-111.0499,25.743],[-111.0486,25.7425]]],[[[-111.0596,26.073],[-111.0689,26.0602],[-111.077,26.0431],[-111.0842,26.0162],[-111.0801,25.998],[-111.0733,25.9947],[-111.0707,25.9979],[-111.0691,25.9971],[-111.0723,25.984],[-111.0696,25.9807],[-111.0649,25.9813],[-111.0674,25.9774],[-111.0645,25.9708],[-111.0668,25.9659],[-111.0729,25.9728],[-111.0791,25.972],[-111.0872,25.9833],[-111.094,25.9853],[-111.1011,25.9977],[-111.1086,25.9985],[-111.12,25.9939],[-111.1221,25.9788],[-111.1323,25.9614],[-111.1439,25.9512],[-111.1579,25.9272],[-111.1716,25.9167],[-111.1797,25.9052],[-111.1812,25.8997],[-111.1783,25.896],[-111.1834,25.8913],[-111.1815,25.8888],[-111.1849,25.8824],[-111.1816,25.8665],[-111.1885,25.8576],[-111.1952,25.858],[-111.2038,25.8479],[-111.2011,25.8102],[-111.2045,25.8062],[-111.2111,25.8156],[-111.2289,25.8225],[-111.2333,25.8481],[-111.2244,25.865],[-111.2179,25.8653],[-111.2146,25.8698],[-111.2198,25.8843],[-111.2126,25.8962],[-111.2126,25.9096],[-111.2071,25.9142],[-111.2093,25.9297],[-111.1999,25.9412],[-111.1978,25.9558],[-111.1881,25.9633],[-111.1874,25.9688],[-111.1804,25.9761],[-111.1706,25.9814],[-111.1679,25.9893],[-111.1726,26.0042],[-111.1689,26.0164],[-111.1643,26.0157],[-111.1626,26.0193],[-111.1642,26.0223],[-111.1687,26.0207],[-111.1754,26.0417],[-111.1598,26.0435],[-111.135,26.0519],[-111.1321,26.054],[-111.1332,26.0633],[-111.1285,26.0675],[-111.1216,26.0596],[-111.106,26.0567],[-111.1038,26.0515],[-111.0927,26.0584],[-111.0864,26.0598],[-111.086,26.0559],[-111.0774,26.0598],[-111.0725,26.0676],[-111.0682,26.0653],[-111.0596,26.073]]],[[[-111.1326,25.5878],[-111.1293,25.5866],[-111.1301,25.5843],[-111.1326,25.5878]]],[[[-111.1528,25.588],[-111.1443,25.5855],[-111.1529,25.5827],[-111.1528,25.588]]],[[[-111.1807,26.0448],[-111.1786,26.0457],[-111.1779,26.0439],[-111.1807,26.0448]]],[[[-111.224,25.7315],[-111.2257,25.7303],[-111.225,25.7323],[-111.224,25.7315]]],[[[-111.2282,25.7444],[-111.2261,25.7434],[-111.2271,25.7432],[-111.2282,25.7444]]],[[[-111.2547,25.8113],[-111.2505,25.7979],[-111.2472,25.7985],[-111.2501,25.7937],[-111.2484,25.7886],[-111.2475,25.7909],[-111.2433,25.7891],[-111.2487,25.7774],[-111.2425,25.7709],[-111.2453,25.7647],[-111.2593,25.7831],[-111.2556,25.8023],[-111.2567,25.8091],[-111.2612,25.8096],[-111.2547,25.8113]]],[[[-111.2657,26.1361],[-111.26,26.1261],[-111.2609,26.1181],[-111.265,26.1163],[-111.2633,26.1061],[-111.2795,26.1065],[-111.2904,26.1009],[-111.2971,26.0986],[-111.2954,26.1034],[-111.2937,26.1005],[-111.2899,26.1016],[-111.2797,26.1113],[-111.2884,26.1203],[-111.2791,26.1354],[-111.2657,26.1361]]],[[[-111.2754,25.7579],[-111.274,25.7571],[-111.2758,25.7553],[-111.2754,25.7579]]],[[[-111.2815,25.7683],[-111.2805,25.7676],[-111.2814,25.7672],[-111.2815,25.7683]]],[[[-111.3053,26.1064],[-111.3037,26.1048],[-111.3064,26.1048],[-111.3053,26.1064]]],[[[-111.316,25.8417],[-111.3178,25.8405],[-111.3164,25.8424],[-111.316,25.8417]]]]}}]}