{"type":"FeatureCollection","features":[{"type":"Feature","properties":{"cve_ent":"06","cve_mun":"001","cvegeo":"06001","nombre":"Armería"},"geometry":{"type":"Polygon","coordinates":[[[-103.8963,19.0977],[-103.9145,19.0598],[-103.9175,19.0376],[-103.9152,19.0379],[-103.9111,19.0346],[-103.9135,19.0358],[-103.9125,19.0303],[-103.9184,19.0167],[-103.9144,19.0096],[-103.9141,18.9975],[-103.9218,18.9769],[-103.9224,18.9664],[-103.9291,18.9595],[-103.9461,18.9564],[-103.9422,18.9475],[-103.9459,18.943],[-103.9448,18.9196],[-103.9529,18.9079],[-103.9507,18.8976],[-103.9529,18.8816],[-103.9618,18.873],[-103.9675,18.8744],[-103.9716,18.8688],[-103.9712,18.8639],[-104.1199,18.9442],[-104.1166,18.9438],[-104.1186,18.9485],[-104.0999,18.9871],[-104.0933,18.987],[-104.0922,18.99],[-104.078,18.9874],[-104.0669,19.0091],[-104.0605,19.0136],[-104.0584,19.0116],[-104.056,19.0137],[-104.0508,19.0087],[-104.0301,19.0126],[-104.0368,19.0218],[-104.0319,19.0243],[-104.0344,19.0247],[-104.0324,19.0315],[-104.0231,19.0388],[-104.0279,19.0458],[-104.0291,19.0576],[-104.0269,19.0599],[-104.0308,19.0638],[-104.0296,19.0671],[-104.0422,19.082],[-104.0679,19.1019],[-104.0625,19.1187],[-104.0694,19.1323],[-104.0648,19.1453],[-104.0606,19.1458],[-104.0609,19.1517],[-104.0511,19.1543],[-104.0482,19.1517],[-104.0368,19.152],[-104.0283,19.1437],[-104.0128,19.137],[-104.0051,19.1369],[-104.0059,19.1336],[-104.0007,19.1314],[-103.9831,19.133],[-103.9683,19.1227],[-103.9631,19.1224],[-103.9604,19.1171],[-103.9371,19.1189],[-103.8963,19.0977]]]}},{"type":"Feature","properties":{"cve_ent":"06","cve_mun":"002","cvegeo":"06002","nombre":"Colima"},"geometry":{"type":"Polygon","coordinates":[[[-103.5141,19.2172],[-103.5098,19.2146],[-103.5152,19.2114],[-103.5114,19.2068],[-103.5109,19.1997],[-103.4986,19.187],[-103.4976,19.1746],[-103.5031,19.1702],[-103.5021,19.1625],[-103.5092,19.156],[-103.514,19.1383],[-103.511,19.132],[-103.5196,19.1245],[-103.5236,19.1156],[-103.5207,19.1117],[-103.5211,19.102],[-103.5174,19.0988],[-103.5223,19.0928],[-103.5265,19.0787],[-103.5222,19.0767],[-103.5226,19.0662],[-103.5094,19.0576],[-103.5066,19.0494],[-103.5013,19.0487],[-103.4969,19.0417],[-103.497,19.0352],[-103.4909,19.0327],[-103.4885,19.0276],[-103.4988,19.0117],[-103.4939,19.0069],[-103.4908,18.9958],[-103.4899,18.9808],[-103.4957,18.972],[-103.4895,18.9687],[-103.4885,18.9639],[-103.4931,18.958],[-103.5086,18.9637],[-103.5029,18.9578],[-103.5064,18.9482],[-103.5102,18.9463],[-103.5124,18.9494],[-103.5195,18.9502],[-103.5225,18.9479],[-103.5146,18.9386],[-103.5144,18.9344],[-103.5235,18.9272],[-103.5341,18.9263],[-103.5284,18.9123],[-103.5313,18.9063],[-103.5415,18.9097],[-103.5581,18.9066],[-103.5596,18.896],[-103.5689,18.8925],[-103.5687,18.8844],[-103.5742,18.8714],[-103.5812,18.8759],[-103.5785,18.8802],[-103.5907,18.9035],[-103.5962,18.9042],[-103.5896,18.9069],[-103.5852,18.9173],[-103.58,18.9171],[-103.5797,18.9284],[-103.588,18.9269],[-103.5895,18.9341],[-103.5854,18.9772],[-103.5923,18.981],[-103.5889,18.9853],[-103.5922,19.0045],[-103.6031,19.0102],[-103.6118,19.0285],[-103.636,19.0283],[-103.6469,19.0219],[-103.6484,19.0167],[-103.6485,19.0324],[-103.6429,19.0514],[-103.645,19.0562],[-103.6573,19.0582],[-103.6584,19.0626],[-103.6791,19.0705],[-103.6834,19.0728],[-103.6824,19.0748],[-103.7182,19.0885],[-103.7203,19.0801],[-103.7277,19.0715],[-103.7251,19.0647],[-103.7406,19.0699],[-103.7421,19.0657],[-103.7503,19.0643],[-103.7511,19.0612],[-103.7535,19.0625],[-103.7529,19.0718],[-103.7669,19.0707],[-103.7686,19.0681],[-103.7761,19.072],[-103.773,19.0787],[-103.7845,19.0782],[-103.7826,19.0888],[-103.7976,19.1062],[-103.817,19.1218],[-103.8258,19.136],[-103.8002,19.1515],[-103.7968,19.1485],[-103.7887,19.1642],[-103.7809,19.1603],[-103.7829,19.1763],[-103.7791,19.2057],[-103.7834,19.2075],[-103.774,19.2204],[-103.7744,19.2294],[-103.7837,19.2337],[-103.7595,19.2421],[-103.743,19.2443],[-103.7373,19.2564],[-103.7328,19.2547],[-103.7301,19.2607],[-103.7237,19.2584],[-103.7201,19.2705],[-103.7156,19.274],[-103.7193,19.2776],[-103.7177,19.2809],[-103.7149,19.2794],[-103.7087,19.2945],[-103.686,19.3146],[-103.6839,19.3221],[-103.6792,19.3258],[-103.6625,19.3205],[-103.6604,19.3137],[-103.6657,19.3119],[-103.6637,19.3093],[-103.6713,19.2982],[-103.6743,19.2844],[-103.6881,19.2687],[-103.6818,19.2639],[-103.6727,19.27],[-103.6629,19.2695],[-103.6601,19.2613],[-103.6623,19.2565],[-103.6587,19.2555],[-103.6756,19.2409],[-103.675,19.2343],[-103.6651,19.2296],[-103.6509,19.2327],[-103.6504,19.2177],[-103.6529,19.2183],[-103.655,19.2131],[-103.6394,19.2063],[-103.65,19.1942],[-103.649,19.1906],[-103.6438,19.1883],[-103.6426,19.1934],[-103.6365,19.195],[-103.6348,19.1995],[-103.6231,19.2071],[-103.6072,19.2122],[-103.5989,19.2213],[-103.583,19.2245],[-103.5743,19.2298],[-103.5701,19.2287],[-103.5664,19.2167],[-103.5624,19.2156],[-103.5141,19.2172]]]}},{"type":"Feature","properties":{"cve_ent":"06","cve_mun":"003","cvegeo":"06003","nombre":"Comala"},"geometry":{"type":"Polygon","coordinates":[[[-103.6124,19.4889],[-103.626,19.4861],[-103.6363,19.4678],[-103.6386,19.4801],[-103.646,19.4762],[-103.6431,19.4714],[-103.6688,19.4622],[-103.6709,19.4454],[-103.6748,19.4452],[-103.672,19.4404],[-103.6735,19.4314],[-103.6909,19.433],[-103.6941,19.4309],[-103.6773,19.4173],[-103.6796,19.4119],[-103.6884,19.4096],[-103.699,19.3991],[-103.6839,19.3965],[-103.687,19.3923],[-103.6828,19.3892],[-103.684,19.3844],[-103.6991,19.3632],[-103.7043,19.3471],[-103.7025,19.3447],[-103.7109,19.3344],[-103.7163,19.3396],[-103.7368,19.3283],[-103.7395,19.3198],[-103.7451,19.3196],[-103.7477,19.3022],[-103.7542,19.3032],[-103.7479,19.2907],[-103.7649,19.2903],[-103.7744,19.2783],[-103.7794,19.2815],[-103.7742,19.2898],[-103.7867,19.3009],[-103.7897,19.3022],[-103.7976,19.2915],[-103.822,19.3099],[-103.8152,19.3239],[-103.8102,19.3244],[-103.8107,19.3288],[-103.8156,19.3268],[-103.8195,19.3185],[-103.8323,19.3246],[-103.8279,19.3149],[-103.8321,19.3085],[-103.8408,19.3309],[-103.8331,19.3331],[-103.8325,19.3389],[-103.8542,19.351],[-103.8779,19.3389],[-103.8824,19.3502],[-103.899,19.343],[-103.8818,19.3573],[-103.8854,19.368],[-103.8811,19.3935],[-103.8869,19.4056],[-103.8836,19.4126],[-103.8854,19.4229],[-103.8995,19.4328],[-103.898,19.4386],[-103.9088,19.4536],[-103.8973,19.4614],[-103.8904,19.4636],[-103.8869,19.4616],[-103.8794,19.4445],[-103.8638,19.4474],[-103.8565,19.4313],[-103.8352,19.4397],[-103.8241,19.4378],[-103.828,19.4327],[-103.8235,19.4272],[-103.8234,19.4169],[-103.8193,19.4087],[-103.8177,19.4124],[-103.7981,19.4218],[-103.7927,19.4275],[-103.7744,19.4305],[-103.7507,19.4457],[-103.7353,19.4434],[-103.7183,19.4535],[-103.7158,19.467],[-103.7083,19.4699],[-103.6985,19.4851],[-103.6934,19.4866],[-103.69,19.4924],[-103.6828,19.4931],[-103.6698,19.5009],[-103.6515,19.501],[-103.6183,19.5125],[-103.6062,19.5006],[-103.6145,19.4947],[-103.6124,19.4889]]]}},{"type":"Feature","properties":{"cve_ent":"06","cve_mun":"004","cvegeo":"06004","nombre":"Coquimatlán"},"geometry":{"type":"Polygon","coordinates":[[[-104.0293,19.2922],[-104.0221,19.2874],[-104.005,19.2907],[-103.9904,19.2867],[-103.9864,19.2821],[-103.9571,19.2907],[-103.9343,19.2763],[-103.9316,19.273],[-103.9343,19.2679],[-103.9311,19.2657],[-103.9138,19.2674],[-103.9129,19.2625],[-103.8964,19.2546],[-103.841,19.251],[-103.8459,19.2376],[-103.8402,19.2216],[-103.8365,19.2202],[-103.8421,19.2279],[-103.8433,19.2399],[-103.8351,19.259],[-103.8281,19.2551],[-103.8118,19.253],[-103.8012,19.2645],[-103.7885,19.2518],[-103.7813,19.2527],[-103.7913,19.2466],[-103.7814,19.2415],[-103.7777,19.2458],[-103.7718,19.2377],[-103.7837,19.2337],[-103.7744,19.2294],[-103.774,19.2204],[-103.7834,19.2075],[-103.7791,19.2057],[-103.7829,19.1763],[-103.7809,19.1603],[-103.7887,19.1642],[-103.7968,19.1485],[-103.8002,19.1515],[-103.8258,19.136],[-103.817,19.1218],[-103.7976,19.1062],[-103.7826,19.0888],[-103.785,19.0751],[-103.7907,19.0742],[-103.7873,19.0657],[-103.7827,19.0631],[-103.7835,19.0593],[-103.8573,19.0456],[-103.856,19.0806],[-103.8612,19.0868],[-103.8524,19.0842],[-103.8484,19.1079],[-103.8678,19.1011],[-103.8766,19.1109],[-103.8838,19.1123],[-103.8843,19.1214],[-103.8987,19.0974],[-103.9371,19.1189],[-103.9604,19.1171],[-103.9631,19.1224],[-103.9683,19.1227],[-103.9831,19.133],[-104.0007,19.1314],[-104.0059,19.1336],[-104.0051,19.1369],[-104.0128,19.137],[-104.0283,19.1437],[-104.0368,19.152],[-104.0482,19.1517],[-104.0511,19.1543],[-104.0635,19.1523],[-104.0484,19.1653],[-104.0567,19.1757],[-104.0619,19.1733],[-104.0908,19.1986],[-104.0888,19.2037],[-104.0993,19.2079],[-104.1039,19.2152],[-104.0766,19.222],[-104.0633,19.2359],[-104.0688,19.2458],[-104.0529,19.251],[-104.0447,19.2502],[-104.0419,19.258],[-104.0341,19.2659],[-104.032,19.277],[-104.0409,19.2738],[-104.052,19.2743],[-104.056,19.2848],[-104.0662,19.2811],[-104.069,19.2862],[-104.0578,19.2918],[-104.063,19.3018],[-104.0518,19.3063],[-104.0432,19.3007],[-104.0397,19.2932],[-104.0293,19.2922]]]}},{"type":"Feature","properties":{"cve_ent":"06","cve_mun":"005","cvegeo":"06005","nombre":"Cuauhtémoc"},"geometry":{"type":"Polygon","coordinates":[[[-103.4865,19.3379],[-103.4868,19.3274],[-103.4957,19.3198],[-103.4899,19.3107],[-103.4992,19.3085],[-103.501,19.2998],[-103.5092,19.2951],[-103.5062,19.2897],[-103.5089,19.2671],[-103.5053,19.2533],[-103.5099,19.2433],[-103.5057,19.2362],[-103.5066,19.2275],[-103.5141,19.2172],[-103.5624,19.2156],[-103.5664,19.2167],[-103.5701,19.2287],[-103.5743,19.2298],[-103.583,19.2245],[-103.5989,19.2213],[-103.6072,19.2122],[-103.6231,19.2071],[-103.6348,19.1995],[-103.6365,19.195],[-103.6426,19.1934],[-103.6438,19.1883],[-103.649,19.1906],[-103.65,19.1942],[-103.6394,19.2063],[-103.655,19.2131],[-103.6529,19.2183],[-103.6504,19.2177],[-103.6509,19.2327],[-103.6651,19.2296],[-103.675,19.2343],[-103.6756,19.2409],[-103.6587,19.2555],[-103.6623,19.2565],[-103.6601,19.2613],[-103.6629,19.2695],[-103.6727,19.27],[-103.6818,19.2639],[-103.6881,19.2687],[-103.6743,19.2844],[-103.6713,19.2982],[-103.6637,19.3093],[-103.6657,19.3119],[-103.6604,19.3137],[-103.6625,19.3205],[-103.6792,19.3258],[-103.6736,19.3383],[-103.6828,19.3354],[-103.6905,19.3378],[-103.6875,19.3475],[-103.6781,19.3429],[-103.6713,19.3567],[-103.6744,19.3611],[-103.6734,19.3678],[-103.6762,19.3695],[-103.6748,19.3743],[-103.6795,19.3784],[-103.6698,19.3953],[-103.6657,19.3911],[-103.6593,19.3925],[-103.6548,19.3865],[-103.6511,19.3957],[-103.6534,19.4028],[-103.6468,19.4088],[-103.6503,19.4153],[-103.6477,19.4282],[-103.6735,19.4314],[-103.672,19.4404],[-103.6748,19.4452],[-103.6709,19.4454],[-103.6688,19.4622],[-103.6431,19.4714],[-103.646,19.4762],[-103.6386,19.4801],[-103.6363,19.4678],[-103.626,19.4861],[-103.6124,19.4889],[-103.6154,19.475],[-103.6015,19.4627],[-103.5867,19.444],[-103.5863,19.4395],[-103.5789,19.4355],[-103.5743,19.4116],[-103.5688,19.4062],[-103.5589,19.409],[-103.5562,19.407],[-103.5267,19.3728],[-103.5222,19.3578],[-103.5171,19.3571],[-103.5186,19.3546],[-103.5017,19.3449],[-103.4926,19.3465],[-103.4865,19.3379]]]}},{"type":"Feature","properties":{"cve_ent":"06","cve_mun":"006","cvegeo":"06006","nombre":"Ixtlahuacán"},"geometry":{"type":"Polygon","coordinates":[[[-103.5783,18.8788],[-103.587,18.8656],[-103.5899,18.8708],[-103.5882,18.8758],[-103.5968,18.8842],[-103.6025,18.8816],[-103.6098,18.8893],[-103.6196,18.8932],[-103.6303,18.8853],[-103.6406,18.8672],[-103.6178,18.8445],[-103.6174,18.8397],[-103.6262,18.831],[-103.6246,18.8261],[-103.6503,18.8408],[-103.6522,18.8489],[-103.6686,18.8585],[-103.671,18.8545],[-103.6942,18.8655],[-103.6867,18.8816],[-103.6956,18.8822],[-103.7051,18.8901],[-103.7027,18.8917],[-103.7109,18.8942],[-103.711,18.9009],[-103.7208,18.9015],[-103.7288,18.9129],[-103.728,18.9039],[-103.732,18.9077],[-103.7411,18.9008],[-103.7383,18.9042],[-103.7408,18.9176],[-103.7452,18.9174],[-103.748,18.909],[-103.7692,18.911],[-103.7639,18.9212],[-103.767,18.9227],[-103.7753,18.9161],[-103.7515,18.9449],[-103.7622,18.9487],[-103.7651,18.9406],[-103.7763,18.943],[-103.7699,18.9483],[-103.784,18.9561],[-103.7776,18.9779],[-103.7807,18.9999],[-103.7699,19.0001],[-103.7719,19.0218],[-103.7679,19.027],[-103.772,19.0379],[-103.7707,19.0455],[-103.7741,19.0599],[-103.7669,19.0707],[-103.7529,19.0718],[-103.7516,19.0612],[-103.7503,19.0643],[-103.7421,19.0657],[-103.7406,19.0699],[-103.7251,19.0647],[-103.7277,19.0715],[-103.7203,19.0801],[-103.7182,19.0885],[-103.6824,19.0748],[-103.6834,19.0728],[-103.6791,19.0705],[-103.6584,19.0626],[-103.6573,19.0582],[-103.645,19.0562],[-103.6429,19.0514],[-103.6485,19.0324],[-103.6484,19.0167],[-103.6469,19.0219],[-103.636,19.0283],[-103.6118,19.0285],[-103.6031,19.0102],[-103.5922,19.0045],[-103.5889,18.9853],[-103.5923,18.981],[-103.5854,18.9772],[-103.5895,18.9341],[-103.588,18.9269],[-103.5797,18.9284],[-103.58,18.9171],[-103.5852,18.9173],[-103.5896,18.9069],[-103.5962,18.9042],[-103.5907,18.9035],[-103.5864,18.8917],[-103.5806,18.8862],[-103.5783,18.8788]]]}},{"type":"Feature","properties":{"cve_ent":"06","cve_mun":"007","cvegeo":"06007","nombre":"Manzanillo"},"geometry":{"type":"MultiPolygon","coordinates":[[[[-104.2437,19.3101],[-104.2233,19.3017],[-104.2273,19.298],[-104.1766,19.2855],[-104.1713,19.2823],[-104.1727,19.2772],[-104.1448,19.2686],[-104.1184,19.2668],[-104.1226,19.2581],[-104.1177,19.2561],[-104.093,19.2494],[-104.0759,19.2512],[-104.0688,19.2458],[-104.0633,19.2359],[-104.0766,19.222],[-104.1039,19.2152],[-104.1038,19.2114],[-104.0909,19.2058],[-104.0876,19.2019],[-104.0908,19.1986],[-104.0619,19.1733],[-104.0567,19.1757],[-104.0484,19.1653],[-104.0635,19.1547],[-104.0598,19.1494],[-104.0606,19.1458],[-104.0648,19.1453],[-104.0694,19.1323],[-104.0625,19.1187],[-104.0679,19.1019],[-104.0313,19.07],[-104.0308,19.0638],[-104.0269,19.0599],[-104.0291,19.0576],[-104.0279,19.0458],[-104.0231,19.0388],[-104.0324,19.0315],[-104.0344,19.0247],[-104.0319,19.0243],[-104.0368,19.0218],[-104.0301,19.0126],[-104.0508,19.0087],[-104.056,19.0137],[-104.0584,19.0116],[-104.0605,19.0136],[-104.0669,19.0091],[-104.078,18.9874],[-104.0922,18.99],[-104.0933,18.987],[-104.0999,18.9871],[-104.1186,18.9485],[-104.1166,18.9438],[-104.2228,18.9865],[-104.2502,18.996],[-104.2577,18.9949],[-104.2565,18.9984],[-104.2626,18.9967],[-104.2651,19.0013],[-104.2836,19.0087],[-104.3165,19.0184],[-104.3288,19.02],[-104.3321,19.0176],[-104.3365,19.0224],[-104.3363,19.0294],[-104.331,19.0363],[-104.3301,19.0512],[-104.3147,19.0612],[-104.3177,19.0547],[-104.3117,19.0585],[-104.3143,19.0541],[-104.3054,19.0573],[-104.304,19.0719],[-104.3145,19.0898],[-104.334,19.1022],[-104.3454,19.1032],[-104.3469,19.0997],[-104.344,19.0984],[-104.3488,19.0968],[-104.3503,19.0908],[-104.3542,19.091],[-104.3562,19.0969],[-104.3498,19.1035],[-104.3539,19.104],[-104.3509,19.1104],[-104.357,19.1161],[-104.377,19.1196],[-104.3949,19.1139],[-104.3986,19.1056],[-104.3898,19.0968],[-104.3953,19.0901],[-104.3954,19.085],[-104.3987,19.0931],[-104.4113,19.1064],[-104.4232,19.1005],[-104.4278,19.0918],[-104.4385,19.0984],[-104.4364,19.086],[-104.4417,19.0833],[-104.4448,19.0911],[-104.4483,19.091],[-104.4461,19.0934],[-104.4495,19.0942],[-104.448,19.099],[-104.4524,19.1009],[-104.4498,19.1034],[-104.4515,19.1085],[-104.4633,19.1119],[-104.4672,19.1099],[-104.4732,19.1165],[-104.4894,19.1246],[-104.5629,19.144],[-104.604,19.1509],[-104.6699,19.1731],[-104.6906,19.177],[-104.688,19.1849],[-104.6809,19.1838],[-104.6836,19.19],[-104.68,19.1932],[-104.6751,19.1855],[-104.6537,19.1826],[-104.6293,19.1729],[-104.626,19.1782],[-104.6188,19.1809],[-104.6153,19.1741],[-104.619,19.1677],[-104.6157,19.1617],[-104.6115,19.161],[-104.6128,19.1555],[-104.5898,19.1501],[-104.5858,19.1618],[-104.5961,19.1641],[-104.5961,19.1716],[-104.6003,19.1791],[-104.59,19.1865],[-104.5867,19.1854],[-104.584,19.178],[-104.5769,19.1802],[-104.5748,19.193],[-104.5672,19.2013],[-104.5691,19.2187],[-104.5599,19.2201],[-104.5603,19.2282],[-104.5545,19.2371],[-104.5371,19.251],[-104.533,19.2586],[-104.5233,19.2604],[-104.5084,19.2442],[-104.5014,19.2526],[-104.4945,19.2539],[-104.4884,19.2472],[-104.489,19.2299],[-104.4838,19.2305],[-104.4777,19.2387],[-104.474,19.2365],[-104.4725,19.2289],[-104.4648,19.23],[-104.4628,19.2361],[-104.467,19.2451],[-104.4557,19.248],[-104.4598,19.2544],[-104.457,19.2598],[-104.4489,19.259],[-104.4386,19.2627],[-104.4358,19.2696],[-104.4398,19.2772],[-104.4374,19.2792],[-104.4238,19.2821],[-104.4174,19.2803],[-104.4124,19.2853],[-104.3999,19.289],[-104.3974,19.2858],[-104.4025,19.2784],[-104.4013,19.2668],[-104.3956,19.2713],[-104.3843,19.272],[-104.3743,19.2819],[-104.3633,19.2753],[-104.3643,19.2698],[-104.3619,19.2691],[-104.3428,19.29],[-104.3148,19.2794],[-104.3106,19.2895],[-104.3001,19.296],[-104.2976,19.3027],[-104.2914,19.3027],[-104.2843,19.2969],[-104.281,19.3031],[-104.2693,19.3022],[-104.2622,19.3074],[-104.2612,19.3118],[-104.2437,19.3101]]],[[[-104.4888,19.1036],[-104.4849,19.1028],[-104.4873,19.1012],[-104.4888,19.1036]]],[[[-110.801,19.3349],[-110.7945,19.3335],[-110.7947,19.3277],[-110.7914,19.3245],[-110.8006,19.3117],[-110.7963,19.3027],[-110.8015,19.2986],[-110.8085,19.3012],[-110.8127,19.2982],[-110.8179,19.3013],[-110.8189,19.3065],[-110.8157,19.3144],[-110.8032,19.3201],[-110.8057,19.3252],[-110.8005,19.3263],[-110.801,19.3349]]],[[[-112.0657,18.9932],[-112.0661,18.9921],[-112.0662,18.9934],[-112.0657,18.9932]]]]}},{"type":"Feature","properties":{"cve_ent":"06","cve_mun":"008","cvegeo":"06008","nombre":"Minatitlán"},"geometry":{"type":"Polygon","coordinates":[[[-103.8995,19.4345],[-103.8852,19.4224],[-103.8836,19.4126],[-103.8869,19.4056],[-103.8811,19.3935],[-103.8854,19.368],[-103.8818,19.3573],[-103.9061,19.3395],[-103.9099,19.3419],[-103.916,19.3586],[-103.9112,19.3639],[-103.9122,19.3645],[-103.9361,19.3484],[-103.9358,19.3457],[-103.9565,19.3545],[-103.9612,19.3621],[-103.9814,19.3633],[-103.9837,19.3486],[-103.9991,19.3516],[-103.9971,19.3401],[-104.0035,19.3366],[-104.0083,19.3281],[-104.0235,19.3186],[-104.0261,19.3143],[-104.0213,19.3075],[-104.0293,19.2922],[-104.0397,19.2932],[-104.0432,19.3007],[-104.0518,19.3063],[-104.063,19.3018],[-104.0578,19.292],[-104.069,19.2862],[-104.0658,19.2807],[-104.056,19.2848],[-104.052,19.2743],[-104.0409,19.2738],[-104.032,19.277],[-104.0341,19.2659],[-104.0419,19.258],[-104.0447,19.2502],[-104.0529,19.251],[-104.0688,19.2458],[-104.0759,19.2512],[-104.093,19.2494],[-104.1226,19.2581],[-104.1184,19.2668],[-104.1448,19.2686],[-104.1727,19.2772],[-104.1713,19.2823],[-104.1766,19.2855],[-104.2273,19.298],[-104.2233,19.3017],[-104.2184,19.299],[-104.2142,19.3024],[-104.2076,19.2998],[-104.2048,19.3037],[-104.1904,19.2923],[-104.19,19.302],[-104.1796,19.3088],[-104.1798,19.3126],[-104.1698,19.313],[-104.1688,19.3077],[-104.1638,19.3082],[-104.1616,19.3027],[-104.1529,19.3152],[-104.1448,19.3112],[-104.1402,19.3162],[-104.136,19.3129],[-104.1322,19.3209],[-104.1296,19.3178],[-104.1227,19.3193],[-104.1255,19.3243],[-104.1216,19.3275],[-104.1247,19.3287],[-104.1333,19.3537],[-104.1203,19.3601],[-104.1188,19.3717],[-104.1096,19.3812],[-104.0902,19.393],[-104.0838,19.4156],[-104.0709,19.4352],[-104.0799,19.4318],[-104.0866,19.442],[-104.0767,19.4802],[-104.069,19.4843],[-104.0617,19.4977],[-104.0518,19.4976],[-104.0391,19.4847],[-104.0,19.4688],[-103.9977,19.4716],[-103.9882,19.4712],[-103.9871,19.4743],[-103.974,19.4746],[-103.9713,19.4626],[-103.9648,19.4542],[-103.8995,19.4345]]]}},{"type":"Feature","properties":{"cve_ent":"06","cve_mun":"009","cvegeo":"06009","nombre":"Tecomán"},"geometry":{"type":"MultiPolygon","coordinates":[[[[-103.8843,19.1214],[-103.8838,19.1123],[-103.8766,19.1109],[-103.8678,19.1011],[-103.8484,19.1079],[-103.8524,19.0842],[-103.8612,19.0868],[-103.856,19.0806],[-103.8573,19.0456],[-103.7835,19.0593],[-103.7827,19.0631],[-103.7873,19.0657],[-103.7907,19.0742],[-103.785,19.0751],[-103.7845,19.0782],[-103.773,19.0787],[-103.7761,19.072],[-103.7686,19.0681],[-103.7741,19.0599],[-103.7707,19.0455],[-103.772,19.0379],[-103.7679,19.027],[-103.7719,19.0218],[-103.7699,19.0001],[-103.7807,18.9999],[-103.7776,18.9779],[-103.784,18.9561],[-103.7699,18.9483],[-103.7763,18.943],[-103.7651,18.9406],[-103.7622,18.9487],[-103.7515,18.9449],[-103.7753,18.9161],[-103.767,18.9227],[-103.7639,18.9212],[-103.7692,18.911],[-103.748,18.909],[-103.7452,18.9174],[-103.7408,18.9176],[-103.7383,18.9042],[-103.7411,18.9008],[-103.732,18.9077],[-103.728,18.9039],[-103.7288,18.9129],[-103.7208,18.9015],[-103.711,18.9009],[-103.7109,18.8942],[-103.7027,18.8917],[-103.7051,18.8901],[-103.6956,18.8822],[-103.6867,18.8816],[-103.6942,18.8655],[-103.671,18.8545],[-103.6686,18.8585],[-103.6522,18.8489],[-103.6503,18.8408],[-103.6246,18.8261],[-103.6207,18.8204],[-103.62,18.8014],[-103.6375,18.7835],[-103.6537,18.7765],[-103.6618,18.779],[-103.679,18.7732],[-103.6854,18.7573],[-103.7003,18.7544],[-103.7036,18.739],[-103.7127,18.7264],[-103.7189,18.7104],[-103.7257,18.7077],[-103.7288,18.7001],[-103.738,18.6941],[-103.7379,18.684],[-103.7526,18.7031],[-103.8034,18.7489],[-103.8766,18.7992],[-103.9475,18.8421],[-103.9712,18.8639],[-103.9716,18.8688],[-103.9675,18.8744],[-103.9618,18.873],[-103.9529,18.8816],[-103.9507,18.8976],[-103.9529,18.9079],[-103.9448,18.9196],[-103.9459,18.943],[-103.9422,18.9475],[-103.9461,18.9564],[-103.9291,18.9595],[-103.9228,18.965],[-103.9218,18.9769],[-103.9141,18.9975],[-103.9144,19.0096],[-103.9184,19.0167],[-103.9125,19.0303],[-103.9135,19.0358],[-103.9111,19.0346],[-103.9152,19.0379],[-103.9175,19.0376],[-103.9145,19.0598],[-103.8963,19.0977],[-103.8967,19.1035],[-103.8843,19.1214]]],[[[-110.9863,18.8611],[-110.9798,18.8575],[-110.9771,18.8615],[-110.9777,18.8548],[-110.9698,18.8544],[-110.9577,18.838],[-110.951,18.8364],[-110.9468,18.8403],[-110.9439,18.8341],[-110.9403,18.8343],[-110.9394,18.8225],[-110.9303,18.8173],[-110.93,18.8122],[-110.9158,18.7984],[-110.9175,18.7919],[-110.9151,18.7824],[-110.9077,18.7789],[-110.9157,18.777],[-110.919,18.7697],[-110.9159,18.7546],[-110.9201,18.7323],[-110.9287,18.7279],[-110.9401,18.7301],[-110.9429,18.7217],[-110.9495,18.7263],[-110.9515,18.7192],[-110.9581,18.7238],[-110.955,18.7313],[-110.9607,18.7335],[-110.9608,18.7371],[-110.9636,18.7355],[-110.9641,18.7409],[-110.9708,18.7453],[-110.9794,18.7471],[-110.9845,18.7448],[-110.989,18.753],[-110.9966,18.754],[-111.0002,18.7583],[-111.006,18.7526],[-111.0109,18.7563],[-111.0155,18.7537],[-111.0186,18.7608],[-111.0151,18.7645],[-111.0191,18.7639],[-111.023,18.7689],[-111.0214,18.7751],[-111.0283,18.7752],[-111.0275,18.7784],[-111.0333,18.7803],[-111.0359,18.7879],[-111.0406,18.7841],[-111.0462,18.7859],[-111.0491,18.7799],[-111.0556,18.7807],[-111.0523,18.7876],[-111.0458,18.7906],[-111.0474,18.794],[-111.0415,18.7948],[-111.041,18.7984],[-111.0465,18.8017],[-111.0451,18.8072],[-111.0482,18.8085],[-111.0434,18.8145],[-111.0521,18.8163],[-111.0416,18.8167],[-111.0405,18.8139],[-111.037,18.821],[-111.0274,18.8189],[-111.0285,18.8232],[-111.0251,18.8261],[-111.018,18.8225],[-111.0129,18.8254],[-111.0105,18.8314],[-111.0125,18.8341],[-111.009,18.8349],[-111.007,18.8401],[-111.0099,18.8438],[-111.0083,18.8469],[-111.0006,18.8532],[-110.9979,18.8519],[-110.9989,18.8589],[-110.9893,18.8608],[-110.9911,18.8646],[-110.9886,18.8665],[-110.9838,18.8637],[-110.9863,18.8611]]],[[[-114.7393,18.3722],[-114.7225,18.366],[-114.6896,18.3711],[-114.6805,18.3613],[-114.6984,18.3452],[-114.7094,18.3505],[-114.725,18.3429],[-114.7244,18.3472],[-114.7288,18.3491],[-114.7323,18.3423],[-114.7411,18.344],[-114.7521,18.3389],[-114.7594,18.3457],[-114.7564,18.3653],[-114.7393,18.3722]]]]}},{"type":"Feature","properties":{"cve_ent":"06","cve_mun":"010","cvegeo":"06010","nombre":"Villa de Álvarez"},"geometry":{"type":"Polygon","coordinates":[[[-103.6909,19.433],[-103.6477,19.4282],[-103.6503,19.4153],[-103.6468,19.4088],[-103.6534,19.4028],[-103.6516,19.3939],[-103.6548,19.3865],[-103.6612,19.3936],[-103.6657,19.3911],[-103.6698,19.3953],[-103.6735,19.3902],[-103.6796,19.3772],[-103.6748,19.3743],[-103.6762,19.3695],[-103.6734,19.3678],[-103.6744,19.3611],[-103.6713,19.3567],[-103.6781,19.3429],[-103.6875,19.3475],[-103.6905,19.3378],[-103.6828,19.3354],[-103.6736,19.3383],[-103.6752,19.3306],[-103.6839,19.3221],[-103.686,19.3146],[-103.7087,19.2945],[-103.7149,19.2794],[-103.7177,19.2809],[-103.7193,19.2776],[-103.7156,19.274],[-103.7201,19.2705],[-103.7237,19.2584],[-103.7301,19.2607],[-103.7328,19.2547],[-103.7373,19.2564],[-103.743,19.2443],[-103.7719,19.2378],[-103.7777,19.2458],[-103.7814,19.2415],[-103.7913,19.2466],[-103.7813,19.2527],[-103.7885,19.2518],[-103.8012,19.2645],[-103.8118,19.253],[-103.8281,19.2551],[-103.8351,19.259],[-103.8433,19.2399],[-103.8421,19.2279],[-103.8365,19.2202],[-103.8402,19.2216],[-103.8459,19.2376],[-103.841,19.251],[-103.8964,19.2546],[-103.9129,19.2625],[-103.9138,19.2674],[-103.9311,19.2657],[-103.9343,19.2679],[-103.9316,19.273],[-103.9343,19.2763],[-103.9571,19.2907],[-103.9864,19.2821],[-103.9904,19.2867],[-104.005,19.2907],[-104.0221,19.2874],[-104.0293,19.2922],[-104.0213,19.3075],[-104.0261,19.3143],[-104.0235,19.3186],[-104.0083,19.3281],[-104.0035,19.3366],[-103.9971,19.3401],[-103.9991,19.3516],[-103.9837,19.3486],[-103.9814,19.3633],[-103.9612,19.3621],[-103.9565,19.3545],[-103.9358,19.3457],[-103.9361,19.3484],[-103.9122,19.3645],[-103.916,19.3586],[-103.9099,19.3419],[-103.9061,19.3395],[-103.8824,19.3502],[-103.8779,19.3389],[-103.8542,19.351],[-103.8325,19.3389],[-103.8331,19.3331],[-103.8408,19.3309],[-103.8321,19.3085],[-103.8279,19.3149],[-103.8323,19.3246],[-103.8195,19.3185],[-103.8156,19.3268],[-103.8104,19.3287],[-103.8102,19.3244],[-103.8152,19.3239],[-103.822,19.3099],[-103.8209,19.3072],[-103.8121,19.3047],[-103.8132,19.3018],[-103.7976,19.2915],[-103.7897,19.3022],[-103.7867,19.3009],[-103.7742,19.2898],[-103.7794,19.2815],[-103.7744,19.2783],[-103.7649,19.2903],[-103.7479,19.2907],[-103.7542,19.3032],[-103.7477,19.3022],[-103.7451,19.3196],[-103.7395,19.3198],[-103.7368,19.3283],[-103.7163,19.3396],[-103.7109,19.3344],[-103.7035,19.3424],[-103.6991,19.3632],[-103.6828,19.3892],[-103.687,19.3923],[-103.6839,19.3965],[-103.699,19.3991],[-103.6884,19.4096],[-103.6796,19.4119],[-103.6773,19.4173],[-103.6941,19.4309],[-103.6909,19.433]]]}}]}