{"type":"FeatureCollection","features":[{"type":"Feature","properties":{"cve_ent":"09","cve_mun":"002","cvegeo":"09002","nombre":"Azcapotzalco"},"geometry":{"type":"Polygon","coordinates":[[[-99.1572,19.5028],[-99.1431,19.4651],[-99.1587,19.4639],[-99.1637,19.4564],[-99.1885,19.4608],[-99.191,19.4706],[-99.2211,19.4751],[-99.2102,19.5111],[-99.2047,19.5151],[-99.1572,19.5028]]]}},{"type":"Feature","properties":{"cve_ent":"09","cve_mun":"003","cvegeo":"09003","nombre":"Coyoacán"},"geometry":{"type":"Polygon","coordinates":[[[-99.1717,19.3596],[-99.122,19.3577],[-99.1129,19.3354],[-99.0992,19.3209],[-99.1009,19.3],[-99.1168,19.3014],[-99.1347,19.3083],[-99.1426,19.2996],[-99.1474,19.3013],[-99.1567,19.2968],[-99.1623,19.3013],[-99.1951,19.3021],[-99.2058,19.3057],[-99.1949,19.322],[-99.1947,19.3302],[-99.1963,19.3336],[-99.1998,19.3335],[-99.1912,19.3369],[-99.1717,19.3596]]]}},{"type":"Feature","properties":{"cve_ent":"09","cve_mun":"004","cvegeo":"09004","nombre":"Cuajimalpa de Morelos"},"geometry":{"type":"Polygon","coordinates":[[[-99.2558,19.4036],[-99.2557,19.3973],[-99.2593,19.3926],[-99.247,19.3942],[-99.2477,19.386],[-99.2702,19.3727],[-99.2684,19.3687],[-99.2651,19.3717],[-99.2668,19.3635],[-99.2613,19.361],[-99.2582,19.3497],[-99.2684,19.3419],[-99.2812,19.3374],[-99.2802,19.3352],[-99.285,19.3365],[-99.2867,19.3298],[-99.288,19.3335],[-99.2913,19.3292],[-99.2906,19.3215],[-99.2948,19.3169],[-99.3005,19.3223],[-99.3013,19.3095],[-99.3033,19.3111],[-99.3088,19.3051],[-99.3116,19.3068],[-99.3164,19.3001],[-99.3157,19.2822],[-99.3236,19.2651],[-99.3243,19.2326],[-99.3267,19.2326],[-99.3308,19.2379],[-99.3423,19.2411],[-99.3392,19.2677],[-99.3482,19.274],[-99.3649,19.2778],[-99.3515,19.2942],[-99.3535,19.2974],[-99.35,19.2968],[-99.3563,19.302],[-99.3566,19.3067],[-99.3338,19.3306],[-99.3283,19.3452],[-99.3285,19.3531],[-99.3233,19.3583],[-99.3181,19.3582],[-99.3195,19.3636],[-99.3131,19.3704],[-99.3078,19.3716],[-99.3035,19.3778],[-99.3012,19.3697],[-99.2956,19.3691],[-99.2617,19.396],[-99.2581,19.4048],[-99.257,19.4004],[-99.2558,19.4036]]]}},{"type":"Feature","properties":{"cve_ent":"09","cve_mun":"005","cvegeo":"09005","nombre":"Gustavo A. Madero"},"geometry":{"type":"Polygon","coordinates":[[[-99.1179,19.5906],[-99.1186,19.5845],[-99.1081,19.5649],[-99.1306,19.5361],[-99.1274,19.5351],[-99.128,19.5245],[-99.1144,19.5111],[-99.1073,19.5097],[-99.0974,19.5126],[-99.0639,19.4988],[-99.068,19.4891],[-99.0509,19.4502],[-99.0526,19.4484],[-99.0623,19.4448],[-99.0809,19.4502],[-99.0872,19.4458],[-99.0932,19.4516],[-99.1014,19.4499],[-99.1333,19.4649],[-99.1431,19.4651],[-99.163,19.518],[-99.1746,19.5241],[-99.1714,19.5272],[-99.177,19.5293],[-99.176,19.532],[-99.1568,19.5281],[-99.1558,19.5324],[-99.1585,19.5339],[-99.1511,19.5448],[-99.1609,19.5493],[-99.1581,19.5574],[-99.1468,19.5646],[-99.1338,19.5862],[-99.1237,19.5928],[-99.1179,19.5906]]]}},{"type":"Feature","properties":{"cve_ent":"09","cve_mun":"006","cvegeo":"09006","nombre":"Iztacalco"},"geometry":{"type":"Polygon","coordinates":[[[-99.0558,19.4221],[-99.0608,19.3826],[-99.084,19.3926],[-99.0846,19.3895],[-99.0888,19.3904],[-99.0956,19.3796],[-99.1225,19.3824],[-99.1225,19.3757],[-99.1355,19.3772],[-99.1309,19.399],[-99.1372,19.3992],[-99.1366,19.4028],[-99.098,19.4091],[-99.0782,19.4071],[-99.0695,19.4203],[-99.0558,19.4221]]]}},{"type":"Feature","properties":{"cve_ent":"09","cve_mun":"007","cvegeo":"09007","nombre":"Iztapalapa"},"geometry":{"type":"Polygon","coordinates":[[[-99.0581,19.4007],[-98.9919,19.3676],[-98.9946,19.3581],[-98.9604,19.3254],[-98.9786,19.3239],[-98.9799,19.3261],[-99.0014,19.3271],[-99.0436,19.3122],[-99.0466,19.3149],[-99.0538,19.3119],[-99.0599,19.3044],[-99.0634,19.3057],[-99.0616,19.2927],[-99.0692,19.2851],[-99.1122,19.3342],[-99.122,19.3577],[-99.1399,19.3574],[-99.1354,19.3773],[-99.1225,19.3757],[-99.1225,19.3824],[-99.0956,19.3796],[-99.0888,19.3904],[-99.0846,19.3895],[-99.084,19.3926],[-99.0608,19.3826],[-99.0581,19.4007]]]}},{"type":"Feature","properties":{"cve_ent":"09","cve_mun":"008","cvegeo":"09008","nombre":"La Magdalena Contreras"},"geometry":{"type":"Polygon","coordinates":[[[-99.2199,19.3123],[-99.2319,19.305],[-99.2333,19.2966],[-99.2427,19.2923],[-99.2408,19.287],[-99.2454,19.277],[-99.2435,19.2698],[-99.2471,19.2647],[-99.2472,19.2603],[-99.2439,19.2592],[-99.2446,19.2527],[-99.2504,19.2457],[-99.2529,19.2355],[-99.2707,19.2242],[-99.2773,19.2147],[-99.2932,19.2139],[-99.3223,19.2326],[-99.3232,19.2392],[-99.3176,19.2445],[-99.3154,19.2564],[-99.298,19.2615],[-99.2926,19.2683],[-99.2862,19.2707],[-99.2811,19.2806],[-99.2733,19.2852],[-99.2762,19.2891],[-99.2697,19.3012],[-99.2722,19.3025],[-99.2684,19.3051],[-99.2712,19.3072],[-99.2705,19.3119],[-99.2659,19.3134],[-99.2552,19.3266],[-99.2442,19.3286],[-99.2373,19.3247],[-99.2312,19.3298],[-99.2075,19.3378],[-99.2128,19.3268],[-99.2212,19.3201],[-99.2199,19.3123]]]}},{"type":"Feature","properties":{"cve_ent":"09","cve_mun":"009","cvegeo":"09009","nombre":"Milpa Alta"},"geometry":{"type":"Polygon","coordinates":[[[-98.9685,19.2106],[-98.9677,19.1897],[-98.9524,19.1686],[-98.9674,19.1644],[-98.9546,19.1495],[-98.9665,19.1439],[-98.9575,19.1224],[-98.9612,19.0956],[-98.9683,19.0831],[-98.979,19.0745],[-98.9836,19.0788],[-99.029,19.0854],[-99.0432,19.0758],[-99.0598,19.0482],[-99.1254,19.0621],[-99.1354,19.0893],[-99.1633,19.1175],[-99.1525,19.1421],[-99.1496,19.1603],[-99.1324,19.1486],[-99.0993,19.2081],[-99.0946,19.2115],[-98.9989,19.2277],[-98.9906,19.2258],[-98.9685,19.2106]]]}},{"type":"Feature","properties":{"cve_ent":"09","cve_mun":"010","cvegeo":"09010","nombre":"Álvaro Obregón"},"geometry":{"type":"Polygon","coordinates":[[[-99.1891,19.3956],[-99.1911,19.3635],[-99.1837,19.3617],[-99.1777,19.3651],[-99.1717,19.3596],[-99.1912,19.3369],[-99.1998,19.3335],[-99.1963,19.3336],[-99.1947,19.3302],[-99.195,19.3218],[-99.2002,19.3112],[-99.2058,19.3057],[-99.2159,19.3079],[-99.2205,19.3137],[-99.2211,19.3203],[-99.2128,19.3268],[-99.2075,19.3378],[-99.2312,19.3298],[-99.2373,19.3247],[-99.2442,19.3286],[-99.2552,19.3266],[-99.2659,19.3134],[-99.2705,19.3119],[-99.2712,19.3072],[-99.2684,19.3051],[-99.2722,19.3025],[-99.2697,19.3012],[-99.2762,19.2891],[-99.2733,19.2852],[-99.2811,19.2806],[-99.2862,19.2707],[-99.2926,19.2683],[-99.298,19.2615],[-99.3154,19.2564],[-99.3176,19.2445],[-99.3227,19.2403],[-99.3223,19.2326],[-99.3243,19.2326],[-99.3236,19.2651],[-99.3157,19.2822],[-99.3164,19.3001],[-99.3116,19.3068],[-99.3088,19.3051],[-99.3033,19.3111],[-99.3013,19.3095],[-99.3005,19.3223],[-99.2948,19.3169],[-99.2906,19.3215],[-99.2913,19.3292],[-99.288,19.3335],[-99.2883,19.3307],[-99.2867,19.3298],[-99.285,19.3365],[-99.2802,19.3352],[-99.2812,19.3374],[-99.2684,19.3419],[-99.2582,19.3498],[-99.2613,19.361],[-99.2668,19.3635],[-99.2651,19.3717],[-99.2684,19.3687],[-99.27,19.3731],[-99.2421,19.3874],[-99.2376,19.3936],[-99.1922,19.4037],[-99.1891,19.3956]]]}},{"type":"Feature","properties":{"cve_ent":"09","cve_mun":"011","cvegeo":"09011","nombre":"Tláhuac"},"geometry":{"type":"Polygon","coordinates":[[[-98.9604,19.3254],[-98.9579,19.3232],[-98.9672,19.306],[-98.9765,19.2531],[-98.966,19.2499],[-98.9686,19.2322],[-98.9403,19.2232],[-98.9426,19.2156],[-98.9511,19.2182],[-98.9539,19.2146],[-98.9685,19.2106],[-98.9937,19.2275],[-98.9958,19.225],[-99.003,19.2276],[-99.0001,19.2263],[-99.0302,19.2236],[-99.007,19.2516],[-99.0165,19.26],[-99.0298,19.2626],[-99.0373,19.2717],[-99.069,19.285],[-99.0616,19.2927],[-99.0634,19.3057],[-99.0599,19.3044],[-99.0538,19.3119],[-99.0466,19.3149],[-99.0436,19.3122],[-99.0014,19.3271],[-98.9799,19.3261],[-98.9786,19.3239],[-98.9604,19.3254]]]}},{"type":"Feature","properties":{"cve_ent":"09","cve_mun":"012","cvegeo":"09012","nombre":"Tlalpan"},"geometry":{"type":"Polygon","coordinates":[[[-99.1981,19.303],[-99.1629,19.3014],[-99.1567,19.2968],[-99.1474,19.3013],[-99.1426,19.2996],[-99.1347,19.3083],[-99.1168,19.3014],[-99.1009,19.3],[-99.1014,19.2952],[-99.105,19.2935],[-99.1249,19.2852],[-99.1411,19.2825],[-99.1412,19.2735],[-99.1449,19.2674],[-99.1424,19.2666],[-99.1394,19.2547],[-99.1417,19.249],[-99.1389,19.246],[-99.1443,19.2447],[-99.144,19.2397],[-99.1475,19.2403],[-99.1445,19.2345],[-99.1507,19.2347],[-99.1534,19.226],[-99.1512,19.2234],[-99.1544,19.2206],[-99.1383,19.2157],[-99.1328,19.21],[-99.1293,19.203],[-99.1307,19.1913],[-99.1271,19.1873],[-99.1324,19.1785],[-99.13,19.1722],[-99.1328,19.1549],[-99.1302,19.1525],[-99.1324,19.1486],[-99.1496,19.1603],[-99.1525,19.1421],[-99.1633,19.1175],[-99.1365,19.0894],[-99.2268,19.0961],[-99.2787,19.1317],[-99.2876,19.1466],[-99.3028,19.1909],[-99.3071,19.2137],[-99.3162,19.2215],[-99.3156,19.2274],[-99.2928,19.2138],[-99.2773,19.2147],[-99.2707,19.2242],[-99.2531,19.2351],[-99.2504,19.2457],[-99.2452,19.2504],[-99.2439,19.2592],[-99.2472,19.2603],[-99.2471,19.2647],[-99.2435,19.2697],[-99.2449,19.2801],[-99.2408,19.287],[-99.243,19.2914],[-99.2332,19.2967],[-99.2319,19.305],[-99.2199,19.3123],[-99.2154,19.3076],[-99.1981,19.303]]]}},{"type":"Feature","properties":{"cve_ent":"09","cve_mun":"013","cvegeo":"09013","nombre":"Xochimilco"},"geometry":{"type":"Polygon","coordinates":[[[-99.0991,19.3204],[-99.0683,19.2844],[-99.0373,19.2717],[-99.0298,19.2626],[-99.0165,19.26],[-99.007,19.2516],[-99.0302,19.2236],[-99.0946,19.2115],[-99.0993,19.2081],[-99.1317,19.1526],[-99.1299,19.1724],[-99.1324,19.1785],[-99.1271,19.1873],[-99.1307,19.1913],[-99.1293,19.203],[-99.1383,19.2157],[-99.1544,19.2206],[-99.1512,19.2234],[-99.1534,19.226],[-99.1507,19.2347],[-99.1445,19.2345],[-99.1475,19.2403],[-99.144,19.2397],[-99.1443,19.2447],[-99.1389,19.246],[-99.1417,19.249],[-99.1394,19.2547],[-99.1424,19.2666],[-99.1449,19.2674],[-99.1412,19.2735],[-99.1411,19.2825],[-99.1249,19.2852],[-99.1014,19.2952],[-99.0991,19.3204]]]}},{"type":"Feature","properties":{"cve_ent":"09","cve_mun":"014","cvegeo":"09014","nombre":"Benito Juárez"},"geometry":{"type":"Polygon","coordinates":[[[-99.1366,19.4028],[-99.1372,19.3992],[-99.131,19.3976],[-99.1398,19.3569],[-99.1698,19.3587],[-99.1777,19.3651],[-99.1837,19.3617],[-99.1911,19.3635],[-99.1891,19.3956],[-99.1567,19.404],[-99.1366,19.4028]]]}},{"type":"Feature","properties":{"cve_ent":"09","cve_mun":"015","cvegeo":"09015","nombre":"Cuauhtémoc"},"geometry":{"type":"Polygon","coordinates":[[[-99.1222,19.4598],[-99.1259,19.4482],[-99.1231,19.4425],[-99.1282,19.4138],[-99.1257,19.4043],[-99.1563,19.4041],[-99.1704,19.3998],[-99.1711,19.4035],[-99.1843,19.4078],[-99.1658,19.4436],[-99.1632,19.4589],[-99.1593,19.4636],[-99.1417,19.4658],[-99.1222,19.4598]]]}},{"type":"Feature","properties":{"cve_ent":"09","cve_mun":"016","cvegeo":"09016","nombre":"Miguel Hidalgo"},"geometry":{"type":"Polygon","coordinates":[[[-99.1637,19.4564],[-99.1658,19.4436],[-99.1843,19.4078],[-99.1711,19.4035],[-99.1704,19.3998],[-99.1891,19.3956],[-99.1922,19.4037],[-99.1976,19.4031],[-99.2378,19.3935],[-99.2399,19.3889],[-99.2477,19.386],[-99.247,19.3942],[-99.2548,19.3952],[-99.2593,19.3926],[-99.2549,19.4046],[-99.2373,19.4124],[-99.2308,19.4217],[-99.2223,19.427],[-99.2296,19.4374],[-99.2181,19.4441],[-99.22,19.4529],[-99.2153,19.4562],[-99.2099,19.4694],[-99.201,19.4734],[-99.1914,19.4708],[-99.1885,19.4608],[-99.1637,19.4564]]]}},{"type":"Feature","properties":{"cve_ent":"09","cve_mun":"017","cvegeo":"09017","nombre":"Venustiano Carranza"},"geometry":{"type":"Polygon","coordinates":[[[-99.0509,19.4502],[-99.0465,19.4424],[-99.0558,19.4221],[-99.0695,19.4203],[-99.078,19.4071],[-99.098,19.4091],[-99.1257,19.4043],[-99.1282,19.4138],[-99.1231,19.4425],[-99.1259,19.4482],[-99.1222,19.4598],[-99.1014,19.4499],[-99.0932,19.4516],[-99.0872,19.4458],[-99.0809,19.4502],[-99.0623,19.4448],[-99.0509,19.4502]]]}}]}