{"type":"FeatureCollection","features":[{"type":"Feature","properties":{"cve_ent":"17","cve_mun":"001","cvegeo":"17001","nombre":"Amacuzac"},"geometry":{"type":"Polygon","coordinates":[[[-99.3487,18.6421],[-99.344,18.6393],[-99.3461,18.6365],[-99.3378,18.6337],[-99.3401,18.6316],[-99.3364,18.6305],[-99.3343,18.6243],[-99.3365,18.6221],[-99.3336,18.6223],[-99.3375,18.5952],[-99.3335,18.5872],[-99.3274,18.5854],[-99.3305,18.5808],[-99.3276,18.5658],[-99.3555,18.5669],[-99.3623,18.5629],[-99.3585,18.5535],[-99.3385,18.56],[-99.3447,18.5219],[-99.3839,18.5212],[-99.3853,18.5263],[-99.3903,18.5257],[-99.4008,18.5395],[-99.4078,18.5561],[-99.4229,18.5621],[-99.4253,18.5791],[-99.4197,18.5903],[-99.4294,18.5889],[-99.4356,18.5928],[-99.4352,18.5981],[-99.4405,18.5975],[-99.4412,18.6126],[-99.4461,18.6145],[-99.4539,18.6099],[-99.4581,18.6341],[-99.4644,18.6446],[-99.459,18.6516],[-99.4567,18.6477],[-99.4514,18.6478],[-99.4527,18.6409],[-99.4486,18.64],[-99.4443,18.6329],[-99.4352,18.6407],[-99.432,18.639],[-99.4273,18.6422],[-99.4288,18.6308],[-99.4236,18.6282],[-99.4236,18.6323],[-99.4198,18.6276],[-99.4171,18.6317],[-99.4224,18.6349],[-99.4108,18.6549],[-99.3992,18.6485],[-99.3948,18.6494],[-99.3847,18.6385],[-99.3857,18.6282],[-99.3555,18.6161],[-99.3568,18.6203],[-99.3542,18.6197],[-99.351,18.6276],[-99.354,18.6396],[-99.3493,18.6396],[-99.3487,18.6421]]]}},{"type":"Feature","properties":{"cve_ent":"17","cve_mun":"002","cvegeo":"17002","nombre":"Atlatlahucan"},"geometry":{"type":"Polygon","coordinates":[[[-98.8407,18.9557],[-98.8359,18.9502],[-98.8399,18.9354],[-98.8451,18.9322],[-98.8504,18.9187],[-98.8565,18.9168],[-98.8606,18.9092],[-98.8606,18.9135],[-98.8734,18.9069],[-98.887,18.9049],[-98.8913,18.9072],[-98.9051,18.891],[-98.9284,18.8821],[-98.9423,18.8907],[-98.933,18.8973],[-98.9385,18.9028],[-98.9552,18.9051],[-98.9508,18.9173],[-98.9529,18.9276],[-98.9343,18.9412],[-98.9281,18.9528],[-98.9241,18.9491],[-98.9218,18.9554],[-98.911,18.9525],[-98.907,18.9589],[-98.9001,18.9581],[-98.8996,18.9695],[-98.8967,18.9728],[-98.8921,18.9714],[-98.888,18.9765],[-98.8817,18.9999],[-98.8684,18.9999],[-98.87,18.9905],[-98.8573,18.9746],[-98.8595,18.9648],[-98.8452,18.9551],[-98.8407,18.9557]]]}},{"type":"Feature","properties":{"cve_ent":"17","cve_mun":"003","cvegeo":"17003","nombre":"Axochiapan"},"geometry":{"type":"Polygon","coordinates":[[[-98.7193,18.605],[-98.7199,18.6002],[-98.7125,18.5869],[-98.7144,18.5779],[-98.7117,18.5737],[-98.7168,18.5731],[-98.7158,18.5685],[-98.7118,18.57],[-98.7138,18.5654],[-98.7167,18.5659],[-98.7145,18.5597],[-98.7101,18.5594],[-98.7123,18.5573],[-98.7053,18.5518],[-98.7069,18.5438],[-98.7028,18.5388],[-98.707,18.5245],[-98.7132,18.5194],[-98.7093,18.5136],[-98.7019,18.5122],[-98.7067,18.5114],[-98.7043,18.5041],[-98.7082,18.4951],[-98.7067,18.4929],[-98.7012,18.4971],[-98.6991,18.4911],[-98.7029,18.486],[-98.7025,18.4799],[-98.7077,18.4787],[-98.7053,18.4757],[-98.7076,18.4727],[-98.7048,18.4711],[-98.7104,18.4681],[-98.706,18.4639],[-98.7103,18.463],[-98.7081,18.4581],[-98.7103,18.4574],[-98.7059,18.4559],[-98.7116,18.4522],[-98.7067,18.4451],[-98.7135,18.4456],[-98.727,18.4395],[-98.7346,18.444],[-98.7381,18.4557],[-98.7476,18.4514],[-98.7554,18.457],[-98.754,18.4619],[-98.7578,18.4629],[-98.761,18.4754],[-98.7712,18.4774],[-98.7748,18.4822],[-98.7811,18.481],[-98.7868,18.4846],[-98.7834,18.4878],[-98.7869,18.4925],[-98.7895,18.4911],[-98.7935,18.4972],[-98.799,18.4981],[-98.7998,18.5028],[-98.8038,18.5024],[-98.8027,18.5053],[-98.8105,18.512],[-98.8105,18.5192],[-98.8078,18.5206],[-98.8158,18.5339],[-98.8102,18.5445],[-98.8192,18.571],[-98.7975,18.5657],[-98.7986,18.5797],[-98.7595,18.5829],[-98.7606,18.5863],[-98.7349,18.589],[-98.7335,18.6026],[-98.7358,18.6052],[-98.7354,18.6064],[-98.7266,18.6048],[-98.7262,18.6094],[-98.7218,18.6041],[-98.7193,18.605]]]}},{"type":"Feature","properties":{"cve_ent":"17","cve_mun":"004","cvegeo":"17004","nombre":"Ayala"},"geometry":{"type":"Polygon","coordinates":[[[-98.8881,18.7959],[-98.8823,18.7907],[-98.8852,18.7867],[-98.8796,18.7813],[-98.8758,18.7862],[-98.8661,18.7827],[-98.8542,18.771],[-98.8664,18.7641],[-98.8358,18.7633],[-98.8399,18.7452],[-98.8367,18.7435],[-98.8521,18.7234],[-98.8546,18.7217],[-98.8705,18.7272],[-98.8764,18.7058],[-98.8708,18.7023],[-98.8661,18.6883],[-98.8767,18.6834],[-98.8761,18.6721],[-98.8844,18.6759],[-98.8987,18.6749],[-98.9123,18.6791],[-98.9238,18.674],[-98.9288,18.6769],[-98.9373,18.6711],[-98.9427,18.66],[-98.9246,18.6201],[-98.9543,18.6261],[-98.9497,18.6315],[-98.9505,18.6662],[-98.9543,18.6661],[-98.9573,18.661],[-98.9676,18.6604],[-98.9681,18.6557],[-98.9619,18.6592],[-98.9592,18.6559],[-98.9597,18.6481],[-98.9723,18.6406],[-98.9799,18.6283],[-98.9722,18.6159],[-98.9721,18.5959],[-98.9844,18.5911],[-99.0064,18.5921],[-99.0135,18.5885],[-99.017,18.5773],[-99.0365,18.5642],[-99.0453,18.5788],[-99.0396,18.5809],[-99.0417,18.5852],[-99.0445,18.5846],[-99.0434,18.5887],[-99.0368,18.5856],[-99.0338,18.5875],[-99.0397,18.5913],[-99.0362,18.5998],[-99.0409,18.6008],[-99.0349,18.6033],[-99.032,18.6007],[-99.0365,18.6109],[-99.0295,18.6093],[-99.0254,18.6173],[-99.0275,18.6206],[-99.0201,18.6239],[-99.0224,18.6257],[-99.0204,18.6313],[-99.0114,18.6294],[-99.0106,18.6321],[-99.0168,18.6326],[-99.0152,18.6352],[-99.0091,18.6321],[-99.0097,18.636],[-99.0006,18.6382],[-98.9999,18.6446],[-98.9961,18.6432],[-99.0027,18.6496],[-98.998,18.6655],[-99.0166,18.6679],[-99.032,18.6763],[-99.0361,18.6657],[-99.0519,18.6678],[-99.0508,18.6731],[-99.0565,18.6765],[-99.0612,18.6757],[-99.0619,18.6663],[-99.0909,18.661],[-99.0946,18.6688],[-99.0935,18.6718],[-99.0872,18.6698],[-99.0821,18.6842],[-99.0868,18.6838],[-99.0914,18.6918],[-99.0926,18.7059],[-99.0668,18.7112],[-99.0751,18.7242],[-99.0776,18.7591],[-99.0835,18.7712],[-99.0677,18.7813],[-99.0589,18.7966],[-99.0539,18.7957],[-99.049,18.7994],[-99.0469,18.8047],[-99.0498,18.8105],[-99.0484,18.8309],[-99.0173,18.8125],[-98.99,18.8035],[-98.9893,18.8006],[-98.9773,18.7991],[-98.9652,18.802],[-98.9662,18.7966],[-98.9554,18.8025],[-98.9498,18.7913],[-98.9407,18.7844],[-98.9372,18.7851],[-98.9367,18.7736],[-98.9521,18.768],[-98.9578,18.759],[-98.9396,18.7519],[-98.925,18.7393],[-98.9204,18.7474],[-98.9218,18.7552],[-98.9123,18.7704],[-98.9008,18.7802],[-98.892,18.7949],[-98.8881,18.7959]]]}},{"type":"Feature","properties":{"cve_ent":"17","cve_mun":"005","cvegeo":"17005","nombre":"Coatlán del Río"},"geometry":{"type":"Polygon","coordinates":[[[-99.3994,18.7581],[-99.3786,18.7435],[-99.3839,18.7396],[-99.3935,18.7391],[-99.4035,18.7483],[-99.4134,18.7451],[-99.425,18.7302],[-99.4392,18.7007],[-99.4473,18.7044],[-99.4443,18.7058],[-99.4583,18.7066],[-99.4682,18.6959],[-99.442,18.6839],[-99.4357,18.6753],[-99.4484,18.6598],[-99.4466,18.6543],[-99.4435,18.6547],[-99.438,18.6481],[-99.4531,18.6433],[-99.4511,18.6475],[-99.4567,18.6477],[-99.459,18.6516],[-99.4644,18.6437],[-99.4776,18.6736],[-99.4829,18.6927],[-99.4802,18.6948],[-99.4856,18.695],[-99.4845,18.6994],[-99.4944,18.7205],[-99.4883,18.7311],[-99.4672,18.7519],[-99.4633,18.7672],[-99.451,18.7725],[-99.4267,18.8247],[-99.4244,18.8079],[-99.3994,18.7581]]]}},{"type":"Feature","properties":{"cve_ent":"17","cve_mun":"006","cvegeo":"17006","nombre":"Cuautla"},"geometry":{"type":"Polygon","coordinates":[[[-98.9284,18.8821],[-98.9247,18.883],[-98.9119,18.873],[-98.9252,18.8607],[-98.9284,18.8525],[-98.9243,18.85],[-98.9068,18.8515],[-98.9089,18.8348],[-98.9135,18.8315],[-98.9204,18.8345],[-98.9259,18.8313],[-98.9239,18.8223],[-98.9293,18.8075],[-98.8876,18.7987],[-98.9218,18.7552],[-98.9204,18.7474],[-98.925,18.7393],[-98.9396,18.7519],[-98.9578,18.759],[-98.9521,18.768],[-98.9367,18.7736],[-98.9372,18.7851],[-98.9407,18.7844],[-98.9498,18.7913],[-98.9554,18.8025],[-98.9662,18.7966],[-98.9652,18.802],[-98.9773,18.7991],[-98.9893,18.8006],[-98.99,18.8035],[-99.0173,18.8125],[-99.0484,18.8309],[-99.0488,18.8354],[-99.0462,18.84],[-99.0489,18.8447],[-99.0411,18.8485],[-99.0405,18.8579],[-99.0141,18.8542],[-99.0019,18.86],[-99.0054,18.8708],[-98.9886,18.8662],[-98.9712,18.8826],[-98.9585,18.8814],[-98.9426,18.8904],[-98.9284,18.8821]]]}},{"type":"Feature","properties":{"cve_ent":"17","cve_mun":"007","cvegeo":"17007","nombre":"Cuernavaca"},"geometry":{"type":"Polygon","coordinates":[[[-99.1933,19.0007],[-99.183,18.982],[-99.1812,18.9724],[-99.1849,18.931],[-99.1807,18.9115],[-99.1935,18.9198],[-99.194,18.9122],[-99.2005,18.9087],[-99.199,18.903],[-99.1925,18.9008],[-99.1919,18.8933],[-99.1959,18.8937],[-99.1958,18.8978],[-99.2018,18.9034],[-99.2123,18.9064],[-99.2097,18.8965],[-99.2162,18.8876],[-99.2171,18.8788],[-99.2059,18.8757],[-99.2179,18.8727],[-99.2227,18.8769],[-99.2206,18.8625],[-99.2239,18.863],[-99.237,18.898],[-99.2566,18.8907],[-99.261,18.9039],[-99.2709,18.9026],[-99.2911,18.9219],[-99.2871,18.9147],[-99.2889,18.9097],[-99.2858,18.9011],[-99.3014,18.901],[-99.2941,18.8932],[-99.2837,18.8946],[-99.2808,18.8831],[-99.2888,18.8791],[-99.2816,18.8669],[-99.2789,18.867],[-99.2774,18.8577],[-99.2716,18.8534],[-99.2734,18.8438],[-99.2952,18.8429],[-99.3087,18.8518],[-99.3194,18.8666],[-99.3301,18.8691],[-99.3382,18.8957],[-99.3399,18.9221],[-99.342,18.9225],[-99.3379,18.9324],[-99.3246,18.9374],[-99.321,18.9432],[-99.3172,18.94],[-99.3087,18.9588],[-99.3111,18.9917],[-99.3085,18.994],[-99.3197,19.0113],[-99.3186,19.0203],[-99.3118,19.0247],[-99.2931,19.024],[-99.2691,19.0028],[-99.2541,18.9983],[-99.2555,19.0042],[-99.2193,19.0094],[-99.2287,18.9817],[-99.2149,18.983],[-99.1933,19.0007]]]}},{"type":"Feature","properties":{"cve_ent":"17","cve_mun":"008","cvegeo":"17008","nombre":"Emiliano Zapata"},"geometry":{"type":"Polygon","coordinates":[[[-99.2179,18.8727],[-99.1988,18.8754],[-99.1992,18.8685],[-99.1974,18.8702],[-99.1962,18.8667],[-99.19,18.865],[-99.1886,18.8672],[-99.1847,18.8582],[-99.1779,18.8533],[-99.178,18.8597],[-99.171,18.8555],[-99.1708,18.861],[-99.1645,18.8566],[-99.1449,18.8312],[-99.1544,18.8088],[-99.1576,18.8099],[-99.1616,18.8003],[-99.159,18.7924],[-99.1487,18.7868],[-99.1479,18.759],[-99.1753,18.7469],[-99.1771,18.742],[-99.1912,18.7558],[-99.1899,18.773],[-99.1924,18.7843],[-99.1869,18.7943],[-99.1939,18.7992],[-99.2074,18.7967],[-99.2065,18.8029],[-99.2142,18.8085],[-99.2085,18.8192],[-99.208,18.8398],[-99.2031,18.8429],[-99.2176,18.8421],[-99.2228,18.8766],[-99.2179,18.8727]]]}},{"type":"Feature","properties":{"cve_ent":"17","cve_mun":"009","cvegeo":"17009","nombre":"Huitzilac"},"geometry":{"type":"Polygon","coordinates":[[[-99.1365,19.0894],[-99.1483,19.0503],[-99.1654,19.0237],[-99.2149,18.983],[-99.2287,18.9817],[-99.2193,19.0094],[-99.2555,19.0042],[-99.254,18.9986],[-99.2541,18.9983],[-99.2599,19.0019],[-99.2639,19.0003],[-99.2931,19.024],[-99.3118,19.0247],[-99.3189,19.0311],[-99.3175,19.0401],[-99.3086,19.0403],[-99.3177,19.0534],[-99.3183,19.0874],[-99.3137,19.0982],[-99.2951,19.1229],[-99.2787,19.1317],[-99.2268,19.0961],[-99.1365,19.0894]]]}},{"type":"Feature","properties":{"cve_ent":"17","cve_mun":"010","cvegeo":"17010","nombre":"Jantetelco"},"geometry":{"type":"Polygon","coordinates":[[[-98.7534,18.7429],[-98.7387,18.7372],[-98.7289,18.7452],[-98.7159,18.7392],[-98.724,18.7191],[-98.7413,18.7079],[-98.7391,18.7071],[-98.7419,18.7022],[-98.7327,18.6738],[-98.7275,18.6701],[-98.7245,18.6588],[-98.7199,18.656],[-98.7188,18.6397],[-98.7209,18.6389],[-98.7178,18.6383],[-98.7169,18.6258],[-98.7115,18.6161],[-98.7161,18.6046],[-98.7218,18.6041],[-98.7262,18.6094],[-98.7266,18.6048],[-98.7354,18.6064],[-98.7342,18.5914],[-98.737,18.5885],[-98.7483,18.5878],[-98.7477,18.5902],[-98.7552,18.5936],[-98.7561,18.6007],[-98.76,18.6017],[-98.7607,18.6103],[-98.7571,18.6173],[-98.7545,18.6171],[-98.7566,18.6195],[-98.753,18.6214],[-98.7529,18.6269],[-98.7538,18.6303],[-98.7627,18.6341],[-98.7609,18.6428],[-98.7679,18.6468],[-98.7668,18.6554],[-98.7536,18.6496],[-98.7549,18.6588],[-98.7477,18.6582],[-98.7479,18.6655],[-98.7809,18.6675],[-98.7875,18.672],[-98.7839,18.693],[-98.7894,18.6912],[-98.7993,18.7],[-98.8035,18.6994],[-98.8068,18.7133],[-98.8359,18.721],[-98.8399,18.7144],[-98.8546,18.7217],[-98.8373,18.7424],[-98.8399,18.7452],[-98.8376,18.7523],[-98.7967,18.7395],[-98.7945,18.742],[-98.7886,18.7413],[-98.7889,18.738],[-98.7825,18.7362],[-98.7775,18.7435],[-98.7794,18.7354],[-98.7743,18.7336],[-98.7748,18.7311],[-98.7728,18.7329],[-98.761,18.7287],[-98.7534,18.7429]]]}},{"type":"Feature","properties":{"cve_ent":"17","cve_mun":"011","cvegeo":"17011","nombre":"Jiutepec"},"geometry":{"type":"Polygon","coordinates":[[[-99.1844,18.9367],[-99.1317,18.8964],[-99.1333,18.8949],[-99.1202,18.8807],[-99.1218,18.862],[-99.1344,18.8641],[-99.1357,18.8517],[-99.1484,18.836],[-99.1708,18.861],[-99.171,18.8555],[-99.178,18.8597],[-99.1779,18.8533],[-99.1847,18.8582],[-99.1886,18.8672],[-99.1911,18.865],[-99.1974,18.8702],[-99.1992,18.8685],[-99.1988,18.8754],[-99.2028,18.8739],[-99.2024,18.8765],[-99.2171,18.8788],[-99.2162,18.8876],[-99.2097,18.8965],[-99.213,18.9041],[-99.2113,18.9075],[-99.1981,18.9009],[-99.1964,18.8942],[-99.1919,18.8933],[-99.1925,18.9008],[-99.199,18.903],[-99.2005,18.9087],[-99.194,18.9122],[-99.1935,18.9198],[-99.1807,18.9115],[-99.1819,18.9199],[-99.1841,18.9195],[-99.1819,18.9222],[-99.1844,18.9367]]]}},{"type":"Feature","properties":{"cve_ent":"17","cve_mun":"012","cvegeo":"17012","nombre":"Jojutla"},"geometry":{"type":"Polygon","coordinates":[[[-99.1752,18.6408],[-99.1777,18.6297],[-99.1871,18.6387],[-99.1892,18.6351],[-99.1774,18.6201],[-99.1702,18.621],[-99.1676,18.6118],[-99.1643,18.61],[-99.1654,18.6044],[-99.1599,18.5997],[-99.1517,18.5986],[-99.152,18.5785],[-99.1479,18.5723],[-99.1533,18.5596],[-99.1522,18.5543],[-99.1629,18.5314],[-99.174,18.5319],[-99.1782,18.5382],[-99.1899,18.5323],[-99.189,18.524],[-99.1916,18.5204],[-99.1966,18.5314],[-99.2031,18.5274],[-99.2033,18.5234],[-99.2107,18.5228],[-99.2135,18.5335],[-99.2293,18.5466],[-99.2302,18.5545],[-99.2481,18.5303],[-99.2625,18.5384],[-99.2601,18.5418],[-99.2624,18.543],[-99.2638,18.5396],[-99.269,18.542],[-99.2731,18.5387],[-99.2768,18.5466],[-99.2744,18.5567],[-99.2853,18.5656],[-99.2897,18.5656],[-99.2916,18.5604],[-99.2965,18.5622],[-99.2961,18.5727],[-99.2907,18.5757],[-99.2915,18.5911],[-99.3019,18.5951],[-99.2884,18.6257],[-99.2854,18.6234],[-99.2699,18.6428],[-99.2455,18.6351],[-99.2302,18.635],[-99.2298,18.6288],[-99.243,18.6251],[-99.2434,18.6111],[-99.221,18.6304],[-99.2063,18.6288],[-99.2022,18.6352],[-99.1957,18.6375],[-99.1955,18.6435],[-99.1928,18.6436],[-99.1958,18.6463],[-99.1944,18.6495],[-99.1752,18.6408]]]}},{"type":"Feature","properties":{"cve_ent":"17","cve_mun":"013","cvegeo":"17013","nombre":"Jonacatepec de Leandro Valle"},"geometry":{"type":"Polygon","coordinates":[[[-98.8705,18.7272],[-98.8399,18.7144],[-98.8359,18.721],[-98.8068,18.7133],[-98.8035,18.6994],[-98.7993,18.7],[-98.7894,18.6912],[-98.7839,18.693],[-98.7875,18.672],[-98.7809,18.6675],[-98.7479,18.6655],[-98.7477,18.6582],[-98.7549,18.6588],[-98.7536,18.6496],[-98.7657,18.6556],[-98.7682,18.65],[-98.7669,18.6443],[-98.7609,18.6428],[-98.7627,18.6341],[-98.7538,18.6303],[-98.753,18.6214],[-98.7566,18.6195],[-98.7545,18.6171],[-98.7571,18.6173],[-98.7612,18.6048],[-98.7483,18.5878],[-98.7606,18.5863],[-98.7805,18.6049],[-98.8347,18.6323],[-98.8319,18.6421],[-98.822,18.6412],[-98.8181,18.648],[-98.8416,18.6811],[-98.8449,18.6814],[-98.8525,18.6721],[-98.8579,18.6745],[-98.8761,18.6721],[-98.8767,18.6834],[-98.8661,18.6883],[-98.8708,18.7023],[-98.8764,18.7058],[-98.8705,18.7272]]]}},{"type":"Feature","properties":{"cve_ent":"17","cve_mun":"014","cvegeo":"17014","nombre":"Mazatepec"},"geometry":{"type":"Polygon","coordinates":[[[-99.3646,18.756],[-99.3562,18.7394],[-99.3281,18.7158],[-99.3334,18.6881],[-99.3526,18.6812],[-99.3501,18.6793],[-99.3581,18.6745],[-99.3551,18.6634],[-99.3473,18.6631],[-99.3466,18.644],[-99.3493,18.6396],[-99.354,18.6396],[-99.351,18.6276],[-99.3542,18.6197],[-99.3568,18.6203],[-99.3555,18.6161],[-99.3857,18.6282],[-99.3847,18.6385],[-99.3948,18.6494],[-99.3992,18.6485],[-99.4108,18.6549],[-99.3992,18.6619],[-99.3989,18.6661],[-99.3931,18.6656],[-99.393,18.6793],[-99.3781,18.6809],[-99.3795,18.6889],[-99.3755,18.6941],[-99.3641,18.6884],[-99.3554,18.6981],[-99.3609,18.6989],[-99.3589,18.7034],[-99.3644,18.7107],[-99.3809,18.7193],[-99.3799,18.7235],[-99.3848,18.7293],[-99.3819,18.7339],[-99.3856,18.7394],[-99.3786,18.7435],[-99.3908,18.7514],[-99.3904,18.7568],[-99.3864,18.7542],[-99.3853,18.7592],[-99.3646,18.756]]]}},{"type":"Feature","properties":{"cve_ent":"17","cve_mun":"015","cvegeo":"17015","nombre":"Miacatlán"},"geometry":{"type":"Polygon","coordinates":[[[-99.367,18.894],[-99.3399,18.9221],[-99.3382,18.8957],[-99.3301,18.8691],[-99.3275,18.868],[-99.33,18.8667],[-99.3295,18.8609],[-99.3523,18.8423],[-99.3484,18.8307],[-99.3354,18.8228],[-99.3122,18.8155],[-99.2997,18.8015],[-99.2881,18.7954],[-99.2896,18.7876],[-99.2847,18.782],[-99.2927,18.7852],[-99.3147,18.7743],[-99.3112,18.7671],[-99.3157,18.7621],[-99.3332,18.7646],[-99.344,18.7495],[-99.3505,18.7557],[-99.3578,18.746],[-99.3646,18.756],[-99.3696,18.7576],[-99.3818,18.7567],[-99.3853,18.7592],[-99.3854,18.7548],[-99.3904,18.7568],[-99.391,18.7526],[-99.3994,18.7581],[-99.4244,18.8079],[-99.4323,18.8578],[-99.4244,18.8603],[-99.431,18.8657],[-99.4294,18.8776],[-99.411,18.8782],[-99.4067,18.8952],[-99.3731,18.8986],[-99.367,18.894]]]}},{"type":"Feature","properties":{"cve_ent":"17","cve_mun":"016","cvegeo":"17016","nombre":"Ocuituco"},"geometry":{"type":"Polygon","coordinates":[[[-98.7263,18.9447],[-98.7453,18.9262],[-98.7573,18.9218],[-98.7551,18.9163],[-98.7464,18.9145],[-98.7457,18.9055],[-98.7391,18.8997],[-98.7398,18.8939],[-98.7497,18.8859],[-98.7285,18.8816],[-98.7374,18.8795],[-98.7292,18.8757],[-98.7294,18.873],[-98.7361,18.8672],[-98.7568,18.8603],[-98.7602,18.8545],[-98.7659,18.8541],[-98.7672,18.8403],[-98.7823,18.8291],[-98.7838,18.8192],[-98.798,18.8257],[-98.8,18.8298],[-98.8156,18.8126],[-98.8317,18.8328],[-98.8123,18.8524],[-98.8144,18.8596],[-98.8236,18.8594],[-98.827,18.87],[-98.8249,18.8789],[-98.8131,18.881],[-98.8089,18.8885],[-98.8059,18.9048],[-98.802,18.9073],[-98.8027,18.9126],[-98.7974,18.9195],[-98.7934,18.9338],[-98.7861,18.9429],[-98.7809,18.9398],[-98.775,18.9435],[-98.7631,18.9404],[-98.7468,18.9445],[-98.7263,18.9447]]]}},{"type":"Feature","properties":{"cve_ent":"17","cve_mun":"017","cvegeo":"17017","nombre":"Puente de Ixtla"},"geometry":{"type":"Polygon","coordinates":[[[-99.263,18.6469],[-99.2758,18.6376],[-99.2854,18.6234],[-99.2884,18.6257],[-99.3019,18.5951],[-99.2915,18.5911],[-99.2907,18.5757],[-99.2961,18.5727],[-99.2965,18.5622],[-99.2916,18.5604],[-99.2897,18.5656],[-99.2853,18.5656],[-99.2744,18.5567],[-99.2768,18.5466],[-99.2731,18.5387],[-99.269,18.542],[-99.2638,18.5396],[-99.2624,18.543],[-99.2601,18.5418],[-99.2625,18.5384],[-99.2481,18.5303],[-99.2457,18.5368],[-99.2414,18.5379],[-99.2302,18.5545],[-99.2287,18.5535],[-99.2293,18.5466],[-99.2198,18.5409],[-99.2135,18.5335],[-99.2117,18.5241],[-99.2087,18.523],[-99.235,18.5012],[-99.2332,18.4871],[-99.2292,18.4807],[-99.1759,18.4885],[-99.2066,18.4657],[-99.2044,18.4553],[-99.246,18.4564],[-99.2476,18.451],[-99.3042,18.4595],[-99.3122,18.4548],[-99.3284,18.4595],[-99.3294,18.4889],[-99.3356,18.4839],[-99.3456,18.4823],[-99.3527,18.486],[-99.3434,18.4671],[-99.3574,18.4677],[-99.3551,18.4767],[-99.3642,18.4851],[-99.363,18.499],[-99.3724,18.5079],[-99.3801,18.5227],[-99.3447,18.5219],[-99.3385,18.56],[-99.3585,18.5535],[-99.3623,18.5629],[-99.3555,18.5669],[-99.3276,18.5658],[-99.3305,18.5808],[-99.327,18.584],[-99.3335,18.5872],[-99.3375,18.5952],[-99.3336,18.6223],[-99.3365,18.6221],[-99.3343,18.6243],[-99.3364,18.6305],[-99.3401,18.6316],[-99.3378,18.6337],[-99.3461,18.6365],[-99.344,18.6393],[-99.3487,18.6421],[-99.3473,18.6631],[-99.3551,18.6634],[-99.3581,18.6745],[-99.3501,18.6793],[-99.3526,18.6812],[-99.3414,18.6864],[-99.3379,18.6852],[-99.3356,18.6891],[-99.3119,18.69],[-99.2906,18.7002],[-99.2849,18.7061],[-99.2775,18.704],[-99.2906,18.6711],[-99.2917,18.6596],[-99.2733,18.6544],[-99.2608,18.6617],[-99.2629,18.6471],[-99.2565,18.6456],[-99.263,18.6469]]]}},{"type":"Feature","properties":{"cve_ent":"17","cve_mun":"018","cvegeo":"17018","nombre":"Temixco"},"geometry":{"type":"Polygon","coordinates":[[[-99.221,18.8622],[-99.2176,18.8421],[-99.2031,18.8429],[-99.208,18.8398],[-99.2085,18.8193],[-99.2131,18.8068],[-99.2287,18.8116],[-99.2352,18.8097],[-99.2465,18.8268],[-99.267,18.8234],[-99.2677,18.8065],[-99.2613,18.8004],[-99.2581,18.7903],[-99.2503,18.7841],[-99.2769,18.7735],[-99.282,18.7742],[-99.2865,18.7811],[-99.2847,18.782],[-99.2896,18.7876],[-99.2881,18.7954],[-99.2997,18.8015],[-99.3122,18.8155],[-99.3354,18.8228],[-99.3484,18.8307],[-99.3523,18.8423],[-99.3295,18.8609],[-99.33,18.8667],[-99.3262,18.868],[-99.3194,18.8666],[-99.3087,18.8518],[-99.2952,18.8429],[-99.2734,18.8438],[-99.2716,18.8534],[-99.2774,18.8577],[-99.2789,18.867],[-99.2816,18.8669],[-99.2888,18.8791],[-99.2808,18.8831],[-99.2837,18.8946],[-99.2941,18.8932],[-99.3014,18.901],[-99.2858,18.9011],[-99.2889,18.9097],[-99.2871,18.9147],[-99.2911,18.9219],[-99.2709,18.9026],[-99.261,18.9039],[-99.2566,18.8907],[-99.237,18.898],[-99.2268,18.8672],[-99.221,18.8622]]]}},{"type":"Feature","properties":{"cve_ent":"17","cve_mun":"019","cvegeo":"17019","nombre":"Tepalcingo"},"geometry":{"type":"Polygon","coordinates":[[[-98.7805,18.6049],[-98.7595,18.5829],[-98.7986,18.5797],[-98.7975,18.5657],[-98.8192,18.571],[-98.8102,18.5445],[-98.8158,18.5339],[-98.8079,18.5205],[-98.8164,18.5182],[-98.8278,18.5239],[-98.8365,18.5193],[-98.8403,18.5128],[-98.8385,18.5069],[-98.8434,18.5059],[-98.8395,18.5038],[-98.8365,18.4946],[-98.8444,18.4903],[-98.8445,18.4832],[-98.8508,18.4777],[-98.8706,18.4792],[-98.8969,18.4659],[-98.9122,18.4621],[-98.9054,18.4597],[-98.9152,18.4573],[-98.9358,18.4834],[-98.9684,18.4966],[-98.9671,18.5237],[-98.9854,18.5255],[-98.9839,18.5332],[-98.9877,18.5382],[-98.9954,18.5394],[-98.9972,18.5692],[-99.017,18.5773],[-99.0135,18.5885],[-99.0064,18.5921],[-98.9844,18.5911],[-98.9721,18.5959],[-98.9722,18.6159],[-98.9799,18.6283],[-98.9723,18.6406],[-98.9597,18.6481],[-98.9592,18.6559],[-98.9619,18.6592],[-98.9681,18.6557],[-98.9676,18.6604],[-98.9573,18.661],[-98.9543,18.6661],[-98.9505,18.6662],[-98.9497,18.6315],[-98.9543,18.6261],[-98.9246,18.6201],[-98.9427,18.66],[-98.9373,18.6711],[-98.9288,18.6769],[-98.9238,18.674],[-98.9123,18.6791],[-98.8987,18.6749],[-98.8844,18.6759],[-98.8761,18.6721],[-98.8579,18.6745],[-98.8525,18.6721],[-98.8438,18.6815],[-98.8181,18.648],[-98.822,18.6412],[-98.8319,18.6421],[-98.8347,18.6323],[-98.7805,18.6049]]]}},{"type":"Feature","properties":{"cve_ent":"17","cve_mun":"020","cvegeo":"17020","nombre":"Tepoztlán"},"geometry":{"type":"Polygon","coordinates":[[[-99.0621,19.0487],[-99.036,19.0168],[-99.0303,19.0073],[-99.0306,19.0002],[-99.018,18.9963],[-99.0146,18.9797],[-99.016,18.9607],[-99.0195,18.9481],[-99.0271,18.9417],[-99.0284,18.9255],[-99.0529,18.9262],[-99.0957,18.9156],[-99.1092,18.9081],[-99.102,18.9059],[-99.1026,18.904],[-99.107,18.9046],[-99.1191,18.897],[-99.1346,18.8976],[-99.1844,18.9367],[-99.1812,18.9724],[-99.183,18.982],[-99.1933,19.0007],[-99.1654,19.0237],[-99.1483,19.0503],[-99.1354,19.0893],[-99.1254,19.0621],[-99.0621,19.0487]]]}},{"type":"Feature","properties":{"cve_ent":"17","cve_mun":"021","cvegeo":"17021","nombre":"Tetecala"},"geometry":{"type":"Polygon","coordinates":[[[-99.3839,18.7396],[-99.3819,18.7339],[-99.3848,18.7293],[-99.3799,18.7235],[-99.3809,18.7193],[-99.3644,18.7107],[-99.3589,18.7034],[-99.3609,18.6989],[-99.3554,18.6981],[-99.3641,18.6884],[-99.3747,18.6947],[-99.3795,18.6889],[-99.3782,18.6808],[-99.393,18.6793],[-99.3931,18.6656],[-99.3989,18.6661],[-99.3992,18.6619],[-99.4093,18.6573],[-99.4179,18.6465],[-99.4224,18.6349],[-99.4171,18.6317],[-99.4191,18.6278],[-99.4236,18.6323],[-99.4236,18.6282],[-99.4288,18.6308],[-99.4273,18.6422],[-99.432,18.639],[-99.4352,18.6407],[-99.4443,18.6329],[-99.4531,18.6433],[-99.438,18.6481],[-99.4435,18.6547],[-99.4466,18.6543],[-99.4484,18.6598],[-99.4357,18.6753],[-99.442,18.6839],[-99.4682,18.6959],[-99.4583,18.7066],[-99.4443,18.7058],[-99.4473,18.7044],[-99.4392,18.7007],[-99.425,18.7302],[-99.4134,18.7451],[-99.4035,18.7483],[-99.3935,18.7391],[-99.3839,18.7396]]]}},{"type":"Feature","properties":{"cve_ent":"17","cve_mun":"022","cvegeo":"17022","nombre":"Tetela del Volcán"},"geometry":{"type":"Polygon","coordinates":[[[-98.7135,18.8672],[-98.7177,18.8645],[-98.7241,18.8208],[-98.7361,18.8222],[-98.7329,18.834],[-98.7363,18.836],[-98.7463,18.8378],[-98.753,18.8285],[-98.7754,18.8323],[-98.7672,18.8403],[-98.7659,18.8541],[-98.7602,18.8545],[-98.7568,18.8603],[-98.7361,18.8672],[-98.7294,18.873],[-98.7292,18.8757],[-98.7374,18.8795],[-98.7321,18.88],[-98.7284,18.8815],[-98.7285,18.8816],[-98.7497,18.8859],[-98.7398,18.8939],[-98.7391,18.8997],[-98.7457,18.9055],[-98.7464,18.9145],[-98.7551,18.9163],[-98.7573,18.9218],[-98.7453,18.9262],[-98.7263,18.9447],[-98.7135,18.9435],[-98.7015,18.9548],[-98.6964,18.9642],[-98.6902,18.9666],[-98.6645,19.0036],[-98.6522,19.006],[-98.6329,19.0155],[-98.6496,18.9996],[-98.6513,18.9884],[-98.6633,18.9625],[-98.6736,18.9517],[-98.6781,18.9237],[-98.7073,18.9029],[-98.7057,18.8908],[-98.7138,18.8768],[-98.7135,18.8672]]]}},{"type":"Feature","properties":{"cve_ent":"17","cve_mun":"023","cvegeo":"17023","nombre":"Tlalnepantla"},"geometry":{"type":"Polygon","coordinates":[[[-98.9836,19.0788],[-98.9578,19.0603],[-98.9443,19.0697],[-98.9156,19.0641],[-98.9171,19.0594],[-98.9034,19.0385],[-98.9173,19.0396],[-98.9269,19.0358],[-98.9251,19.0274],[-98.9323,19.003],[-98.9433,19.0206],[-98.9558,19.0268],[-98.9587,19.005],[-98.9615,19.0021],[-98.9623,19.0061],[-98.9667,19.0056],[-98.9652,19.0086],[-98.9715,19.0114],[-98.972,19.0159],[-98.9835,18.9876],[-98.9982,18.9878],[-99.0146,18.9753],[-99.018,18.9963],[-99.0306,19.0002],[-99.0303,19.0073],[-99.036,19.0168],[-99.0621,19.0487],[-99.0598,19.0482],[-99.0432,19.0758],[-99.029,19.0854],[-98.9836,19.0788]]]}},{"type":"Feature","properties":{"cve_ent":"17","cve_mun":"024","cvegeo":"17024","nombre":"Tlaltizapán de Zapata"},"geometry":{"type":"Polygon","coordinates":[[[-99.0835,18.7712],[-99.0776,18.7591],[-99.0751,18.7242],[-99.0668,18.7112],[-99.0926,18.7059],[-99.0914,18.6918],[-99.0868,18.6838],[-99.0821,18.6842],[-99.0872,18.6698],[-99.0946,18.6707],[-99.092,18.6617],[-99.0619,18.6663],[-99.0612,18.6757],[-99.0565,18.6765],[-99.0508,18.6731],[-99.0519,18.6678],[-99.046,18.6685],[-99.0419,18.6651],[-99.0361,18.6657],[-99.032,18.6763],[-99.0166,18.6679],[-98.9977,18.6647],[-99.0027,18.6496],[-98.9961,18.6432],[-98.9999,18.6446],[-99.0006,18.6382],[-99.0097,18.636],[-99.0091,18.6321],[-99.0152,18.6352],[-99.0168,18.6326],[-99.0106,18.6321],[-99.0114,18.6294],[-99.0204,18.6313],[-99.0224,18.6257],[-99.0201,18.6239],[-99.0275,18.6206],[-99.0254,18.6173],[-99.0295,18.6093],[-99.0365,18.6109],[-99.032,18.6007],[-99.0349,18.6033],[-99.0409,18.6008],[-99.0362,18.5998],[-99.0397,18.5913],[-99.0338,18.5875],[-99.0443,18.5878],[-99.0445,18.5846],[-99.0395,18.5815],[-99.0414,18.5784],[-99.0478,18.5809],[-99.0466,18.5863],[-99.053,18.5825],[-99.0647,18.5847],[-99.0659,18.5812],[-99.0735,18.5837],[-99.0909,18.6423],[-99.0936,18.6465],[-99.098,18.6453],[-99.1078,18.6564],[-99.1169,18.6615],[-99.1174,18.6519],[-99.1209,18.6483],[-99.1588,18.6617],[-99.1582,18.6795],[-99.1763,18.6692],[-99.1779,18.6713],[-99.1817,18.668],[-99.1817,18.6725],[-99.1933,18.6672],[-99.1885,18.6793],[-99.1894,18.6852],[-99.1994,18.6838],[-99.1965,18.7074],[-99.1916,18.704],[-99.1886,18.708],[-99.1937,18.7165],[-99.193,18.726],[-99.1883,18.7272],[-99.1925,18.7522],[-99.1967,18.7602],[-99.1909,18.7606],[-99.1908,18.7551],[-99.1771,18.742],[-99.1753,18.7469],[-99.1479,18.759],[-99.1487,18.7868],[-99.159,18.7924],[-99.1616,18.8003],[-99.1576,18.8099],[-99.1544,18.8088],[-99.1463,18.8278],[-99.1172,18.8297],[-99.1058,18.8216],[-99.0954,18.8075],[-99.0906,18.8056],[-99.0946,18.7909],[-99.0862,18.7909],[-99.0873,18.7727],[-99.0835,18.7712]]]}},{"type":"Feature","properties":{"cve_ent":"17","cve_mun":"025","cvegeo":"17025","nombre":"Tlaquiltenango"},"geometry":{"type":"Polygon","coordinates":[[[-99.1588,18.6617],[-99.1209,18.6483],[-99.1174,18.6519],[-99.1169,18.6615],[-99.1078,18.6564],[-99.098,18.6453],[-99.0936,18.6465],[-99.0849,18.6177],[-99.0792,18.6085],[-99.0732,18.5835],[-99.053,18.5825],[-99.0466,18.5863],[-99.0478,18.5809],[-99.0365,18.5642],[-99.017,18.5773],[-98.9972,18.5692],[-98.9954,18.5394],[-98.9877,18.5382],[-98.9839,18.5332],[-98.9854,18.5255],[-98.9671,18.5237],[-98.9684,18.4966],[-98.9358,18.4834],[-98.9152,18.4573],[-98.915,18.4414],[-98.9203,18.4423],[-98.9193,18.432],[-98.9221,18.4285],[-98.9444,18.4204],[-98.9494,18.4226],[-98.9506,18.4177],[-98.9592,18.4203],[-98.974,18.4171],[-98.978,18.424],[-98.9854,18.4212],[-98.984,18.4138],[-98.9877,18.4119],[-98.9835,18.4054],[-98.9866,18.4048],[-98.9879,18.3971],[-98.997,18.394],[-99.0009,18.3883],[-99.0054,18.3899],[-99.0098,18.386],[-99.0182,18.3878],[-99.0205,18.377],[-99.0238,18.3764],[-99.0236,18.3725],[-99.0314,18.3649],[-99.0356,18.3655],[-99.0384,18.3588],[-99.0435,18.3594],[-99.0485,18.3512],[-99.0588,18.3489],[-99.0577,18.3385],[-99.0634,18.3327],[-99.0717,18.3352],[-99.076,18.3424],[-99.0699,18.3504],[-99.0712,18.3595],[-99.0662,18.3594],[-99.0663,18.3678],[-99.0712,18.3704],[-99.0728,18.3773],[-99.0813,18.3731],[-99.0785,18.3871],[-99.0895,18.4],[-99.1005,18.4012],[-99.1107,18.4191],[-99.1283,18.4273],[-99.1301,18.4322],[-99.125,18.4363],[-99.1244,18.4412],[-99.1298,18.4409],[-99.1361,18.4492],[-99.134,18.458],[-99.1394,18.4641],[-99.1379,18.4696],[-99.1406,18.475],[-99.1449,18.4755],[-99.1412,18.4691],[-99.1424,18.4653],[-99.1561,18.4663],[-99.1813,18.4484],[-99.1823,18.4361],[-99.1779,18.4247],[-99.2067,18.4474],[-99.2036,18.4565],[-99.2066,18.4657],[-99.1759,18.4885],[-99.2292,18.4807],[-99.2332,18.4871],[-99.235,18.5012],[-99.2087,18.523],[-99.2033,18.5234],[-99.2031,18.5274],[-99.1966,18.5314],[-99.1916,18.5204],[-99.189,18.524],[-99.1899,18.5323],[-99.1797,18.5377],[-99.1761,18.5377],[-99.174,18.5319],[-99.1629,18.5314],[-99.1522,18.5543],[-99.1533,18.5596],[-99.1479,18.5723],[-99.152,18.5785],[-99.1517,18.5986],[-99.1599,18.5997],[-99.1654,18.6044],[-99.1643,18.61],[-99.1676,18.6118],[-99.1702,18.621],[-99.1774,18.6201],[-99.1892,18.6351],[-99.1871,18.6387],[-99.1777,18.6297],[-99.1708,18.6577],[-99.1588,18.6617]]]}},{"type":"Feature","properties":{"cve_ent":"17","cve_mun":"026","cvegeo":"17026","nombre":"Tlayacapan"},"geometry":{"type":"Polygon","coordinates":[[[-98.9804,18.9923],[-98.9679,18.9883],[-98.9644,18.9841],[-98.9622,18.9882],[-98.9554,18.9852],[-98.9565,18.9795],[-98.9531,18.9776],[-98.9512,18.9833],[-98.9327,18.9753],[-98.9324,18.9653],[-98.9226,18.9675],[-98.9211,18.9576],[-98.9232,18.9496],[-98.9281,18.9528],[-98.9343,18.9412],[-98.9416,18.9383],[-98.9511,18.9275],[-98.9769,18.9365],[-98.9777,18.9315],[-98.9886,18.9214],[-98.9879,18.91],[-98.9908,18.9075],[-98.988,18.901],[-98.983,18.8988],[-98.9925,18.8937],[-98.9995,18.9003],[-98.9954,18.9108],[-99.0054,18.9108],[-99.014,18.9336],[-99.0079,18.9488],[-99.0162,18.9597],[-99.0146,18.9753],[-98.9988,18.9876],[-98.9847,18.9868],[-98.9804,18.9923]]]}},{"type":"Feature","properties":{"cve_ent":"17","cve_mun":"027","cvegeo":"17027","nombre":"Totolapan"},"geometry":{"type":"Polygon","coordinates":[[[-98.9173,19.0396],[-98.8882,19.0369],[-98.879,19.0281],[-98.871,19.0254],[-98.8741,19.0104],[-98.8681,19.0024],[-98.8681,18.9997],[-98.8817,18.9999],[-98.888,18.9765],[-98.8921,18.9714],[-98.8967,18.9728],[-98.8996,18.9695],[-98.9004,18.9578],[-98.907,18.9589],[-98.911,18.9525],[-98.9196,18.9541],[-98.9226,18.9675],[-98.9324,18.9653],[-98.9327,18.9753],[-98.9512,18.9833],[-98.9531,18.9776],[-98.9565,18.9795],[-98.9554,18.9852],[-98.9622,18.9882],[-98.9644,18.9841],[-98.9679,18.9883],[-98.9798,18.9909],[-98.9806,18.999],[-98.9777,18.9982],[-98.972,19.0159],[-98.9715,19.0114],[-98.9652,19.0086],[-98.9667,19.0056],[-98.9623,19.0061],[-98.962,19.002],[-98.959,19.0046],[-98.9558,19.0268],[-98.9433,19.0206],[-98.9323,19.003],[-98.9251,19.0274],[-98.9269,19.0358],[-98.9173,19.0396]]]}},{"type":"Feature","properties":{"cve_ent":"17","cve_mun":"028","cvegeo":"17028","nombre":"Xochitepec"},"geometry":{"type":"Polygon","coordinates":[[[-99.2287,18.8116],[-99.2065,18.8029],[-99.2074,18.7967],[-99.1939,18.7992],[-99.1868,18.7942],[-99.1924,18.7843],[-99.1897,18.764],[-99.1909,18.7606],[-99.1967,18.7602],[-99.1925,18.7522],[-99.1883,18.7272],[-99.193,18.726],[-99.1937,18.7165],[-99.1886,18.708],[-99.1916,18.704],[-99.1965,18.7074],[-99.1936,18.7157],[-99.2218,18.712],[-99.2245,18.7163],[-99.2571,18.7189],[-99.28,18.7244],[-99.2811,18.7369],[-99.298,18.7394],[-99.2922,18.7549],[-99.2768,18.7579],[-99.282,18.7742],[-99.2769,18.7735],[-99.2503,18.7841],[-99.2581,18.7903],[-99.2613,18.8004],[-99.2677,18.8065],[-99.267,18.8234],[-99.2465,18.8268],[-99.2352,18.8097],[-99.2287,18.8116]]]}},{"type":"Feature","properties":{"cve_ent":"17","cve_mun":"029","cvegeo":"17029","nombre":"Yautepec"},"geometry":{"type":"Polygon","coordinates":[[[-98.9529,18.9276],[-98.9508,18.9173],[-98.9552,18.9051],[-98.9469,18.9024],[-98.9429,18.9049],[-98.9333,18.8968],[-98.9419,18.8924],[-98.9417,18.8895],[-98.9554,18.8853],[-98.9566,18.882],[-98.9712,18.8826],[-98.9886,18.8662],[-99.0054,18.8708],[-99.0019,18.86],[-99.0141,18.8542],[-99.041,18.8576],[-99.0411,18.8485],[-99.0489,18.8447],[-99.0462,18.84],[-99.0501,18.8211],[-99.0469,18.8047],[-99.049,18.7994],[-99.0539,18.7957],[-99.0589,18.7966],[-99.0742,18.7755],[-99.0869,18.771],[-99.0862,18.7909],[-99.0946,18.7909],[-99.0906,18.8056],[-99.0954,18.8075],[-99.1058,18.8216],[-99.1172,18.8297],[-99.1463,18.8278],[-99.1449,18.8312],[-99.1484,18.836],[-99.1357,18.8517],[-99.1344,18.8641],[-99.1219,18.8619],[-99.1198,18.867],[-99.1203,18.8808],[-99.1329,18.8954],[-99.1269,18.8984],[-99.1191,18.897],[-99.107,18.9046],[-99.1026,18.904],[-99.1092,18.9081],[-99.0957,18.9156],[-99.0529,18.9262],[-99.0284,18.9255],[-99.0271,18.9417],[-99.0195,18.9481],[-99.0162,18.9597],[-99.0079,18.9488],[-99.014,18.9336],[-99.009,18.9192],[-99.0054,18.9108],[-98.9954,18.9108],[-98.9995,18.9003],[-98.9925,18.8937],[-98.983,18.8988],[-98.988,18.901],[-98.9908,18.9075],[-98.9879,18.91],[-98.9886,18.9214],[-98.9777,18.9315],[-98.9769,18.9365],[-98.9529,18.9276]]]}},{"type":"Feature","properties":{"cve_ent":"17","cve_mun":"030","cvegeo":"17030","nombre":"Yecapixtla"},"geometry":{"type":"Polygon","coordinates":[[[-98.8242,18.9549],[-98.8169,18.9433],[-98.7985,18.94],[-98.7921,18.9346],[-98.8027,18.9126],[-98.802,18.9073],[-98.8059,18.9048],[-98.8063,18.8953],[-98.8129,18.8813],[-98.8249,18.8789],[-98.827,18.8695],[-98.8236,18.8594],[-98.8144,18.8596],[-98.8124,18.8522],[-98.8317,18.8328],[-98.8154,18.8125],[-98.8021,18.8252],[-98.8024,18.813],[-98.7977,18.805],[-98.8049,18.7889],[-98.8169,18.7804],[-98.8237,18.7681],[-98.8413,18.7624],[-98.864,18.7631],[-98.8667,18.7649],[-98.8542,18.771],[-98.8661,18.7827],[-98.8758,18.7862],[-98.879,18.7814],[-98.8811,18.7825],[-98.8849,18.7858],[-98.8823,18.7907],[-98.8876,18.7987],[-98.9293,18.8075],[-98.9239,18.8223],[-98.9259,18.8313],[-98.9204,18.8345],[-98.9135,18.8315],[-98.9089,18.8348],[-98.9068,18.8515],[-98.9243,18.85],[-98.9284,18.8525],[-98.9252,18.8607],[-98.9119,18.873],[-98.9247,18.883],[-98.9284,18.8821],[-98.9051,18.891],[-98.8913,18.9072],[-98.887,18.9049],[-98.8734,18.9069],[-98.8606,18.9135],[-98.8606,18.9092],[-98.8565,18.9168],[-98.8504,18.9187],[-98.8451,18.9322],[-98.8399,18.9354],[-98.8359,18.9502],[-98.8306,18.9553],[-98.8242,18.9549]]]}},{"type":"Feature","properties":{"cve_ent":"17","cve_mun":"031","cvegeo":"17031","nombre":"Zacatepec"},"geometry":{"type":"Polygon","coordinates":[[[-99.2185,18.6854],[-99.1894,18.6852],[-99.1885,18.6793],[-99.1933,18.6672],[-99.1817,18.6725],[-99.1817,18.668],[-99.1779,18.6713],[-99.1763,18.6692],[-99.1582,18.6795],[-99.1588,18.6617],[-99.1708,18.6577],[-99.1752,18.6408],[-99.1944,18.6495],[-99.1958,18.6463],[-99.1928,18.6436],[-99.1955,18.6435],[-99.1957,18.6375],[-99.2022,18.6352],[-99.2063,18.6288],[-99.221,18.6304],[-99.226,18.6275],[-99.2242,18.6251],[-99.2443,18.6112],[-99.243,18.6251],[-99.2298,18.6288],[-99.2311,18.6316],[-99.2264,18.6377],[-99.2276,18.65],[-99.2244,18.6587],[-99.2273,18.6724],[-99.2173,18.6763],[-99.2185,18.6854]]]}},{"type":"Feature","properties":{"cve_ent":"17","cve_mun":"032","cvegeo":"17032","nombre":"Zacualpan de Amilpas"},"geometry":{"type":"Polygon","coordinates":[[[-98.6887,18.8581],[-98.6949,18.8512],[-98.6951,18.8451],[-98.7027,18.8395],[-98.7071,18.8218],[-98.7163,18.8109],[-98.7216,18.8134],[-98.7236,18.807],[-98.7279,18.8055],[-98.7338,18.7783],[-98.7451,18.7596],[-98.7634,18.767],[-98.7673,18.7743],[-98.7696,18.7724],[-98.7691,18.7751],[-98.7791,18.7811],[-98.7821,18.7795],[-98.7846,18.7833],[-98.8037,18.7912],[-98.7977,18.805],[-98.8024,18.813],[-98.8,18.8298],[-98.798,18.8257],[-98.7838,18.8192],[-98.7823,18.8291],[-98.7762,18.8335],[-98.753,18.8285],[-98.7463,18.8378],[-98.7329,18.835],[-98.7361,18.8222],[-98.7226,18.8206],[-98.7154,18.8423],[-98.701,18.8619],[-98.6887,18.8581]]]}},{"type":"Feature","properties":{"cve_ent":"17","cve_mun":"033","cvegeo":"17033","nombre":"Temoac"},"geometry":{"type":"Polygon","coordinates":[[[-98.7492,18.7628],[-98.7489,18.7516],[-98.7467,18.7504],[-98.761,18.7287],[-98.7728,18.7329],[-98.7748,18.7311],[-98.7743,18.7336],[-98.7794,18.7354],[-98.7775,18.7435],[-98.7825,18.7362],[-98.7889,18.738],[-98.7886,18.7413],[-98.7945,18.742],[-98.7967,18.7395],[-98.8376,18.7523],[-98.8367,18.765],[-98.8324,18.7636],[-98.8237,18.7681],[-98.8169,18.7804],[-98.8037,18.7912],[-98.7846,18.7833],[-98.7821,18.7795],[-98.7791,18.7811],[-98.7691,18.7751],[-98.7696,18.7724],[-98.7673,18.7743],[-98.7634,18.767],[-98.7492,18.7628]]]}},{"type":"Feature","properties":{"cve_ent":"17","cve_mun":"034","cvegeo":"17034","nombre":"Coatetelco"},"geometry":{"type":"Polygon","coordinates":[[[-99.2865,18.7811],[-99.2765,18.763],[-99.2768,18.7579],[-99.2922,18.7549],[-99.298,18.7394],[-99.2811,18.7369],[-99.2824,18.7097],[-99.2906,18.7002],[-99.3007,18.6947],[-99.316,18.6891],[-99.3334,18.6882],[-99.3281,18.7158],[-99.3562,18.7394],[-99.3578,18.746],[-99.3505,18.7557],[-99.344,18.7495],[-99.3332,18.7646],[-99.3157,18.7621],[-99.3112,18.7671],[-99.3147,18.7743],[-99.2927,18.7852],[-99.2865,18.7811]]]}},{"type":"Feature","properties":{"cve_ent":"17","cve_mun":"035","cvegeo":"17035","nombre":"Xoxocotla"},"geometry":{"type":"Polygon","coordinates":[[[-99.1936,18.7157],[-99.1994,18.6838],[-99.2185,18.6854],[-99.2173,18.6763],[-99.2273,18.6724],[-99.2247,18.6547],[-99.2276,18.65],[-99.2264,18.6377],[-99.2311,18.6316],[-99.2302,18.635],[-99.2455,18.6351],[-99.2666,18.6418],[-99.263,18.6469],[-99.2565,18.6456],[-99.2629,18.6471],[-99.2609,18.6617],[-99.2733,18.6544],[-99.2917,18.6596],[-99.2906,18.6711],[-99.2775,18.704],[-99.2849,18.7061],[-99.28,18.7244],[-99.2486,18.7173],[-99.2245,18.7163],[-99.2218,18.712],[-99.1936,18.7157]]]}},{"type":"Feature","properties":{"cve_ent":"17","cve_mun":"036","cvegeo":"17036","nombre":"Hueyapan"},"geometry":{"type":"Polygon","coordinates":[[[-98.6721,18.88],[-98.682,18.876],[-98.6792,18.8761],[-98.6872,18.8577],[-98.701,18.8619],[-98.7154,18.8423],[-98.7241,18.8208],[-98.7174,18.8657],[-98.6978,18.877],[-98.7022,18.8819],[-98.7003,18.8938],[-98.688,18.8985],[-98.6814,18.9072],[-98.6729,18.9094],[-98.6659,18.906],[-98.6647,18.8996],[-98.6613,18.8978],[-98.6673,18.8894],[-98.6649,18.8877],[-98.6723,18.8845],[-98.6721,18.88]]]}}]}