{"type":"FeatureCollection","features":[{"type":"Feature","properties":{"cve_ent":"18","cve_mun":"001","cvegeo":"18001","nombre":"Acaponeta"},"geometry":{"type":"Polygon","coordinates":[[[-105.0724,22.6565],[-105.0076,22.5857],[-104.9879,22.4987],[-104.9883,22.4845],[-105.0024,22.4896],[-105.0063,22.4833],[-105.0058,22.4799],[-105.0005,22.4778],[-105.0012,22.4721],[-104.9933,22.4651],[-104.9963,22.4561],[-105.0104,22.4633],[-105.0233,22.4604],[-105.0283,22.4502],[-105.0352,22.45],[-105.0433,22.4358],[-105.0541,22.4284],[-105.0492,22.4251],[-105.0436,22.4274],[-105.034,22.4172],[-105.0363,22.4094],[-105.0319,22.405],[-105.0335,22.392],[-105.029,22.3849],[-105.03,22.3789],[-105.0245,22.379],[-105.0219,22.3722],[-105.0324,22.3699],[-105.0357,22.3585],[-105.0516,22.3593],[-105.0627,22.3535],[-105.0727,22.3548],[-105.0741,22.3516],[-105.0854,22.3472],[-105.1048,22.3562],[-105.1083,22.3505],[-105.1162,22.348],[-105.1206,22.2846],[-105.1409,22.2675],[-105.1473,22.2583],[-105.1551,22.2553],[-105.1618,22.2586],[-105.1666,22.2555],[-105.1728,22.2647],[-105.1944,22.2659],[-105.2071,22.2694],[-105.2088,22.2738],[-105.2098,22.2708],[-105.2404,22.2751],[-105.24,22.2676],[-105.2462,22.2678],[-105.2524,22.2625],[-105.2662,22.3075],[-105.2858,22.303],[-105.2944,22.3047],[-105.295,22.3138],[-105.292,22.3135],[-105.2914,22.3169],[-105.2998,22.329],[-105.3006,22.3401],[-105.298,22.3432],[-105.3137,22.355],[-105.3265,22.3736],[-105.3408,22.3713],[-105.3414,22.3539],[-105.3556,22.3483],[-105.3568,22.3514],[-105.3945,22.3694],[-105.4055,22.3709],[-105.3984,22.398],[-105.4107,22.401],[-105.4079,22.4162],[-105.413,22.4169],[-105.4098,22.4385],[-105.456,22.4451],[-105.4598,22.4383],[-105.4738,22.4503],[-105.4741,22.4633],[-105.4795,22.4621],[-105.4794,22.4584],[-105.4998,22.4539],[-105.5002,22.4627],[-105.5029,22.4615],[-105.5051,22.4667],[-105.5229,22.4615],[-105.5247,22.4671],[-105.5304,22.4681],[-105.5293,22.4735],[-105.5329,22.4746],[-105.5392,22.4699],[-105.54,22.464],[-105.534,22.4593],[-105.5368,22.4589],[-105.5343,22.447],[-105.528,22.4487],[-105.5179,22.4063],[-105.5296,22.427],[-105.5653,22.4502],[-105.5641,22.454],[-105.556,22.4556],[-105.5571,22.4606],[-105.5487,22.4628],[-105.5499,22.4728],[-105.5565,22.4766],[-105.5565,22.4822],[-105.5648,22.4819],[-105.5643,22.4875],[-105.5898,22.5005],[-105.6053,22.4965],[-105.6163,22.5036],[-105.6183,22.5152],[-105.6321,22.5099],[-105.639,22.5164],[-105.6402,22.5237],[-105.6448,22.5232],[-105.6448,22.5185],[-105.6596,22.5171],[-105.6734,22.5372],[-105.6724,22.5549],[-105.6822,22.5721],[-105.6764,22.5768],[-105.67,22.5769],[-105.6606,22.5864],[-105.654,22.5808],[-105.6392,22.577],[-105.6422,22.5939],[-105.6309,22.593],[-105.6314,22.5888],[-105.622,22.5714],[-105.6121,22.5682],[-105.6005,22.5589],[-105.6017,22.5422],[-105.5983,22.5367],[-105.5839,22.5335],[-105.576,22.5351],[-105.5736,22.5393],[-105.5417,22.5365],[-105.5336,22.515],[-105.5219,22.521],[-105.5096,22.517],[-105.5032,22.5277],[-105.4932,22.5234],[-105.492,22.5194],[-105.4838,22.5177],[-105.4783,22.505],[-105.4741,22.5029],[-105.4664,22.5054],[-105.4632,22.5106],[-105.4595,22.51],[-105.4545,22.5188],[-105.4417,22.5243],[-105.4442,22.5294],[-105.4366,22.5375],[-105.4346,22.55],[-105.4387,22.5652],[-105.4376,22.5849],[-105.4562,22.5997],[-105.4481,22.6101],[-105.4505,22.6268],[-105.47,22.6252],[-105.4739,22.6311],[-105.4694,22.6414],[-105.4604,22.6475],[-105.464,22.6592],[-105.4547,22.6657],[-105.4533,22.6607],[-105.4055,22.6559],[-105.4032,22.6237],[-105.3833,22.5653],[-105.3483,22.5685],[-105.3246,22.567],[-105.324,22.5713],[-105.2684,22.5687],[-105.2681,22.5837],[-105.2456,22.5874],[-105.2304,22.5587],[-105.2256,22.5598],[-105.2048,22.5384],[-105.1769,22.5382],[-105.1716,22.5461],[-105.1565,22.5561],[-105.1521,22.5642],[-105.1394,22.5598],[-105.1281,22.5658],[-105.1225,22.5643],[-105.1212,22.5685],[-105.1125,22.5694],[-105.107,22.582],[-105.0974,22.5857],[-105.1158,22.6144],[-105.0861,22.6148],[-105.0724,22.6565]]]}},{"type":"Feature","properties":{"cve_ent":"18","cve_mun":"002","cvegeo":"18002","nombre":"Ahuacatlán"},"geometry":{"type":"Polygon","coordinates":[[[-104.4286,21.0554],[-104.4222,21.0468],[-104.4249,21.0437],[-104.4345,21.0432],[-104.4366,21.04],[-104.422,21.0342],[-104.4203,21.0283],[-104.4128,21.0286],[-104.4063,21.0248],[-104.4059,21.0169],[-104.4094,21.0105],[-104.4174,21.0129],[-104.4289,21.0113],[-104.4329,21.0071],[-104.4462,21.0128],[-104.4467,21.0],[-104.4519,20.9956],[-104.4481,20.9878],[-104.4554,20.985],[-104.4614,20.9933],[-104.4822,20.9931],[-104.5011,20.9672],[-104.5221,20.9627],[-104.5403,20.967],[-104.5427,20.9483],[-104.5712,20.9605],[-104.5691,20.9808],[-104.5615,20.9868],[-104.5567,20.9948],[-104.5586,20.9957],[-104.5812,20.9658],[-104.6291,20.9242],[-104.6381,20.9341],[-104.6581,20.9332],[-104.6621,20.9387],[-104.6614,20.944],[-104.6691,20.9413],[-104.681,20.9438],[-104.6827,20.9492],[-104.6787,20.9547],[-104.6811,20.9607],[-104.7057,20.9669],[-104.7089,20.9744],[-104.7162,20.9749],[-104.7151,20.9799],[-104.7297,20.9842],[-104.7251,21.0048],[-104.7317,21.0123],[-104.72,21.0179],[-104.7176,21.0234],[-104.7214,21.0299],[-104.7075,21.038],[-104.7071,21.0416],[-104.7011,21.0396],[-104.6954,21.0439],[-104.6959,21.0494],[-104.6988,21.0506],[-104.6953,21.0587],[-104.6892,21.0592],[-104.6842,21.0684],[-104.672,21.077],[-104.6598,21.0811],[-104.6585,21.0849],[-104.6634,21.087],[-104.6623,21.101],[-104.6504,21.112],[-104.6657,21.1198],[-104.648,21.132],[-104.6357,21.1262],[-104.6313,21.1315],[-104.6264,21.1295],[-104.6221,21.1349],[-104.6187,21.1432],[-104.6274,21.1509],[-104.6283,21.1656],[-104.6351,21.1758],[-104.6298,21.1683],[-104.6229,21.165],[-104.6251,21.1587],[-104.6139,21.1464],[-104.6113,21.1333],[-104.6169,21.1325],[-104.6136,21.1305],[-104.617,21.1252],[-104.6128,21.1218],[-104.609,21.1268],[-104.5966,21.1224],[-104.5927,21.118],[-104.592,21.1157],[-104.6011,21.1129],[-104.589,21.0978],[-104.5935,21.085],[-104.5832,21.0884],[-104.585,21.0955],[-104.57,21.1006],[-104.5802,21.1024],[-104.5759,21.1119],[-104.5886,21.1139],[-104.5904,21.118],[-104.5851,21.1267],[-104.5964,21.1278],[-104.6007,21.1373],[-104.5858,21.1375],[-104.5346,21.1615],[-104.5422,21.1661],[-104.5342,21.1689],[-104.5388,21.1782],[-104.5366,21.1779],[-104.4921,21.1563],[-104.5239,21.1292],[-104.4707,21.107],[-104.4587,21.0825],[-104.4596,21.0701],[-104.455,21.0738],[-104.4493,21.0716],[-104.4474,21.0787],[-104.4425,21.0752],[-104.4411,21.0772],[-104.4368,21.0748],[-104.4424,21.0578],[-104.4381,21.0585],[-104.4323,21.0539],[-104.4286,21.0554]]]}},{"type":"Feature","properties":{"cve_ent":"18","cve_mun":"003","cvegeo":"18003","nombre":"Amatlán de Cañas"},"geometry":{"type":"Polygon","coordinates":[[[-104.4554,20.985],[-104.4531,20.9598],[-104.4405,20.9427],[-104.4055,20.9447],[-104.3974,20.9691],[-104.3772,20.963],[-104.3453,20.9648],[-104.352,20.9359],[-104.3418,20.9369],[-104.3332,20.9277],[-104.3289,20.9104],[-104.3203,20.895],[-104.3095,20.8881],[-104.3116,20.8854],[-104.3046,20.8796],[-104.2996,20.8647],[-104.3021,20.8606],[-104.2912,20.8518],[-104.2954,20.8455],[-104.3088,20.8468],[-104.3126,20.8404],[-104.3184,20.8386],[-104.3317,20.8427],[-104.3343,20.8467],[-104.3419,20.8442],[-104.35,20.8457],[-104.3618,20.8409],[-104.3571,20.8199],[-104.3603,20.8198],[-104.3641,20.8139],[-104.3504,20.8116],[-104.3759,20.7841],[-104.3752,20.7754],[-104.3582,20.7905],[-104.3464,20.7932],[-104.3453,20.7908],[-104.3358,20.7899],[-104.3283,20.7981],[-104.2976,20.7708],[-104.2915,20.7706],[-104.2899,20.7813],[-104.2829,20.7835],[-104.28,20.7689],[-104.2745,20.77],[-104.2599,20.7353],[-104.2476,20.7263],[-104.2466,20.7183],[-104.2418,20.7134],[-104.2481,20.6996],[-104.2433,20.6917],[-104.2532,20.6823],[-104.2458,20.6738],[-104.2469,20.6709],[-104.2365,20.6629],[-104.2553,20.6533],[-104.2604,20.6428],[-104.2469,20.6315],[-104.2538,20.6306],[-104.2547,20.6184],[-104.2519,20.6145],[-104.2554,20.6108],[-104.2515,20.6083],[-104.2536,20.6034],[-104.2745,20.6166],[-104.275,20.6222],[-104.282,20.629],[-104.2806,20.6464],[-104.2848,20.6529],[-104.2834,20.6576],[-104.288,20.6604],[-104.2846,20.6706],[-104.2884,20.6754],[-104.2885,20.6892],[-104.3056,20.6942],[-104.309,20.7037],[-104.3164,20.707],[-104.3185,20.7135],[-104.3229,20.714],[-104.3241,20.7175],[-104.3319,20.7167],[-104.3359,20.7215],[-104.3508,20.7253],[-104.3534,20.7359],[-104.359,20.7371],[-104.3637,20.7444],[-104.3775,20.7424],[-104.3789,20.7552],[-104.386,20.7632],[-104.3842,20.7665],[-104.395,20.7744],[-104.3966,20.7808],[-104.4125,20.79],[-104.4141,20.7938],[-104.4191,20.7962],[-104.4273,20.791],[-104.4357,20.8058],[-104.441,20.8077],[-104.4493,20.8035],[-104.4584,20.8065],[-104.463,20.8108],[-104.46,20.8131],[-104.4769,20.8196],[-104.4755,20.8227],[-104.4803,20.8233],[-104.4853,20.8333],[-104.4932,20.8388],[-104.4999,20.8382],[-104.5032,20.8418],[-104.5016,20.8454],[-104.5043,20.8468],[-104.5064,20.8608],[-104.5106,20.8597],[-104.514,20.8665],[-104.5195,20.8692],[-104.5244,20.8858],[-104.5346,20.884],[-104.5357,20.8959],[-104.5433,20.8976],[-104.5447,20.9011],[-104.5429,20.9119],[-104.5557,20.9181],[-104.5569,20.9242],[-104.5693,20.9309],[-104.5763,20.9307],[-104.5782,20.934],[-104.5907,20.9346],[-104.5915,20.9315],[-104.601,20.9314],[-104.6118,20.9232],[-104.6227,20.9263],[-104.6291,20.9242],[-104.5812,20.9658],[-104.5586,20.9957],[-104.5567,20.9948],[-104.5615,20.9868],[-104.5691,20.9808],[-104.5712,20.9605],[-104.5427,20.9483],[-104.5403,20.967],[-104.5221,20.9627],[-104.5011,20.9672],[-104.4822,20.9931],[-104.4614,20.9933],[-104.4554,20.985]]]}},{"type":"Feature","properties":{"cve_ent":"18","cve_mun":"004","cvegeo":"18004","nombre":"Compostela"},"geometry":{"type":"MultiPolygon","coordinates":[[[[-105.2155,21.3734],[-105.19,21.3684],[-105.1932,21.3612],[-105.2019,21.3631],[-105.1989,21.3578],[-105.2046,21.3541],[-105.2027,21.3502],[-105.2127,21.3495],[-105.2138,21.3442],[-105.2075,21.3401],[-105.1803,21.35],[-105.1495,21.3559],[-105.1278,21.3411],[-105.1115,21.3244],[-105.1008,21.3228],[-105.0989,21.3166],[-105.0733,21.3352],[-105.0601,21.3229],[-105.0484,21.342],[-105.0404,21.341],[-105.0348,21.3488],[-105.0303,21.3433],[-105.009,21.3344],[-104.9961,21.3374],[-104.9892,21.3256],[-104.9779,21.3233],[-104.9816,21.3186],[-104.9728,21.3183],[-104.9718,21.3151],[-104.9631,21.3122],[-104.9578,21.3043],[-104.9557,21.3096],[-104.9538,21.3047],[-104.9415,21.309],[-104.941,21.3043],[-104.9356,21.3055],[-104.9374,21.302],[-104.9296,21.3044],[-104.9229,21.3022],[-104.9169,21.3057],[-104.9115,21.3029],[-104.9067,21.3072],[-104.9096,21.3075],[-104.9092,21.3091],[-104.9045,21.3101],[-104.9093,21.3122],[-104.904,21.3139],[-104.8921,21.3107],[-104.8814,21.3131],[-104.8817,21.3176],[-104.8777,21.3182],[-104.8808,21.3245],[-104.8769,21.3238],[-104.8779,21.3277],[-104.8748,21.3279],[-104.8686,21.3363],[-104.8604,21.3345],[-104.8585,21.3366],[-104.8413,21.3315],[-104.8278,21.3364],[-104.8256,21.3324],[-104.8215,21.3335],[-104.8192,21.3248],[-104.8135,21.323],[-104.8076,21.3258],[-104.8069,21.3301],[-104.8025,21.3264],[-104.8122,21.2858],[-104.8127,21.2711],[-104.8279,21.2531],[-104.8235,21.2435],[-104.8253,21.2413],[-104.8189,21.238],[-104.8223,21.2319],[-104.8264,21.2359],[-104.8292,21.2294],[-104.8351,21.2301],[-104.8359,21.2234],[-104.874,21.2311],[-104.8784,21.2292],[-104.8726,21.221],[-104.8558,21.2184],[-104.8398,21.221],[-104.8352,21.2187],[-104.8403,21.2052],[-104.8204,21.1895],[-104.8048,21.1654],[-104.8314,21.1694],[-104.856,21.1548],[-104.8509,21.1473],[-104.8562,21.1423],[-104.8526,21.1384],[-104.8434,21.1396],[-104.8437,21.1347],[-104.8483,21.1322],[-104.8417,21.129],[-104.8465,21.1215],[-104.8502,21.1209],[-104.8479,21.1175],[-104.8492,21.109],[-104.8459,21.1087],[-104.8432,21.101],[-104.8455,21.0952],[-104.8408,21.0863],[-104.8278,21.0845],[-104.8314,21.0829],[-104.8286,21.08],[-104.8312,21.0785],[-104.8243,21.0757],[-104.818,21.0644],[-104.8104,21.0632],[-104.8099,21.0548],[-104.7894,21.0316],[-104.7976,21.0207],[-104.7968,21.0174],[-104.8109,21.012],[-104.8277,21.0181],[-104.8325,21.0141],[-104.8381,21.02],[-104.8412,21.0067],[-104.8537,21.005],[-104.8513,21.0002],[-104.8579,20.9944],[-104.8669,20.9952],[-104.8735,20.9824],[-104.8808,20.9809],[-104.8827,20.9737],[-104.8895,20.9738],[-104.8934,20.9671],[-104.9006,20.9627],[-104.9005,20.9463],[-104.9065,20.9422],[-104.9134,20.9442],[-104.9283,20.9395],[-104.9343,20.9345],[-104.9412,20.9351],[-104.9532,20.9301],[-104.9639,20.9191],[-104.9688,20.909],[-104.9574,20.9529],[-104.9928,20.9624],[-105.0017,20.9864],[-105.039,20.9851],[-105.0445,20.9701],[-105.0667,20.9698],[-105.0696,20.9763],[-105.0967,20.9732],[-105.1073,20.9602],[-105.1095,20.9611],[-105.1098,20.9538],[-105.116,20.9625],[-105.1248,20.9631],[-105.1269,20.9587],[-105.1338,20.961],[-105.1418,20.9526],[-105.1592,20.9583],[-105.1709,20.9503],[-105.1748,20.9524],[-105.1793,20.9484],[-105.1856,20.9503],[-105.1866,20.9472],[-105.1948,20.9477],[-105.201,20.9434],[-105.2321,20.9494],[-105.2551,20.9233],[-105.2556,20.9173],[-105.2676,20.9262],[-105.2751,20.9113],[-105.2869,20.9009],[-105.3091,20.8726],[-105.3504,20.8541],[-105.3723,20.8707],[-105.323,20.9318],[-105.3557,20.9603],[-105.3451,20.9793],[-105.3409,20.9786],[-105.3332,20.9843],[-105.3268,20.9968],[-105.3208,21.0016],[-105.3137,21.0349],[-105.3035,21.0355],[-105.2954,21.0259],[-105.282,21.0284],[-105.2732,21.0235],[-105.2441,21.0481],[-105.2355,21.0647],[-105.2287,21.1062],[-105.231,21.1189],[-105.2377,21.1216],[-105.239,21.1323],[-105.2315,21.1387],[-105.2361,21.14],[-105.2359,21.1452],[-105.2275,21.1516],[-105.224,21.1594],[-105.2262,21.1648],[-105.2324,21.1649],[-105.2322,21.1713],[-105.2285,21.1721],[-105.2333,21.1807],[-105.2164,21.205],[-105.2199,21.2465],[-105.2295,21.2999],[-105.2447,21.347],[-105.2482,21.3473],[-105.2439,21.353],[-105.2397,21.3531],[-105.2388,21.362],[-105.2155,21.3734]]],[[[-105.2742,21.0499],[-105.2713,21.0492],[-105.2718,21.0464],[-105.2747,21.0473],[-105.2742,21.0499]]]]}},{"type":"Feature","properties":{"cve_ent":"18","cve_mun":"005","cvegeo":"18005","nombre":"Huajicori"},"geometry":{"type":"Polygon","coordinates":[[[-105.0033,22.977],[-105.0083,22.9685],[-104.998,22.9572],[-104.9969,22.952],[-105.01,22.9224],[-105.0001,22.9089],[-105.0014,22.906],[-105.0055,22.9071],[-105.0051,22.9036],[-104.9878,22.8883],[-104.9879,22.8555],[-104.9906,22.8521],[-104.9875,22.8462],[-104.9884,22.836],[-104.9815,22.8324],[-104.9783,22.8262],[-104.9717,22.8247],[-104.965,22.8156],[-104.959,22.8136],[-104.9517,22.8218],[-104.9405,22.8162],[-104.9342,22.8273],[-104.9184,22.8198],[-104.9083,22.8076],[-104.911,22.8013],[-104.9056,22.7996],[-104.9134,22.7905],[-104.9097,22.7844],[-104.9134,22.7753],[-104.9115,22.7692],[-104.9156,22.7485],[-104.8927,22.7374],[-105.0573,22.6881],[-105.0684,22.6784],[-105.0724,22.6565],[-105.0861,22.6148],[-105.1158,22.6144],[-105.0974,22.5857],[-105.107,22.582],[-105.1145,22.5676],[-105.1209,22.5687],[-105.1225,22.5643],[-105.1281,22.5658],[-105.1394,22.5598],[-105.1521,22.5642],[-105.1565,22.5561],[-105.1716,22.5461],[-105.1762,22.5383],[-105.2029,22.5372],[-105.2256,22.5598],[-105.2304,22.5587],[-105.2456,22.5874],[-105.2681,22.5837],[-105.2684,22.5687],[-105.324,22.5713],[-105.3246,22.567],[-105.3483,22.5685],[-105.3833,22.5653],[-105.4032,22.6237],[-105.4055,22.6559],[-105.4533,22.6607],[-105.4547,22.6657],[-105.4607,22.6637],[-105.4591,22.6605],[-105.4981,22.6514],[-105.5229,22.7243],[-105.5153,22.7395],[-105.5141,22.7593],[-105.5194,22.759],[-105.5248,22.7748],[-105.5199,22.7728],[-105.5165,22.7806],[-105.5191,22.7839],[-105.5092,22.7922],[-105.5112,22.7969],[-105.5065,22.7977],[-105.5024,22.8098],[-105.495,22.8105],[-105.4934,22.8262],[-105.4877,22.826],[-105.4872,22.8391],[-105.4792,22.842],[-105.4752,22.8499],[-105.4842,22.8587],[-105.4753,22.8806],[-105.4712,22.8833],[-105.4987,22.9336],[-105.4961,22.9342],[-105.5013,22.9586],[-105.4533,22.9774],[-105.4326,23.024],[-105.409,23.0236],[-105.4132,23.0371],[-105.4099,23.0444],[-105.413,23.0741],[-105.3922,23.0841],[-105.3857,23.0814],[-105.385,23.0845],[-105.3782,23.0778],[-105.3583,23.0739],[-105.359,23.0671],[-105.3561,23.0651],[-105.3581,23.0635],[-105.3503,23.0602],[-105.3529,23.0553],[-105.3509,23.0509],[-105.3588,23.0463],[-105.3508,23.0356],[-105.3537,23.0194],[-105.3431,23.0123],[-105.3441,23.0078],[-105.341,23.0084],[-105.3337,22.9947],[-105.339,22.9929],[-105.3351,22.9888],[-105.3401,22.9825],[-105.3363,22.9805],[-105.3395,22.9761],[-105.3368,22.9712],[-105.343,22.9682],[-105.3371,22.9677],[-105.3357,22.9626],[-105.3308,22.9632],[-105.3341,22.9534],[-105.3282,22.9526],[-105.3304,22.9477],[-105.3283,22.943],[-105.3236,22.9413],[-105.2977,22.9542],[-105.2541,22.9563],[-105.1636,22.9539],[-105.076,22.9596],[-105.0138,22.9777],[-105.0033,22.977]]]}},{"type":"Feature","properties":{"cve_ent":"18","cve_mun":"006","cvegeo":"18006","nombre":"Ixtlán del Río"},"geometry":{"type":"Polygon","coordinates":[[[-104.2612,21.2098],[-104.234,21.1997],[-104.2343,21.1879],[-104.2301,21.1857],[-104.2246,21.1879],[-104.219,21.181],[-104.2173,21.1747],[-104.2236,21.1692],[-104.2215,21.1658],[-104.2242,21.1605],[-104.2217,21.159],[-104.2249,21.1577],[-104.222,21.1536],[-104.2252,21.1512],[-104.2215,21.1407],[-104.219,21.1376],[-104.2151,21.1391],[-104.215,21.134],[-104.2106,21.1306],[-104.2109,21.1186],[-104.2148,21.1168],[-104.2121,21.1145],[-104.2155,21.114],[-104.2146,21.1077],[-104.2208,21.1014],[-104.2167,21.0858],[-104.2218,21.07],[-104.2291,21.0662],[-104.2348,21.0677],[-104.2392,21.0571],[-104.2384,21.0523],[-104.2249,21.0498],[-104.2272,21.0437],[-104.2362,21.0396],[-104.236,21.0315],[-104.2427,21.0273],[-104.2407,21.0217],[-104.2296,21.0163],[-104.2232,21.0013],[-104.225,20.9961],[-104.2341,20.9982],[-104.2385,20.9922],[-104.2381,20.9842],[-104.2331,20.9687],[-104.2186,20.9603],[-104.2011,20.9573],[-104.208,20.9511],[-104.2066,20.9364],[-104.2211,20.9415],[-104.2288,20.9356],[-104.2365,20.9262],[-104.2465,20.9212],[-104.2482,20.9069],[-104.2657,20.889],[-104.2909,20.8878],[-104.2791,20.8645],[-104.2907,20.8623],[-104.2902,20.849],[-104.2914,20.8485],[-104.2949,20.8565],[-104.3021,20.8606],[-104.2996,20.8647],[-104.3046,20.8796],[-104.3116,20.8854],[-104.3095,20.8881],[-104.3203,20.895],[-104.3272,20.907],[-104.3332,20.9277],[-104.3418,20.9369],[-104.352,20.9359],[-104.3453,20.9648],[-104.3772,20.963],[-104.3974,20.9691],[-104.4055,20.9447],[-104.4405,20.9427],[-104.4531,20.9598],[-104.4554,20.985],[-104.4481,20.9878],[-104.4519,20.9956],[-104.4467,21.0],[-104.4462,21.0128],[-104.4329,21.0071],[-104.4289,21.0113],[-104.4174,21.0129],[-104.4094,21.0105],[-104.4059,21.0169],[-104.4063,21.0248],[-104.4128,21.0286],[-104.4203,21.0283],[-104.422,21.0342],[-104.4366,21.04],[-104.4345,21.0432],[-104.4249,21.0437],[-104.4222,21.0468],[-104.4286,21.0554],[-104.4213,21.0743],[-104.4181,21.068],[-104.4106,21.0676],[-104.411,21.0712],[-104.4099,21.0664],[-104.3945,21.0669],[-104.3921,21.063],[-104.3816,21.0658],[-104.3683,21.0623],[-104.3661,21.0723],[-104.3574,21.0734],[-104.3425,21.0727],[-104.3279,21.0632],[-104.3282,21.0695],[-104.3129,21.0742],[-104.3088,21.0713],[-104.2906,21.0851],[-104.2915,21.0939],[-104.2872,21.098],[-104.2951,21.0993],[-104.306,21.1103],[-104.3112,21.119],[-104.3069,21.1259],[-104.3072,21.1325],[-104.3225,21.1427],[-104.3199,21.169],[-104.3353,21.1708],[-104.3368,21.2048],[-104.3242,21.1983],[-104.3224,21.1929],[-104.3174,21.2012],[-104.3069,21.2038],[-104.2996,21.1994],[-104.296,21.2036],[-104.2912,21.1949],[-104.2879,21.2049],[-104.2758,21.2019],[-104.2612,21.2069],[-104.2612,21.2098]]]}},{"type":"Feature","properties":{"cve_ent":"18","cve_mun":"007","cvegeo":"18007","nombre":"Jala"},"geometry":{"type":"Polygon","coordinates":[[[-104.2376,21.2022],[-104.2612,21.2098],[-104.2612,21.2069],[-104.2758,21.2019],[-104.2879,21.2049],[-104.2912,21.1949],[-104.296,21.2036],[-104.2996,21.1994],[-104.3069,21.2038],[-104.3174,21.2012],[-104.3224,21.1929],[-104.3242,21.1983],[-104.3368,21.2048],[-104.3353,21.1708],[-104.3199,21.169],[-104.3225,21.1427],[-104.3072,21.1325],[-104.3069,21.1259],[-104.3112,21.119],[-104.306,21.1103],[-104.2951,21.0993],[-104.2872,21.098],[-104.2915,21.0939],[-104.2906,21.0851],[-104.3088,21.0713],[-104.3129,21.0742],[-104.3282,21.0695],[-104.3279,21.0632],[-104.3425,21.0727],[-104.3574,21.0734],[-104.3661,21.0723],[-104.3683,21.0623],[-104.3816,21.0658],[-104.3921,21.063],[-104.3945,21.0669],[-104.4099,21.0664],[-104.411,21.0712],[-104.4106,21.0676],[-104.4181,21.068],[-104.4213,21.0743],[-104.4276,21.0573],[-104.4323,21.0539],[-104.4381,21.0585],[-104.4424,21.0578],[-104.4368,21.0748],[-104.4474,21.0787],[-104.4493,21.0716],[-104.455,21.0738],[-104.4596,21.0701],[-104.4587,21.0825],[-104.4707,21.107],[-104.5239,21.1292],[-104.4921,21.1563],[-104.5529,21.1837],[-104.5479,21.1978],[-104.5624,21.2117],[-104.5591,21.2113],[-104.5574,21.2146],[-104.5534,21.2109],[-104.5475,21.2139],[-104.5344,21.2093],[-104.5306,21.2144],[-104.5203,21.2149],[-104.5183,21.2177],[-104.5224,21.2178],[-104.5187,21.2234],[-104.5336,21.2285],[-104.5275,21.2313],[-104.5084,21.2237],[-104.5003,21.2306],[-104.4944,21.2268],[-104.4095,21.2875],[-104.4171,21.2947],[-104.4168,21.2987],[-104.3983,21.309],[-104.4036,21.3248],[-104.4098,21.328],[-104.4123,21.3335],[-104.4103,21.3404],[-104.4001,21.3513],[-104.3943,21.3482],[-104.3845,21.3509],[-104.3798,21.3472],[-104.3761,21.3333],[-104.366,21.3318],[-104.3587,21.3269],[-104.3583,21.3152],[-104.349,21.2986],[-104.349,21.287],[-104.3522,21.2839],[-104.3499,21.2742],[-104.3367,21.2561],[-104.3108,21.2634],[-104.3016,21.2595],[-104.283,21.2473],[-104.2746,21.2349],[-104.2657,21.2331],[-104.2624,21.2354],[-104.2477,21.2265],[-104.2427,21.2191],[-104.2423,21.2066],[-104.2376,21.2022]]]}},{"type":"Feature","properties":{"cve_ent":"18","cve_mun":"008","cvegeo":"18008","nombre":"Xalisco"},"geometry":{"type":"Polygon","coordinates":[[[-104.7769,21.3965],[-104.7583,21.3945],[-104.7602,21.3769],[-104.7789,21.3787],[-104.7796,21.3725],[-104.8045,21.333],[-104.7978,21.3276],[-104.7967,21.3221],[-104.8069,21.3301],[-104.8076,21.3258],[-104.8135,21.323],[-104.8192,21.3248],[-104.8215,21.3335],[-104.8256,21.3324],[-104.8278,21.3364],[-104.8413,21.3315],[-104.8675,21.3365],[-104.8779,21.3277],[-104.8769,21.3238],[-104.8808,21.3245],[-104.8777,21.3182],[-104.8817,21.3176],[-104.8814,21.3131],[-104.8921,21.3107],[-104.904,21.3139],[-104.9093,21.3122],[-104.9045,21.3101],[-104.9092,21.3091],[-104.9067,21.3072],[-104.9115,21.3029],[-104.9169,21.3057],[-104.9328,21.3017],[-104.9378,21.3022],[-104.9367,21.3069],[-104.941,21.3043],[-104.9415,21.309],[-104.9538,21.3047],[-104.9557,21.3096],[-104.9578,21.3043],[-104.9631,21.3122],[-104.9718,21.3151],[-104.9728,21.3183],[-104.9816,21.3186],[-104.9779,21.3233],[-104.9892,21.3256],[-104.9961,21.3374],[-105.009,21.3344],[-105.0303,21.3433],[-105.0348,21.3488],[-105.0404,21.341],[-105.0484,21.342],[-105.0601,21.3229],[-105.0733,21.3352],[-105.0989,21.3166],[-105.1008,21.3228],[-105.1115,21.3244],[-105.1278,21.3411],[-105.1495,21.3559],[-105.1499,21.3688],[-105.1534,21.3765],[-105.1423,21.3776],[-105.1373,21.3942],[-105.1114,21.39],[-105.0973,21.4055],[-105.0931,21.4368],[-105.0932,21.4396],[-105.0967,21.4398],[-105.0931,21.4415],[-105.0923,21.4476],[-105.083,21.4539],[-105.0673,21.4553],[-105.0588,21.4592],[-105.0467,21.4587],[-105.0343,21.4678],[-105.0347,21.4749],[-105.0163,21.4965],[-104.9978,21.4935],[-104.9753,21.4772],[-104.9731,21.4724],[-104.9581,21.4702],[-104.9071,21.4727],[-104.8924,21.467],[-104.889,21.4712],[-104.868,21.4634],[-104.8663,21.4586],[-104.8593,21.462],[-104.8619,21.4653],[-104.8515,21.4677],[-104.8462,21.4617],[-104.8384,21.4602],[-104.8363,21.4638],[-104.8409,21.4679],[-104.8349,21.4657],[-104.8187,21.4527],[-104.8258,21.4476],[-104.8122,21.4421],[-104.8095,21.4452],[-104.7844,21.4246],[-104.8093,21.416],[-104.7769,21.3965]]]}},{"type":"Feature","properties":{"cve_ent":"18","cve_mun":"009","cvegeo":"18009","nombre":"Del Nayar"},"geometry":{"type":"Polygon","coordinates":[[[-104.3488,22.4097],[-104.3535,22.4013],[-104.35,22.3864],[-104.3253,22.3807],[-104.2931,22.3651],[-104.29,22.3581],[-104.2857,22.3564],[-104.2927,22.344],[-104.2984,22.3478],[-104.293,22.3307],[-104.2995,22.3273],[-104.2927,22.3199],[-104.2926,22.3074],[-104.2872,22.3052],[-104.2845,22.299],[-104.2898,22.2936],[-104.2888,22.2856],[-104.2924,22.285],[-104.2956,22.2769],[-104.3001,22.2759],[-104.3067,22.265],[-104.3224,22.2538],[-104.3287,22.2454],[-104.3259,22.2318],[-104.332,22.2284],[-104.3339,22.2158],[-104.3414,22.2096],[-104.3318,22.1998],[-104.3361,22.1942],[-104.3366,22.1867],[-104.3506,22.1759],[-104.3494,22.1698],[-104.3563,22.1654],[-104.3546,22.1512],[-104.3616,22.1367],[-104.3647,22.1124],[-104.3732,22.1026],[-104.3635,22.0741],[-104.3615,22.0529],[-104.3678,22.0452],[-104.365,22.0363],[-104.3692,22.0267],[-104.3678,22.0211],[-104.3612,22.0193],[-104.36,22.0104],[-104.3664,22.0012],[-104.367,21.9868],[-104.3711,21.9797],[-104.3699,21.9748],[-104.3637,21.974],[-104.3694,21.968],[-104.372,21.9553],[-104.3869,21.9442],[-104.4302,21.9286],[-104.4439,21.9282],[-104.4229,21.8626],[-104.4101,21.8558],[-104.4481,21.7482],[-104.4332,21.7482],[-104.4361,21.7399],[-104.4427,21.7369],[-104.4337,21.7318],[-104.4308,21.7257],[-104.4398,21.6985],[-104.4379,21.6881],[-104.4487,21.6865],[-104.4486,21.6693],[-104.4526,21.6609],[-104.4273,21.6559],[-104.4357,21.6434],[-104.4324,21.641],[-104.4347,21.6365],[-104.432,21.6327],[-104.438,21.6327],[-104.442,21.6286],[-104.4367,21.6046],[-104.4389,21.6026],[-104.4758,21.6104],[-104.4658,21.5844],[-104.4762,21.5726],[-104.4412,21.5514],[-104.4701,21.5415],[-104.4701,21.5329],[-104.4591,21.5291],[-104.4387,21.534],[-104.4304,21.5204],[-104.4739,21.4733],[-104.4731,21.4708],[-104.4815,21.4787],[-104.4998,21.4791],[-104.5135,21.462],[-104.532,21.4606],[-104.542,21.4675],[-104.5442,21.4796],[-104.5391,21.4916],[-104.5256,21.5057],[-104.5285,21.5151],[-104.533,21.5189],[-104.5483,21.5178],[-104.5534,21.5226],[-104.5609,21.5202],[-104.5638,21.5222],[-104.5716,21.5381],[-104.5732,21.5525],[-104.5702,21.5597],[-104.573,21.569],[-104.5673,21.5712],[-104.5678,21.5736],[-104.6014,21.6125],[-104.6011,21.6298],[-104.6223,21.6558],[-104.6232,21.6744],[-104.6488,21.7016],[-104.64,21.7134],[-104.6485,21.7156],[-104.6544,21.7243],[-104.6678,21.7334],[-104.6677,21.7393],[-104.6605,21.7485],[-104.6627,21.7563],[-104.6674,21.7603],[-104.6786,21.7608],[-104.6801,21.7764],[-104.6876,21.7791],[-104.6964,21.7907],[-104.697,21.8044],[-104.7136,21.8142],[-104.7177,21.8266],[-104.7147,21.8342],[-104.7222,21.8445],[-104.74,21.8454],[-104.7484,21.8528],[-104.7591,21.8546],[-104.7672,21.8439],[-104.8067,21.8387],[-104.8207,21.8278],[-104.8288,21.8275],[-104.8386,21.8127],[-104.8453,21.8113],[-104.851,21.8053],[-104.8426,21.7898],[-104.8435,21.7851],[-104.8557,21.7801],[-104.862,21.7731],[-104.8888,21.781],[-104.9018,21.7802],[-104.911,21.7911],[-104.9186,21.7939],[-104.9225,21.7909],[-104.9255,21.776],[-104.9393,21.7714],[-104.9393,21.7811],[-104.9284,21.7817],[-104.9339,21.8058],[-104.9406,21.8128],[-104.8908,21.8571],[-104.8701,21.8582],[-104.8652,21.847],[-104.8631,21.8475],[-104.8611,21.8955],[-104.9011,21.8783],[-104.9038,21.8863],[-104.8995,21.8912],[-104.8907,21.8886],[-104.8896,21.8909],[-104.8907,21.8969],[-104.9023,21.9026],[-104.8836,21.9346],[-104.8762,21.9384],[-104.8616,21.9379],[-104.839,21.9602],[-104.8378,21.9752],[-104.8316,21.9818],[-104.7922,21.9979],[-104.7995,22.003],[-104.801,22.0],[-104.8132,22.0049],[-104.7999,22.0155],[-104.8326,22.0345],[-104.823,22.0571],[-104.8108,22.0728],[-104.8318,22.119],[-104.8607,22.1428],[-104.9411,22.1515],[-104.9648,22.1612],[-104.9741,22.1568],[-104.984,22.1665],[-104.9875,22.1735],[-104.9819,22.1872],[-104.986,22.1968],[-104.9825,22.2071],[-104.9907,22.2146],[-104.9984,22.2141],[-105.0078,22.2183],[-105.008,22.2235],[-105.0136,22.2299],[-105.0083,22.2623],[-105.0114,22.2693],[-105.0176,22.2734],[-105.0206,22.2855],[-105.025,22.288],[-105.0205,22.3022],[-105.0287,22.307],[-105.0421,22.3069],[-105.0471,22.3185],[-105.0457,22.3254],[-105.0514,22.3302],[-105.0373,22.3496],[-105.0327,22.3696],[-105.0218,22.3734],[-105.0245,22.379],[-105.03,22.3789],[-105.029,22.3849],[-105.0335,22.392],[-105.0319,22.405],[-105.0363,22.4094],[-105.034,22.4172],[-105.0436,22.4274],[-105.0492,22.4251],[-105.0542,22.4279],[-105.0419,22.4374],[-105.0352,22.45],[-105.0283,22.4502],[-105.0233,22.4604],[-105.0126,22.4636],[-104.9955,22.4568],[-104.9933,22.4651],[-105.0012,22.4721],[-105.0007,22.478],[-105.0063,22.4805],[-105.0033,22.4893],[-104.9883,22.4845],[-104.9879,22.4987],[-104.9605,22.5053],[-104.8625,22.6071],[-104.8584,22.6483],[-104.8401,22.6511],[-104.84,22.6459],[-104.8294,22.6402],[-104.8167,22.6397],[-104.815,22.6343],[-104.8044,22.6398],[-104.8043,22.6487],[-104.7889,22.648],[-104.7794,22.6432],[-104.7788,22.6369],[-104.7741,22.6325],[-104.7771,22.625],[-104.7762,22.6102],[-104.7798,22.6033],[-104.7726,22.5919],[-104.7759,22.5851],[-104.7676,22.5814],[-104.7615,22.5701],[-104.7563,22.5666],[-104.7361,22.5579],[-104.7282,22.5589],[-104.7198,22.569],[-104.7152,22.5559],[-104.7087,22.5546],[-104.681,22.5591],[-104.67,22.5653],[-104.6631,22.5477],[-104.6558,22.5401],[-104.6553,22.4622],[-104.6026,22.4605],[-104.6054,22.4455],[-104.5972,22.4368],[-104.5988,22.4317],[-104.5935,22.4256],[-104.5931,22.412],[-104.5885,22.4127],[-104.5868,22.4065],[-104.5748,22.3949],[-104.5609,22.3948],[-104.5574,22.3858],[-104.5513,22.3889],[-104.5479,22.3765],[-104.5399,22.3717],[-104.5359,22.3648],[-104.5187,22.3606],[-104.5065,22.3452],[-104.4996,22.3462],[-104.4939,22.3512],[-104.4846,22.3493],[-104.4812,22.3516],[-104.4873,22.3532],[-104.495,22.3605],[-104.4879,22.3689],[-104.4948,22.372],[-104.4954,22.3763],[-104.4592,22.3868],[-104.3715,22.4217],[-104.3488,22.4097]]]}},{"type":"Feature","properties":{"cve_ent":"18","cve_mun":"010","cvegeo":"18010","nombre":"Rosamorada"},"geometry":{"type":"Polygon","coordinates":[[[-105.0357,22.3585],[-105.0376,22.3489],[-105.0514,22.3302],[-105.0457,22.3254],[-105.0471,22.3185],[-105.0421,22.3069],[-105.0287,22.307],[-105.0205,22.3022],[-105.025,22.288],[-105.0206,22.2855],[-105.0176,22.2734],[-105.0114,22.2693],[-105.0083,22.2623],[-105.0136,22.2299],[-105.008,22.2235],[-105.0078,22.2183],[-104.9984,22.2141],[-104.9907,22.2146],[-104.9825,22.2071],[-104.986,22.1968],[-104.9819,22.1872],[-104.9874,22.1727],[-104.9708,22.1499],[-104.9681,22.1501],[-104.9664,22.1562],[-104.961,22.1564],[-104.9601,22.1529],[-104.9661,22.1421],[-104.9581,22.1331],[-104.9439,22.1015],[-104.9516,22.0868],[-104.9457,22.0769],[-104.948,22.0682],[-104.9442,22.0636],[-104.9328,22.06],[-104.9285,22.0491],[-104.931,22.0434],[-104.9395,22.0395],[-104.9378,22.0335],[-104.9414,22.0289],[-104.9536,22.0282],[-104.9531,22.0158],[-104.9689,22.0136],[-104.9661,22.0069],[-104.9516,21.9984],[-104.9485,21.9925],[-104.9569,21.9843],[-104.9627,21.9622],[-104.9689,21.9589],[-104.9742,21.9501],[-105.0262,21.9467],[-105.0426,21.9414],[-105.0496,21.9484],[-105.0556,21.9692],[-105.0633,21.9733],[-105.0657,21.958],[-105.0834,21.949],[-105.0864,21.941],[-105.1347,21.9426],[-105.1267,21.9495],[-105.1229,21.9585],[-105.1199,21.9585],[-105.1168,21.9674],[-105.1303,21.9772],[-105.1459,21.964],[-105.1552,21.9692],[-105.1617,21.9642],[-105.1655,21.9677],[-105.1772,21.9633],[-105.1854,21.9534],[-105.2241,21.9571],[-105.2326,21.9493],[-105.2393,21.9666],[-105.2472,21.9702],[-105.2559,21.966],[-105.2602,21.9434],[-105.2695,21.9467],[-105.2898,21.9424],[-105.3058,21.9533],[-105.299,21.9537],[-105.2984,21.9637],[-105.3111,21.9747],[-105.3396,21.9896],[-105.341,21.9841],[-105.3439,21.998],[-105.3493,22.0025],[-105.3777,21.9974],[-105.3917,21.9993],[-105.4013,21.9969],[-105.4126,21.9999],[-105.4192,22.0081],[-105.4282,21.9939],[-105.4494,21.9958],[-105.4817,22.0234],[-105.4823,22.0777],[-105.4904,22.0782],[-105.5148,22.0902],[-105.5314,22.0882],[-105.5457,22.1018],[-105.5608,22.1072],[-105.5736,22.1384],[-105.5744,22.1603],[-105.5539,22.157],[-105.5455,22.1476],[-105.5448,22.1336],[-105.534,22.1252],[-105.529,22.1275],[-105.5435,22.1549],[-105.556,22.1653],[-105.5624,22.1766],[-105.5604,22.185],[-105.5546,22.1868],[-105.5491,22.1798],[-105.5487,22.1738],[-105.5417,22.1723],[-105.5352,22.1781],[-105.5297,22.1706],[-105.511,22.1735],[-105.5101,22.2369],[-105.5006,22.2344],[-105.5007,22.2303],[-105.5052,22.2284],[-105.4981,22.219],[-105.4932,22.2181],[-105.4882,22.2085],[-105.4843,22.2148],[-105.4784,22.2148],[-105.4813,22.2065],[-105.4804,22.1994],[-105.4758,22.1995],[-105.4765,22.196],[-105.4655,22.2002],[-105.4598,22.2067],[-105.4465,22.2026],[-105.4312,22.2085],[-105.4242,22.201],[-105.4261,22.1961],[-105.4051,22.2118],[-105.4127,22.2388],[-105.4088,22.2388],[-105.4095,22.2419],[-105.385,22.2434],[-105.3664,22.2578],[-105.3602,22.2511],[-105.3597,22.2435],[-105.3647,22.2428],[-105.3629,22.2382],[-105.387,22.2281],[-105.3582,22.22],[-105.3382,22.2361],[-105.3382,22.2414],[-105.3452,22.2459],[-105.3182,22.2539],[-105.2927,22.2409],[-105.2836,22.2411],[-105.282,22.2578],[-105.2665,22.2597],[-105.2672,22.2642],[-105.2609,22.2631],[-105.2618,22.2672],[-105.2551,22.2676],[-105.2524,22.2625],[-105.2462,22.2678],[-105.24,22.2676],[-105.2404,22.2751],[-105.2098,22.2708],[-105.2088,22.2738],[-105.2071,22.2694],[-105.1944,22.2659],[-105.1728,22.2647],[-105.1666,22.2555],[-105.1618,22.2586],[-105.1551,22.2553],[-105.1473,22.2583],[-105.1409,22.2675],[-105.1206,22.2846],[-105.1162,22.348],[-105.1083,22.3505],[-105.1048,22.3562],[-105.0854,22.3472],[-105.0741,22.3516],[-105.0727,22.3548],[-105.0627,22.3535],[-105.0516,22.3593],[-105.0357,22.3585]]]}},{"type":"Feature","properties":{"cve_ent":"18","cve_mun":"011","cvegeo":"18011","nombre":"Ruíz"},"geometry":{"type":"Polygon","coordinates":[[[-104.9038,21.8863],[-104.9062,21.8908],[-104.9119,21.8889],[-104.9151,21.892],[-104.9147,21.8889],[-104.9204,21.8939],[-104.9246,21.8932],[-104.9283,21.8823],[-104.9361,21.8942],[-104.9489,21.8881],[-104.9742,21.8891],[-105.0282,21.8988],[-105.0282,21.907],[-105.0623,21.9041],[-105.0575,21.8816],[-105.0964,21.8925],[-105.0989,21.872],[-105.1437,21.8724],[-105.1437,21.8782],[-105.1578,21.8781],[-105.1572,21.8834],[-105.1682,21.9041],[-105.1861,21.9072],[-105.2013,21.8893],[-105.2093,21.9449],[-105.2163,21.9493],[-105.2326,21.9493],[-105.2241,21.9571],[-105.1854,21.9534],[-105.1772,21.9633],[-105.1655,21.9677],[-105.1617,21.9642],[-105.1552,21.9692],[-105.1459,21.964],[-105.1303,21.9772],[-105.1168,21.9674],[-105.1199,21.9585],[-105.1229,21.9585],[-105.1267,21.9495],[-105.1347,21.9426],[-105.0864,21.941],[-105.0834,21.949],[-105.0657,21.958],[-105.0633,21.9733],[-105.0556,21.9692],[-105.0496,21.9484],[-105.0426,21.9414],[-105.0262,21.9467],[-104.9742,21.9501],[-104.9689,21.9589],[-104.9627,21.9622],[-104.9569,21.9843],[-104.9485,21.9925],[-104.9516,21.9984],[-104.9661,22.0069],[-104.9689,22.0136],[-104.9531,22.0158],[-104.9536,22.0282],[-104.9414,22.0289],[-104.9378,22.0335],[-104.9395,22.0395],[-104.931,22.0434],[-104.9285,22.0491],[-104.9328,22.06],[-104.9442,22.0636],[-104.948,22.0682],[-104.9457,22.0769],[-104.9516,22.0868],[-104.9439,22.1015],[-104.9581,22.1331],[-104.9661,22.1421],[-104.9601,22.1529],[-104.961,22.1564],[-104.9664,22.1562],[-104.97,22.1495],[-104.9741,22.153],[-104.9738,22.1589],[-104.9648,22.1612],[-104.9411,22.1515],[-104.8607,22.1428],[-104.8318,22.119],[-104.8108,22.0728],[-104.823,22.0571],[-104.8326,22.0345],[-104.7999,22.0155],[-104.8132,22.0049],[-104.801,22.0],[-104.7995,22.003],[-104.7922,21.9979],[-104.8316,21.9818],[-104.8378,21.9752],[-104.839,21.9602],[-104.8616,21.9379],[-104.8762,21.9384],[-104.8836,21.9346],[-104.9023,21.9026],[-104.8907,21.8969],[-104.8896,21.8909],[-104.8907,21.8886],[-104.8995,21.8912],[-104.9038,21.8863]]]}},{"type":"Feature","properties":{"cve_ent":"18","cve_mun":"012","cvegeo":"18012","nombre":"San Blas"},"geometry":{"type":"MultiPolygon","coordinates":[[[[-105.2815,21.7346],[-105.2826,21.7257],[-105.2568,21.7163],[-105.2625,21.7099],[-105.2484,21.6995],[-105.2377,21.7088],[-105.2329,21.7059],[-105.2368,21.6958],[-105.2279,21.687],[-105.2173,21.6974],[-105.2099,21.6994],[-105.2061,21.6987],[-105.2049,21.695],[-105.1891,21.6994],[-105.1862,21.6965],[-105.1702,21.6967],[-105.1669,21.6925],[-105.1394,21.7046],[-105.1189,21.6738],[-105.102,21.6767],[-105.0764,21.674],[-105.0785,21.6696],[-105.0707,21.6642],[-105.0838,21.6461],[-105.0825,21.6186],[-105.068,21.6085],[-105.0663,21.6018],[-105.0496,21.595],[-105.0589,21.5898],[-105.0523,21.5913],[-105.0577,21.5693],[-105.0483,21.5629],[-105.0472,21.5535],[-105.062,21.5419],[-105.0648,21.5257],[-105.0522,21.5028],[-105.0376,21.4938],[-105.0222,21.4895],[-105.0347,21.4749],[-105.0343,21.4678],[-105.0467,21.4587],[-105.0588,21.4592],[-105.0673,21.4553],[-105.083,21.4539],[-105.0923,21.4476],[-105.0931,21.4415],[-105.0967,21.4398],[-105.0932,21.4396],[-105.0931,21.4368],[-105.0973,21.4055],[-105.1114,21.39],[-105.1373,21.3942],[-105.1423,21.3776],[-105.1534,21.3765],[-105.1499,21.3688],[-105.1495,21.3559],[-105.1803,21.35],[-105.2075,21.3401],[-105.2138,21.3442],[-105.2127,21.3495],[-105.2027,21.3502],[-105.2046,21.3541],[-105.1989,21.3578],[-105.2019,21.3631],[-105.1932,21.3612],[-105.19,21.3687],[-105.2155,21.3734],[-105.2261,21.3676],[-105.239,21.3618],[-105.2395,21.3619],[-105.2372,21.3654],[-105.2385,21.3723],[-105.2328,21.3719],[-105.2304,21.3747],[-105.2307,21.3864],[-105.2233,21.3849],[-105.2204,21.3875],[-105.2201,21.4047],[-105.2137,21.4154],[-105.2084,21.4185],[-105.2034,21.4358],[-105.1945,21.4365],[-105.1884,21.4461],[-105.1882,21.4601],[-105.2019,21.4814],[-105.1976,21.4904],[-105.2065,21.5018],[-105.2253,21.521],[-105.2369,21.5268],[-105.2481,21.5236],[-105.2482,21.5124],[-105.2571,21.5156],[-105.2655,21.5119],[-105.2843,21.5277],[-105.2906,21.5256],[-105.3413,21.561],[-105.4114,21.6021],[-105.4446,21.632],[-105.4391,21.6466],[-105.4325,21.6544],[-105.4235,21.6493],[-105.4218,21.6432],[-105.4306,21.6332],[-105.4285,21.6244],[-105.4087,21.6244],[-105.4084,21.6489],[-105.4148,21.6489],[-105.4195,21.6545],[-105.4189,21.6626],[-105.4221,21.6666],[-105.4024,21.6668],[-105.3895,21.6763],[-105.375,21.6714],[-105.3684,21.6736],[-105.3691,21.6792],[-105.3638,21.6839],[-105.3619,21.6963],[-105.3388,21.7028],[-105.3208,21.7205],[-105.3235,21.7077],[-105.3136,21.7088],[-105.3148,21.7028],[-105.3116,21.6995],[-105.3054,21.6961],[-105.2999,21.697],[-105.2881,21.7112],[-105.2917,21.7139],[-105.2962,21.7299],[-105.3002,21.729],[-105.3019,21.7354],[-105.2815,21.7346]]],[[[-106.232,21.3358],[-106.2233,21.3296],[-106.2266,21.3246],[-106.2222,21.3214],[-106.2271,21.322],[-106.2262,21.3065],[-106.2298,21.3006],[-106.2298,21.2919],[-106.2338,21.2992],[-106.2372,21.2997],[-106.242,21.2928],[-106.2567,21.2929],[-106.2595,21.2975],[-106.2687,21.301],[-106.2791,21.3146],[-106.2577,21.335],[-106.2366,21.3314],[-106.232,21.3358]]],[[[-106.4344,21.4939],[-106.4012,21.4833],[-106.3712,21.4807],[-106.3586,21.4553],[-106.3667,21.4556],[-106.3803,21.4484],[-106.3883,21.4242],[-106.3864,21.4198],[-106.3967,21.4199],[-106.4088,21.4248],[-106.4126,21.4228],[-106.4221,21.4329],[-106.4361,21.4372],[-106.4453,21.4356],[-106.4467,21.4416],[-106.456,21.4433],[-106.4688,21.4513],[-106.4803,21.4496],[-106.4852,21.4601],[-106.494,21.4662],[-106.4838,21.4801],[-106.4723,21.484],[-106.4605,21.4946],[-106.445,21.4938],[-106.4381,21.4977],[-106.4344,21.4939]]],[[[-106.6556,21.6953],[-106.6266,21.6919],[-106.6234,21.6888],[-106.5982,21.6903],[-106.5961,21.6862],[-106.5751,21.6819],[-106.5663,21.6753],[-106.5505,21.6698],[-106.5363,21.6581],[-106.5349,21.6532],[-106.5393,21.6444],[-106.5371,21.6328],[-106.5136,21.6061],[-106.5057,21.6033],[-106.5121,21.5975],[-106.5156,21.5859],[-106.5118,21.5705],[-106.5211,21.567],[-106.5213,21.5609],[-106.5335,21.5509],[-106.5322,21.5448],[-106.5417,21.5443],[-106.5376,21.5556],[-106.5462,21.5632],[-106.5523,21.5617],[-106.5529,21.5653],[-106.5589,21.5646],[-106.5609,21.5677],[-106.5915,21.5784],[-106.629,21.5986],[-106.6295,21.6185],[-106.6372,21.6269],[-106.6439,21.644],[-106.6561,21.6559],[-106.6487,21.6606],[-106.6469,21.6669],[-106.649,21.6799],[-106.6606,21.6925],[-106.6556,21.6953]]],[[[-106.6732,21.7749],[-106.6691,21.7715],[-106.6653,21.7487],[-106.6577,21.7395],[-106.678,21.7287],[-106.6875,21.7458],[-106.6877,21.7594],[-106.6817,21.7587],[-106.6782,21.7735],[-106.6732,21.7749]]]]}},{"type":"Feature","properties":{"cve_ent":"18","cve_mun":"013","cvegeo":"18013","nombre":"San Pedro Lagunillas"},"geometry":{"type":"Polygon","coordinates":[[[-104.6351,21.1758],[-104.6283,21.1656],[-104.6274,21.1509],[-104.6187,21.1432],[-104.6265,21.1294],[-104.6313,21.1315],[-104.6357,21.1262],[-104.648,21.132],[-104.6657,21.1198],[-104.6504,21.112],[-104.6623,21.101],[-104.6634,21.087],[-104.6585,21.0849],[-104.6598,21.0811],[-104.672,21.077],[-104.6842,21.0684],[-104.6892,21.0592],[-104.6953,21.0587],[-104.6988,21.0506],[-104.6959,21.0494],[-104.6954,21.0439],[-104.7011,21.0396],[-104.7071,21.0416],[-104.7075,21.038],[-104.7214,21.0299],[-104.7176,21.0234],[-104.72,21.0179],[-104.731,21.013],[-104.7342,21.008],[-104.7429,21.0063],[-104.7554,21.0124],[-104.7717,21.0086],[-104.7751,21.0175],[-104.7825,21.0234],[-104.7902,21.015],[-104.7996,21.0157],[-104.7894,21.0316],[-104.8099,21.0548],[-104.8104,21.0632],[-104.818,21.0644],[-104.8243,21.0757],[-104.8312,21.0785],[-104.8286,21.08],[-104.8314,21.0829],[-104.8278,21.0845],[-104.8408,21.0863],[-104.8455,21.0952],[-104.8432,21.101],[-104.8459,21.1087],[-104.8492,21.109],[-104.8479,21.1175],[-104.8502,21.1209],[-104.8465,21.1215],[-104.8417,21.129],[-104.8483,21.1322],[-104.8437,21.1347],[-104.8434,21.1396],[-104.8514,21.1382],[-104.856,21.1413],[-104.8509,21.1473],[-104.856,21.1548],[-104.8314,21.1694],[-104.8048,21.1654],[-104.8204,21.1895],[-104.8403,21.2052],[-104.8352,21.2187],[-104.8398,21.221],[-104.8558,21.2184],[-104.8726,21.221],[-104.8782,21.23],[-104.8359,21.2234],[-104.8351,21.2301],[-104.8292,21.2294],[-104.8264,21.2359],[-104.8223,21.2319],[-104.8189,21.238],[-104.8253,21.2413],[-104.8235,21.2435],[-104.8279,21.2531],[-104.8127,21.2711],[-104.8122,21.2858],[-104.8025,21.3264],[-104.7955,21.3213],[-104.7867,21.3235],[-104.7782,21.3182],[-104.7575,21.3279],[-104.7507,21.3218],[-104.7543,21.3079],[-104.7511,21.2993],[-104.7404,21.2933],[-104.7205,21.2626],[-104.7188,21.2709],[-104.7032,21.2816],[-104.6802,21.2816],[-104.674,21.2767],[-104.6738,21.2724],[-104.6962,21.246],[-104.6803,21.2181],[-104.673,21.2172],[-104.666,21.2086],[-104.6588,21.2062],[-104.6382,21.1767],[-104.6433,21.1752],[-104.6497,21.1676],[-104.6351,21.1758]]]}},{"type":"Feature","properties":{"cve_ent":"18","cve_mun":"014","cvegeo":"18014","nombre":"Santa María del Oro"},"geometry":{"type":"Polygon","coordinates":[[[-104.4739,21.4705],[-104.4719,21.4494],[-104.4739,21.4443],[-104.4686,21.4342],[-104.4713,21.4258],[-104.4645,21.4262],[-104.4604,21.4213],[-104.451,21.4282],[-104.4422,21.4273],[-104.4372,21.4243],[-104.4343,21.4166],[-104.4267,21.4183],[-104.4214,21.4127],[-104.4237,21.3945],[-104.4306,21.379],[-104.4232,21.3631],[-104.4129,21.3628],[-104.4043,21.3579],[-104.4001,21.3513],[-104.4058,21.3433],[-104.4082,21.3443],[-104.4123,21.3335],[-104.4098,21.328],[-104.4036,21.3248],[-104.3983,21.309],[-104.4168,21.2987],[-104.4171,21.2947],[-104.4095,21.2875],[-104.4944,21.2268],[-104.5003,21.2306],[-104.5084,21.2237],[-104.5275,21.2313],[-104.5336,21.2285],[-104.5187,21.2234],[-104.5224,21.2178],[-104.5183,21.2177],[-104.5203,21.2149],[-104.5306,21.2144],[-104.5344,21.2093],[-104.5475,21.2139],[-104.5534,21.2109],[-104.5574,21.2146],[-104.5591,21.2113],[-104.5624,21.2117],[-104.5481,21.1982],[-104.55,21.1872],[-104.5542,21.1849],[-104.5364,21.1764],[-104.5342,21.1689],[-104.5422,21.1661],[-104.5346,21.1615],[-104.5858,21.1375],[-104.6007,21.1373],[-104.5964,21.1278],[-104.5851,21.1267],[-104.5904,21.118],[-104.5886,21.1139],[-104.5759,21.1119],[-104.5802,21.1024],[-104.57,21.1006],[-104.585,21.0955],[-104.5832,21.0884],[-104.5935,21.085],[-104.589,21.0978],[-104.6011,21.1129],[-104.592,21.1157],[-104.5935,21.1192],[-104.6094,21.1269],[-104.6128,21.1218],[-104.6165,21.1246],[-104.6136,21.1305],[-104.6173,21.1319],[-104.612,21.1319],[-104.6118,21.1377],[-104.6142,21.1471],[-104.6251,21.1587],[-104.6229,21.165],[-104.6298,21.1683],[-104.6346,21.1758],[-104.6497,21.1676],[-104.6433,21.1752],[-104.6382,21.1767],[-104.6588,21.2062],[-104.666,21.2086],[-104.673,21.2172],[-104.6803,21.2181],[-104.6962,21.246],[-104.6738,21.2724],[-104.674,21.2767],[-104.6802,21.2816],[-104.7032,21.2816],[-104.7188,21.2709],[-104.7205,21.2626],[-104.7404,21.2933],[-104.7511,21.2993],[-104.7543,21.3079],[-104.7508,21.3145],[-104.7527,21.3242],[-104.7585,21.328],[-104.7618,21.3237],[-104.7782,21.3182],[-104.7867,21.3235],[-104.7955,21.3213],[-104.7978,21.3276],[-104.8045,21.333],[-104.7796,21.3725],[-104.7789,21.3787],[-104.7602,21.3769],[-104.7583,21.3945],[-104.764,21.3949],[-104.7618,21.3997],[-104.7485,21.406],[-104.7412,21.4041],[-104.736,21.4097],[-104.7359,21.4149],[-104.7237,21.4141],[-104.7162,21.4],[-104.7063,21.3969],[-104.7022,21.4156],[-104.6894,21.4239],[-104.7304,21.4433],[-104.6765,21.4838],[-104.6734,21.5013],[-104.6302,21.5049],[-104.628,21.5106],[-104.6644,21.5476],[-104.6542,21.5868],[-104.6628,21.5869],[-104.6554,21.591],[-104.6498,21.5909],[-104.6469,21.587],[-104.6377,21.5921],[-104.6186,21.588],[-104.6081,21.6028],[-104.6026,21.602],[-104.5977,21.6082],[-104.5946,21.6071],[-104.5851,21.5912],[-104.5794,21.5887],[-104.5672,21.5722],[-104.573,21.569],[-104.5702,21.5597],[-104.5732,21.5525],[-104.5716,21.5381],[-104.5633,21.5215],[-104.5534,21.5226],[-104.5483,21.5178],[-104.533,21.5189],[-104.5266,21.5105],[-104.5265,21.5039],[-104.543,21.4851],[-104.5416,21.4669],[-104.532,21.4606],[-104.5135,21.462],[-104.4998,21.4791],[-104.4815,21.4787],[-104.4739,21.4705]]]}},{"type":"Feature","properties":{"cve_ent":"18","cve_mun":"015","cvegeo":"18015","nombre":"Santiago Ixcuintla"},"geometry":{"type":"MultiPolygon","coordinates":[[[[-105.6361,22.2924],[-105.6331,22.2586],[-105.6203,22.2396],[-105.6225,22.2152],[-105.6158,22.1855],[-105.6057,22.171],[-105.604,22.157],[-105.5974,22.1411],[-105.5899,22.1364],[-105.5525,22.0708],[-105.5225,22.0252],[-105.5044,22.0109],[-105.5021,22.0005],[-105.4731,21.9564],[-105.4481,21.9456],[-105.4236,21.9443],[-105.412,21.9103],[-105.3945,21.8997],[-105.3965,21.9114],[-105.4025,21.9164],[-105.4001,21.9193],[-105.4021,21.9228],[-105.3909,21.9251],[-105.3951,21.928],[-105.3649,21.9405],[-105.3551,21.8496],[-105.3195,21.8625],[-105.2972,21.8839],[-105.2716,21.8807],[-105.2342,21.8819],[-105.2333,21.8863],[-105.2268,21.8736],[-105.2065,21.8774],[-105.2045,21.8885],[-105.1861,21.9072],[-105.1681,21.904],[-105.1572,21.8834],[-105.1578,21.8781],[-105.1437,21.8782],[-105.1437,21.8724],[-105.1043,21.872],[-105.0989,21.872],[-105.0964,21.8925],[-105.0575,21.8816],[-105.0623,21.9041],[-105.0282,21.907],[-105.0282,21.8988],[-104.9701,21.8885],[-104.9489,21.8881],[-104.9361,21.8942],[-104.9292,21.8824],[-104.9265,21.8832],[-104.9246,21.8932],[-104.9204,21.8939],[-104.9147,21.8889],[-104.9151,21.892],[-104.9119,21.8889],[-104.9062,21.8908],[-104.9011,21.8783],[-104.8611,21.8955],[-104.8631,21.8475],[-104.8652,21.847],[-104.8701,21.8582],[-104.8908,21.8571],[-104.9406,21.8128],[-104.9339,21.8058],[-104.9284,21.7817],[-104.9393,21.7811],[-104.9393,21.7714],[-104.929,21.7744],[-104.927,21.7635],[-104.9326,21.7548],[-104.9293,21.7497],[-104.9578,21.7261],[-104.9604,21.7317],[-104.9941,21.7165],[-105.017,21.7191],[-105.0266,21.7211],[-105.0319,21.7258],[-105.0403,21.745],[-105.0804,21.7474],[-105.076,21.7406],[-105.084,21.7366],[-105.0901,21.7447],[-105.0969,21.7442],[-105.0949,21.7388],[-105.1096,21.736],[-105.1138,21.7453],[-105.1242,21.7399],[-105.1229,21.7327],[-105.103,21.7145],[-105.0891,21.7132],[-105.0911,21.7042],[-105.1135,21.7046],[-105.1106,21.6762],[-105.1189,21.6738],[-105.1394,21.7046],[-105.1669,21.6925],[-105.1702,21.6967],[-105.1862,21.6965],[-105.1891,21.6994],[-105.2049,21.695],[-105.2061,21.6987],[-105.2099,21.6994],[-105.2173,21.6974],[-105.2279,21.687],[-105.2368,21.6958],[-105.2329,21.7059],[-105.2354,21.7077],[-105.2377,21.7088],[-105.2484,21.6995],[-105.2625,21.7099],[-105.2568,21.7163],[-105.2826,21.7257],[-105.2815,21.7346],[-105.3003,21.7363],[-105.3002,21.729],[-105.2962,21.7299],[-105.2917,21.7139],[-105.2881,21.7112],[-105.2985,21.6979],[-105.3054,21.6961],[-105.3116,21.6995],[-105.3148,21.7028],[-105.3136,21.7088],[-105.3235,21.7077],[-105.3208,21.7205],[-105.3388,21.7028],[-105.3619,21.6963],[-105.3638,21.6839],[-105.3691,21.6792],[-105.3684,21.6736],[-105.375,21.6714],[-105.3895,21.6763],[-105.4024,21.6668],[-105.4221,21.6666],[-105.4189,21.6626],[-105.4195,21.6545],[-105.4148,21.6489],[-105.4084,21.6489],[-105.4087,21.6244],[-105.4285,21.6244],[-105.4306,21.6332],[-105.4218,21.6432],[-105.4235,21.6493],[-105.4325,21.6544],[-105.4391,21.6466],[-105.4446,21.632],[-105.4499,21.6496],[-105.4773,21.694],[-105.5337,21.8123],[-105.6067,21.9206],[-105.6315,21.9631],[-105.6469,22.0006],[-105.6543,22.0458],[-105.6478,22.1379],[-105.6499,22.168],[-105.6466,22.1813],[-105.6365,22.1815],[-105.6388,22.1899],[-105.6458,22.197],[-105.6465,22.2131],[-105.6498,22.2171],[-105.6627,22.2923],[-105.6361,22.2924]]],[[[-105.8897,21.8542],[-105.8817,21.8504],[-105.8803,21.8467],[-105.8803,21.8426],[-105.8827,21.8449],[-105.8874,21.8408],[-105.8858,21.8457],[-105.8897,21.8542]]]]}},{"type":"Feature","properties":{"cve_ent":"18","cve_mun":"016","cvegeo":"18016","nombre":"Tecuala"},"geometry":{"type":"Polygon","coordinates":[[[-105.2544,22.2663],[-105.2618,22.2672],[-105.2609,22.2631],[-105.2672,22.2642],[-105.2665,22.2597],[-105.282,22.2578],[-105.2836,22.2411],[-105.2927,22.2409],[-105.3182,22.2539],[-105.3452,22.2459],[-105.3382,22.2414],[-105.3382,22.2361],[-105.3582,22.22],[-105.387,22.2281],[-105.3629,22.2382],[-105.3647,22.2428],[-105.3597,22.2435],[-105.3602,22.2511],[-105.3664,22.2578],[-105.385,22.2434],[-105.4095,22.2419],[-105.4088,22.2388],[-105.4127,22.2388],[-105.4114,22.2288],[-105.4051,22.2118],[-105.4261,22.1961],[-105.4242,22.201],[-105.4312,22.2085],[-105.4465,22.2026],[-105.4598,22.2067],[-105.4655,22.2002],[-105.4765,22.196],[-105.4758,22.1995],[-105.4804,22.1994],[-105.4813,22.2065],[-105.4784,22.2148],[-105.4843,22.2148],[-105.4882,22.2085],[-105.4932,22.2181],[-105.4981,22.219],[-105.5052,22.2284],[-105.5007,22.2303],[-105.5006,22.2344],[-105.5101,22.2369],[-105.511,22.1735],[-105.5297,22.1706],[-105.5352,22.1781],[-105.5417,22.1723],[-105.5487,22.1738],[-105.5491,22.1798],[-105.5546,22.1868],[-105.5604,22.185],[-105.5624,22.1766],[-105.556,22.1653],[-105.5435,22.1549],[-105.529,22.1275],[-105.534,22.1252],[-105.5448,22.1336],[-105.5485,22.1529],[-105.5675,22.1609],[-105.5744,22.1603],[-105.5728,22.1367],[-105.578,22.1349],[-105.5729,22.1285],[-105.5777,22.1244],[-105.5803,22.1338],[-105.5889,22.1345],[-105.5974,22.1411],[-105.604,22.157],[-105.6057,22.171],[-105.6158,22.1855],[-105.6225,22.2152],[-105.6203,22.2396],[-105.6331,22.2586],[-105.6361,22.2924],[-105.6627,22.2923],[-105.6772,22.3488],[-105.6974,22.4068],[-105.7596,22.5376],[-105.7502,22.5393],[-105.727,22.491],[-105.7141,22.4749],[-105.7012,22.4677],[-105.677,22.4681],[-105.6711,22.4816],[-105.6752,22.5072],[-105.7004,22.5585],[-105.6986,22.5684],[-105.6822,22.5721],[-105.6724,22.5549],[-105.6734,22.5372],[-105.6596,22.5171],[-105.6448,22.5185],[-105.6448,22.5232],[-105.6402,22.5237],[-105.639,22.5164],[-105.6321,22.5099],[-105.6183,22.5152],[-105.6163,22.5036],[-105.6053,22.4965],[-105.5898,22.5005],[-105.5643,22.4875],[-105.5648,22.4819],[-105.5565,22.4822],[-105.5565,22.4766],[-105.5499,22.4728],[-105.5487,22.4628],[-105.5571,22.4606],[-105.556,22.4556],[-105.5641,22.454],[-105.5653,22.4502],[-105.5296,22.427],[-105.5179,22.4063],[-105.528,22.4487],[-105.5343,22.447],[-105.5368,22.4589],[-105.534,22.4593],[-105.54,22.464],[-105.5392,22.4699],[-105.5329,22.4746],[-105.5293,22.4735],[-105.5304,22.4681],[-105.5247,22.4671],[-105.5229,22.4615],[-105.5051,22.4667],[-105.5029,22.4615],[-105.5002,22.4627],[-105.4998,22.4539],[-105.4794,22.4584],[-105.4795,22.4621],[-105.4741,22.4633],[-105.4738,22.4503],[-105.4598,22.4383],[-105.456,22.4451],[-105.4098,22.4385],[-105.413,22.4169],[-105.4079,22.4162],[-105.4107,22.401],[-105.3984,22.398],[-105.4055,22.3709],[-105.3945,22.3694],[-105.3568,22.3514],[-105.3556,22.3483],[-105.3414,22.3539],[-105.3408,22.3713],[-105.3265,22.3736],[-105.3137,22.355],[-105.298,22.3432],[-105.3006,22.3401],[-105.2998,22.329],[-105.2914,22.3169],[-105.292,22.3135],[-105.295,22.3138],[-105.2944,22.3047],[-105.2858,22.303],[-105.2662,22.3075],[-105.2544,22.2663]]]}},{"type":"Feature","properties":{"cve_ent":"18","cve_mun":"017","cvegeo":"18017","nombre":"Tepic"},"geometry":{"type":"Polygon","coordinates":[[[-104.5977,21.6082],[-104.6026,21.602],[-104.6081,21.6028],[-104.6186,21.588],[-104.6377,21.5921],[-104.6459,21.5871],[-104.6498,21.5909],[-104.6554,21.591],[-104.6628,21.5869],[-104.6542,21.5868],[-104.6644,21.5476],[-104.628,21.5106],[-104.6302,21.5049],[-104.6734,21.5013],[-104.6765,21.4838],[-104.7304,21.4433],[-104.6894,21.4239],[-104.7022,21.4156],[-104.7063,21.3969],[-104.7162,21.4],[-104.7237,21.4141],[-104.7359,21.4149],[-104.736,21.4097],[-104.7412,21.4041],[-104.7516,21.4053],[-104.7544,21.4013],[-104.7618,21.3997],[-104.7638,21.3951],[-104.7769,21.3965],[-104.8093,21.416],[-104.7844,21.4246],[-104.8095,21.4452],[-104.8122,21.4421],[-104.8258,21.4476],[-104.8187,21.4527],[-104.8349,21.4657],[-104.8409,21.4679],[-104.8363,21.4638],[-104.8384,21.4602],[-104.8462,21.4617],[-104.8515,21.4677],[-104.8619,21.4653],[-104.8593,21.462],[-104.8663,21.4586],[-104.868,21.4634],[-104.889,21.4712],[-104.8924,21.467],[-104.9071,21.4727],[-104.9581,21.4702],[-104.9731,21.4724],[-104.9753,21.4772],[-104.9978,21.4935],[-105.0163,21.4965],[-105.0222,21.4895],[-105.0376,21.4938],[-105.0522,21.5028],[-105.0648,21.5257],[-105.062,21.5419],[-105.0472,21.5535],[-105.0483,21.5629],[-105.0577,21.5693],[-105.0523,21.5913],[-105.0589,21.5898],[-105.0496,21.595],[-105.0663,21.6018],[-105.068,21.6085],[-105.0825,21.6186],[-105.0838,21.6461],[-105.0707,21.6642],[-105.0785,21.6696],[-105.0764,21.674],[-105.1106,21.6762],[-105.1135,21.7046],[-105.0911,21.7042],[-105.0891,21.7132],[-105.103,21.7145],[-105.1229,21.7327],[-105.1242,21.7399],[-105.1138,21.7453],[-105.1096,21.736],[-105.0949,21.7388],[-105.0969,21.7442],[-105.0901,21.7447],[-105.0844,21.7364],[-105.076,21.7406],[-105.0804,21.7474],[-105.0529,21.7472],[-105.0403,21.745],[-105.0319,21.7258],[-105.0266,21.7211],[-104.9941,21.7165],[-104.9604,21.7317],[-104.9578,21.7261],[-104.9301,21.7479],[-104.9292,21.7526],[-104.932,21.7516],[-104.9325,21.7554],[-104.9296,21.756],[-104.927,21.7635],[-104.9298,21.7732],[-104.9234,21.7796],[-104.9204,21.7933],[-104.911,21.7911],[-104.9018,21.7802],[-104.8888,21.781],[-104.862,21.7731],[-104.8557,21.7801],[-104.8435,21.7851],[-104.8426,21.7898],[-104.851,21.8053],[-104.8453,21.8113],[-104.8386,21.8127],[-104.8288,21.8275],[-104.8207,21.8278],[-104.8067,21.8387],[-104.7672,21.8439],[-104.7591,21.8546],[-104.7484,21.8528],[-104.7441,21.8468],[-104.7222,21.8445],[-104.717,21.8389],[-104.7147,21.8342],[-104.7177,21.8266],[-104.7136,21.8142],[-104.697,21.8044],[-104.6964,21.7907],[-104.6876,21.7791],[-104.6801,21.7764],[-104.6786,21.7608],[-104.6674,21.7603],[-104.6627,21.7563],[-104.6605,21.7485],[-104.6677,21.7393],[-104.6678,21.7334],[-104.6544,21.7243],[-104.6485,21.7156],[-104.64,21.7134],[-104.6488,21.7016],[-104.6232,21.6744],[-104.6223,21.6558],[-104.6011,21.6298],[-104.6019,21.6146],[-104.5977,21.6082]]]}},{"type":"Feature","properties":{"cve_ent":"18","cve_mun":"018","cvegeo":"18018","nombre":"Tuxpan"},"geometry":{"type":"Polygon","coordinates":[[[-105.2326,21.9493],[-105.2163,21.9493],[-105.2093,21.9449],[-105.2013,21.8893],[-105.2045,21.8885],[-105.2065,21.8774],[-105.2268,21.8736],[-105.2333,21.8863],[-105.2342,21.8819],[-105.2716,21.8807],[-105.2972,21.8839],[-105.3195,21.8625],[-105.3551,21.8496],[-105.3649,21.9405],[-105.3951,21.928],[-105.3909,21.9251],[-105.4021,21.9228],[-105.4001,21.9193],[-105.4025,21.9164],[-105.3965,21.9114],[-105.3945,21.8997],[-105.412,21.9103],[-105.4236,21.9443],[-105.4481,21.9456],[-105.4731,21.9564],[-105.5021,22.0005],[-105.5044,22.0109],[-105.5225,22.0252],[-105.5907,22.1341],[-105.5808,22.1341],[-105.58,22.1269],[-105.5761,22.124],[-105.5729,22.1285],[-105.578,22.1349],[-105.5728,22.1367],[-105.5608,22.1072],[-105.5457,22.1018],[-105.5314,22.0882],[-105.5148,22.0902],[-105.4904,22.0782],[-105.4823,22.0777],[-105.4817,22.0234],[-105.4494,21.9958],[-105.4282,21.9939],[-105.4192,22.0081],[-105.4126,21.9999],[-105.4013,21.9969],[-105.3917,21.9993],[-105.3777,21.9974],[-105.3512,22.0031],[-105.3439,21.998],[-105.341,21.9841],[-105.3396,21.9896],[-105.3111,21.9747],[-105.2984,21.9637],[-105.299,21.9537],[-105.3058,21.9533],[-105.2938,21.9437],[-105.2867,21.9424],[-105.2695,21.9467],[-105.2609,21.9429],[-105.2559,21.966],[-105.2472,21.9702],[-105.2393,21.9666],[-105.2326,21.9493]]]}},{"type":"Feature","properties":{"cve_ent":"18","cve_mun":"019","cvegeo":"18019","nombre":"La Yesca"},"geometry":{"type":"Polygon","coordinates":[[[-104.2002,21.9095],[-104.196,21.8795],[-104.1909,21.8772],[-104.1864,21.868],[-104.1788,21.8676],[-104.1756,21.8719],[-104.1722,21.8713],[-104.1796,21.8601],[-104.197,21.8508],[-104.1907,21.8511],[-104.1872,21.8379],[-104.1766,21.8322],[-104.1617,21.8098],[-104.1562,21.8108],[-104.1541,21.8076],[-104.1465,21.8064],[-104.1307,21.7906],[-104.1095,21.7873],[-104.0984,21.7928],[-104.0933,21.7912],[-104.0933,21.7846],[-104.084,21.7858],[-104.0799,21.7824],[-104.0762,21.7897],[-104.0662,21.7898],[-104.0653,21.7942],[-104.0566,21.7923],[-104.0523,21.7948],[-104.0107,21.7819],[-103.9891,21.7799],[-103.9846,21.7727],[-103.9809,21.7743],[-103.9778,21.7713],[-103.9581,21.772],[-103.9529,21.776],[-103.9511,21.7739],[-103.9445,21.7768],[-103.9275,21.7743],[-103.9189,21.7666],[-103.9195,21.7589],[-103.9161,21.7564],[-103.9201,21.7509],[-103.9312,21.7517],[-103.9335,21.7491],[-103.9277,21.737],[-103.9213,21.7346],[-103.9028,21.7163],[-103.8988,21.7277],[-103.8956,21.7273],[-103.8966,21.7127],[-103.8877,21.6974],[-103.9033,21.6858],[-103.9124,21.669],[-103.9153,21.6708],[-103.9213,21.6684],[-103.9302,21.6419],[-103.9118,21.6298],[-103.9077,21.6187],[-103.9098,21.6148],[-103.9165,21.6183],[-103.9191,21.6162],[-103.9124,21.608],[-103.9232,21.5906],[-103.9192,21.582],[-103.904,21.5775],[-103.903,21.5744],[-103.8926,21.5741],[-103.8902,21.5716],[-103.8918,21.5625],[-103.8816,21.5521],[-103.8708,21.5487],[-103.8563,21.5524],[-103.854,21.5332],[-103.858,21.5313],[-103.8599,21.5247],[-103.8493,21.5145],[-103.8321,21.5134],[-103.8279,21.5053],[-103.8282,21.4982],[-103.8237,21.493],[-103.814,21.4945],[-103.8004,21.4872],[-103.8016,21.4898],[-103.793,21.4887],[-103.7911,21.4977],[-103.7741,21.4984],[-103.7782,21.4921],[-103.7703,21.4884],[-103.7691,21.483],[-103.7494,21.4745],[-103.7482,21.4709],[-103.7529,21.4661],[-103.7445,21.4541],[-103.742,21.4416],[-103.7284,21.4357],[-103.7209,21.4254],[-103.7313,21.4159],[-103.7513,21.4175],[-103.7564,21.4101],[-103.7644,21.4103],[-103.7569,21.3999],[-103.7661,21.3934],[-103.7673,21.3884],[-103.7498,21.3821],[-103.7413,21.3741],[-103.7471,21.3598],[-103.7443,21.3523],[-103.7523,21.3433],[-103.7494,21.3367],[-103.7556,21.3377],[-103.7574,21.3298],[-103.7642,21.3285],[-103.7725,21.3203],[-103.7761,21.3217],[-103.7806,21.3085],[-103.8036,21.3003],[-103.8078,21.2889],[-103.8147,21.2871],[-103.8203,21.281],[-103.8201,21.2765],[-103.825,21.2713],[-103.817,21.2561],[-103.8194,21.2484],[-103.84,21.2398],[-103.8619,21.2489],[-103.8741,21.2423],[-103.8752,21.2386],[-103.8826,21.2419],[-103.8923,21.2384],[-103.8984,21.2265],[-103.9031,21.2334],[-103.9179,21.231],[-103.9186,21.2456],[-103.9311,21.2625],[-103.9355,21.2542],[-103.9286,21.2498],[-103.924,21.2346],[-103.9459,21.238],[-103.9584,21.2528],[-103.9606,21.2512],[-103.9693,21.2569],[-103.9735,21.2563],[-103.9745,21.2518],[-103.9853,21.2492],[-103.9879,21.2443],[-104.0036,21.2365],[-104.0061,21.228],[-104.0175,21.2272],[-104.0146,21.2207],[-104.016,21.2075],[-104.0223,21.2051],[-104.025,21.2129],[-104.0294,21.2087],[-104.0329,21.2027],[-104.0264,21.2005],[-104.028,21.1947],[-104.0353,21.196],[-104.0384,21.2044],[-104.0452,21.1992],[-104.0528,21.2054],[-104.0563,21.1941],[-104.0595,21.1939],[-104.0619,21.2001],[-104.0679,21.1982],[-104.0694,21.1945],[-104.0661,21.1897],[-104.0686,21.1868],[-104.0728,21.1902],[-104.081,21.1897],[-104.0809,21.2018],[-104.0857,21.2054],[-104.0885,21.2036],[-104.0888,21.1961],[-104.0942,21.1958],[-104.1,21.2009],[-104.1088,21.1956],[-104.1108,21.1886],[-104.124,21.1963],[-104.1286,21.191],[-104.1387,21.1887],[-104.1473,21.1916],[-104.1595,21.1846],[-104.1658,21.1889],[-104.2028,21.1928],[-104.2194,21.1766],[-104.219,21.181],[-104.2246,21.1879],[-104.2309,21.1858],[-104.2359,21.1901],[-104.234,21.1997],[-104.2423,21.2066],[-104.2427,21.2191],[-104.2477,21.2265],[-104.2624,21.2354],[-104.2657,21.2331],[-104.2746,21.2349],[-104.2764,21.2403],[-104.2879,21.2514],[-104.3108,21.2634],[-104.3367,21.2561],[-104.3499,21.2742],[-104.3522,21.2839],[-104.349,21.287],[-104.349,21.2986],[-104.3583,21.3152],[-104.3592,21.3277],[-104.3761,21.3333],[-104.3819,21.3501],[-104.3963,21.3485],[-104.4129,21.3628],[-104.4232,21.3631],[-104.4306,21.379],[-104.4237,21.3945],[-104.4213,21.4119],[-104.4238,21.4169],[-104.4335,21.4161],[-104.4377,21.4248],[-104.4478,21.4286],[-104.4604,21.4213],[-104.4645,21.4262],[-104.4716,21.4262],[-104.4686,21.4342],[-104.4739,21.4443],[-104.4719,21.4494],[-104.4739,21.4733],[-104.4304,21.5204],[-104.4387,21.534],[-104.4591,21.5291],[-104.4701,21.5329],[-104.4701,21.5415],[-104.4412,21.5514],[-104.4762,21.5726],[-104.4658,21.5844],[-104.4758,21.6104],[-104.4389,21.6026],[-104.4367,21.6046],[-104.442,21.6286],[-104.438,21.6327],[-104.432,21.6327],[-104.4347,21.6365],[-104.4324,21.641],[-104.4357,21.6434],[-104.4273,21.6559],[-104.4526,21.6609],[-104.4486,21.6693],[-104.4487,21.6865],[-104.4379,21.6881],[-104.4398,21.6985],[-104.4308,21.7257],[-104.4337,21.7318],[-104.4427,21.7369],[-104.4361,21.7399],[-104.4332,21.7482],[-104.4481,21.7482],[-104.4101,21.8558],[-104.4229,21.8626],[-104.4439,21.9282],[-104.4302,21.9286],[-104.3959,21.9393],[-104.3743,21.9524],[-104.3694,21.968],[-104.3644,21.9738],[-104.347,21.9738],[-104.3359,21.9798],[-104.3269,21.9754],[-104.3249,21.9841],[-104.3198,21.9842],[-104.3151,21.9908],[-104.3081,21.9886],[-104.3018,21.9987],[-104.2931,22.0027],[-104.2894,21.9984],[-104.2814,21.9997],[-104.2754,21.9806],[-104.262,21.9769],[-104.2585,21.9722],[-104.2467,21.9671],[-104.2339,21.9692],[-104.2127,21.9829],[-104.1957,21.986],[-104.1737,21.9709],[-104.1787,21.939],[-104.1884,21.9282],[-104.1888,21.919],[-104.2002,21.9095]]]}},{"type":"Feature","properties":{"cve_ent":"18","cve_mun":"020","cvegeo":"18020","nombre":"Bahía de Banderas"},"geometry":{"type":"Polygon","coordinates":[[[-104.9688,20.909],[-104.9904,20.9216],[-104.9974,20.9195],[-105.0002,20.9117],[-105.0034,20.9109],[-105.0022,20.9159],[-105.0063,20.9225],[-105.0202,20.9181],[-105.0212,20.9115],[-105.0316,20.9092],[-105.0391,20.9131],[-105.0363,20.9249],[-105.0468,20.9343],[-105.0502,20.9317],[-105.0682,20.9318],[-105.0728,20.928],[-105.0803,20.9315],[-105.0855,20.9239],[-105.0994,20.9188],[-105.0974,20.9159],[-105.1045,20.9123],[-105.1045,20.9078],[-105.1122,20.9048],[-105.112,20.9004],[-105.1172,20.9008],[-105.1171,20.897],[-105.1281,20.8892],[-105.1419,20.8872],[-105.1425,20.8838],[-105.1391,20.8819],[-105.1412,20.8756],[-105.1482,20.8687],[-105.153,20.8689],[-105.1527,20.8619],[-105.1606,20.8574],[-105.1554,20.8531],[-105.1628,20.8487],[-105.1612,20.84],[-105.1638,20.8343],[-105.1616,20.8311],[-105.1651,20.8289],[-105.1657,20.8205],[-105.1713,20.8211],[-105.1739,20.8139],[-105.1711,20.8112],[-105.1728,20.806],[-105.1676,20.8037],[-105.171,20.7961],[-105.1623,20.7925],[-105.1734,20.7677],[-105.197,20.7772],[-105.2058,20.7641],[-105.2114,20.7659],[-105.2342,20.7476],[-105.2399,20.7474],[-105.2369,20.7275],[-105.2456,20.7241],[-105.2437,20.7197],[-105.2462,20.7129],[-105.2426,20.7042],[-105.2559,20.7028],[-105.2565,20.6946],[-105.2627,20.6892],[-105.2613,20.6798],[-105.2657,20.6789],[-105.2724,20.6838],[-105.2784,20.682],[-105.2784,20.6759],[-105.2742,20.6754],[-105.2763,20.672],[-105.2883,20.6734],[-105.313,20.7286],[-105.3282,20.7455],[-105.3477,20.7597],[-105.3637,20.7622],[-105.3698,20.7562],[-105.3695,20.7519],[-105.3803,20.7499],[-105.38,20.7481],[-105.381,20.7479],[-105.3808,20.747],[-105.3767,20.7476],[-105.3869,20.744],[-105.399,20.7346],[-105.4058,20.7369],[-105.4121,20.7351],[-105.4334,20.7475],[-105.4597,20.7514],[-105.4664,20.7557],[-105.4759,20.7522],[-105.5106,20.7718],[-105.52,20.7709],[-105.5331,20.7574],[-105.5383,20.7622],[-105.5396,20.7707],[-105.527,20.7892],[-105.5195,20.7922],[-105.5118,20.7833],[-105.5072,20.7826],[-105.4878,20.7964],[-105.4772,20.8199],[-105.4655,20.8366],[-105.4627,20.8516],[-105.4561,20.8605],[-105.4529,20.8744],[-105.4511,20.8764],[-105.4428,20.8704],[-105.4329,20.8771],[-105.4212,20.8979],[-105.4184,20.8981],[-105.4018,20.9316],[-105.3883,20.9368],[-105.3835,20.9442],[-105.3768,20.9454],[-105.3671,20.9555],[-105.3597,20.9549],[-105.3557,20.9603],[-105.323,20.9318],[-105.3723,20.8707],[-105.3504,20.8541],[-105.3091,20.8726],[-105.2869,20.9009],[-105.2751,20.9113],[-105.2676,20.9262],[-105.2556,20.9173],[-105.2551,20.9233],[-105.2321,20.9494],[-105.201,20.9434],[-105.1948,20.9477],[-105.1866,20.9472],[-105.1856,20.9503],[-105.1793,20.9484],[-105.1748,20.9524],[-105.1709,20.9503],[-105.1592,20.9583],[-105.1418,20.9526],[-105.1338,20.961],[-105.1269,20.9587],[-105.1248,20.9631],[-105.116,20.9625],[-105.1098,20.9538],[-105.1095,20.9611],[-105.1073,20.9602],[-105.0967,20.9732],[-105.0696,20.9763],[-105.0667,20.9698],[-105.0445,20.9701],[-105.039,20.9851],[-105.0017,20.9864],[-104.9928,20.9624],[-104.9574,20.9529],[-104.9688,20.909]]]}}]}