{"type":"FeatureCollection","features":[{"type":"Feature","properties":{"cve_ent":"19","cve_mun":"001","cvegeo":"19001","nombre":"Abasolo"},"geometry":{"type":"Polygon","coordinates":[[[-100.3713,25.9822],[-100.3805,25.9285],[-100.4065,25.8911],[-100.4258,25.8934],[-100.4294,25.9132],[-100.4427,25.928],[-100.4511,25.9312],[-100.4287,25.954],[-100.421,25.9574],[-100.3998,25.9891],[-100.3713,25.9822]]]}},{"type":"Feature","properties":{"cve_ent":"19","cve_mun":"002","cvegeo":"19002","nombre":"Agualeguas"},"geometry":{"type":"Polygon","coordinates":[[[-99.4157,26.4382],[-99.4309,26.3513],[-99.4097,26.317],[-99.4651,26.3131],[-99.4626,26.2663],[-99.4699,26.2753],[-99.4754,26.2679],[-99.4802,26.273],[-99.4925,26.2742],[-99.5452,26.2362],[-99.5974,26.235],[-99.6101,26.2391],[-99.6099,26.2439],[-99.6173,26.2425],[-99.6183,26.2524],[-99.6255,26.2481],[-99.6278,26.2565],[-99.6362,26.2473],[-99.7271,26.1839],[-99.7387,26.1707],[-99.7801,26.1762],[-99.8023,26.1678],[-99.8158,26.1693],[-99.8234,26.1549],[-99.851,26.1535],[-99.8556,26.1507],[-99.8593,26.1509],[-99.8788,26.174],[-99.9203,26.187],[-99.933,26.2019],[-99.9253,26.2375],[-99.9193,26.2455],[-99.9556,26.2388],[-99.935,26.3068],[-99.9397,26.3074],[-99.9282,26.329],[-99.9255,26.3287],[-99.9213,26.3538],[-99.9277,26.3557],[-99.9229,26.3711],[-99.9284,26.3716],[-99.9284,26.3872],[-99.9028,26.3778],[-99.8465,26.3773],[-99.8142,26.367],[-99.8115,26.3632],[-99.8105,26.3703],[-99.8044,26.3778],[-99.7846,26.3861],[-99.7942,26.3962],[-99.792,26.3985],[-99.7879,26.3969],[-99.7899,26.4032],[-99.7835,26.4002],[-99.7844,26.4084],[-99.775,26.4079],[-99.7758,26.4045],[-99.7796,26.404],[-99.7772,26.4025],[-99.7787,26.3941],[-99.7729,26.3945],[-99.7738,26.3912],[-99.7675,26.3855],[-99.7548,26.3944],[-99.7578,26.3969],[-99.7512,26.4035],[-99.7555,26.4071],[-99.7382,26.4137],[-99.7325,26.408],[-99.7267,26.4137],[-99.7217,26.4095],[-99.7359,26.3909],[-99.7288,26.3807],[-99.7357,26.3736],[-99.7309,26.3678],[-99.7256,26.3741],[-99.7144,26.374],[-99.7145,26.3689],[-99.7215,26.369],[-99.7217,26.3631],[-99.6887,26.3631],[-99.6886,26.3524],[-99.6744,26.3525],[-99.6744,26.3443],[-99.671,26.3442],[-99.6711,26.3402],[-99.664,26.3401],[-99.664,26.3511],[-99.6432,26.3511],[-99.6534,26.3886],[-99.6204,26.3948],[-99.6188,26.3911],[-99.6062,26.3893],[-99.6065,26.3872],[-99.5988,26.3884],[-99.5989,26.3919],[-99.6104,26.398],[-99.6109,26.4087],[-99.59,26.4097],[-99.5892,26.4048],[-99.5799,26.4002],[-99.5768,26.4048],[-99.5779,26.4136],[-99.4755,26.3886],[-99.4744,26.3994],[-99.4624,26.4033],[-99.4658,26.4426],[-99.4596,26.4399],[-99.4471,26.446],[-99.4157,26.4382]]]}},{"type":"Feature","properties":{"cve_ent":"19","cve_mun":"003","cvegeo":"19003","nombre":"Los Aldamas"},"geometry":{"type":"Polygon","coordinates":[[[-99.1978,26.2585],[-99.167,26.0755],[-99.1758,26.0782],[-99.1914,26.0723],[-99.1944,26.066],[-99.1883,26.0644],[-99.1916,26.0607],[-99.1889,26.0535],[-99.1937,26.0452],[-99.1865,26.0407],[-99.1897,26.0298],[-99.1981,26.0236],[-99.1922,26.0046],[-99.1947,25.9998],[-99.1924,25.9935],[-99.1859,25.9908],[-99.183,25.9829],[-99.1739,25.9874],[-99.1714,25.9781],[-99.1783,25.9781],[-99.1792,25.9686],[-99.1857,25.9675],[-99.1885,25.9586],[-99.184,25.9499],[-99.1856,25.9449],[-99.1825,25.9346],[-99.1833,25.9314],[-99.1936,25.9307],[-99.1951,25.9279],[-99.1944,25.9225],[-99.187,25.9198],[-99.1923,25.9082],[-99.189,25.9053],[-99.1903,25.8963],[-99.2126,25.8945],[-99.2158,25.8919],[-99.23,25.8945],[-99.2412,25.8878],[-99.2441,25.8952],[-99.2512,25.8996],[-99.2502,25.9027],[-99.2659,25.9161],[-99.2754,25.9122],[-99.2875,25.9001],[-99.2962,25.8987],[-99.305,25.9071],[-99.306,25.9174],[-99.3128,25.9254],[-99.3323,25.9144],[-99.332,25.9307],[-99.3348,25.9318],[-99.3359,25.9388],[-99.3343,25.9935],[-99.3617,26.0538],[-99.3657,26.0542],[-99.3658,26.0629],[-99.4013,26.1394],[-99.3324,26.2528],[-99.3337,26.3064],[-99.26,26.2528],[-99.1978,26.2585]]]}},{"type":"Feature","properties":{"cve_ent":"19","cve_mun":"004","cvegeo":"19004","nombre":"Allende"},"geometry":{"type":"Polygon","coordinates":[[[-100.0872,25.2383],[-100.0855,25.2465],[-100.0929,25.254],[-100.0968,25.2529],[-100.0956,25.2561],[-100.1016,25.2558],[-100.0993,25.2619],[-100.1074,25.2623],[-100.1136,25.2668],[-100.1125,25.2702],[-100.1242,25.28],[-100.1397,25.3003],[-100.0763,25.3361],[-100.0582,25.3615],[-100.044,25.351],[-100.0257,25.3519],[-100.0149,25.3451],[-99.9966,25.3569],[-99.9911,25.3546],[-99.9796,25.3573],[-99.9728,25.3642],[-99.9651,25.3619],[-99.9601,25.3659],[-99.9511,25.363],[-99.9508,25.3712],[-99.9427,25.3734],[-99.9407,25.3579],[-99.935,25.3561],[-99.9328,25.3503],[-99.9347,25.3453],[-99.9446,25.3378],[-99.9424,25.3245],[-99.9392,25.318],[-99.9295,25.3163],[-99.9278,25.312],[-99.9537,25.3003],[-99.9485,25.2965],[-99.9374,25.2995],[-99.939,25.2882],[-99.9445,25.2877],[-99.9467,25.2841],[-99.9536,25.2861],[-99.9578,25.2752],[-99.9662,25.2789],[-99.9708,25.2738],[-99.9714,25.2652],[-99.9777,25.2681],[-99.9836,25.264],[-99.9913,25.2663],[-99.9988,25.259],[-100.0058,25.2604],[-100.0286,25.2533],[-100.0379,25.2416],[-100.0409,25.2321],[-100.0561,25.2293],[-100.0619,25.2243],[-100.0659,25.2248],[-100.0669,25.2281],[-100.0706,25.2253],[-100.0739,25.2294],[-100.071,25.2307],[-100.0872,25.2383]]]}},{"type":"Feature","properties":{"cve_ent":"19","cve_mun":"005","cvegeo":"19005","nombre":"Anáhuac"},"geometry":{"type":"Polygon","coordinates":[[[-99.8432,27.7699],[-99.8397,27.7649],[-99.8328,27.7627],[-99.8225,27.7665],[-99.8188,27.7762],[-99.8134,27.7743],[-99.8018,27.7424],[-99.7965,27.7359],[-99.7875,27.7305],[-99.775,27.7336],[-99.7694,27.7309],[-99.7608,27.7215],[-99.7567,27.7114],[-99.7281,27.6791],[-99.9264,27.5492],[-99.9192,27.4915],[-99.7604,27.437],[-99.7477,27.2772],[-99.6789,27.1024],[-99.6589,27.0882],[-99.6501,27.0659],[-99.7342,26.9206],[-99.7701,26.9284],[-99.7672,26.8892],[-99.775,26.8889],[-99.7812,26.8937],[-99.7927,26.8887],[-99.7934,26.8806],[-99.8066,26.8797],[-99.8058,26.8832],[-99.7976,26.8862],[-99.7993,26.8898],[-99.8052,26.8893],[-99.8139,26.88],[-99.8129,26.8766],[-99.8024,26.8739],[-99.8043,26.8715],[-99.8211,26.8753],[-99.8288,26.8889],[-99.8323,26.8877],[-99.833,26.8836],[-99.8347,26.8868],[-99.8386,26.8862],[-99.8478,26.8789],[-99.8498,26.8827],[-99.8445,26.8865],[-99.8492,26.8883],[-99.8588,26.8798],[-99.8655,26.878],[-99.8688,26.8827],[-99.9292,26.8583],[-99.9361,26.8738],[-99.9687,26.8464],[-100.0061,26.921],[-100.0023,26.924],[-100.0192,26.9562],[-100.0032,26.9739],[-100.0003,26.9856],[-99.9598,27.0088],[-99.969,27.011],[-99.9747,27.0086],[-99.9769,27.0151],[-99.9877,27.0126],[-99.9938,27.0165],[-99.9972,27.0151],[-100.012,27.0244],[-100.0177,27.0175],[-100.0158,27.015],[-100.0234,27.0114],[-100.0462,27.0107],[-100.0599,27.0214],[-100.0692,27.0195],[-100.0715,27.0134],[-100.0908,27.0087],[-100.0908,27.0289],[-100.1213,27.0289],[-100.1213,27.065],[-100.101,27.065],[-100.101,27.1011],[-100.1213,27.1011],[-100.1215,27.1372],[-100.1719,27.1372],[-100.1719,27.1823],[-100.1819,27.1823],[-100.182,27.2185],[-100.2528,27.2184],[-100.2527,27.2455],[-100.2831,27.2454],[-100.3036,27.2637],[-100.3033,27.2738],[-100.3187,27.2765],[-100.3223,27.2928],[-100.3468,27.2928],[-100.35,27.3004],[-100.3564,27.3001],[-100.3598,27.3072],[-100.3792,27.3212],[-100.3848,27.3343],[-100.3997,27.3401],[-100.3983,27.3565],[-100.3882,27.3614],[-100.3858,27.3711],[-100.4008,27.3732],[-100.4091,27.3878],[-100.4171,27.3886],[-100.4219,27.3927],[-100.4177,27.3936],[-100.3506,27.6846],[-100.1884,27.7991],[-99.9988,27.6153],[-99.9327,27.6744],[-99.8432,27.7699]]]}},{"type":"Feature","properties":{"cve_ent":"19","cve_mun":"006","cvegeo":"19006","nombre":"Apodaca"},"geometry":{"type":"Polygon","coordinates":[[[-100.254,25.8793],[-100.2429,25.8524],[-100.2353,25.8632],[-100.1746,25.8626],[-100.1724,25.8604],[-100.17,25.8624],[-100.1459,25.854],[-100.1347,25.8458],[-100.1275,25.8476],[-100.1168,25.8447],[-100.1141,25.8369],[-100.1302,25.8303],[-100.1319,25.8211],[-100.1281,25.8146],[-100.1207,25.8135],[-100.1012,25.8004],[-100.1057,25.7924],[-100.102,25.7906],[-100.101,25.7784],[-100.1049,25.7678],[-100.1128,25.7596],[-100.1352,25.7433],[-100.1356,25.7381],[-100.1486,25.7311],[-100.1243,25.7346],[-100.1249,25.7162],[-100.115,25.7157],[-100.1156,25.7091],[-100.1097,25.7082],[-100.1068,25.7014],[-100.1164,25.7032],[-100.117,25.6966],[-100.1226,25.6979],[-100.1205,25.6967],[-100.1231,25.6941],[-100.1311,25.6973],[-100.1315,25.7006],[-100.1387,25.7015],[-100.1389,25.7049],[-100.1413,25.7019],[-100.155,25.7043],[-100.1545,25.7083],[-100.1583,25.7058],[-100.1737,25.7074],[-100.1765,25.7116],[-100.1846,25.7124],[-100.1784,25.7294],[-100.2069,25.7318],[-100.238,25.746],[-100.2449,25.7556],[-100.2671,25.7643],[-100.27,25.802],[-100.2613,25.802],[-100.2659,25.8302],[-100.2728,25.8494],[-100.2717,25.8718],[-100.254,25.8793]]]}},{"type":"Feature","properties":{"cve_ent":"19","cve_mun":"007","cvegeo":"19007","nombre":"Aramberri"},"geometry":{"type":"Polygon","coordinates":[[[-99.5899,24.3959],[-99.5893,24.3508],[-99.5943,24.3309],[-99.6478,24.2181],[-99.6571,24.118],[-99.5709,24.0394],[-99.5788,24.0369],[-99.6759,24.0389],[-99.6893,24.0332],[-99.7208,24.0277],[-99.7429,24.0288],[-99.755,24.0114],[-99.7491,23.9971],[-99.7667,23.9845],[-99.7682,23.9908],[-99.7748,23.9945],[-99.7807,24.0101],[-99.7866,24.015],[-99.7889,24.0121],[-99.8366,24.0052],[-99.8442,23.9913],[-99.8421,23.9835],[-99.853,23.9982],[-99.862,23.9904],[-99.8675,23.9977],[-99.8798,23.9896],[-99.8782,24.0172],[-99.9182,24.0025],[-99.9728,24.0051],[-99.9855,23.9909],[-100.0086,23.9426],[-100.0619,23.9395],[-100.0635,23.9604],[-100.1026,23.9577],[-100.1038,23.9734],[-100.121,23.9722],[-100.1233,24.0008],[-100.1206,24.0005],[-100.1202,24.0313],[-100.1035,24.0354],[-100.101,24.0544],[-100.1131,24.0554],[-100.1708,24.0755],[-100.154,24.0948],[-100.1939,24.1203],[-100.1939,24.133],[-100.182,24.1444],[-100.1798,24.1424],[-100.1794,24.147],[-100.1662,24.1598],[-100.2032,24.2123],[-100.1984,24.2126],[-100.2161,24.2492],[-100.1958,24.2493],[-100.1939,24.2454],[-100.1871,24.2472],[-100.187,24.2637],[-100.1695,24.2633],[-100.1738,24.2828],[-100.1671,24.284],[-100.1535,24.2988],[-100.1152,24.3103],[-100.1061,24.2993],[-100.0735,24.3098],[-100.067,24.3538],[-100.0911,24.4525],[-100.0766,24.4421],[-100.0601,24.4517],[-100.0613,24.4557],[-100.0235,24.4595],[-100.0098,24.4547],[-99.9981,24.4545],[-99.9993,24.4643],[-99.9743,24.4745],[-99.9574,24.4629],[-99.9389,24.4648],[-99.9114,24.4599],[-99.9179,24.4515],[-99.9087,24.448],[-99.8887,24.4541],[-99.8942,24.4702],[-99.8548,24.501],[-99.8386,24.4959],[-99.8478,24.4856],[-99.8396,24.4716],[-99.8362,24.4727],[-99.8085,24.4464],[-99.8012,24.4291],[-99.8034,24.4281],[-99.7923,24.4067],[-99.7751,24.4105],[-99.7625,24.3902],[-99.744,24.3917],[-99.7406,24.4091],[-99.743,24.4193],[-99.7103,24.4421],[-99.7198,24.4837],[-99.6364,24.5067],[-99.6115,24.4528],[-99.5899,24.3959]]]}},{"type":"Feature","properties":{"cve_ent":"19","cve_mun":"008","cvegeo":"19008","nombre":"Bustamante"},"geometry":{"type":"Polygon","coordinates":[[[-100.4671,26.641],[-100.4411,26.5848],[-100.4762,26.5708],[-100.4817,26.5844],[-100.4821,26.573],[-100.457,26.5254],[-100.4392,26.5131],[-100.4502,26.5078],[-100.4532,26.5127],[-100.4603,26.5052],[-100.5015,26.486],[-100.5212,26.4432],[-100.5146,26.4333],[-100.6237,26.4319],[-100.6154,26.446],[-100.6138,26.4567],[-100.6213,26.4656],[-100.6142,26.4661],[-100.6136,26.4783],[-100.6212,26.4791],[-100.6167,26.4933],[-100.6196,26.4932],[-100.619,26.4993],[-100.6098,26.524],[-100.6369,26.5214],[-100.6369,26.5336],[-100.6551,26.5676],[-100.6766,26.5876],[-100.6918,26.61],[-100.6961,26.6234],[-100.6912,26.6138],[-100.6144,26.6856],[-100.608,26.7109],[-100.4909,26.6715],[-100.4876,26.6322],[-100.4671,26.641]]]}},{"type":"Feature","properties":{"cve_ent":"19","cve_mun":"009","cvegeo":"19009","nombre":"Cadereyta Jiménez"},"geometry":{"type":"Polygon","coordinates":[[[-99.7873,25.6732],[-99.7667,25.6664],[-99.7647,25.6535],[-99.7511,25.6515],[-99.7489,25.6436],[-99.7508,25.6293],[-99.739,25.6247],[-99.7405,25.5658],[-99.7364,25.5463],[-99.7349,25.5503],[-99.7109,25.5444],[-99.698,25.5299],[-99.6938,25.5177],[-99.6867,25.5148],[-99.687,25.5045],[-99.693,25.4964],[-99.7006,25.4926],[-99.7117,25.5007],[-99.7182,25.4994],[-99.7223,25.4851],[-99.7288,25.4817],[-99.732,25.4714],[-99.736,25.4689],[-99.7412,25.4735],[-99.7481,25.4698],[-99.7458,25.4661],[-99.7544,25.4572],[-99.7613,25.4571],[-99.7596,25.4534],[-99.7663,25.4459],[-99.77,25.4326],[-99.7849,25.4306],[-99.7865,25.424],[-99.7929,25.4174],[-99.7897,25.4158],[-99.7932,25.4087],[-99.789,25.3995],[-99.7965,25.3882],[-99.7924,25.3789],[-99.798,25.373],[-99.8074,25.3513],[-99.8217,25.3455],[-99.8273,25.3398],[-99.9318,25.4203],[-99.9403,25.4066],[-99.9344,25.3941],[-99.9278,25.3882],[-99.9284,25.3807],[-99.9327,25.3764],[-99.9399,25.3766],[-99.9504,25.3716],[-99.9509,25.363],[-99.9601,25.3659],[-99.9651,25.3619],[-99.9728,25.3642],[-99.9796,25.3573],[-99.9911,25.3546],[-99.9966,25.3569],[-100.0149,25.3451],[-100.0257,25.3519],[-100.044,25.351],[-100.0586,25.3619],[-100.0607,25.3735],[-100.0746,25.3854],[-100.0764,25.3937],[-100.0512,25.4093],[-100.0599,25.4177],[-100.0434,25.4409],[-100.0313,25.4509],[-100.0374,25.448],[-100.0696,25.4706],[-100.0712,25.4688],[-100.0969,25.5032],[-100.1314,25.4702],[-100.1788,25.5303],[-100.1736,25.538],[-100.1693,25.5311],[-100.1627,25.5288],[-100.1625,25.525],[-100.1342,25.5366],[-100.127,25.535],[-100.1252,25.532],[-100.1277,25.5307],[-100.1226,25.5271],[-100.1234,25.522],[-100.1114,25.5243],[-100.1071,25.5166],[-100.1016,25.5139],[-100.0951,25.5155],[-100.088,25.5121],[-100.0734,25.5211],[-100.0759,25.5234],[-100.0719,25.5256],[-100.0606,25.5152],[-100.0553,25.5211],[-100.049,25.5173],[-100.0739,25.5403],[-100.0773,25.5339],[-100.1107,25.5648],[-100.1068,25.5687],[-100.0958,25.5606],[-100.1018,25.5661],[-100.0979,25.5699],[-100.1018,25.5736],[-100.0985,25.5766],[-100.0905,25.5717],[-100.1044,25.5845],[-100.0942,25.5983],[-100.0866,25.6014],[-100.0858,25.6069],[-100.0804,25.6051],[-100.0745,25.6102],[-100.0628,25.6114],[-100.056,25.628],[-100.0424,25.6201],[-100.0402,25.6377],[-100.066,25.6527],[-100.0559,25.6614],[-100.009,25.6522],[-99.9962,25.6665],[-100.0036,25.6668],[-99.9901,25.6823],[-99.9775,25.6785],[-99.971,25.6797],[-99.9648,25.6835],[-99.9648,25.6864],[-99.9619,25.6857],[-99.9607,25.6909],[-99.9326,25.6925],[-99.9309,25.6948],[-99.92,25.6893],[-99.9163,25.691],[-99.9108,25.6865],[-99.9005,25.6878],[-99.9005,25.6913],[-99.8961,25.6919],[-99.8781,25.6899],[-99.8716,25.6844],[-99.8495,25.685],[-99.8467,25.6734],[-99.8312,25.6684],[-99.8311,25.6592],[-99.8205,25.6591],[-99.8172,25.6663],[-99.8147,25.6648],[-99.8102,25.6716],[-99.8022,25.6735],[-99.7967,25.6701],[-99.8021,25.6613],[-99.8028,25.658],[-99.7999,25.6576],[-99.7873,25.6732]]]}},{"type":"Feature","properties":{"cve_ent":"19","cve_mun":"010","cvegeo":"19010","nombre":"El Carmen"},"geometry":{"type":"Polygon","coordinates":[[[-100.3696,25.9821],[-100.3669,25.9737],[-100.3438,25.976],[-100.313,25.9452],[-100.3226,25.9395],[-100.3234,25.9344],[-100.3322,25.9275],[-100.3105,25.8788],[-100.3077,25.8799],[-100.3039,25.8676],[-100.3069,25.8679],[-100.302,25.8522],[-100.2982,25.849],[-100.3273,25.8486],[-100.3272,25.8466],[-100.3796,25.8485],[-100.3973,25.8536],[-100.4074,25.864],[-100.4258,25.8934],[-100.4065,25.8911],[-100.3805,25.9285],[-100.3696,25.9821]]]}},{"type":"Feature","properties":{"cve_ent":"19","cve_mun":"011","cvegeo":"19011","nombre":"Cerralvo"},"geometry":{"type":"Polygon","coordinates":[[[-99.5895,26.2353],[-99.5889,26.1841],[-99.5542,26.1845],[-99.5397,26.1672],[-99.5366,26.1707],[-99.5271,26.1644],[-99.5031,26.1254],[-99.4898,26.1228],[-99.4875,26.1132],[-99.4758,26.0993],[-99.5738,26.095],[-99.5871,26.0922],[-99.6065,26.073],[-99.5859,26.0419],[-99.5886,26.0403],[-99.5203,25.9236],[-99.538,25.9128],[-99.5387,25.9016],[-99.6274,25.8637],[-99.6623,25.9002],[-99.6676,25.9165],[-99.6729,25.9206],[-99.6735,25.9275],[-99.6803,25.9331],[-99.6911,25.9372],[-99.7028,25.9492],[-99.7166,25.95],[-99.7296,25.9626],[-99.7429,25.967],[-99.745,25.9756],[-99.7626,25.9778],[-99.7668,25.9845],[-99.7805,25.98],[-99.782,25.9844],[-99.7887,25.984],[-99.7921,25.989],[-99.7958,25.9872],[-99.7957,25.9901],[-99.803,25.9903],[-99.8016,25.9951],[-99.8057,25.9988],[-99.8006,26.0021],[-99.8052,26.0019],[-99.8039,26.0067],[-99.8107,26.0057],[-99.8081,26.0075],[-99.8137,26.0111],[-99.8133,26.0154],[-99.8186,26.0159],[-99.8162,26.0182],[-99.8411,26.0151],[-99.8359,26.0203],[-99.8447,26.0201],[-99.8456,26.0244],[-99.8615,26.0089],[-99.8706,26.0154],[-99.8685,26.0185],[-99.8722,26.0151],[-99.8841,26.0219],[-99.8906,26.0143],[-99.8967,26.0168],[-99.8985,26.0245],[-99.8917,26.0262],[-99.9,26.0286],[-99.8978,26.0365],[-99.8863,26.0314],[-99.8834,26.0316],[-99.8832,26.0372],[-99.8916,26.0421],[-99.9005,26.036],[-99.9051,26.0375],[-99.9189,26.0495],[-99.9145,26.0624],[-99.9157,26.0649],[-99.9194,26.0629],[-99.9171,26.0712],[-99.9199,26.0795],[-99.9163,26.0816],[-99.9193,26.0908],[-99.927,26.0967],[-99.928,26.1139],[-99.9387,26.1206],[-99.9402,26.1349],[-99.9482,26.1456],[-99.9496,26.1544],[-99.9619,26.1627],[-99.9678,26.1629],[-99.9703,26.1703],[-99.9671,26.1742],[-99.9701,26.1989],[-99.967,26.2004],[-99.9464,26.1937],[-99.9276,26.196],[-99.9203,26.187],[-99.8788,26.174],[-99.8593,26.1509],[-99.8289,26.1536],[-99.8216,26.1566],[-99.8226,26.1599],[-99.8158,26.1693],[-99.8023,26.1678],[-99.7801,26.1762],[-99.7387,26.1707],[-99.7271,26.1839],[-99.6362,26.2473],[-99.6278,26.2565],[-99.6255,26.2481],[-99.6183,26.2524],[-99.6173,26.2425],[-99.6116,26.2444],[-99.6083,26.2379],[-99.5895,26.2353]]]}},{"type":"Feature","properties":{"cve_ent":"19","cve_mun":"012","cvegeo":"19012","nombre":"Ciénega de Flores"},"geometry":{"type":"Polygon","coordinates":[[[-100.1181,26.0381],[-100.1174,26.029],[-100.1135,26.0252],[-100.1137,26.0134],[-100.1107,26.0127],[-100.1044,25.9965],[-100.1113,25.9903],[-100.1259,25.9848],[-100.1263,25.9825],[-100.1223,25.9819],[-100.1262,25.9745],[-100.1203,25.9684],[-100.1393,25.9619],[-100.1494,25.9448],[-100.1633,25.9396],[-100.1673,25.9321],[-100.1579,25.9235],[-100.1741,25.91],[-100.1827,25.9127],[-100.1767,25.9146],[-100.1799,25.9211],[-100.1857,25.9207],[-100.1904,25.915],[-100.1976,25.9172],[-100.2105,25.8987],[-100.2179,25.9141],[-100.2231,25.9079],[-100.2363,25.9146],[-100.2446,25.9284],[-100.2387,25.9473],[-100.2301,25.9518],[-100.2322,25.9611],[-100.2378,25.9609],[-100.2341,25.9793],[-100.2427,25.9844],[-100.2524,26.0029],[-100.2616,26.0031],[-100.2795,26.0106],[-100.2738,26.0163],[-100.2731,26.0217],[-100.2302,26.0019],[-100.2337,26.0207],[-100.2047,26.0304],[-100.2025,26.023],[-100.1959,26.0184],[-100.1863,26.0215],[-100.1759,26.0337],[-100.1581,26.0439],[-100.1503,26.0329],[-100.1442,26.0142],[-100.1181,26.0381]]]}},{"type":"Feature","properties":{"cve_ent":"19","cve_mun":"013","cvegeo":"19013","nombre":"China"},"geometry":{"type":"Polygon","coordinates":[[[-99.189,25.9053],[-99.1826,25.9025],[-99.1881,25.8939],[-99.1835,25.8903],[-99.1884,25.8882],[-99.1893,25.8835],[-99.1821,25.8805],[-99.186,25.8777],[-99.1855,25.8684],[-99.1897,25.8637],[-99.1837,25.8542],[-99.1854,25.8478],[-99.1831,25.8433],[-99.1898,25.8373],[-99.1817,25.8201],[-99.1896,25.8128],[-99.1825,25.7983],[-99.2149,25.7878],[-99.2102,25.7834],[-99.209,25.7732],[-99.1985,25.7619],[-99.1829,25.7229],[-99.1585,25.6803],[-99.1486,25.6708],[-99.0683,25.6478],[-99.024,25.6247],[-99.0185,25.6242],[-98.9911,25.6513],[-98.9363,25.601],[-98.924,25.6103],[-98.9243,25.6172],[-98.8899,25.6088],[-98.8788,25.6232],[-98.8784,25.6306],[-98.86,25.6283],[-98.8549,25.6243],[-98.8541,25.6275],[-98.8376,25.6271],[-98.8207,25.6516],[-98.8164,25.6521],[-98.8048,25.643],[-98.7955,25.6535],[-98.7858,25.6513],[-98.7832,25.6553],[-98.7786,25.6368],[-98.7698,25.639],[-98.7628,25.6314],[-98.7526,25.6356],[-98.7508,25.6302],[-98.7557,25.6238],[-98.7339,25.6294],[-98.7299,25.6395],[-98.6905,25.6553],[-98.6908,25.7218],[-98.6738,25.7203],[-98.6688,25.7052],[-98.6477,25.7024],[-98.6484,25.711],[-98.6382,25.7105],[-98.6377,25.7212],[-98.6339,25.7168],[-98.6309,25.7192],[-98.6308,25.7129],[-98.602,25.709],[-98.5916,25.724],[-98.5916,25.7075],[-98.5814,25.706],[-98.5818,25.4894],[-98.4216,25.4894],[-98.4231,25.4475],[-98.5853,25.3323],[-98.929,25.0773],[-98.9337,25.0761],[-98.9343,25.0802],[-98.9342,25.0728],[-98.9412,25.0709],[-98.9462,25.0766],[-98.9475,25.0739],[-98.9552,25.0761],[-98.9566,25.0733],[-98.9592,25.076],[-98.9683,25.0704],[-98.9681,25.0733],[-98.9708,25.074],[-98.9699,25.0719],[-98.9764,25.0688],[-98.9852,25.0744],[-98.9894,25.0674],[-98.9977,25.0713],[-99.0002,25.0674],[-99.0193,25.0701],[-99.0225,25.0732],[-99.0175,25.0756],[-99.0196,25.0792],[-99.0142,25.0802],[-99.0155,25.0859],[-99.0204,25.0883],[-99.022,25.0939],[-99.026,25.0926],[-99.0295,25.0964],[-99.0337,25.1069],[-99.0287,25.1097],[-99.036,25.1203],[-99.0309,25.1249],[-99.0319,25.1351],[-99.0695,25.1728],[-99.0494,25.1809],[-99.052,25.1829],[-99.0449,25.1932],[-99.0465,25.198],[-99.0512,25.1946],[-99.0726,25.214],[-99.0224,25.2147],[-99.0356,25.2663],[-99.0569,25.26],[-99.0817,25.3235],[-99.092,25.336],[-99.1131,25.3283],[-99.1669,25.3828],[-99.1834,25.3663],[-99.1908,25.3752],[-99.2019,25.3714],[-99.2032,25.3777],[-99.2237,25.3777],[-99.2244,25.385],[-99.2292,25.3827],[-99.2312,25.3959],[-99.2233,25.402],[-99.2427,25.4146],[-99.2559,25.4137],[-99.2586,25.4245],[-99.278,25.4174],[-99.2795,25.401],[-99.3109,25.4016],[-99.3264,25.4303],[-99.3236,25.4375],[-99.3406,25.4524],[-99.3609,25.4588],[-99.3529,25.4655],[-99.3544,25.4681],[-99.367,25.4641],[-99.3573,25.478],[-99.3867,25.4968],[-99.4174,25.4808],[-99.418,25.4758],[-99.4242,25.4768],[-99.4246,25.5008],[-99.4117,25.4997],[-99.4108,25.5145],[-99.4176,25.5312],[-99.4263,25.5301],[-99.4321,25.5329],[-99.4322,25.5366],[-99.4212,25.6004],[-99.4176,25.6004],[-99.4139,25.6232],[-99.4612,25.6882],[-99.4471,25.6972],[-99.4436,25.6926],[-99.4455,25.6982],[-99.419,25.7148],[-99.4415,25.743],[-99.4261,25.7537],[-99.4026,25.7617],[-99.4056,25.7661],[-99.4018,25.7716],[-99.4586,25.8388],[-99.4532,25.8423],[-99.4434,25.8377],[-99.439,25.84],[-99.43,25.8338],[-99.4267,25.8362],[-99.4285,25.8429],[-99.4177,25.8429],[-99.4163,25.8478],[-99.3601,25.7828],[-99.2756,25.8381],[-99.2814,25.842],[-99.2819,25.9038],[-99.2754,25.9122],[-99.2667,25.9161],[-99.2629,25.9145],[-99.2568,25.9099],[-99.2567,25.9057],[-99.2502,25.9027],[-99.2512,25.8996],[-99.2441,25.8952],[-99.2411,25.8878],[-99.23,25.8945],[-99.2158,25.8919],[-99.2126,25.8945],[-99.1914,25.8955],[-99.189,25.9053]]]}},{"type":"Feature","properties":{"cve_ent":"19","cve_mun":"014","cvegeo":"19014","nombre":"Doctor Arroyo"},"geometry":{"type":"Polygon","coordinates":[[[-100.1868,24.285],[-100.1871,24.2472],[-100.1939,24.2454],[-100.1958,24.2493],[-100.2161,24.2492],[-100.1984,24.2126],[-100.2032,24.2123],[-100.1662,24.1598],[-100.1794,24.147],[-100.1798,24.1424],[-100.182,24.1444],[-100.1939,24.133],[-100.1939,24.1203],[-100.154,24.0948],[-100.1708,24.0755],[-100.1131,24.0554],[-100.101,24.0544],[-100.1035,24.0354],[-100.1202,24.0313],[-100.1206,24.0005],[-100.1233,24.0008],[-100.121,23.9722],[-100.1038,23.9734],[-100.1026,23.9577],[-100.0635,23.9604],[-100.0619,23.9395],[-100.0178,23.9421],[-100.0243,23.8944],[-100.0304,23.8852],[-99.9648,23.857],[-99.969,23.8472],[-99.9745,23.8475],[-99.9722,23.8401],[-99.9423,23.838],[-99.945,23.7879],[-99.9103,23.7854],[-99.9079,23.79],[-99.8934,23.7448],[-99.8828,23.7236],[-99.8911,23.7038],[-99.9158,23.6651],[-99.9612,23.5569],[-99.9477,23.4972],[-99.9835,23.5124],[-99.9789,23.5368],[-99.992,23.5386],[-100.0198,23.5597],[-100.037,23.5272],[-100.1068,23.5516],[-100.1035,23.559],[-100.1133,23.5601],[-100.1199,23.5665],[-100.1614,23.5728],[-100.1435,23.542],[-100.1896,23.5542],[-100.2325,23.5469],[-100.2343,23.5333],[-100.2438,23.5388],[-100.2444,23.5362],[-100.2468,23.5375],[-100.2458,23.54],[-100.2511,23.543],[-100.2513,23.5564],[-100.2879,23.5586],[-100.2962,23.5339],[-100.2995,23.4892],[-100.3214,23.4939],[-100.3249,23.435],[-100.3383,23.4209],[-100.3341,23.4133],[-100.3428,23.4115],[-100.3523,23.4009],[-100.3554,23.4019],[-100.359,23.3925],[-100.3574,23.3879],[-100.3233,23.378],[-100.3369,23.3597],[-100.3414,23.2915],[-100.3317,23.2591],[-100.3743,23.2653],[-100.3638,23.189],[-100.3235,23.1956],[-100.3318,23.1627],[-100.4798,23.1944],[-100.4839,23.2088],[-100.4571,23.3664],[-100.5172,23.421],[-100.4976,23.494],[-100.4942,23.5284],[-100.4592,23.5116],[-100.4591,23.5332],[-100.4675,23.5436],[-100.4695,23.5668],[-100.4916,23.5686],[-100.4887,23.605],[-100.4866,23.6041],[-100.4774,23.6338],[-100.4634,23.6531],[-100.4544,23.6499],[-100.4498,23.656],[-100.4583,23.6601],[-100.4457,23.6773],[-100.4471,23.6965],[-100.462,23.6946],[-100.4619,23.6891],[-100.4665,23.6889],[-100.4679,23.7001],[-100.4741,23.7068],[-100.4903,23.7396],[-100.4977,23.7363],[-100.4976,23.7987],[-100.5288,23.8164],[-100.5255,23.8395],[-100.5503,23.8422],[-100.5398,23.8884],[-100.5494,23.8893],[-100.5468,23.9174],[-100.5624,23.9196],[-100.5413,24.0257],[-100.5238,24.0715],[-100.5387,24.1185],[-100.5196,24.1184],[-100.5168,24.1399],[-100.5488,24.146],[-100.6134,24.1739],[-100.5935,24.1782],[-100.5851,24.2239],[-100.6331,24.226],[-100.5999,24.3488],[-100.6035,24.4013],[-100.5517,24.4388],[-100.5219,24.4469],[-100.5042,24.4564],[-100.4961,24.41],[-100.444,24.4217],[-100.4469,24.4388],[-100.4327,24.4397],[-100.4052,24.3718],[-100.3647,24.3325],[-100.3482,24.3116],[-100.3152,24.3158],[-100.2735,24.2546],[-100.2572,24.318],[-100.2008,24.2897],[-100.1865,24.302],[-100.1814,24.2834],[-100.1868,24.285]]]}},{"type":"Feature","properties":{"cve_ent":"19","cve_mun":"015","cvegeo":"19015","nombre":"Doctor Coss"},"geometry":{"type":"Polygon","coordinates":[[[-98.8459,26.0245],[-98.8076,26.0321],[-98.7924,26.0321],[-98.7916,25.9752],[-99.0073,25.8385],[-99.1402,25.8602],[-99.1873,25.8708],[-99.186,25.8777],[-99.1821,25.8805],[-99.1892,25.883],[-99.1884,25.8882],[-99.1834,25.8906],[-99.1881,25.8939],[-99.1827,25.9028],[-99.1922,25.9066],[-99.187,25.9198],[-99.1944,25.9225],[-99.1952,25.9275],[-99.1936,25.9307],[-99.1829,25.9319],[-99.1839,25.9498],[-99.1885,25.9586],[-99.1857,25.9675],[-99.1792,25.9686],[-99.1783,25.9781],[-99.1714,25.9784],[-99.1725,25.9863],[-99.1787,25.987],[-99.183,25.9829],[-99.1859,25.9908],[-99.1922,25.9932],[-99.1946,25.9995],[-99.1922,26.0046],[-99.1981,26.0244],[-99.1897,26.0298],[-99.1865,26.0407],[-99.1937,26.0452],[-99.1894,26.0501],[-99.1887,26.0582],[-99.1916,26.0607],[-99.1883,26.0644],[-99.1943,26.0663],[-99.1883,26.0753],[-99.1707,26.078],[-99.1621,26.0706],[-99.1601,26.0612],[-99.1442,26.0614],[-99.1411,26.053],[-99.1277,26.0536],[-99.124,26.0567],[-99.1323,26.0647],[-99.1309,26.0688],[-99.1199,26.0665],[-99.1147,26.076],[-99.0977,26.0807],[-99.0933,26.0785],[-99.0964,26.0728],[-99.0933,26.0705],[-99.0765,26.0719],[-99.0745,26.0788],[-99.0625,26.0801],[-99.0625,26.0907],[-99.045,26.0987],[-99.0373,26.0935],[-99.025,26.0934],[-99.0217,26.0984],[-99.0239,26.1041],[-98.9008,25.9683],[-98.8459,26.0245]]]}},{"type":"Feature","properties":{"cve_ent":"19","cve_mun":"016","cvegeo":"19016","nombre":"Doctor González"},"geometry":{"type":"Polygon","coordinates":[[[-99.6779,25.93],[-99.7068,25.903],[-99.6999,25.8914],[-99.7047,25.8932],[-99.7081,25.888],[-99.6946,25.8702],[-99.6667,25.8472],[-99.6665,25.8435],[-99.6734,25.8403],[-99.6746,25.8362],[-99.6788,25.8362],[-99.6776,25.8266],[-99.6836,25.8255],[-99.6815,25.8207],[-99.6837,25.7974],[-99.6803,25.7912],[-99.6621,25.781],[-99.7176,25.7258],[-99.758,25.7358],[-99.7666,25.6952],[-99.7792,25.711],[-99.7912,25.7114],[-99.7985,25.725],[-99.8277,25.7392],[-99.8429,25.7377],[-99.871,25.7442],[-99.8822,25.7479],[-99.8897,25.7569],[-99.8942,25.7563],[-99.8941,25.7601],[-99.9003,25.7638],[-99.8982,25.7716],[-99.9019,25.7723],[-99.903,25.7765],[-99.8941,25.7792],[-99.8926,25.7883],[-99.9047,25.7903],[-99.9011,25.8033],[-99.919,25.8054],[-99.9349,25.8273],[-99.9401,25.8273],[-99.9471,25.8327],[-99.9655,25.8348],[-99.9692,25.8383],[-99.9831,25.9039],[-99.9706,25.8888],[-99.945,25.8836],[-99.9515,25.8879],[-99.9517,25.8943],[-99.9442,25.8915],[-99.8023,25.9957],[-99.803,25.9903],[-99.7957,25.9901],[-99.7958,25.9872],[-99.7921,25.989],[-99.7887,25.984],[-99.782,25.9844],[-99.7805,25.98],[-99.7668,25.9845],[-99.7626,25.9778],[-99.745,25.9756],[-99.7429,25.967],[-99.7296,25.9626],[-99.7166,25.95],[-99.7028,25.9492],[-99.6913,25.9373],[-99.6779,25.93]]]}},{"type":"Feature","properties":{"cve_ent":"19","cve_mun":"017","cvegeo":"19017","nombre":"Galeana"},"geometry":{"type":"Polygon","coordinates":[[[-100.4725,25.2312],[-100.3261,25.1855],[-100.3229,25.1707],[-100.2978,25.1526],[-100.2535,25.1306],[-100.2721,25.1098],[-100.2634,25.1055],[-100.2631,25.0984],[-100.2578,25.0944],[-100.2552,25.0962],[-100.2447,25.0815],[-100.2459,25.0772],[-100.2389,25.0653],[-100.2265,25.0616],[-100.2264,25.0531],[-100.2138,25.0454],[-100.2003,25.0205],[-100.1882,25.0292],[-100.1844,25.0207],[-100.1756,25.0143],[-100.1655,25.0098],[-100.1597,25.0136],[-100.1296,24.9442],[-100.0819,24.911],[-100.0658,24.8899],[-99.9899,24.9041],[-99.9633,24.8756],[-99.9645,24.8718],[-99.9565,24.8694],[-99.9588,24.8675],[-99.9541,24.8652],[-99.955,24.8605],[-99.9497,24.8592],[-99.9501,24.8542],[-99.9444,24.8534],[-99.9468,24.8488],[-99.944,24.8429],[-99.94,24.8426],[-99.9398,24.8376],[-99.9281,24.8261],[-99.9445,24.8327],[-99.9589,24.819],[-99.9836,24.8254],[-99.9818,24.8131],[-99.969,24.7987],[-99.9628,24.7796],[-99.9481,24.7638],[-99.9584,24.7629],[-99.977,24.744],[-99.983,24.7449],[-99.9964,24.7306],[-99.9824,24.7189],[-99.9812,24.7137],[-99.9721,24.7094],[-99.9722,24.7057],[-99.9662,24.7],[-99.9564,24.6953],[-99.9481,24.6839],[-99.8992,24.6507],[-99.8806,24.6341],[-99.8667,24.6186],[-99.8415,24.5648],[-99.8547,24.5535],[-99.8754,24.527],[-99.879,24.5092],[-99.8548,24.501],[-99.8942,24.4702],[-99.8887,24.4541],[-99.9087,24.448],[-99.9179,24.4515],[-99.9114,24.4599],[-99.9389,24.4648],[-99.9574,24.4629],[-99.9743,24.4745],[-99.9993,24.4643],[-99.9981,24.4545],[-100.0098,24.4547],[-100.0235,24.4595],[-100.0613,24.4557],[-100.0601,24.4517],[-100.0766,24.4421],[-100.0911,24.4525],[-100.067,24.3538],[-100.0735,24.3098],[-100.1061,24.2993],[-100.1152,24.3103],[-100.1535,24.2988],[-100.1671,24.284],[-100.1738,24.2828],[-100.1695,24.2633],[-100.187,24.2637],[-100.1868,24.285],[-100.1814,24.2834],[-100.1865,24.302],[-100.2008,24.2897],[-100.2572,24.318],[-100.2735,24.2546],[-100.3152,24.3158],[-100.3482,24.3116],[-100.3647,24.3325],[-100.4052,24.3718],[-100.4327,24.4397],[-100.4469,24.4388],[-100.444,24.4217],[-100.4961,24.41],[-100.5042,24.4564],[-100.5219,24.4469],[-100.5517,24.4388],[-100.6035,24.4013],[-100.7112,24.4915],[-100.7423,24.4604],[-100.7999,24.5562],[-100.8055,24.5963],[-100.797,24.7508],[-100.8274,24.8242],[-100.8261,24.835],[-100.7275,24.9187],[-100.7915,24.9741],[-100.7921,24.9791],[-100.8215,24.9967],[-100.8031,25.1653],[-100.7089,25.2365],[-100.592,25.2551],[-100.5478,25.2436],[-100.4725,25.2312]]]}},{"type":"Feature","properties":{"cve_ent":"19","cve_mun":"018","cvegeo":"19018","nombre":"García"},"geometry":{"type":"Polygon","coordinates":[[[-100.4978,25.9028],[-100.4902,25.8991],[-100.4685,25.8983],[-100.4184,25.7909],[-100.4154,25.7894],[-100.4416,25.7205],[-100.4766,25.7319],[-100.5098,25.75],[-100.5129,25.7439],[-100.5347,25.7274],[-100.5495,25.7101],[-100.5545,25.7136],[-100.5655,25.7012],[-100.5757,25.7192],[-100.5919,25.7221],[-100.6025,25.7138],[-100.6025,25.7044],[-100.6453,25.6932],[-100.6695,25.6622],[-100.7091,25.6584],[-100.6999,25.6388],[-100.7234,25.627],[-100.7298,25.6339],[-100.7834,25.6397],[-100.7804,25.6457],[-100.7878,25.6836],[-100.8037,25.7088],[-100.8056,25.7243],[-100.8251,25.7517],[-100.8619,25.8185],[-100.8471,25.8579],[-100.8358,25.8666],[-100.8227,25.9169],[-100.8272,25.9205],[-100.8344,25.945],[-100.8243,25.9441],[-100.8183,25.9501],[-100.8162,25.94],[-100.775,25.9502],[-100.7539,25.9604],[-100.7374,25.9835],[-100.7204,25.9447],[-100.6752,25.9505],[-100.6693,25.9467],[-100.6657,25.9519],[-100.6573,25.9501],[-100.6475,25.9587],[-100.6174,25.9671],[-100.612,25.9477],[-100.6116,25.8627],[-100.6005,25.8733],[-100.5748,25.8814],[-100.5236,25.9059],[-100.504,25.9008],[-100.4978,25.9028]]]}},{"type":"Feature","properties":{"cve_ent":"19","cve_mun":"019","cvegeo":"19019","nombre":"San Pedro Garza García"},"geometry":{"type":"Polygon","coordinates":[[[-100.3441,25.5898],[-100.4246,25.6366],[-100.416,25.6913],[-100.423,25.6952],[-100.4275,25.7157],[-100.4024,25.7008],[-100.3977,25.6945],[-100.3982,25.6768],[-100.3954,25.6732],[-100.3804,25.6678],[-100.3668,25.6681],[-100.3635,25.6711],[-100.3129,25.647],[-100.3441,25.5898]]]}},{"type":"Feature","properties":{"cve_ent":"19","cve_mun":"020","cvegeo":"19020","nombre":"General Bravo"},"geometry":{"type":"Polygon","coordinates":[[[-98.7364,26.0368],[-98.5851,26.0179],[-98.5814,25.706],[-98.5916,25.7075],[-98.5916,25.724],[-98.602,25.709],[-98.6308,25.7129],[-98.6309,25.7192],[-98.6339,25.7168],[-98.6377,25.7212],[-98.6382,25.7105],[-98.6484,25.711],[-98.6477,25.7024],[-98.6688,25.7052],[-98.6738,25.7203],[-98.6908,25.7218],[-98.6905,25.6553],[-98.7299,25.6395],[-98.7337,25.6294],[-98.7557,25.6238],[-98.7508,25.6302],[-98.7526,25.6356],[-98.7628,25.6314],[-98.7698,25.639],[-98.7786,25.6368],[-98.7832,25.6553],[-98.7858,25.6513],[-98.7955,25.6535],[-98.8048,25.643],[-98.8164,25.6521],[-98.8207,25.6516],[-98.8376,25.6271],[-98.8541,25.6275],[-98.8549,25.6243],[-98.86,25.6283],[-98.8784,25.6306],[-98.8788,25.6232],[-98.8899,25.6088],[-98.9243,25.6172],[-98.924,25.6103],[-98.9363,25.601],[-98.9911,25.6513],[-99.0185,25.6242],[-99.024,25.6247],[-99.0683,25.6478],[-99.1412,25.6674],[-99.1585,25.6803],[-99.1829,25.7229],[-99.1985,25.7619],[-99.209,25.7732],[-99.2102,25.7834],[-99.2149,25.7878],[-99.1825,25.7983],[-99.1896,25.8126],[-99.1817,25.82],[-99.1898,25.837],[-99.1831,25.8435],[-99.1854,25.8478],[-99.1837,25.8542],[-99.1895,25.8613],[-99.1887,25.8669],[-99.1833,25.8682],[-99.0073,25.8385],[-98.7916,25.9752],[-98.7924,26.0321],[-98.8076,26.0321],[-98.8459,26.0245],[-98.8233,26.0476],[-98.7463,26.038],[-98.7467,26.0352],[-98.7364,26.0368]]]}},{"type":"Feature","properties":{"cve_ent":"19","cve_mun":"021","cvegeo":"19021","nombre":"General Escobedo"},"geometry":{"type":"Polygon","coordinates":[[[-100.4276,25.8957],[-100.4074,25.864],[-100.3973,25.8536],[-100.3796,25.8485],[-100.3346,25.8467],[-100.2728,25.8494],[-100.2659,25.8302],[-100.2613,25.802],[-100.27,25.802],[-100.267,25.7705],[-100.3405,25.7622],[-100.3559,25.7851],[-100.3673,25.7914],[-100.3872,25.7973],[-100.3934,25.7928],[-100.4035,25.7965],[-100.4111,25.7903],[-100.4175,25.7897],[-100.4685,25.8983],[-100.453,25.8961],[-100.4428,25.8905],[-100.4276,25.8957]]]}},{"type":"Feature","properties":{"cve_ent":"19","cve_mun":"022","cvegeo":"19022","nombre":"General Terán"},"geometry":{"type":"Polygon","coordinates":[[[-99.4398,25.4785],[-99.418,25.4758],[-99.4174,25.4808],[-99.3867,25.4968],[-99.3573,25.478],[-99.367,25.4641],[-99.3544,25.4681],[-99.3529,25.4655],[-99.3609,25.4588],[-99.3406,25.4524],[-99.3236,25.4375],[-99.3264,25.4303],[-99.3109,25.4016],[-99.2795,25.401],[-99.278,25.4174],[-99.2586,25.4245],[-99.2559,25.4137],[-99.2427,25.4146],[-99.2233,25.402],[-99.2312,25.3959],[-99.2292,25.3827],[-99.2244,25.385],[-99.2237,25.3777],[-99.2032,25.3777],[-99.2019,25.3714],[-99.1908,25.3752],[-99.1834,25.3663],[-99.1669,25.3828],[-99.1131,25.3283],[-99.092,25.336],[-99.0817,25.3235],[-99.0569,25.26],[-99.0356,25.2663],[-99.0224,25.2147],[-99.0726,25.214],[-99.0512,25.1946],[-99.0465,25.198],[-99.0449,25.1932],[-99.052,25.1829],[-99.0494,25.1809],[-99.0695,25.1728],[-99.0319,25.1351],[-99.0309,25.1249],[-99.036,25.1203],[-99.04,25.1197],[-99.042,25.123],[-99.0476,25.1202],[-99.0526,25.1271],[-99.06,25.1177],[-99.0677,25.1161],[-99.0673,25.1107],[-99.073,25.1082],[-99.0702,25.1027],[-99.0782,25.1007],[-99.0715,25.0961],[-99.0788,25.0921],[-99.075,25.0879],[-99.0803,25.0834],[-99.0786,25.0798],[-99.082,25.0737],[-99.0855,25.0772],[-99.0973,25.0784],[-99.0942,25.0745],[-99.1015,25.0694],[-99.0958,25.067],[-99.0974,25.0632],[-99.1,25.0648],[-99.1134,25.0562],[-99.1274,25.0559],[-99.1349,25.0504],[-99.1577,25.0565],[-99.1609,25.0548],[-99.1621,25.0472],[-99.1719,25.0459],[-99.1741,25.0408],[-99.1817,25.0436],[-99.1827,25.0408],[-99.202,25.0432],[-99.1967,25.0741],[-99.1831,25.073],[-99.1789,25.0902],[-99.2516,25.0959],[-99.2538,25.084],[-99.2694,25.0851],[-99.2659,25.1038],[-99.3126,25.1066],[-99.3104,25.1446],[-99.364,25.1521],[-99.3681,25.1305],[-99.3804,25.1319],[-99.3832,25.118],[-99.3958,25.1193],[-99.393,25.1334],[-99.4098,25.1339],[-99.4164,25.0938],[-99.4522,25.0994],[-99.4454,25.1417],[-99.4796,25.1452],[-99.4776,25.159],[-99.4809,25.1585],[-99.4801,25.1548],[-99.4832,25.1552],[-99.4827,25.1499],[-99.488,25.1505],[-99.4969,25.143],[-99.4967,25.1377],[-99.501,25.137],[-99.5007,25.133],[-99.51,25.1323],[-99.5183,25.1231],[-99.5222,25.1247],[-99.5228,25.119],[-99.5294,25.1157],[-99.5322,25.1173],[-99.5359,25.1135],[-99.5396,25.1147],[-99.5425,25.1107],[-99.549,25.1131],[-99.5658,25.1112],[-99.5667,25.1054],[-99.5763,25.1012],[-99.5833,25.0907],[-99.6151,25.116],[-99.6107,25.1204],[-99.6279,25.1343],[-99.6369,25.1278],[-99.6414,25.1288],[-99.664,25.1465],[-99.658,25.1533],[-99.6963,25.1833],[-99.723,25.2181],[-99.7302,25.2179],[-99.7384,25.2111],[-99.7432,25.2118],[-99.7445,25.2182],[-99.7459,25.2114],[-99.7506,25.2084],[-99.7546,25.2227],[-99.7593,25.2275],[-99.7514,25.2285],[-99.7479,25.231],[-99.7473,25.2374],[-99.7406,25.2397],[-99.7465,25.2473],[-99.7495,25.2621],[-99.7652,25.2803],[-99.7741,25.2761],[-99.7713,25.2728],[-99.7756,25.2701],[-99.7771,25.272],[-99.7807,25.2665],[-99.795,25.2833],[-99.7824,25.3411],[-99.7837,25.3484],[-99.8002,25.3684],[-99.7922,25.3796],[-99.7965,25.3882],[-99.789,25.3995],[-99.7932,25.4087],[-99.7897,25.4158],[-99.7929,25.4174],[-99.7865,25.424],[-99.7852,25.43],[-99.6988,25.3789],[-99.7028,25.4234],[-99.6905,25.4221],[-99.6903,25.4193],[-99.6828,25.4241],[-99.6803,25.3949],[-99.6744,25.3951],[-99.6747,25.3985],[-99.6643,25.3962],[-99.6711,25.4751],[-99.6497,25.4768],[-99.6478,25.455],[-99.6402,25.4538],[-99.6419,25.4703],[-99.6297,25.4712],[-99.632,25.4977],[-99.5948,25.5001],[-99.5933,25.4908],[-99.5888,25.4875],[-99.5714,25.4927],[-99.5656,25.4879],[-99.5497,25.4881],[-99.5413,25.4849],[-99.5424,25.4769],[-99.5362,25.4704],[-99.538,25.4674],[-99.5321,25.4648],[-99.5308,25.4546],[-99.5226,25.4471],[-99.5146,25.4538],[-99.5155,25.4612],[-99.4967,25.4688],[-99.4854,25.4608],[-99.4737,25.4612],[-99.467,25.457],[-99.4581,25.4609],[-99.466,25.4851],[-99.4599,25.4878],[-99.4398,25.4785]]]}},{"type":"Feature","properties":{"cve_ent":"19","cve_mun":"023","cvegeo":"19023","nombre":"General Treviño"},"geometry":{"type":"Polygon","coordinates":[[[-99.3337,26.3064],[-99.3324,26.2528],[-99.4013,26.1394],[-99.3803,26.0939],[-99.4758,26.0993],[-99.4875,26.1132],[-99.4898,26.1228],[-99.5031,26.1254],[-99.5271,26.1644],[-99.5366,26.1707],[-99.5397,26.1672],[-99.5542,26.1845],[-99.5889,26.1841],[-99.5895,26.2353],[-99.5452,26.2362],[-99.492,26.2744],[-99.4802,26.273],[-99.4754,26.2679],[-99.4699,26.2753],[-99.4626,26.2663],[-99.4651,26.3131],[-99.4097,26.317],[-99.4012,26.3048],[-99.3982,26.3053],[-99.3858,26.3171],[-99.3721,26.3219],[-99.3642,26.3293],[-99.3337,26.3064]]]}},{"type":"Feature","properties":{"cve_ent":"19","cve_mun":"024","cvegeo":"19024","nombre":"General Zaragoza"},"geometry":{"type":"Polygon","coordinates":[[[-99.4869,23.9605],[-99.4569,23.8661],[-99.4938,23.8787],[-99.5767,23.7755],[-99.6022,23.7629],[-99.6195,23.7597],[-99.6834,23.7766],[-99.769,23.7845],[-99.8055,23.7843],[-99.8607,23.7745],[-99.8828,23.7236],[-99.8934,23.7448],[-99.9079,23.79],[-99.9103,23.7854],[-99.945,23.7879],[-99.9423,23.838],[-99.9722,23.8401],[-99.9745,23.8475],[-99.969,23.8472],[-99.9648,23.857],[-100.0304,23.8852],[-100.0243,23.8944],[-100.0178,23.9421],[-100.0086,23.9426],[-99.9855,23.9909],[-99.9728,24.0051],[-99.9182,24.0025],[-99.8782,24.0172],[-99.8798,23.9896],[-99.8675,23.9977],[-99.862,23.9904],[-99.853,23.9982],[-99.8421,23.9835],[-99.8442,23.9913],[-99.8366,24.0052],[-99.7889,24.0121],[-99.7866,24.015],[-99.7807,24.0101],[-99.7748,23.9945],[-99.7682,23.9908],[-99.7667,23.9845],[-99.7491,23.9971],[-99.755,24.0114],[-99.7429,24.0288],[-99.7208,24.0277],[-99.6893,24.0332],[-99.6759,24.0389],[-99.5788,24.0369],[-99.5709,24.0394],[-99.5419,24.0336],[-99.5409,23.9973],[-99.52,23.9906],[-99.4869,23.9605]]]}},{"type":"Feature","properties":{"cve_ent":"19","cve_mun":"025","cvegeo":"19025","nombre":"General Zuazua"},"geometry":{"type":"Polygon","coordinates":[[[-100.0775,26.0195],[-100.0627,25.9779],[-100.052,25.9644],[-100.0747,25.9492],[-100.0815,25.9566],[-100.0839,25.952],[-100.0609,25.9125],[-100.0688,25.8808],[-100.084,25.8704],[-100.082,25.8659],[-100.0858,25.8682],[-100.0927,25.8599],[-100.093,25.8533],[-100.0949,25.8514],[-100.097,25.8539],[-100.1018,25.848],[-100.0976,25.8474],[-100.098,25.8345],[-100.108,25.8318],[-100.1147,25.8365],[-100.1174,25.8451],[-100.1275,25.8476],[-100.1347,25.8458],[-100.1459,25.854],[-100.17,25.8624],[-100.1724,25.8604],[-100.1746,25.8626],[-100.2353,25.8632],[-100.2429,25.8524],[-100.2544,25.8804],[-100.2393,25.9033],[-100.2412,25.907],[-100.2363,25.9146],[-100.2231,25.9079],[-100.2179,25.9141],[-100.2105,25.8987],[-100.1976,25.9172],[-100.1904,25.915],[-100.1857,25.9207],[-100.1799,25.9211],[-100.1767,25.9146],[-100.1827,25.9127],[-100.1741,25.91],[-100.1579,25.9235],[-100.1673,25.9321],[-100.1633,25.9396],[-100.1494,25.9448],[-100.1393,25.9619],[-100.1203,25.9684],[-100.1262,25.9745],[-100.1223,25.9819],[-100.1263,25.9825],[-100.1259,25.9848],[-100.1113,25.9903],[-100.0775,26.0195]]]}},{"type":"Feature","properties":{"cve_ent":"19","cve_mun":"026","cvegeo":"19026","nombre":"Guadalupe"},"geometry":{"type":"Polygon","coordinates":[[[-100.1172,25.6966],[-100.1249,25.6723],[-100.1873,25.6364],[-100.2087,25.6208],[-100.2092,25.6231],[-100.2433,25.6261],[-100.2695,25.6215],[-100.2727,25.6252],[-100.2692,25.64],[-100.2743,25.647],[-100.2681,25.6508],[-100.2736,25.6557],[-100.269,25.66],[-100.2742,25.6735],[-100.2717,25.6764],[-100.2759,25.6763],[-100.2709,25.6814],[-100.2613,25.6827],[-100.2618,25.7013],[-100.2542,25.7062],[-100.2325,25.7108],[-100.2323,25.7131],[-100.2189,25.7117],[-100.2038,25.7182],[-100.2069,25.7318],[-100.1784,25.7294],[-100.1846,25.7124],[-100.1765,25.7116],[-100.1737,25.7074],[-100.1583,25.7058],[-100.1545,25.7083],[-100.155,25.7043],[-100.1413,25.7019],[-100.1389,25.7049],[-100.1387,25.7015],[-100.1315,25.7006],[-100.1311,25.6973],[-100.1231,25.6941],[-100.1205,25.6967],[-100.1226,25.6979],[-100.1172,25.6966]]]}},{"type":"Feature","properties":{"cve_ent":"19","cve_mun":"027","cvegeo":"19027","nombre":"Los Herreras"},"geometry":{"type":"Polygon","coordinates":[[[-99.3803,26.0939],[-99.3652,26.0611],[-99.3657,26.0542],[-99.3617,26.0538],[-99.3343,25.9935],[-99.3359,25.9388],[-99.3348,25.9318],[-99.332,25.9307],[-99.3323,25.9144],[-99.3131,25.9255],[-99.308,25.9213],[-99.305,25.9072],[-99.2982,25.8994],[-99.2878,25.8999],[-99.2816,25.9048],[-99.2814,25.842],[-99.2756,25.8381],[-99.3601,25.7828],[-99.4163,25.8478],[-99.4177,25.8429],[-99.4285,25.8429],[-99.4267,25.8362],[-99.43,25.8338],[-99.439,25.84],[-99.4434,25.8377],[-99.4534,25.8423],[-99.4775,25.8209],[-99.4817,25.8223],[-99.4883,25.8162],[-99.5031,25.8469],[-99.5605,25.8312],[-99.5607,25.8379],[-99.551,25.841],[-99.5537,25.8492],[-99.5401,25.8546],[-99.5386,25.8589],[-99.538,25.9128],[-99.5203,25.9236],[-99.561,25.9941],[-99.5443,25.9944],[-99.5421,26.0034],[-99.5323,26.0024],[-99.5296,25.9982],[-99.5241,25.9972],[-99.5092,25.9984],[-99.4959,25.9942],[-99.4434,25.9927],[-99.4042,26.0054],[-99.396,26.0949],[-99.3803,26.0939]]]}},{"type":"Feature","properties":{"cve_ent":"19","cve_mun":"028","cvegeo":"19028","nombre":"Higueras"},"geometry":{"type":"Polygon","coordinates":[[[-99.9793,26.164],[-99.9619,26.1627],[-99.9496,26.1544],[-99.9482,26.1456],[-99.9402,26.1349],[-99.9387,26.1206],[-99.928,26.1139],[-99.927,26.0967],[-99.9193,26.0908],[-99.9163,26.0816],[-99.9199,26.0795],[-99.9171,26.0712],[-99.9194,26.0629],[-99.9157,26.0649],[-99.9145,26.0624],[-99.9189,26.0495],[-99.9051,26.0375],[-99.9005,26.036],[-99.8916,26.0421],[-99.8832,26.0372],[-99.8834,26.0316],[-99.8978,26.0365],[-99.9002,26.0301],[-99.8917,26.0262],[-99.8985,26.0245],[-99.8967,26.0168],[-99.8906,26.0143],[-99.8952,26.008],[-99.8827,26.0069],[-99.8802,25.9945],[-99.8941,25.9825],[-99.8985,25.9712],[-99.9142,25.9584],[-99.9143,25.9458],[-99.9244,25.9325],[-99.9241,25.9263],[-99.9301,25.9242],[-99.9454,25.9095],[-99.9507,25.9086],[-99.9515,25.9052],[-99.9978,25.92],[-100.0649,25.918],[-100.0839,25.952],[-100.0815,25.9566],[-100.0747,25.9492],[-100.052,25.9644],[-100.0627,25.9779],[-100.0775,26.0195],[-100.1044,25.9965],[-100.1107,26.0127],[-100.1137,26.0134],[-100.1135,26.0252],[-100.1174,26.029],[-100.1181,26.0381],[-100.0748,26.0626],[-100.1044,26.1172],[-100.0667,26.1311],[-100.023,26.152],[-100.0178,26.1659],[-100.0017,26.1642],[-99.997,26.1604],[-99.9928,26.163],[-99.9884,26.1602],[-99.9793,26.164]]]}},{"type":"Feature","properties":{"cve_ent":"19","cve_mun":"029","cvegeo":"19029","nombre":"Hualahuises"},"geometry":{"type":"Polygon","coordinates":[[[-99.7325,24.9331],[-99.6162,24.9292],[-99.6184,24.9085],[-99.6138,24.9052],[-99.6137,24.8866],[-99.6177,24.8871],[-99.6189,24.8697],[-99.6101,24.8672],[-99.6102,24.8625],[-99.6154,24.8625],[-99.6162,24.8431],[-99.6258,24.8433],[-99.6261,24.8377],[-99.6356,24.8349],[-99.6501,24.8406],[-99.6543,24.8366],[-99.6651,24.8382],[-99.6675,24.8352],[-99.6682,24.8379],[-99.7414,24.8375],[-99.7434,24.8641],[-99.7404,24.8637],[-99.7408,24.8768],[-99.738,24.8772],[-99.7417,24.8846],[-99.737,24.8856],[-99.74,24.8968],[-99.738,24.8958],[-99.7325,24.9331]]]}},{"type":"Feature","properties":{"cve_ent":"19","cve_mun":"030","cvegeo":"19030","nombre":"Iturbide"},"geometry":{"type":"Polygon","coordinates":[[[-99.733,24.554],[-99.7103,24.4421],[-99.743,24.4193],[-99.7406,24.4091],[-99.744,24.3917],[-99.7625,24.3902],[-99.7751,24.4105],[-99.7923,24.4067],[-99.8034,24.4281],[-99.8012,24.4291],[-99.8085,24.4464],[-99.8362,24.4727],[-99.8396,24.4716],[-99.8478,24.4856],[-99.8386,24.4959],[-99.879,24.5092],[-99.8754,24.527],[-99.8547,24.5535],[-99.8415,24.5648],[-99.8667,24.6186],[-99.8992,24.6507],[-99.9481,24.6839],[-99.9564,24.6953],[-99.9662,24.7],[-99.9722,24.7057],[-99.9721,24.7094],[-99.9812,24.7137],[-99.9824,24.7189],[-99.9964,24.7306],[-99.983,24.7449],[-99.977,24.744],[-99.9584,24.7629],[-99.9481,24.7638],[-99.9628,24.7796],[-99.969,24.7987],[-99.9818,24.8131],[-99.9836,24.8254],[-99.9589,24.819],[-99.9445,24.8327],[-99.9281,24.8261],[-99.9398,24.8376],[-99.94,24.8426],[-99.944,24.8429],[-99.9468,24.8488],[-99.9444,24.8534],[-99.9501,24.8542],[-99.9497,24.8592],[-99.955,24.8605],[-99.9541,24.8652],[-99.9588,24.8675],[-99.9565,24.8694],[-99.9645,24.8718],[-99.9631,24.8753],[-99.9685,24.8786],[-99.9669,24.8822],[-99.9702,24.8857],[-99.9691,24.8914],[-99.963,24.8916],[-99.9619,24.8945],[-99.9563,24.8865],[-99.9589,24.8792],[-99.9408,24.8586],[-99.8843,24.898],[-99.8801,24.8874],[-99.8817,24.8682],[-99.8539,24.8501],[-99.8542,24.8457],[-99.8621,24.8397],[-99.8912,24.8233],[-99.8805,24.8179],[-99.8737,24.8104],[-99.8751,24.7967],[-99.8712,24.7755],[-99.839,24.7431],[-99.8113,24.6741],[-99.8122,24.6493],[-99.7783,24.6026],[-99.7723,24.5862],[-99.733,24.554]]]}},{"type":"Feature","properties":{"cve_ent":"19","cve_mun":"031","cvegeo":"19031","nombre":"Juárez"},"geometry":{"type":"Polygon","coordinates":[[[-100.0365,25.6992],[-100.0391,25.6953],[-99.996,25.6909],[-99.9943,25.6891],[-99.9982,25.6832],[-99.9901,25.6823],[-100.0036,25.6668],[-99.9962,25.6665],[-100.009,25.6522],[-100.0559,25.6614],[-100.0656,25.6533],[-100.0402,25.6377],[-100.0424,25.6201],[-100.056,25.628],[-100.0628,25.6114],[-100.0745,25.6102],[-100.0804,25.6051],[-100.0858,25.6069],[-100.0866,25.6014],[-100.0942,25.5983],[-100.1044,25.5845],[-100.0905,25.5717],[-100.0985,25.5766],[-100.1018,25.5736],[-100.0979,25.5699],[-100.1018,25.5661],[-100.0958,25.5606],[-100.1068,25.5687],[-100.1107,25.5648],[-100.0773,25.5339],[-100.0739,25.5403],[-100.0501,25.5163],[-100.0553,25.5211],[-100.0606,25.5152],[-100.0719,25.5256],[-100.0759,25.5234],[-100.0734,25.5211],[-100.088,25.5121],[-100.0951,25.5155],[-100.1016,25.5139],[-100.1071,25.5166],[-100.1114,25.5243],[-100.1234,25.522],[-100.1226,25.5271],[-100.1277,25.5307],[-100.1252,25.532],[-100.127,25.535],[-100.1342,25.5366],[-100.1625,25.525],[-100.1627,25.5288],[-100.1693,25.5311],[-100.1736,25.538],[-100.1793,25.5303],[-100.2,25.5517],[-100.2164,25.5812],[-100.2432,25.617],[-100.2421,25.6248],[-100.2092,25.6231],[-100.2087,25.6208],[-100.1873,25.6364],[-100.1249,25.6723],[-100.1164,25.7032],[-100.053,25.6975],[-100.0525,25.7033],[-100.0365,25.6992]]]}},{"type":"Feature","properties":{"cve_ent":"19","cve_mun":"032","cvegeo":"19032","nombre":"Lampazos de Naranjo"},"geometry":{"type":"Polygon","coordinates":[[[-100.0026,26.914],[-100.0209,26.9073],[-100.0463,26.9114],[-100.0494,26.9058],[-100.0237,26.8881],[-100.0309,26.8792],[-100.024,26.8683],[-100.0674,26.8398],[-100.0834,26.8498],[-100.0979,26.837],[-100.0939,26.83],[-100.0979,26.8187],[-100.0881,26.7992],[-100.1291,26.7964],[-100.1293,26.7987],[-100.149,26.7974],[-100.1456,26.8048],[-100.1376,26.8106],[-100.1702,26.872],[-100.2509,26.8823],[-100.2474,26.8984],[-100.2545,26.9002],[-100.2526,26.9085],[-100.2722,26.9129],[-100.2797,26.8856],[-100.3005,26.8471],[-100.327,26.8536],[-100.3048,26.8091],[-100.3052,26.7901],[-100.366,26.7884],[-100.3584,26.7438],[-100.351,26.7452],[-100.345,26.717],[-100.3509,26.708],[-100.336,26.6697],[-100.3658,26.675],[-100.3907,26.6733],[-100.4876,26.6322],[-100.4909,26.6715],[-100.608,26.7109],[-100.6013,26.7371],[-100.5901,26.7595],[-100.5382,26.8086],[-100.5414,26.8127],[-100.5417,26.8212],[-100.5447,26.8227],[-100.5466,26.8477],[-100.5514,26.8587],[-100.5407,26.881],[-100.5384,26.9061],[-100.5449,26.9253],[-100.5382,26.9397],[-100.5453,26.9784],[-100.5397,26.9863],[-100.5408,27.0138],[-100.5357,27.027],[-100.5388,27.0387],[-100.534,27.0456],[-100.6537,27.0757],[-100.656,27.0821],[-100.6625,27.0865],[-100.6742,27.0846],[-100.6768,27.1069],[-100.6827,27.1114],[-100.6975,27.1088],[-100.7081,27.0999],[-100.7116,27.0885],[-100.7197,27.0792],[-100.7261,27.0779],[-100.7377,27.0847],[-100.7486,27.0813],[-100.7462,27.0624],[-100.7358,27.0476],[-100.7477,27.0363],[-100.7485,27.0492],[-100.7659,27.0633],[-100.7842,27.0589],[-100.7994,27.0458],[-100.8093,27.0565],[-100.8096,27.0684],[-100.8306,27.0739],[-100.8341,27.1952],[-100.678,27.3348],[-100.4219,27.3927],[-100.4171,27.3886],[-100.4091,27.3878],[-100.4008,27.3732],[-100.3858,27.3711],[-100.3882,27.3614],[-100.3983,27.3565],[-100.3997,27.3401],[-100.3848,27.3343],[-100.3792,27.3212],[-100.3598,27.3072],[-100.3564,27.3001],[-100.35,27.3004],[-100.3468,27.2928],[-100.3223,27.2928],[-100.3187,27.2765],[-100.3033,27.2738],[-100.3036,27.2637],[-100.2831,27.2454],[-100.2527,27.2455],[-100.2528,27.2184],[-100.182,27.2185],[-100.1819,27.1823],[-100.1719,27.1823],[-100.1719,27.1372],[-100.1215,27.1372],[-100.1213,27.1011],[-100.101,27.1011],[-100.101,27.065],[-100.1213,27.065],[-100.1213,27.0289],[-100.0908,27.0289],[-100.0908,27.0087],[-100.0715,27.0134],[-100.0692,27.0195],[-100.0599,27.0214],[-100.0462,27.0107],[-100.0234,27.0114],[-100.0158,27.015],[-100.0177,27.0175],[-100.012,27.0244],[-99.9972,27.0151],[-99.9938,27.0165],[-99.9877,27.0126],[-99.9769,27.0151],[-99.9747,27.0086],[-99.969,27.011],[-99.96,27.009],[-100.0003,26.9856],[-100.0032,26.9739],[-100.0192,26.9562],[-100.0023,26.924],[-100.0061,26.921],[-100.0026,26.914]]]}},{"type":"Feature","properties":{"cve_ent":"19","cve_mun":"033","cvegeo":"19033","nombre":"Linares"},"geometry":{"type":"Polygon","coordinates":[[[-99.1719,25.0459],[-99.1629,25.0436],[-99.1636,25.0349],[-99.1565,25.0278],[-99.1599,25.0258],[-99.1649,25.0295],[-99.1711,25.0248],[-99.1717,25.0197],[-99.1783,25.0177],[-99.1809,25.0115],[-99.1589,24.916],[-99.2074,24.8614],[-99.182,24.776],[-99.1887,24.7807],[-99.2129,24.7717],[-99.2949,24.8041],[-99.2972,24.7941],[-99.3068,24.792],[-99.3107,24.7873],[-99.3179,24.7898],[-99.3317,24.7762],[-99.3644,24.7718],[-99.3679,24.7656],[-99.3764,24.7614],[-99.3818,24.747],[-99.3894,24.7398],[-99.3976,24.7399],[-99.4066,24.7345],[-99.4229,24.7368],[-99.425,24.7301],[-99.4307,24.7258],[-99.4426,24.7268],[-99.4481,24.7322],[-99.4777,24.7126],[-99.4919,24.6977],[-99.4941,24.688],[-99.5007,24.6792],[-99.5006,24.666],[-99.496,24.651],[-99.4995,24.6413],[-99.5128,24.6345],[-99.5282,24.6316],[-99.5379,24.6224],[-99.5398,24.6268],[-99.5451,24.6265],[-99.5478,24.6243],[-99.5462,24.6131],[-99.5572,24.6087],[-99.5574,24.6124],[-99.5761,24.6236],[-99.5858,24.6244],[-99.5926,24.6194],[-99.597,24.6227],[-99.6094,24.6225],[-99.7047,24.5759],[-99.733,24.554],[-99.7723,24.5862],[-99.7783,24.6026],[-99.8122,24.6493],[-99.8113,24.6741],[-99.839,24.7431],[-99.8712,24.7755],[-99.8751,24.7967],[-99.8737,24.8104],[-99.8805,24.8179],[-99.8912,24.8233],[-99.8621,24.8397],[-99.8542,24.8457],[-99.8539,24.8501],[-99.8817,24.8682],[-99.8801,24.8874],[-99.8843,24.898],[-99.9408,24.8586],[-99.9589,24.8792],[-99.9563,24.8865],[-99.9619,24.8945],[-99.957,24.8969],[-99.9495,24.8933],[-99.9381,24.8977],[-99.9366,24.9009],[-99.9419,24.9075],[-99.9395,24.9146],[-99.9154,24.9127],[-99.9209,24.9187],[-99.9139,24.9226],[-99.9156,24.9286],[-99.9093,24.9271],[-99.9014,24.9332],[-99.8931,24.9305],[-99.889,24.9365],[-99.8822,24.93],[-99.8697,24.9329],[-99.8609,24.9468],[-99.8358,24.9579],[-99.8297,24.9682],[-99.8319,24.9745],[-99.8286,24.9783],[-99.8176,24.9825],[-99.8115,24.9925],[-99.7967,24.9984],[-99.7927,24.9938],[-99.7837,24.9934],[-99.7811,24.9975],[-99.7701,24.9919],[-99.7675,24.9952],[-99.7555,24.9897],[-99.7458,24.9905],[-99.7239,24.9781],[-99.7154,24.9833],[-99.7144,24.974],[-99.7057,24.9695],[-99.7003,24.9762],[-99.6967,24.9763],[-99.6996,24.9666],[-99.6944,24.9638],[-99.6893,24.9665],[-99.6888,24.9571],[-99.6773,24.9477],[-99.6731,24.9494],[-99.6718,24.9543],[-99.6641,24.9564],[-99.6566,24.9516],[-99.6521,24.9528],[-99.6509,24.958],[-99.6565,24.9631],[-99.6594,24.973],[-99.6558,24.9785],[-99.651,24.9784],[-99.6428,24.9675],[-99.6295,24.9699],[-99.6164,24.964],[-99.6158,24.9749],[-99.602,24.9724],[-99.5945,24.9908],[-99.574,24.9933],[-99.5666,25.0006],[-99.5489,25.0009],[-99.5403,24.9894],[-99.5294,24.9887],[-99.5284,24.9959],[-99.5229,24.9924],[-99.5256,25.0077],[-99.512,25.008],[-99.5149,24.9867],[-99.5008,24.9979],[-99.4852,25.0039],[-99.479,24.997],[-99.4663,24.9967],[-99.4542,24.9884],[-99.4502,24.9813],[-99.4452,24.9801],[-99.4405,24.9845],[-99.4306,24.9815],[-99.4317,24.9685],[-99.4204,24.9681],[-99.4206,24.9785],[-99.4259,24.9784],[-99.4257,24.9847],[-99.4335,24.9878],[-99.429,24.9959],[-99.4239,24.9955],[-99.4219,24.9897],[-99.4157,24.9873],[-99.4094,25.0218],[-99.3982,25.0155],[-99.3736,25.0102],[-99.3693,25.0376],[-99.4111,25.046],[-99.4064,25.0819],[-99.3988,25.08],[-99.3944,25.1038],[-99.4148,25.1075],[-99.4098,25.1339],[-99.393,25.1334],[-99.3958,25.1193],[-99.3832,25.118],[-99.3804,25.1319],[-99.3681,25.1305],[-99.364,25.1521],[-99.3104,25.1446],[-99.3126,25.1066],[-99.2659,25.1038],[-99.2694,25.0851],[-99.2538,25.084],[-99.2516,25.0959],[-99.1789,25.0902],[-99.1831,25.073],[-99.1967,25.0741],[-99.202,25.0432],[-99.1827,25.0408],[-99.1817,25.0436],[-99.1741,25.0408],[-99.1719,25.0459]],[[-99.6162,24.9292],[-99.7325,24.9331],[-99.738,24.8958],[-99.74,24.8968],[-99.737,24.8856],[-99.7417,24.8846],[-99.738,24.8772],[-99.7408,24.8768],[-99.7404,24.8637],[-99.7434,24.8641],[-99.7414,24.8375],[-99.6682,24.8379],[-99.6675,24.8352],[-99.6651,24.8382],[-99.6543,24.8366],[-99.6501,24.8406],[-99.6356,24.8349],[-99.6261,24.8377],[-99.6258,24.8433],[-99.6162,24.8431],[-99.6154,24.8625],[-99.6102,24.8625],[-99.6101,24.8672],[-99.6189,24.8697],[-99.6177,24.8871],[-99.6137,24.8866],[-99.6138,24.9052],[-99.6184,24.9085],[-99.6162,24.9292]]]}},{"type":"Feature","properties":{"cve_ent":"19","cve_mun":"034","cvegeo":"19034","nombre":"Marín"},"geometry":{"type":"Polygon","coordinates":[[[-99.8023,25.9957],[-99.9442,25.8915],[-99.9517,25.8943],[-99.9515,25.8879],[-99.945,25.8836],[-99.9706,25.8888],[-99.9831,25.9039],[-99.9692,25.8383],[-99.9655,25.8348],[-99.9471,25.8327],[-99.9401,25.8273],[-99.9349,25.8273],[-99.919,25.8054],[-99.9011,25.8033],[-99.9047,25.7903],[-99.8926,25.7883],[-99.8941,25.7792],[-99.903,25.7769],[-99.9022,25.7727],[-99.8982,25.7716],[-99.9003,25.764],[-99.8822,25.7479],[-99.9097,25.7544],[-99.9329,25.7522],[-99.9644,25.7656],[-99.9794,25.765],[-99.9901,25.7748],[-99.9889,25.7848],[-99.9929,25.791],[-99.9933,25.7997],[-100.003,25.799],[-100.0184,25.8035],[-100.0313,25.8168],[-100.0313,25.824],[-100.0591,25.8156],[-100.0595,25.8186],[-100.0659,25.8161],[-100.1042,25.8315],[-100.098,25.8345],[-100.0976,25.8474],[-100.1011,25.8491],[-100.097,25.8539],[-100.0949,25.8514],[-100.093,25.8533],[-100.0927,25.8599],[-100.0858,25.8682],[-100.082,25.8659],[-100.084,25.8704],[-100.0688,25.8808],[-100.0609,25.9125],[-100.0649,25.918],[-99.9978,25.92],[-99.9515,25.9052],[-99.9507,25.9086],[-99.9454,25.9095],[-99.9301,25.9242],[-99.9259,25.9246],[-99.9243,25.9326],[-99.9143,25.9458],[-99.9142,25.9584],[-99.8985,25.9712],[-99.8941,25.9825],[-99.8802,25.9945],[-99.8827,26.0069],[-99.8952,26.008],[-99.8841,26.0219],[-99.8722,26.0151],[-99.8685,26.0185],[-99.8706,26.0154],[-99.8615,26.0089],[-99.8456,26.0244],[-99.8447,26.0201],[-99.8359,26.0203],[-99.8411,26.0151],[-99.8165,26.0183],[-99.8185,26.0158],[-99.8136,26.0156],[-99.8137,26.0111],[-99.8081,26.0075],[-99.8107,26.0057],[-99.8039,26.0067],[-99.8052,26.0019],[-99.8007,26.0023],[-99.8057,25.9988],[-99.8023,25.9957]]]}},{"type":"Feature","properties":{"cve_ent":"19","cve_mun":"035","cvegeo":"19035","nombre":"Melchor Ocampo"},"geometry":{"type":"Polygon","coordinates":[[[-99.396,26.0949],[-99.4042,26.0054],[-99.4434,25.9927],[-99.4959,25.9942],[-99.5092,25.9984],[-99.5241,25.9972],[-99.5296,25.9982],[-99.5323,26.0024],[-99.5421,26.0034],[-99.5443,25.9944],[-99.561,25.9941],[-99.5886,26.0403],[-99.5859,26.0419],[-99.6065,26.073],[-99.5871,26.0922],[-99.5581,26.0972],[-99.4606,26.0996],[-99.396,26.0949]]]}},{"type":"Feature","properties":{"cve_ent":"19","cve_mun":"036","cvegeo":"19036","nombre":"Mier y Noriega"},"geometry":{"type":"Polygon","coordinates":[[[-99.9477,23.4972],[-99.9213,23.3792],[-99.9825,23.3924],[-100.0803,23.3957],[-100.1207,23.3578],[-100.145,23.3395],[-100.078,23.306],[-100.1019,23.2311],[-100.2282,23.2505],[-100.2064,23.3071],[-100.2182,23.3101],[-100.2202,23.2979],[-100.2784,23.3104],[-100.3063,23.2609],[-100.3258,23.2631],[-100.3317,23.2591],[-100.3414,23.2915],[-100.3369,23.3597],[-100.3233,23.378],[-100.3574,23.3879],[-100.359,23.3925],[-100.3554,23.4019],[-100.3523,23.4009],[-100.3428,23.4115],[-100.3341,23.4133],[-100.3383,23.4209],[-100.3249,23.435],[-100.3214,23.4939],[-100.2995,23.4892],[-100.2962,23.5339],[-100.2879,23.5586],[-100.2513,23.5564],[-100.2511,23.543],[-100.2458,23.54],[-100.2468,23.5375],[-100.2444,23.5362],[-100.2438,23.5388],[-100.2343,23.5333],[-100.2325,23.5469],[-100.1896,23.5542],[-100.1435,23.542],[-100.1614,23.5728],[-100.1199,23.5665],[-100.1133,23.5601],[-100.1035,23.559],[-100.1068,23.5516],[-100.037,23.5272],[-100.0198,23.5597],[-99.992,23.5386],[-99.9789,23.5368],[-99.9835,23.5124],[-99.9477,23.4972]]]}},{"type":"Feature","properties":{"cve_ent":"19","cve_mun":"037","cvegeo":"19037","nombre":"Mina"},"geometry":{"type":"Polygon","coordinates":[[[-100.6961,26.6234],[-100.6918,26.61],[-100.6766,26.5876],[-100.6551,26.5676],[-100.6369,26.5336],[-100.6369,26.5214],[-100.6098,26.524],[-100.619,26.4993],[-100.6196,26.4932],[-100.6167,26.4933],[-100.6212,26.4791],[-100.6136,26.4783],[-100.6142,26.4661],[-100.6213,26.4656],[-100.6138,26.4567],[-100.6154,26.446],[-100.6237,26.4319],[-100.5146,26.4333],[-100.5112,26.4291],[-100.515,26.4133],[-100.5086,26.4086],[-100.5069,26.3977],[-100.5025,26.3933],[-100.507,26.3889],[-100.4998,26.3868],[-100.4959,26.3815],[-100.5037,26.3688],[-100.4883,26.3591],[-100.4896,26.3546],[-100.4817,26.3464],[-100.4714,26.3424],[-100.4799,26.3355],[-100.472,26.3336],[-100.4757,26.3238],[-100.463,26.3019],[-100.4667,26.2969],[-100.4627,26.289],[-100.4519,26.2806],[-100.4491,26.2689],[-100.4488,26.2591],[-100.4642,26.2562],[-100.4998,26.2123],[-100.5037,26.2112],[-100.5053,26.2061],[-100.5009,26.2018],[-100.522,26.2104],[-100.5649,26.1233],[-100.5395,26.1079],[-100.5383,26.0999],[-100.505,26.0687],[-100.4741,26.0478],[-100.4581,26.0323],[-100.4662,26.0181],[-100.475,26.0244],[-100.4848,25.9967],[-100.479,25.9947],[-100.4799,25.9891],[-100.4851,25.9862],[-100.5031,25.9516],[-100.4956,25.9035],[-100.504,25.9008],[-100.5236,25.9059],[-100.5748,25.8814],[-100.6005,25.8733],[-100.6116,25.8627],[-100.612,25.9477],[-100.6174,25.9671],[-100.6475,25.9587],[-100.6573,25.9501],[-100.6657,25.9519],[-100.6693,25.9467],[-100.6752,25.9505],[-100.7204,25.9447],[-100.7374,25.9835],[-100.7539,25.9604],[-100.775,25.9502],[-100.8162,25.94],[-100.8183,25.9501],[-100.8243,25.9441],[-100.8769,25.9472],[-100.9055,25.9569],[-100.9046,26.0087],[-100.9164,26.0756],[-100.9429,26.0868],[-100.9426,26.0906],[-100.9827,26.1395],[-101.0474,26.1698],[-101.0686,26.189],[-101.0976,26.2529],[-101.2068,26.3698],[-100.9051,26.6086],[-100.753,26.7352],[-100.6961,26.6234]]]}},{"type":"Feature","properties":{"cve_ent":"19","cve_mun":"038","cvegeo":"19038","nombre":"Montemorelos"},"geometry":{"type":"Polygon","coordinates":[[[-99.8002,25.3684],[-99.7837,25.3484],[-99.7824,25.3411],[-99.795,25.2833],[-99.7807,25.2665],[-99.7771,25.272],[-99.7756,25.2701],[-99.7713,25.2728],[-99.7741,25.2761],[-99.7652,25.2803],[-99.7495,25.2621],[-99.7465,25.2473],[-99.7406,25.2397],[-99.7473,25.2374],[-99.7479,25.231],[-99.7514,25.2285],[-99.7593,25.2275],[-99.7546,25.2227],[-99.7506,25.2084],[-99.7459,25.2114],[-99.7445,25.2182],[-99.7432,25.2118],[-99.7384,25.2111],[-99.7302,25.2179],[-99.723,25.2181],[-99.6963,25.1833],[-99.658,25.1533],[-99.664,25.1465],[-99.6414,25.1288],[-99.6369,25.1278],[-99.6279,25.1343],[-99.6107,25.1204],[-99.6151,25.116],[-99.5833,25.0907],[-99.5763,25.1012],[-99.5667,25.1054],[-99.5658,25.1112],[-99.549,25.1131],[-99.5425,25.1107],[-99.5396,25.1147],[-99.5359,25.1135],[-99.5322,25.1173],[-99.5294,25.1157],[-99.5228,25.119],[-99.5222,25.1247],[-99.5183,25.1231],[-99.51,25.1323],[-99.5007,25.133],[-99.501,25.137],[-99.4967,25.1377],[-99.4969,25.143],[-99.488,25.1505],[-99.4827,25.1499],[-99.4832,25.1552],[-99.4801,25.1548],[-99.4809,25.1585],[-99.4776,25.159],[-99.4796,25.1452],[-99.4454,25.1417],[-99.4522,25.0994],[-99.4164,25.0938],[-99.4148,25.1075],[-99.3944,25.1038],[-99.3988,25.08],[-99.4064,25.0819],[-99.4111,25.046],[-99.3693,25.0376],[-99.3736,25.0102],[-99.3982,25.0155],[-99.4094,25.0218],[-99.4157,24.9873],[-99.4219,24.9897],[-99.4239,24.9955],[-99.429,24.9959],[-99.4335,24.9878],[-99.4257,24.9847],[-99.4259,24.9784],[-99.4206,24.9785],[-99.4204,24.9681],[-99.4317,24.9685],[-99.4306,24.9815],[-99.4405,24.9845],[-99.4452,24.9801],[-99.4502,24.9813],[-99.4542,24.9884],[-99.4663,24.9967],[-99.479,24.997],[-99.4852,25.0039],[-99.5008,24.9979],[-99.5149,24.9867],[-99.512,25.008],[-99.5256,25.0077],[-99.5229,24.9924],[-99.5284,24.9959],[-99.5294,24.9887],[-99.5403,24.9894],[-99.5489,25.0009],[-99.5666,25.0006],[-99.574,24.9933],[-99.5945,24.9908],[-99.602,24.9724],[-99.6158,24.9749],[-99.6164,24.964],[-99.6295,24.9699],[-99.6428,24.9675],[-99.651,24.9784],[-99.6558,24.9785],[-99.6594,24.973],[-99.6565,24.9631],[-99.6509,24.958],[-99.6521,24.9528],[-99.6566,24.9516],[-99.6641,24.9564],[-99.6718,24.9543],[-99.6759,24.9477],[-99.6888,24.9571],[-99.6893,24.9665],[-99.6944,24.9638],[-99.6996,24.9666],[-99.6967,24.9763],[-99.7003,24.9762],[-99.7057,24.9695],[-99.7144,24.974],[-99.7154,24.9833],[-99.7239,24.9781],[-99.7458,24.9905],[-99.7555,24.9897],[-99.7675,24.9952],[-99.7701,24.9919],[-99.7811,24.9975],[-99.7837,24.9934],[-99.7927,24.9938],[-99.7967,24.9984],[-99.8115,24.9925],[-99.8176,24.9825],[-99.8286,24.9783],[-99.8319,24.9745],[-99.8297,24.9682],[-99.8358,24.9579],[-99.8609,24.9468],[-99.8697,24.9329],[-99.8822,24.93],[-99.8885,24.9366],[-99.8931,24.9305],[-99.9014,24.9332],[-99.9093,24.9271],[-99.9156,24.9286],[-99.9139,24.9226],[-99.9209,24.9187],[-99.9154,24.9127],[-99.9269,24.9117],[-99.9326,24.9159],[-99.9338,24.913],[-99.9457,24.9186],[-99.9873,25.0441],[-99.9818,25.0456],[-99.9841,25.05],[-99.9895,25.0502],[-99.9875,25.0521],[-99.9916,25.0601],[-99.9853,25.07],[-100.0005,25.0794],[-100.0192,25.0749],[-100.0193,25.0711],[-100.0238,25.0694],[-100.0203,25.0567],[-100.027,25.0576],[-100.0304,25.0697],[-100.0412,25.0696],[-100.0433,25.0756],[-100.0525,25.081],[-100.0569,25.0989],[-100.0641,25.1108],[-100.0703,25.1144],[-100.0965,25.0966],[-100.0954,25.1149],[-100.11,25.1279],[-100.1568,25.1905],[-100.156,25.202],[-100.1711,25.2238],[-100.1329,25.2598],[-100.071,25.2307],[-100.0739,25.2294],[-100.0703,25.2252],[-100.0669,25.2281],[-100.0659,25.2248],[-100.0619,25.2243],[-100.0561,25.2293],[-100.0409,25.2321],[-100.0379,25.2416],[-100.0286,25.2533],[-100.0058,25.2604],[-99.9988,25.259],[-99.9913,25.2663],[-99.9836,25.264],[-99.9777,25.2681],[-99.9714,25.2652],[-99.9708,25.2738],[-99.9662,25.2789],[-99.9578,25.2752],[-99.9536,25.2861],[-99.9467,25.2841],[-99.9445,25.2877],[-99.9396,25.2877],[-99.9374,25.2995],[-99.9485,25.2965],[-99.9537,25.3003],[-99.9278,25.312],[-99.9295,25.3163],[-99.94,25.3188],[-99.9446,25.3351],[-99.9439,25.3392],[-99.9347,25.3453],[-99.9328,25.35],[-99.9349,25.3559],[-99.9407,25.3579],[-99.9427,25.3724],[-99.9399,25.3766],[-99.9317,25.377],[-99.928,25.3819],[-99.9278,25.3882],[-99.9344,25.3941],[-99.9403,25.4066],[-99.9318,25.4203],[-99.8273,25.3398],[-99.8217,25.3455],[-99.8074,25.3513],[-99.8002,25.3684]]]}},{"type":"Feature","properties":{"cve_ent":"19","cve_mun":"039","cvegeo":"19039","nombre":"Monterrey"},"geometry":{"type":"Polygon","coordinates":[[[-100.3368,25.7627],[-100.3221,25.7501],[-100.3239,25.7377],[-100.3171,25.7349],[-100.3171,25.7227],[-100.2838,25.7081],[-100.2686,25.7082],[-100.2682,25.7033],[-100.2618,25.7012],[-100.2613,25.6827],[-100.2709,25.6814],[-100.2759,25.6763],[-100.2717,25.6764],[-100.2742,25.6735],[-100.269,25.66],[-100.2736,25.6557],[-100.2681,25.6508],[-100.2743,25.647],[-100.2692,25.64],[-100.2727,25.6252],[-100.2695,25.6215],[-100.2433,25.6261],[-100.2432,25.617],[-100.2346,25.6031],[-100.2164,25.5812],[-100.2,25.5517],[-100.1674,25.5169],[-100.1709,25.5142],[-100.1762,25.5131],[-100.1789,25.5182],[-100.1866,25.5212],[-100.1918,25.5204],[-100.1971,25.5147],[-100.2061,25.5161],[-100.2228,25.5004],[-100.23,25.5076],[-100.2332,25.5054],[-100.2294,25.4986],[-100.2576,25.4821],[-100.2661,25.4979],[-100.2734,25.5019],[-100.271,25.5077],[-100.2781,25.5195],[-100.2866,25.5236],[-100.2886,25.5292],[-100.2944,25.5289],[-100.2996,25.5328],[-100.3032,25.5393],[-100.3183,25.5472],[-100.3147,25.5589],[-100.3188,25.5608],[-100.317,25.5718],[-100.3293,25.5768],[-100.3444,25.5889],[-100.3129,25.647],[-100.3635,25.6711],[-100.3668,25.6681],[-100.3804,25.6678],[-100.3954,25.6732],[-100.3982,25.6768],[-100.3977,25.6945],[-100.4037,25.7025],[-100.425,25.7148],[-100.4416,25.7205],[-100.4154,25.7894],[-100.4037,25.7965],[-100.3934,25.7928],[-100.3872,25.7973],[-100.3631,25.7894],[-100.3502,25.7785],[-100.3405,25.7622],[-100.3368,25.7627]]]}},{"type":"Feature","properties":{"cve_ent":"19","cve_mun":"040","cvegeo":"19040","nombre":"Parás"},"geometry":{"type":"Polygon","coordinates":[[[-99.3968,26.5966],[-99.4098,26.4428],[-99.4142,26.4448],[-99.4157,26.4382],[-99.4213,26.4377],[-99.4297,26.4433],[-99.4333,26.4418],[-99.4467,26.446],[-99.4596,26.4399],[-99.4658,26.4426],[-99.4624,26.4033],[-99.4744,26.3994],[-99.4755,26.3886],[-99.5779,26.4136],[-99.5768,26.4048],[-99.5799,26.4002],[-99.5892,26.4048],[-99.59,26.4097],[-99.6109,26.4087],[-99.6104,26.398],[-99.5989,26.3919],[-99.5988,26.3884],[-99.6065,26.3872],[-99.6062,26.3893],[-99.6188,26.3911],[-99.6204,26.3948],[-99.6534,26.3886],[-99.6432,26.3511],[-99.664,26.3511],[-99.664,26.3401],[-99.6711,26.3402],[-99.671,26.3442],[-99.6744,26.3443],[-99.6744,26.3525],[-99.6886,26.3524],[-99.6887,26.3631],[-99.7217,26.3631],[-99.7215,26.369],[-99.7145,26.3689],[-99.7144,26.374],[-99.7256,26.3741],[-99.7309,26.3678],[-99.7357,26.3736],[-99.7287,26.3801],[-99.7359,26.3896],[-99.7354,26.3945],[-99.7216,26.4102],[-99.7279,26.4153],[-99.7248,26.4219],[-99.7286,26.4233],[-99.7306,26.4301],[-99.7278,26.4344],[-99.7227,26.4352],[-99.7199,26.4429],[-99.7244,26.471],[-99.721,26.4826],[-99.7242,26.4838],[-99.7192,26.542],[-99.7126,26.5416],[-99.7144,26.5716],[-99.6886,26.5796],[-99.6903,26.5999],[-99.683,26.6077],[-99.6958,26.6128],[-99.7079,26.5983],[-99.7342,26.6719],[-99.8015,26.6907],[-99.7783,26.7447],[-99.7496,26.7343],[-99.715,26.8001],[-99.7047,26.7934],[-99.6834,26.8246],[-99.714,26.8423],[-99.6821,26.8888],[-99.6781,26.8899],[-99.6789,26.8958],[-99.6667,26.8945],[-99.6618,26.9009],[-99.6473,26.8944],[-99.6443,26.8856],[-99.6369,26.8873],[-99.6347,26.8911],[-99.63,26.8903],[-99.631,26.8839],[-99.6288,26.8812],[-99.6252,26.883],[-99.6272,26.8706],[-99.6211,26.8684],[-99.6112,26.8735],[-99.5902,26.8616],[-99.5934,26.8545],[-99.5844,26.8481],[-99.5835,26.832],[-99.5808,26.8298],[-99.5868,26.8248],[-99.5892,26.8146],[-99.5989,26.8146],[-99.5971,26.8096],[-99.6038,26.8079],[-99.6046,26.8001],[-99.6129,26.7916],[-99.6112,26.7825],[-99.6229,26.7692],[-99.6161,26.7544],[-99.6186,26.7265],[-99.6572,26.6951],[-99.6632,26.6829],[-99.6592,26.6704],[-99.5383,26.6646],[-99.3968,26.5966]]]}},{"type":"Feature","properties":{"cve_ent":"19","cve_mun":"041","cvegeo":"19041","nombre":"Pesquería"},"geometry":{"type":"Polygon","coordinates":[[[-100.1147,25.8365],[-100.0659,25.8161],[-100.0595,25.8186],[-100.0591,25.8156],[-100.0313,25.824],[-100.0313,25.8168],[-100.0184,25.8035],[-100.003,25.799],[-99.9933,25.7997],[-99.9929,25.791],[-99.9889,25.7848],[-99.9901,25.7748],[-99.9794,25.765],[-99.9644,25.7656],[-99.9329,25.7522],[-99.9083,25.7543],[-99.8429,25.7377],[-99.8277,25.7392],[-99.7985,25.725],[-99.7912,25.7114],[-99.7792,25.711],[-99.7666,25.6952],[-99.7737,25.6837],[-99.7786,25.6812],[-99.7821,25.6714],[-99.7873,25.6732],[-99.7999,25.6576],[-99.8028,25.658],[-99.7968,25.669],[-99.7989,25.6729],[-99.8102,25.6716],[-99.8205,25.6591],[-99.8311,25.6592],[-99.8312,25.6684],[-99.8467,25.6734],[-99.8494,25.6849],[-99.8716,25.6844],[-99.8832,25.6909],[-99.8996,25.6919],[-99.9005,25.6878],[-99.9072,25.6863],[-99.928,25.6946],[-99.9454,25.6935],[-99.9496,25.6906],[-99.9607,25.6909],[-99.9663,25.6823],[-99.9775,25.6785],[-99.9874,25.6833],[-99.9982,25.6832],[-99.9943,25.6891],[-99.9977,25.6918],[-100.0391,25.6953],[-100.0365,25.6992],[-100.0424,25.7021],[-100.0525,25.7033],[-100.053,25.6975],[-100.0724,25.701],[-100.1068,25.7014],[-100.1097,25.7082],[-100.1156,25.7091],[-100.115,25.7157],[-100.1249,25.7162],[-100.1243,25.7346],[-100.1486,25.7311],[-100.1356,25.7381],[-100.1352,25.7433],[-100.1049,25.7678],[-100.1012,25.7851],[-100.1021,25.7909],[-100.1057,25.7924],[-100.1012,25.8004],[-100.1207,25.8135],[-100.1281,25.8146],[-100.1319,25.8211],[-100.1302,25.8303],[-100.1147,25.8365]]]}},{"type":"Feature","properties":{"cve_ent":"19","cve_mun":"042","cvegeo":"19042","nombre":"Los Ramones"},"geometry":{"type":"Polygon","coordinates":[[[-99.5387,25.9016],[-99.5396,25.8559],[-99.5537,25.8492],[-99.551,25.841],[-99.5607,25.8379],[-99.5605,25.8312],[-99.5031,25.8469],[-99.4883,25.8162],[-99.4817,25.8223],[-99.4786,25.8203],[-99.4715,25.8255],[-99.4586,25.8388],[-99.4018,25.7716],[-99.4056,25.7661],[-99.4026,25.7617],[-99.4261,25.7537],[-99.4415,25.743],[-99.419,25.7148],[-99.4455,25.6982],[-99.4436,25.6926],[-99.4471,25.6972],[-99.4612,25.6882],[-99.4139,25.6232],[-99.4176,25.6004],[-99.4212,25.6004],[-99.4322,25.5366],[-99.4321,25.5329],[-99.4263,25.5301],[-99.4176,25.5312],[-99.4108,25.5145],[-99.4117,25.4997],[-99.4246,25.5008],[-99.4242,25.4768],[-99.4398,25.4785],[-99.4599,25.4878],[-99.466,25.4851],[-99.4581,25.4609],[-99.467,25.457],[-99.4737,25.4612],[-99.4854,25.4608],[-99.4967,25.4688],[-99.5155,25.4612],[-99.5146,25.4538],[-99.5226,25.4471],[-99.5308,25.4546],[-99.5321,25.4648],[-99.538,25.4674],[-99.5362,25.4704],[-99.5424,25.4769],[-99.5413,25.4849],[-99.5497,25.4881],[-99.5656,25.4879],[-99.5714,25.4927],[-99.5888,25.4875],[-99.5933,25.4908],[-99.5948,25.5001],[-99.632,25.4977],[-99.6297,25.4712],[-99.6419,25.4703],[-99.6402,25.4538],[-99.6478,25.455],[-99.6497,25.4768],[-99.6711,25.4751],[-99.6643,25.3962],[-99.6747,25.3985],[-99.6744,25.3951],[-99.6803,25.3949],[-99.6828,25.4241],[-99.6903,25.4193],[-99.6905,25.4221],[-99.7028,25.4234],[-99.6988,25.3789],[-99.7852,25.43],[-99.77,25.4326],[-99.7663,25.4459],[-99.7596,25.4534],[-99.7613,25.4571],[-99.7544,25.4572],[-99.7458,25.4661],[-99.7481,25.4698],[-99.7412,25.4735],[-99.736,25.4689],[-99.732,25.4714],[-99.7288,25.4817],[-99.7223,25.4851],[-99.7182,25.4994],[-99.7119,25.5007],[-99.7044,25.4937],[-99.6972,25.4937],[-99.6871,25.5041],[-99.6862,25.5134],[-99.6938,25.5177],[-99.698,25.5299],[-99.7109,25.5444],[-99.7349,25.5503],[-99.7364,25.5463],[-99.7405,25.5658],[-99.739,25.6247],[-99.7508,25.6293],[-99.7489,25.6436],[-99.7511,25.6515],[-99.7647,25.6535],[-99.7667,25.6664],[-99.7821,25.6714],[-99.7786,25.6812],[-99.7658,25.6955],[-99.758,25.7358],[-99.7176,25.7258],[-99.6621,25.781],[-99.6803,25.7912],[-99.6837,25.7974],[-99.6815,25.8207],[-99.6836,25.8255],[-99.6776,25.8266],[-99.6788,25.8362],[-99.6746,25.8362],[-99.6734,25.8403],[-99.6665,25.8435],[-99.6667,25.8472],[-99.7027,25.8788],[-99.7081,25.888],[-99.7047,25.8932],[-99.6999,25.8914],[-99.6998,25.8943],[-99.7068,25.903],[-99.6779,25.93],[-99.6735,25.9275],[-99.6729,25.9206],[-99.6676,25.9165],[-99.6623,25.9002],[-99.6274,25.8637],[-99.5387,25.9016]]]}},{"type":"Feature","properties":{"cve_ent":"19","cve_mun":"043","cvegeo":"19043","nombre":"Rayones"},"geometry":{"type":"Polygon","coordinates":[[[-100.2101,25.2695],[-100.156,25.202],[-100.1568,25.1905],[-100.11,25.1279],[-100.0954,25.1149],[-100.0965,25.0966],[-100.0703,25.1144],[-100.0641,25.1108],[-100.0569,25.0989],[-100.0525,25.081],[-100.0433,25.0756],[-100.0412,25.0696],[-100.0304,25.0697],[-100.027,25.0576],[-100.0203,25.0567],[-100.0238,25.0694],[-100.0193,25.0711],[-100.0192,25.0749],[-100.0005,25.0794],[-99.9853,25.07],[-99.9916,25.0601],[-99.9875,25.0521],[-99.9895,25.0502],[-99.9841,25.05],[-99.9818,25.0456],[-99.9873,25.0441],[-99.9466,24.9198],[-99.937,24.9152],[-99.9419,24.9075],[-99.9366,24.9009],[-99.9381,24.8977],[-99.9495,24.8933],[-99.957,24.8969],[-99.963,24.8916],[-99.9687,24.8916],[-99.9683,24.8804],[-99.9899,24.9041],[-100.0658,24.8899],[-100.0819,24.911],[-100.1296,24.9442],[-100.1597,25.0136],[-100.1655,25.0098],[-100.1756,25.0143],[-100.1844,25.0207],[-100.1882,25.0292],[-100.2003,25.0205],[-100.2138,25.0454],[-100.2264,25.0531],[-100.2265,25.0616],[-100.2389,25.0653],[-100.2459,25.0772],[-100.2447,25.0815],[-100.2552,25.0962],[-100.2578,25.0944],[-100.2631,25.0984],[-100.2634,25.1055],[-100.2721,25.1098],[-100.2535,25.1306],[-100.2978,25.1526],[-100.3229,25.1707],[-100.3261,25.1855],[-100.332,25.1863],[-100.3256,25.2223],[-100.3053,25.2134],[-100.2614,25.2071],[-100.2296,25.2179],[-100.2472,25.2302],[-100.2447,25.229],[-100.2344,25.2355],[-100.2625,25.254],[-100.2539,25.2656],[-100.2431,25.2674],[-100.2438,25.2697],[-100.2214,25.2672],[-100.2101,25.2695]]]}},{"type":"Feature","properties":{"cve_ent":"19","cve_mun":"044","cvegeo":"19044","nombre":"Sabinas Hidalgo"},"geometry":{"type":"Polygon","coordinates":[[[-100.0881,26.7992],[-100.0777,26.7852],[-100.0781,26.7783],[-100.0875,26.7667],[-100.0836,26.761],[-100.0796,26.7612],[-100.0753,26.7514],[-100.0617,26.7461],[-100.0589,26.7421],[-100.0583,26.7257],[-100.0553,26.722],[-100.0566,26.7026],[-100.0534,26.6972],[-100.0459,26.6942],[-100.0429,26.6842],[-100.0443,26.6751],[-100.0373,26.6736],[-100.1014,26.6357],[-100.086,26.6283],[-100.0592,26.5996],[-100.0732,26.5894],[-100.0716,26.5876],[-100.0377,26.5881],[-100.0465,26.5573],[-100.0204,26.5547],[-100.0235,26.5408],[-100.0153,26.5422],[-100.0254,26.4981],[-100.039,26.4935],[-100.0372,26.4863],[-100.0299,26.483],[-100.0302,26.4779],[-100.0356,26.4782],[-100.0371,26.4812],[-100.0364,26.4748],[-100.0304,26.4746],[-100.0308,26.4698],[-100.0095,26.4672],[-100.0095,26.473],[-100.0056,26.4729],[-100.009,26.4555],[-100.0201,26.4569],[-100.0204,26.4539],[-99.9986,26.4551],[-99.9988,26.4498],[-99.9961,26.4539],[-99.9926,26.4493],[-99.9856,26.4473],[-99.9736,26.4493],[-99.9808,26.4468],[-99.9827,26.4428],[-99.9785,26.4412],[-99.989,26.4182],[-99.9877,26.4117],[-99.9738,26.3944],[-99.9284,26.3873],[-99.9284,26.3716],[-99.9229,26.3711],[-99.9247,26.3596],[-99.928,26.3606],[-99.9277,26.3557],[-99.9213,26.3538],[-99.9255,26.3287],[-99.9282,26.329],[-99.9397,26.3074],[-99.935,26.3068],[-99.9556,26.2388],[-100.0227,26.2523],[-100.0182,26.2562],[-100.0353,26.2705],[-100.0304,26.2763],[-100.034,26.2788],[-100.0454,26.2761],[-100.0537,26.2929],[-100.0511,26.2951],[-100.0576,26.3016],[-100.0544,26.3063],[-100.0644,26.3063],[-100.1029,26.3197],[-100.1877,26.3279],[-100.1899,26.3307],[-100.1921,26.3438],[-100.195,26.3451],[-100.1954,26.3618],[-100.2001,26.3665],[-100.1978,26.3747],[-100.2001,26.3909],[-100.1978,26.3928],[-100.2164,26.4046],[-100.2185,26.4205],[-100.224,26.427],[-100.2368,26.4314],[-100.2344,26.4383],[-100.2271,26.4406],[-100.2271,26.4451],[-100.2428,26.4573],[-100.2243,26.4824],[-100.2234,26.4955],[-100.2287,26.5014],[-100.2412,26.5004],[-100.2496,26.504],[-100.2582,26.5208],[-100.2648,26.5646],[-100.2792,26.6041],[-100.2909,26.6231],[-100.3051,26.6226],[-100.3306,26.6307],[-100.3318,26.6498],[-100.3263,26.65],[-100.3234,26.665],[-100.3196,26.6643],[-100.3297,26.694],[-100.3446,26.6934],[-100.3509,26.708],[-100.345,26.717],[-100.351,26.7452],[-100.3584,26.7438],[-100.3659,26.7839],[-100.366,26.7884],[-100.3052,26.7901],[-100.3048,26.8091],[-100.327,26.8536],[-100.3005,26.8471],[-100.2797,26.8856],[-100.2722,26.9129],[-100.2526,26.9085],[-100.2545,26.9002],[-100.2474,26.8984],[-100.2509,26.8823],[-100.1702,26.872],[-100.1376,26.8106],[-100.1456,26.8048],[-100.149,26.7974],[-100.0881,26.7992]]]}},{"type":"Feature","properties":{"cve_ent":"19","cve_mun":"045","cvegeo":"19045","nombre":"Salinas Victoria"},"geometry":{"type":"Polygon","coordinates":[[[-100.1877,26.3279],[-100.1029,26.3197],[-100.0644,26.3063],[-100.0544,26.3063],[-100.0576,26.3016],[-100.0511,26.2951],[-100.0537,26.2929],[-100.0454,26.2761],[-100.034,26.2788],[-100.0304,26.2763],[-100.0353,26.2705],[-100.0182,26.2562],[-100.0227,26.2523],[-99.9556,26.2388],[-99.9193,26.2455],[-99.9253,26.2375],[-99.933,26.2019],[-99.9276,26.196],[-99.9464,26.1937],[-99.9673,26.2002],[-99.9707,26.1954],[-99.9678,26.1629],[-99.9793,26.164],[-99.9884,26.1602],[-99.9928,26.163],[-99.997,26.1604],[-100.0017,26.1642],[-100.0178,26.1659],[-100.023,26.152],[-100.0667,26.1311],[-100.1044,26.1172],[-100.0748,26.0626],[-100.1183,26.0385],[-100.1442,26.0142],[-100.1503,26.0329],[-100.1581,26.0439],[-100.1759,26.0337],[-100.1863,26.0215],[-100.1959,26.0184],[-100.2025,26.023],[-100.2047,26.0304],[-100.2337,26.0207],[-100.2302,26.0019],[-100.2731,26.0217],[-100.2738,26.0163],[-100.2798,26.0112],[-100.2508,26.0014],[-100.2427,25.9844],[-100.2341,25.9793],[-100.2378,25.9609],[-100.2322,25.9611],[-100.2301,25.9518],[-100.2387,25.9473],[-100.2443,25.9345],[-100.2446,25.9284],[-100.2363,25.9146],[-100.2412,25.907],[-100.2392,25.9033],[-100.2482,25.8928],[-100.254,25.8793],[-100.2717,25.8718],[-100.2717,25.8495],[-100.2982,25.849],[-100.302,25.8522],[-100.3069,25.8679],[-100.3039,25.8676],[-100.3077,25.8799],[-100.3105,25.8788],[-100.3322,25.9275],[-100.3234,25.9344],[-100.3226,25.9395],[-100.313,25.9452],[-100.3438,25.976],[-100.3669,25.9737],[-100.3696,25.9821],[-100.3659,25.9871],[-100.3716,26.0062],[-100.384,26.0252],[-100.3985,26.037],[-100.4001,26.0433],[-100.4063,26.0441],[-100.4323,26.0653],[-100.4858,26.093],[-100.5174,26.114],[-100.526,26.115],[-100.5395,26.1079],[-100.5649,26.1233],[-100.522,26.2104],[-100.5022,26.2008],[-100.5054,26.2067],[-100.5037,26.2112],[-100.4998,26.2123],[-100.4642,26.2562],[-100.4488,26.2591],[-100.4519,26.2806],[-100.4627,26.289],[-100.4667,26.2969],[-100.463,26.3019],[-100.4757,26.3238],[-100.472,26.3336],[-100.4799,26.3355],[-100.4714,26.3424],[-100.4811,26.3461],[-100.454,26.3688],[-100.4496,26.3848],[-100.443,26.3898],[-100.4339,26.3937],[-100.4059,26.3901],[-100.3932,26.3952],[-100.3883,26.3607],[-100.3566,26.3644],[-100.3467,26.347],[-100.3485,26.3406],[-100.3433,26.3377],[-100.3396,26.3253],[-100.3321,26.3227],[-100.329,26.3167],[-100.32,26.3189],[-100.3109,26.3142],[-100.3088,26.304],[-100.298,26.2967],[-100.2991,26.2937],[-100.2899,26.2721],[-100.248,26.2719],[-100.2388,26.2655],[-100.2407,26.2628],[-100.2328,26.2624],[-100.2302,26.2583],[-100.226,26.26],[-100.2253,26.2661],[-100.2175,26.2748],[-100.2076,26.2784],[-100.2011,26.285],[-100.1859,26.2867],[-100.1844,26.2895],[-100.1895,26.2962],[-100.1839,26.3195],[-100.1877,26.3279]]]}},{"type":"Feature","properties":{"cve_ent":"19","cve_mun":"046","cvegeo":"19046","nombre":"San Nicolás de los Garza"},"geometry":{"type":"Polygon","coordinates":[[[-100.2069,25.7318],[-100.2038,25.7182],[-100.2189,25.7117],[-100.2323,25.7131],[-100.2325,25.7108],[-100.2638,25.7012],[-100.2682,25.7033],[-100.2686,25.7082],[-100.2838,25.7081],[-100.3171,25.7227],[-100.3171,25.7349],[-100.3239,25.7377],[-100.3221,25.7501],[-100.3368,25.7627],[-100.267,25.7705],[-100.2671,25.7643],[-100.2449,25.7556],[-100.238,25.746],[-100.2069,25.7318]]]}},{"type":"Feature","properties":{"cve_ent":"19","cve_mun":"047","cvegeo":"19047","nombre":"Hidalgo"},"geometry":{"type":"Polygon","coordinates":[[[-100.3696,25.9821],[-100.3998,25.9891],[-100.421,25.9574],[-100.4287,25.954],[-100.4511,25.9312],[-100.4427,25.928],[-100.4294,25.9132],[-100.4262,25.8973],[-100.4283,25.8951],[-100.4428,25.8905],[-100.4542,25.8964],[-100.4902,25.8991],[-100.4977,25.9024],[-100.4956,25.9035],[-100.5031,25.9516],[-100.4851,25.9862],[-100.4799,25.9891],[-100.479,25.9947],[-100.4848,25.9967],[-100.475,26.0244],[-100.4662,26.0181],[-100.4581,26.0323],[-100.4741,26.0478],[-100.505,26.0687],[-100.5383,26.0999],[-100.539,26.1086],[-100.526,26.115],[-100.5174,26.114],[-100.4858,26.093],[-100.4323,26.0653],[-100.4063,26.0441],[-100.4001,26.0433],[-100.3985,26.037],[-100.384,26.0252],[-100.3747,26.0124],[-100.3659,25.9871],[-100.3696,25.9821]]]}},{"type":"Feature","properties":{"cve_ent":"19","cve_mun":"048","cvegeo":"19048","nombre":"Santa Catarina"},"geometry":{"type":"Polygon","coordinates":[[[-100.4766,25.7319],[-100.4275,25.7157],[-100.423,25.6952],[-100.416,25.6913],[-100.4246,25.6366],[-100.3686,25.6054],[-100.3293,25.5768],[-100.317,25.5718],[-100.3188,25.5608],[-100.3147,25.5589],[-100.3183,25.5472],[-100.3032,25.5393],[-100.2996,25.5328],[-100.2944,25.5289],[-100.2886,25.5292],[-100.2866,25.5236],[-100.2781,25.5195],[-100.271,25.5077],[-100.2734,25.5019],[-100.2661,25.4979],[-100.2576,25.4821],[-100.2499,25.4453],[-100.2387,25.4295],[-100.2719,25.4193],[-100.2759,25.4199],[-100.2753,25.4244],[-100.2961,25.4135],[-100.3263,25.4303],[-100.3448,25.435],[-100.3867,25.4558],[-100.4036,25.469],[-100.4142,25.4514],[-100.4175,25.4519],[-100.4232,25.4445],[-100.4195,25.4422],[-100.4255,25.4358],[-100.4437,25.435],[-100.4577,25.4379],[-100.4721,25.4538],[-100.4771,25.4514],[-100.5309,25.4635],[-100.561,25.4645],[-100.5849,25.4708],[-100.5795,25.4945],[-100.6191,25.5057],[-100.5998,25.52],[-100.5297,25.5144],[-100.5384,25.5319],[-100.5943,25.5444],[-100.6147,25.5423],[-100.612,25.5514],[-100.6329,25.5713],[-100.6903,25.5671],[-100.7199,25.6031],[-100.7298,25.6339],[-100.7234,25.627],[-100.6999,25.6388],[-100.7091,25.6584],[-100.6695,25.6622],[-100.6453,25.6932],[-100.6025,25.7044],[-100.6025,25.7138],[-100.5919,25.7221],[-100.5757,25.7192],[-100.5655,25.7012],[-100.5545,25.7136],[-100.5495,25.7101],[-100.5347,25.7274],[-100.5074,25.75],[-100.4954,25.7405],[-100.4766,25.7319]]]}},{"type":"Feature","properties":{"cve_ent":"19","cve_mun":"049","cvegeo":"19049","nombre":"Santiago"},"geometry":{"type":"Polygon","coordinates":[[[-100.1674,25.5169],[-100.1314,25.4702],[-100.0969,25.5032],[-100.0712,25.4688],[-100.0696,25.4706],[-100.0374,25.448],[-100.0313,25.4509],[-100.0434,25.4409],[-100.0599,25.4177],[-100.0512,25.4093],[-100.0763,25.394],[-100.0746,25.3854],[-100.0607,25.3735],[-100.0582,25.3615],[-100.0763,25.3361],[-100.1398,25.3001],[-100.1332,25.2949],[-100.1242,25.28],[-100.1125,25.2702],[-100.1136,25.2668],[-100.1074,25.2623],[-100.0993,25.2619],[-100.1016,25.2558],[-100.0956,25.2561],[-100.0968,25.2529],[-100.0929,25.254],[-100.0855,25.2465],[-100.0872,25.2383],[-100.1329,25.2598],[-100.1711,25.2238],[-100.2101,25.2695],[-100.2214,25.2672],[-100.2438,25.2697],[-100.2541,25.3069],[-100.264,25.3053],[-100.2816,25.3197],[-100.3234,25.34],[-100.391,25.3281],[-100.4144,25.3299],[-100.4146,25.327],[-100.4701,25.3378],[-100.4516,25.4105],[-100.4693,25.4217],[-100.4923,25.4304],[-100.5227,25.4343],[-100.5175,25.449],[-100.5254,25.4498],[-100.5309,25.4635],[-100.4771,25.4514],[-100.4721,25.4538],[-100.4577,25.4379],[-100.4437,25.435],[-100.4255,25.4358],[-100.4195,25.4422],[-100.4232,25.4445],[-100.4175,25.4519],[-100.4142,25.4514],[-100.4036,25.469],[-100.3867,25.4558],[-100.3448,25.435],[-100.3263,25.4303],[-100.2961,25.4135],[-100.2753,25.4244],[-100.2759,25.4199],[-100.2719,25.4193],[-100.2387,25.4295],[-100.2499,25.4453],[-100.2576,25.4821],[-100.2294,25.4986],[-100.2332,25.5054],[-100.23,25.5076],[-100.2228,25.5004],[-100.2061,25.5161],[-100.1971,25.5147],[-100.1916,25.5205],[-100.1789,25.5182],[-100.1754,25.5129],[-100.1674,25.5169]]]}},{"type":"Feature","properties":{"cve_ent":"19","cve_mun":"050","cvegeo":"19050","nombre":"Vallecillo"},"geometry":{"type":"Polygon","coordinates":[[[-99.7667,26.8898],[-99.7646,26.894],[-99.7477,26.9002],[-99.7473,26.9097],[-99.7443,26.9122],[-99.7391,26.9073],[-99.7253,26.9069],[-99.7235,26.9041],[-99.7279,26.9035],[-99.7266,26.8985],[-99.7129,26.8958],[-99.71,26.8988],[-99.7137,26.9015],[-99.711,26.9055],[-99.7035,26.9055],[-99.6983,26.8984],[-99.6971,26.9067],[-99.6921,26.9088],[-99.6855,26.899],[-99.6875,26.8947],[-99.6789,26.8958],[-99.6781,26.8899],[-99.6821,26.8888],[-99.714,26.8423],[-99.6834,26.8246],[-99.7047,26.7934],[-99.715,26.8001],[-99.7496,26.7343],[-99.7783,26.7447],[-99.8015,26.6907],[-99.7342,26.6719],[-99.7079,26.5983],[-99.6958,26.6128],[-99.683,26.6077],[-99.6903,26.5999],[-99.6886,26.5796],[-99.7144,26.5716],[-99.7126,26.5416],[-99.7192,26.542],[-99.7242,26.4838],[-99.721,26.4826],[-99.7244,26.471],[-99.7199,26.4429],[-99.7227,26.4352],[-99.7278,26.4344],[-99.7306,26.4301],[-99.7286,26.4233],[-99.7248,26.4219],[-99.7267,26.4137],[-99.7325,26.408],[-99.7382,26.4137],[-99.7555,26.4071],[-99.7512,26.4035],[-99.7578,26.3969],[-99.7548,26.3944],[-99.7675,26.3855],[-99.7738,26.3912],[-99.7729,26.3945],[-99.7787,26.3941],[-99.7772,26.4025],[-99.7796,26.404],[-99.7758,26.4045],[-99.775,26.4079],[-99.7844,26.4084],[-99.7835,26.4002],[-99.7899,26.4032],[-99.7879,26.3969],[-99.792,26.3985],[-99.7942,26.3962],[-99.7846,26.3861],[-99.8044,26.3778],[-99.8105,26.3703],[-99.8115,26.3632],[-99.8142,26.367],[-99.8465,26.3773],[-99.9028,26.3778],[-99.9198,26.3823],[-99.9205,26.386],[-99.9738,26.3944],[-99.9877,26.4117],[-99.989,26.4182],[-99.9785,26.4412],[-99.9827,26.4428],[-99.9808,26.4468],[-99.9736,26.4493],[-99.9856,26.4473],[-99.9926,26.4493],[-99.9961,26.4539],[-99.9988,26.4498],[-99.9986,26.4551],[-100.0204,26.4539],[-100.0201,26.4569],[-100.009,26.4555],[-100.0056,26.4729],[-100.0095,26.473],[-100.0095,26.4672],[-100.0308,26.4698],[-100.0304,26.4746],[-100.0364,26.4748],[-100.0371,26.4812],[-100.0356,26.4782],[-100.0302,26.4779],[-100.0299,26.483],[-100.0372,26.4863],[-100.039,26.4935],[-100.0254,26.4981],[-100.0153,26.5422],[-100.0235,26.5408],[-100.0204,26.5547],[-100.0465,26.5573],[-100.0377,26.5881],[-100.0716,26.5876],[-100.0732,26.5894],[-100.0592,26.5996],[-100.086,26.6283],[-100.1014,26.6357],[-100.0373,26.6736],[-100.0443,26.6751],[-100.0429,26.6842],[-100.0459,26.6942],[-100.0534,26.6972],[-100.0566,26.7026],[-100.0553,26.722],[-100.0583,26.7257],[-100.0589,26.7421],[-100.0617,26.7461],[-100.0753,26.7514],[-100.0796,26.7612],[-100.0836,26.761],[-100.0875,26.7667],[-100.0781,26.7783],[-100.0777,26.7852],[-100.085,26.7922],[-100.0937,26.8146],[-100.0979,26.8187],[-100.0939,26.83],[-100.0979,26.837],[-100.0834,26.8498],[-100.0674,26.8398],[-100.024,26.8683],[-100.0309,26.8792],[-100.0237,26.8881],[-100.0494,26.9058],[-100.0463,26.9114],[-100.0209,26.9073],[-100.0026,26.914],[-99.9687,26.8464],[-99.9361,26.8738],[-99.9292,26.8583],[-99.8688,26.8827],[-99.8655,26.878],[-99.8588,26.8798],[-99.8492,26.8883],[-99.8445,26.8865],[-99.8498,26.8827],[-99.8478,26.8789],[-99.8386,26.8862],[-99.8347,26.8868],[-99.833,26.8836],[-99.8323,26.8877],[-99.8288,26.8889],[-99.8211,26.8753],[-99.8043,26.8715],[-99.8024,26.8739],[-99.8129,26.8766],[-99.8139,26.88],[-99.8052,26.8893],[-99.7993,26.8898],[-99.7976,26.8862],[-99.8058,26.8832],[-99.8066,26.8797],[-99.7934,26.8806],[-99.7927,26.8887],[-99.7812,26.8937],[-99.775,26.8889],[-99.7667,26.8898]]]}},{"type":"Feature","properties":{"cve_ent":"19","cve_mun":"051","cvegeo":"19051","nombre":"Villaldama"},"geometry":{"type":"Polygon","coordinates":[[[-100.1921,26.3352],[-100.1839,26.3195],[-100.1895,26.2962],[-100.1844,26.2895],[-100.1859,26.2867],[-100.2011,26.285],[-100.2076,26.2784],[-100.2175,26.2748],[-100.2253,26.2661],[-100.226,26.26],[-100.2302,26.2583],[-100.2328,26.2624],[-100.2407,26.2628],[-100.2388,26.2655],[-100.248,26.2719],[-100.2899,26.2721],[-100.2991,26.2937],[-100.298,26.2967],[-100.3088,26.304],[-100.3109,26.3142],[-100.32,26.3189],[-100.329,26.3167],[-100.3321,26.3227],[-100.3396,26.3253],[-100.3433,26.3377],[-100.3485,26.3406],[-100.3467,26.347],[-100.3566,26.3644],[-100.3883,26.3607],[-100.3932,26.3952],[-100.4059,26.3901],[-100.4339,26.3937],[-100.443,26.3898],[-100.4496,26.3848],[-100.454,26.3688],[-100.4811,26.3461],[-100.4896,26.3546],[-100.4883,26.3591],[-100.5037,26.3688],[-100.4959,26.3815],[-100.4998,26.3868],[-100.507,26.3889],[-100.5025,26.3933],[-100.5069,26.3977],[-100.5086,26.4086],[-100.515,26.4133],[-100.5112,26.4291],[-100.5212,26.4432],[-100.5015,26.486],[-100.4603,26.5052],[-100.4532,26.5127],[-100.4502,26.5078],[-100.4385,26.5143],[-100.457,26.5254],[-100.4821,26.573],[-100.4817,26.5844],[-100.4762,26.5708],[-100.4411,26.5848],[-100.4671,26.641],[-100.3907,26.6733],[-100.3658,26.675],[-100.336,26.6697],[-100.3446,26.6934],[-100.3297,26.694],[-100.3196,26.6643],[-100.3234,26.665],[-100.3263,26.65],[-100.3318,26.6498],[-100.3306,26.6307],[-100.3051,26.6226],[-100.2909,26.6231],[-100.2792,26.6041],[-100.2648,26.5646],[-100.2582,26.5208],[-100.2496,26.504],[-100.2412,26.5004],[-100.2287,26.5014],[-100.2234,26.4955],[-100.2243,26.4824],[-100.2428,26.4573],[-100.2271,26.4451],[-100.2271,26.4406],[-100.2344,26.4383],[-100.2368,26.4314],[-100.224,26.427],[-100.2185,26.4205],[-100.2164,26.4046],[-100.1978,26.3928],[-100.2001,26.3909],[-100.1978,26.3747],[-100.2001,26.3665],[-100.1954,26.3618],[-100.195,26.3451],[-100.1921,26.3438],[-100.1921,26.3352]]]}}]}