{"type":"FeatureCollection","features":[{"type":"Feature","properties":{"cve_ent":"22","cve_mun":"001","cvegeo":"22001","nombre":"Amealco de Bonfil"},"geometry":{"type":"Polygon","coordinates":[[[-99.9777,20.2391],[-99.9733,20.2369],[-99.9757,20.2323],[-99.9687,20.2215],[-99.9699,20.2184],[-99.9645,20.2163],[-99.967,20.208],[-99.9652,20.2012],[-99.9607,20.2017],[-99.9537,20.1927],[-99.9463,20.1892],[-99.9471,20.1845],[-99.9371,20.1817],[-99.9412,20.179],[-99.9323,20.174],[-99.9352,20.1653],[-99.9219,20.1587],[-99.9272,20.1571],[-99.9297,20.1617],[-99.9362,20.1625],[-99.9376,20.153],[-99.9308,20.1431],[-99.9392,20.1353],[-99.9422,20.1201],[-99.9372,20.1133],[-99.9361,20.0991],[-99.9238,20.0841],[-99.9263,20.0643],[-99.9802,20.0591],[-99.9785,20.074],[-100.0004,20.0775],[-100.0056,20.0642],[-100.0276,20.0566],[-100.0438,20.0366],[-100.0617,20.0388],[-100.0662,20.0362],[-100.0656,20.0314],[-100.0813,20.0289],[-100.0888,20.015],[-100.0913,20.0243],[-100.0971,20.0273],[-100.097,20.0233],[-100.1055,20.0267],[-100.1113,20.034],[-100.1185,20.0338],[-100.1203,20.0389],[-100.1327,20.0406],[-100.1468,20.0575],[-100.1622,20.0625],[-100.1588,20.0658],[-100.1623,20.0673],[-100.1573,20.0711],[-100.1645,20.0783],[-100.1668,20.0748],[-100.1717,20.0782],[-100.1767,20.0709],[-100.1831,20.0739],[-100.1798,20.083],[-100.1932,20.0748],[-100.2029,20.0766],[-100.1974,20.1299],[-100.2356,20.1435],[-100.2133,20.1568],[-100.2038,20.167],[-100.2033,20.1718],[-100.1919,20.176],[-100.1884,20.1942],[-100.1853,20.1943],[-100.1842,20.1894],[-100.1811,20.2088],[-100.2072,20.2294],[-100.2216,20.2346],[-100.2451,20.2504],[-100.2605,20.2675],[-100.3096,20.2825],[-100.3075,20.2855],[-100.2589,20.2902],[-100.2502,20.3095],[-100.2486,20.3168],[-100.251,20.3198],[-100.2477,20.3219],[-100.2172,20.3189],[-100.2083,20.3242],[-100.2081,20.3272],[-100.1953,20.3294],[-100.1893,20.3381],[-100.1834,20.3594],[-100.1769,20.3572],[-100.1701,20.3495],[-100.1731,20.3479],[-100.1747,20.3383],[-100.1486,20.3219],[-100.1433,20.3232],[-100.1377,20.3179],[-100.1354,20.3202],[-100.1127,20.3144],[-100.0954,20.3143],[-100.1008,20.3024],[-100.0909,20.2989],[-100.0876,20.3016],[-100.0873,20.3172],[-100.082,20.3173],[-100.0829,20.3084],[-100.0756,20.299],[-100.082,20.2965],[-100.0828,20.2902],[-100.0763,20.2862],[-100.0949,20.2612],[-100.0839,20.2571],[-100.0765,20.2482],[-100.0574,20.2437],[-100.0688,20.2272],[-100.0564,20.2207],[-100.0487,20.2249],[-100.0521,20.2302],[-100.0475,20.2265],[-100.0439,20.2295],[-100.035,20.2248],[-100.0407,20.2188],[-100.0265,20.2067],[-100.0212,20.2074],[-99.9883,20.2349],[-99.9808,20.2345],[-99.9777,20.2391]]]}},{"type":"Feature","properties":{"cve_ent":"22","cve_mun":"002","cvegeo":"22002","nombre":"Pinal de Amoles"},"geometry":{"type":"Polygon","coordinates":[[[-99.5365,21.2867],[-99.5201,21.2539],[-99.523,21.2509],[-99.5251,21.254],[-99.5299,21.251],[-99.5221,21.2315],[-99.5233,21.2228],[-99.5079,21.2152],[-99.5164,21.196],[-99.5095,21.1889],[-99.5147,21.1902],[-99.5152,21.1871],[-99.5327,21.1771],[-99.5396,21.1874],[-99.5495,21.1802],[-99.5337,21.161],[-99.5273,21.1672],[-99.5234,21.164],[-99.5212,21.166],[-99.5233,21.1609],[-99.5145,21.1642],[-99.5136,21.1608],[-99.5103,21.1614],[-99.5079,21.1727],[-99.5008,21.1711],[-99.5104,21.1582],[-99.4976,21.1583],[-99.4987,21.1524],[-99.4926,21.1549],[-99.4945,21.1493],[-99.4988,21.1508],[-99.4934,21.1421],[-99.4921,21.1455],[-99.4894,21.1436],[-99.4939,21.1383],[-99.4908,21.1394],[-99.4861,21.1353],[-99.4869,21.1283],[-99.4834,21.1305],[-99.4735,21.1234],[-99.4705,21.127],[-99.4636,21.1245],[-99.4624,21.1206],[-99.468,21.1207],[-99.466,21.1144],[-99.4531,21.106],[-99.4403,21.1147],[-99.4292,21.0985],[-99.4345,21.0874],[-99.4379,21.0898],[-99.4388,21.0849],[-99.4356,21.0817],[-99.4406,21.075],[-99.4397,21.0689],[-99.4451,21.0695],[-99.4479,21.0648],[-99.4572,21.064],[-99.4691,21.0561],[-99.4749,21.0556],[-99.4735,21.0517],[-99.4829,21.0518],[-99.4771,21.0461],[-99.4861,21.0429],[-99.482,21.0386],[-99.4891,21.0399],[-99.4902,21.0313],[-99.5039,21.0341],[-99.5083,21.0261],[-99.5022,21.0248],[-99.5096,21.0238],[-99.5081,21.0193],[-99.5159,21.008],[-99.5159,20.9994],[-99.5269,20.9933],[-99.5298,20.9872],[-99.5442,20.9804],[-99.562,20.9749],[-99.5649,20.9785],[-99.5859,20.9829],[-99.6091,20.9797],[-99.6164,20.9833],[-99.6231,20.9804],[-99.6395,20.9852],[-99.6497,20.9849],[-99.6669,21.0026],[-99.6568,21.0152],[-99.6937,21.0221],[-99.6853,21.0691],[-99.6764,21.0751],[-99.692,21.0806],[-99.6877,21.1171],[-99.7012,21.1186],[-99.6941,21.138],[-99.7143,21.1746],[-99.7158,21.1828],[-99.686,21.1982],[-99.6835,21.2219],[-99.6987,21.2408],[-99.6988,21.2675],[-99.6736,21.2969],[-99.6705,21.2881],[-99.6678,21.2919],[-99.6529,21.2956],[-99.6417,21.3053],[-99.6396,21.3158],[-99.632,21.3178],[-99.6353,21.3187],[-99.633,21.3285],[-99.6411,21.3379],[-99.6075,21.3502],[-99.5993,21.3581],[-99.5822,21.3453],[-99.6006,21.3306],[-99.5796,21.3049],[-99.5901,21.2974],[-99.5754,21.2867],[-99.5524,21.2914],[-99.5465,21.2868],[-99.542,21.2899],[-99.5365,21.2867]]]}},{"type":"Feature","properties":{"cve_ent":"22","cve_mun":"003","cvegeo":"22003","nombre":"Arroyo Seco"},"geometry":{"type":"Polygon","coordinates":[[[-99.7056,21.5707],[-99.6947,21.5726],[-99.6595,21.5679],[-99.6441,21.5427],[-99.6434,21.5345],[-99.6304,21.5198],[-99.6258,21.5073],[-99.6099,21.4939],[-99.592,21.4863],[-99.5903,21.4777],[-99.5732,21.4663],[-99.5644,21.4537],[-99.5493,21.4471],[-99.5566,21.4366],[-99.5519,21.4284],[-99.5371,21.4315],[-99.5223,21.4283],[-99.5013,21.4185],[-99.4889,21.4215],[-99.4844,21.4325],[-99.4718,21.436],[-99.4594,21.425],[-99.4374,21.387],[-99.4202,21.3879],[-99.4112,21.3472],[-99.4243,21.34],[-99.4547,21.3356],[-99.4613,21.3321],[-99.4559,21.321],[-99.4977,21.3261],[-99.494,21.3183],[-99.4915,21.3203],[-99.4745,21.3026],[-99.4766,21.3005],[-99.4888,21.3084],[-99.4999,21.2992],[-99.4949,21.2956],[-99.4963,21.292],[-99.5139,21.2924],[-99.5134,21.2876],[-99.5183,21.2861],[-99.5396,21.287],[-99.542,21.2899],[-99.5465,21.2868],[-99.5524,21.2914],[-99.5743,21.2865],[-99.5852,21.2927],[-99.5901,21.2974],[-99.5796,21.3049],[-99.6006,21.3306],[-99.5822,21.3453],[-99.5993,21.3581],[-99.6075,21.3502],[-99.6411,21.3379],[-99.633,21.3285],[-99.6353,21.3187],[-99.632,21.3178],[-99.6396,21.3158],[-99.6403,21.3076],[-99.6468,21.2993],[-99.6509,21.3],[-99.6529,21.2956],[-99.6678,21.2919],[-99.6705,21.2881],[-99.6736,21.2969],[-99.6713,21.3012],[-99.7107,21.315],[-99.7373,21.3129],[-99.7342,21.3014],[-99.7524,21.2918],[-99.7579,21.2921],[-99.784,21.3201],[-99.7878,21.3296],[-99.7849,21.3279],[-99.7776,21.3432],[-99.7921,21.3439],[-99.7945,21.3574],[-99.7754,21.3758],[-99.7803,21.3894],[-99.7721,21.4064],[-99.7763,21.4076],[-99.7804,21.4142],[-99.7759,21.427],[-99.7806,21.4348],[-99.7762,21.4425],[-99.7782,21.4465],[-99.7743,21.4563],[-99.777,21.46],[-99.7718,21.4663],[-99.7773,21.4702],[-99.7731,21.4763],[-99.7729,21.4859],[-99.7774,21.496],[-99.771,21.5068],[-99.7567,21.5142],[-99.755,21.5208],[-99.7493,21.5232],[-99.7486,21.5295],[-99.7526,21.5327],[-99.7467,21.5315],[-99.7464,21.5364],[-99.7509,21.5356],[-99.7528,21.5439],[-99.7467,21.5784],[-99.7056,21.5707]]]}},{"type":"Feature","properties":{"cve_ent":"22","cve_mun":"004","cvegeo":"22004","nombre":"Cadereyta de Montes"},"geometry":{"type":"Polygon","coordinates":[[[-99.384,21.0097],[-99.39,21.0041],[-99.3937,20.9904],[-99.3913,20.9867],[-99.3963,20.9811],[-99.3947,20.9731],[-99.3883,20.9662],[-99.3927,20.9583],[-99.3906,20.9523],[-99.4072,20.9371],[-99.4066,20.9341],[-99.4023,20.9342],[-99.403,20.9302],[-99.4156,20.9249],[-99.4122,20.906],[-99.4352,20.8994],[-99.435,20.8907],[-99.442,20.8813],[-99.4407,20.8718],[-99.4486,20.8585],[-99.4461,20.853],[-99.4544,20.858],[-99.4565,20.849],[-99.4655,20.8492],[-99.4887,20.8329],[-99.4847,20.8264],[-99.4853,20.8178],[-99.4941,20.8068],[-99.4997,20.8043],[-99.4893,20.8022],[-99.4887,20.7994],[-99.4973,20.7909],[-99.5038,20.7948],[-99.5022,20.7872],[-99.4963,20.7824],[-99.5065,20.7717],[-99.5038,20.7658],[-99.5097,20.7657],[-99.5217,20.7545],[-99.5255,20.7562],[-99.5287,20.752],[-99.5428,20.7462],[-99.5485,20.7372],[-99.5437,20.7184],[-99.5357,20.7117],[-99.5343,20.706],[-99.5227,20.7017],[-99.5055,20.6847],[-99.5049,20.6808],[-99.511,20.6784],[-99.5038,20.6718],[-99.5006,20.673],[-99.5043,20.6687],[-99.5019,20.659],[-99.527,20.6566],[-99.536,20.6506],[-99.5388,20.6437],[-99.5569,20.6436],[-99.5653,20.6404],[-99.5786,20.6285],[-99.5789,20.6188],[-99.5897,20.6204],[-99.5938,20.616],[-99.5927,20.6108],[-99.6074,20.6064],[-99.6129,20.595],[-99.6195,20.5914],[-99.6242,20.594],[-99.6242,20.6006],[-99.6346,20.6057],[-99.6579,20.6018],[-99.6633,20.5941],[-99.6741,20.5886],[-99.6803,20.5889],[-99.6787,20.5853],[-99.6846,20.5791],[-99.6947,20.5812],[-99.6943,20.5761],[-99.6972,20.5744],[-99.712,20.5813],[-99.7145,20.5769],[-99.7279,20.5754],[-99.7314,20.5679],[-99.7404,20.5639],[-99.7463,20.5705],[-99.7612,20.573],[-99.7611,20.5858],[-99.7663,20.5928],[-99.7435,20.5979],[-99.7484,20.6017],[-99.7645,20.6392],[-99.7888,20.6386],[-99.7875,20.6631],[-99.7905,20.6597],[-99.8083,20.6573],[-99.8141,20.6667],[-99.8203,20.6633],[-99.8287,20.6701],[-99.8466,20.6527],[-99.8538,20.6543],[-99.8513,20.6738],[-99.8605,20.6808],[-99.8562,20.6921],[-99.8654,20.693],[-99.8614,20.6957],[-99.8611,20.7047],[-99.8678,20.7083],[-99.843,20.7089],[-99.8496,20.7183],[-99.8671,20.7258],[-99.8657,20.742],[-99.8452,20.751],[-99.8437,20.7606],[-99.8521,20.7634],[-99.8626,20.7584],[-99.8666,20.7627],[-99.874,20.7641],[-99.8671,20.7713],[-99.8589,20.7883],[-99.8332,20.7882],[-99.8173,20.801],[-99.8063,20.8035],[-99.7981,20.814],[-99.8056,20.8327],[-99.8224,20.8416],[-99.8062,20.8649],[-99.8246,20.8744],[-99.8437,20.8721],[-99.8817,20.905],[-99.8694,20.9058],[-99.8739,20.9237],[-99.8321,20.925],[-99.7903,20.9177],[-99.8059,20.9498],[-99.7891,20.9547],[-99.7221,20.9443],[-99.7117,20.9662],[-99.6987,20.9668],[-99.6922,20.9903],[-99.6811,20.985],[-99.6669,21.0026],[-99.6446,20.978],[-99.6518,20.9792],[-99.6858,20.9685],[-99.6808,20.9558],[-99.6813,20.9413],[-99.6708,20.9409],[-99.6487,20.9071],[-99.6398,20.9104],[-99.6084,20.9081],[-99.5949,20.9033],[-99.588,20.9048],[-99.5848,20.9033],[-99.5844,20.8842],[-99.5743,20.8819],[-99.5675,20.8848],[-99.5585,20.882],[-99.5495,20.8951],[-99.5446,20.8974],[-99.5439,20.9022],[-99.537,20.8995],[-99.5362,20.8963],[-99.5217,20.903],[-99.5272,20.9091],[-99.5252,20.9123],[-99.5285,20.9185],[-99.5155,20.9313],[-99.5074,20.9351],[-99.4834,20.9303],[-99.475,20.9333],[-99.4691,20.9519],[-99.4713,20.9627],[-99.4662,20.9717],[-99.4684,20.9729],[-99.4668,20.9813],[-99.4718,20.9898],[-99.4585,21.0116],[-99.4608,21.0186],[-99.3999,21.0142],[-99.384,21.0097]]]}},{"type":"Feature","properties":{"cve_ent":"22","cve_mun":"005","cvegeo":"22005","nombre":"Colón"},"geometry":{"type":"Polygon","coordinates":[[[-100.0923,20.9317],[-100.09,20.9055],[-100.0815,20.8886],[-100.061,20.8915],[-100.0528,20.8879],[-100.0514,20.8815],[-100.0444,20.8797],[-100.0365,20.8709],[-100.0278,20.8737],[-100.0268,20.8678],[-100.0316,20.8624],[-100.0316,20.856],[-100.0248,20.8484],[-100.0176,20.8504],[-100.011,20.8451],[-100.0068,20.8456],[-100.0159,20.8278],[-99.9475,20.8142],[-99.9465,20.7935],[-99.9523,20.7944],[-99.9642,20.779],[-99.9632,20.7734],[-99.9592,20.7718],[-99.9661,20.7609],[-99.9653,20.7548],[-99.9698,20.752],[-99.9685,20.7258],[-99.9634,20.7202],[-99.9505,20.7196],[-99.9545,20.7097],[-99.9506,20.7093],[-99.944,20.7188],[-99.9386,20.699],[-99.928,20.6993],[-99.9275,20.6967],[-99.9382,20.6966],[-99.9362,20.6861],[-99.9428,20.6856],[-99.9468,20.6807],[-99.9472,20.685],[-99.9428,20.6857],[-99.9434,20.6991],[-99.9472,20.6991],[-99.9524,20.6875],[-99.9535,20.6596],[-99.9652,20.6619],[-99.9739,20.6589],[-99.9689,20.6497],[-99.9892,20.6522],[-99.9916,20.636],[-100.0158,20.637],[-100.0165,20.6417],[-100.0042,20.6529],[-100.0612,20.6493],[-100.0798,20.6421],[-100.0775,20.6252],[-100.0633,20.6213],[-100.0656,20.59],[-100.0637,20.5754],[-100.0951,20.5793],[-100.095,20.5648],[-100.1056,20.566],[-100.1056,20.5688],[-100.144,20.5658],[-100.1548,20.5678],[-100.1901,20.562],[-100.2018,20.5842],[-100.1919,20.5897],[-100.1861,20.606],[-100.189,20.608],[-100.184,20.6118],[-100.1898,20.636],[-100.1971,20.6431],[-100.1777,20.6953],[-100.1549,20.698],[-100.1694,20.7043],[-100.1668,20.7219],[-100.1593,20.7214],[-100.1626,20.7301],[-100.1825,20.7334],[-100.1812,20.7403],[-100.1902,20.7504],[-100.1942,20.7614],[-100.1868,20.7641],[-100.1861,20.7678],[-100.1798,20.7676],[-100.1801,20.781],[-100.1869,20.778],[-100.1847,20.7761],[-100.1892,20.7721],[-100.1994,20.7709],[-100.1993,20.7854],[-100.2061,20.791],[-100.2072,20.7959],[-100.2096,20.8246],[-100.2122,20.8247],[-100.2135,20.8316],[-100.2108,20.8324],[-100.2276,20.8657],[-100.2712,20.857],[-100.2427,20.9058],[-100.232,20.918],[-100.2335,20.9197],[-100.2041,20.9323],[-100.1842,20.9332],[-100.1815,20.9304],[-100.1784,20.9387],[-100.1353,20.9373],[-100.1288,20.9344],[-100.127,20.9281],[-100.1178,20.9222],[-100.0923,20.9317]]]}},{"type":"Feature","properties":{"cve_ent":"22","cve_mun":"006","cvegeo":"22006","nombre":"Corregidora"},"geometry":{"type":"Polygon","coordinates":[[[-100.3918,20.5553],[-100.3763,20.4976],[-100.3678,20.4864],[-100.3928,20.4834],[-100.3841,20.4567],[-100.3882,20.4546],[-100.3852,20.4404],[-100.3908,20.433],[-100.3915,20.4258],[-100.3852,20.4162],[-100.4013,20.4072],[-100.4016,20.3746],[-100.3848,20.3646],[-100.4033,20.3608],[-100.4097,20.3757],[-100.4136,20.3776],[-100.4435,20.387],[-100.4678,20.3866],[-100.4762,20.3896],[-100.4783,20.4163],[-100.4885,20.4258],[-100.4895,20.4314],[-100.4884,20.4733],[-100.4925,20.4814],[-100.4924,20.4904],[-100.4977,20.4914],[-100.5003,20.5002],[-100.4974,20.5048],[-100.5098,20.5065],[-100.5011,20.5126],[-100.5032,20.5197],[-100.5077,20.5185],[-100.5085,20.5262],[-100.5048,20.555],[-100.485,20.5538],[-100.4822,20.5764],[-100.4888,20.5944],[-100.4333,20.5899],[-100.4306,20.5757],[-100.4248,20.5709],[-100.4237,20.5599],[-100.4172,20.562],[-100.417,20.5592],[-100.4104,20.5639],[-100.4108,20.5538],[-100.3918,20.5553]]]}},{"type":"Feature","properties":{"cve_ent":"22","cve_mun":"007","cvegeo":"22007","nombre":"Ezequiel Montes"},"geometry":{"type":"Polygon","coordinates":[[[-99.874,20.7641],[-99.8666,20.7627],[-99.8626,20.7584],[-99.8521,20.7634],[-99.8437,20.7606],[-99.8452,20.751],[-99.8657,20.742],[-99.8671,20.7258],[-99.8496,20.7183],[-99.843,20.7089],[-99.8678,20.7083],[-99.8611,20.7047],[-99.8614,20.6957],[-99.8654,20.693],[-99.8562,20.6921],[-99.8605,20.6808],[-99.8513,20.6738],[-99.8538,20.6543],[-99.8466,20.6527],[-99.8287,20.6701],[-99.8203,20.6633],[-99.8141,20.6667],[-99.8083,20.6573],[-99.7905,20.6597],[-99.7875,20.6631],[-99.7888,20.6386],[-99.7645,20.6392],[-99.7484,20.6017],[-99.7435,20.5979],[-99.7663,20.5928],[-99.7611,20.5858],[-99.7612,20.573],[-99.7463,20.5705],[-99.7404,20.5639],[-99.7353,20.5649],[-99.7384,20.5606],[-99.7459,20.5593],[-99.7534,20.563],[-99.7697,20.5575],[-99.7793,20.5593],[-99.7868,20.5526],[-99.8148,20.5418],[-99.8218,20.5407],[-99.8417,20.5455],[-99.8484,20.5393],[-99.8543,20.5428],[-99.8608,20.5386],[-99.8614,20.5424],[-99.8545,20.5439],[-99.851,20.5526],[-99.8559,20.5503],[-99.8706,20.5568],[-99.8693,20.5685],[-99.8606,20.5666],[-99.8526,20.5737],[-99.8448,20.5737],[-99.8561,20.5898],[-99.8751,20.59],[-99.8761,20.5944],[-99.8826,20.5964],[-99.8865,20.5859],[-99.897,20.5832],[-99.8943,20.6018],[-99.9016,20.6049],[-99.9006,20.6095],[-99.9063,20.6122],[-99.9187,20.6323],[-99.9302,20.6314],[-99.928,20.6255],[-99.9323,20.6246],[-99.9335,20.6273],[-99.9389,20.6192],[-99.9467,20.625],[-99.9483,20.635],[-99.9747,20.6364],[-99.9758,20.6333],[-99.9916,20.636],[-99.9892,20.6522],[-99.9689,20.6497],[-99.9739,20.6589],[-99.9652,20.6619],[-99.9535,20.6596],[-99.9524,20.6875],[-99.9472,20.6991],[-99.9434,20.6991],[-99.9428,20.6857],[-99.9472,20.685],[-99.9468,20.6807],[-99.9428,20.6856],[-99.9362,20.6861],[-99.9382,20.6966],[-99.9275,20.6967],[-99.928,20.6993],[-99.9386,20.699],[-99.944,20.7188],[-99.9506,20.7093],[-99.9545,20.7097],[-99.9505,20.7196],[-99.9634,20.7202],[-99.9684,20.7256],[-99.9698,20.752],[-99.9653,20.7548],[-99.9662,20.7574],[-99.9294,20.7559],[-99.9141,20.7585],[-99.8993,20.764],[-99.898,20.7672],[-99.8942,20.7654],[-99.9002,20.7586],[-99.8977,20.7531],[-99.874,20.7641]]]}},{"type":"Feature","properties":{"cve_ent":"22","cve_mun":"008","cvegeo":"22008","nombre":"Huimilpan"},"geometry":{"type":"Polygon","coordinates":[[[-100.3452,20.553],[-100.34,20.536],[-100.3221,20.5009],[-100.3026,20.5065],[-100.3008,20.5197],[-100.2652,20.5268],[-100.2538,20.5324],[-100.2323,20.5324],[-100.2294,20.5247],[-100.2235,20.5265],[-100.2195,20.5192],[-100.2314,20.5043],[-100.2401,20.5037],[-100.2487,20.488],[-100.2528,20.478],[-100.2475,20.4588],[-100.2597,20.4619],[-100.2635,20.4608],[-100.2589,20.4572],[-100.2729,20.4504],[-100.2967,20.4505],[-100.2986,20.4487],[-100.2966,20.4495],[-100.2856,20.4346],[-100.2779,20.4174],[-100.2812,20.4062],[-100.2777,20.3981],[-100.2724,20.3975],[-100.2705,20.3934],[-100.2531,20.3977],[-100.2523,20.4017],[-100.2461,20.392],[-100.2342,20.3935],[-100.2301,20.3875],[-100.2336,20.3837],[-100.2515,20.3846],[-100.2503,20.3745],[-100.2582,20.3707],[-100.2529,20.3639],[-100.255,20.3619],[-100.253,20.3585],[-100.1975,20.3604],[-100.196,20.3666],[-100.1912,20.3615],[-100.1834,20.3594],[-100.1893,20.3381],[-100.1953,20.3294],[-100.2081,20.3272],[-100.2083,20.3242],[-100.2172,20.3189],[-100.2477,20.3219],[-100.251,20.3198],[-100.2486,20.3168],[-100.2502,20.3095],[-100.2589,20.2902],[-100.3075,20.2855],[-100.3458,20.298],[-100.3507,20.2884],[-100.3695,20.3025],[-100.3824,20.3037],[-100.392,20.3143],[-100.3908,20.3364],[-100.3934,20.3479],[-100.4033,20.3608],[-100.3848,20.3646],[-100.4016,20.3746],[-100.4013,20.4072],[-100.3852,20.4162],[-100.3915,20.4258],[-100.3908,20.433],[-100.3852,20.4404],[-100.3882,20.4546],[-100.3841,20.4567],[-100.3928,20.4834],[-100.3678,20.4864],[-100.3763,20.4976],[-100.3826,20.5235],[-100.3642,20.5267],[-100.3581,20.5305],[-100.3594,20.5505],[-100.3452,20.553]]]}},{"type":"Feature","properties":{"cve_ent":"22","cve_mun":"009","cvegeo":"22009","nombre":"Jalpan de Serra"},"geometry":{"type":"Polygon","coordinates":[[[-99.1881,21.6699],[-99.1817,21.6614],[-99.1689,21.631],[-99.1719,21.627],[-99.1387,21.6038],[-99.1351,21.5973],[-99.1306,21.5966],[-99.1283,21.5898],[-99.1283,21.5817],[-99.1423,21.5354],[-99.1369,21.5141],[-99.1298,21.5017],[-99.1291,21.4713],[-99.1224,21.4534],[-99.1367,21.4628],[-99.1582,21.4298],[-99.1658,21.4298],[-99.171,21.4359],[-99.1784,21.4377],[-99.1825,21.444],[-99.1925,21.4471],[-99.197,21.4541],[-99.2043,21.4487],[-99.2253,21.4497],[-99.2294,21.4452],[-99.2253,21.4347],[-99.2247,21.4172],[-99.2188,21.4059],[-99.22,21.3948],[-99.2221,21.3891],[-99.2335,21.3848],[-99.2373,21.3719],[-99.2448,21.3648],[-99.2475,21.35],[-99.2392,21.3393],[-99.2449,21.3309],[-99.2493,21.3325],[-99.2587,21.328],[-99.2554,21.3191],[-99.2669,21.3121],[-99.2641,21.3051],[-99.2711,21.2946],[-99.2714,21.284],[-99.2793,21.278],[-99.2866,21.2844],[-99.2903,21.2817],[-99.2851,21.2634],[-99.2925,21.2732],[-99.2978,21.2688],[-99.2945,21.2648],[-99.3013,21.2664],[-99.3043,21.258],[-99.2975,21.2512],[-99.2961,21.2403],[-99.3,21.233],[-99.297,21.2273],[-99.3062,21.2278],[-99.3225,21.2137],[-99.3269,21.223],[-99.3217,21.2267],[-99.3216,21.233],[-99.3371,21.2408],[-99.3437,21.2331],[-99.3404,21.2311],[-99.3444,21.232],[-99.3466,21.2282],[-99.3478,21.2331],[-99.3529,21.2161],[-99.3471,21.2159],[-99.3364,21.1877],[-99.3414,21.184],[-99.3441,21.1926],[-99.3566,21.2032],[-99.3554,21.2101],[-99.3694,21.1964],[-99.3626,21.193],[-99.3626,21.1853],[-99.3501,21.1858],[-99.3458,21.1803],[-99.3456,21.17],[-99.351,21.1718],[-99.3611,21.1628],[-99.35,21.1537],[-99.3513,21.1402],[-99.336,21.1301],[-99.3423,21.1228],[-99.3439,21.1145],[-99.3412,21.1101],[-99.3459,21.1012],[-99.3535,21.1029],[-99.3588,21.0997],[-99.361,21.1048],[-99.3773,21.0982],[-99.3793,21.1018],[-99.3899,21.1024],[-99.396,21.1077],[-99.3972,21.1146],[-99.4027,21.1164],[-99.4192,21.1031],[-99.4302,21.1032],[-99.4403,21.1147],[-99.4531,21.106],[-99.4564,21.1073],[-99.4663,21.1149],[-99.468,21.1207],[-99.4624,21.1206],[-99.4636,21.1245],[-99.4705,21.127],[-99.4735,21.1234],[-99.4834,21.1305],[-99.4869,21.1283],[-99.4861,21.1353],[-99.4908,21.1394],[-99.4939,21.1383],[-99.4894,21.1436],[-99.4921,21.1455],[-99.4934,21.1421],[-99.4988,21.1508],[-99.4945,21.1493],[-99.4926,21.1549],[-99.4987,21.1524],[-99.4976,21.1583],[-99.5104,21.1582],[-99.5004,21.1708],[-99.5079,21.1727],[-99.5124,21.1608],[-99.5145,21.1642],[-99.5233,21.1609],[-99.5212,21.166],[-99.5234,21.164],[-99.5273,21.1672],[-99.5337,21.161],[-99.5495,21.1802],[-99.5396,21.1874],[-99.5327,21.1771],[-99.5152,21.1871],[-99.5147,21.1902],[-99.5095,21.1889],[-99.5164,21.196],[-99.5079,21.2152],[-99.5233,21.2228],[-99.5221,21.2315],[-99.5299,21.251],[-99.5251,21.254],[-99.523,21.2509],[-99.5201,21.2539],[-99.5365,21.2867],[-99.5183,21.2861],[-99.5134,21.2876],[-99.5139,21.2924],[-99.4963,21.292],[-99.4949,21.2956],[-99.4999,21.2992],[-99.4888,21.3084],[-99.4761,21.3006],[-99.4745,21.3026],[-99.4915,21.3203],[-99.494,21.3183],[-99.4977,21.3261],[-99.4559,21.321],[-99.4613,21.3321],[-99.4547,21.3356],[-99.4243,21.34],[-99.4112,21.3472],[-99.4202,21.3879],[-99.4374,21.387],[-99.4594,21.425],[-99.4711,21.4348],[-99.4733,21.4419],[-99.4691,21.4468],[-99.4474,21.4435],[-99.4357,21.4498],[-99.4155,21.4291],[-99.4046,21.4289],[-99.4025,21.4416],[-99.3969,21.4451],[-99.3956,21.4542],[-99.3986,21.4634],[-99.3889,21.4649],[-99.3823,21.4812],[-99.3867,21.5004],[-99.3789,21.5005],[-99.372,21.5071],[-99.3701,21.5221],[-99.3787,21.5296],[-99.3759,21.5479],[-99.3637,21.5533],[-99.3499,21.5524],[-99.3273,21.5352],[-99.3055,21.5329],[-99.2893,21.5504],[-99.2907,21.558],[-99.2793,21.5601],[-99.2744,21.5653],[-99.2817,21.585],[-99.2807,21.6079],[-99.2739,21.6062],[-99.2435,21.6151],[-99.2406,21.6238],[-99.2251,21.6333],[-99.2254,21.6403],[-99.2167,21.6534],[-99.2177,21.6666],[-99.1983,21.665],[-99.1881,21.6699]]]}},{"type":"Feature","properties":{"cve_ent":"22","cve_mun":"010","cvegeo":"22010","nombre":"Landa de Matamoros"},"geometry":{"type":"Polygon","coordinates":[[[-99.1224,21.4534],[-99.1052,21.4205],[-99.1059,21.4116],[-99.0981,21.4084],[-99.0928,21.3817],[-99.0979,21.3776],[-99.0926,21.3634],[-99.1295,21.362],[-99.1378,21.3298],[-99.1029,21.3212],[-99.1028,21.3179],[-99.1276,21.3183],[-99.121,21.3097],[-99.1058,21.302],[-99.1043,21.2896],[-99.083,21.2963],[-99.0614,21.2795],[-99.0579,21.2847],[-99.0532,21.2816],[-99.0506,21.2747],[-99.0512,21.2534],[-99.0568,21.247],[-99.0699,21.2431],[-99.0737,21.2358],[-99.0735,21.2304],[-99.0684,21.2239],[-99.0561,21.2224],[-99.0519,21.2184],[-99.0431,21.1787],[-99.0479,21.1779],[-99.0467,21.1741],[-99.0541,21.1655],[-99.0545,21.1598],[-99.0613,21.1542],[-99.0722,21.157],[-99.0657,21.1659],[-99.0597,21.1683],[-99.0633,21.1749],[-99.0765,21.1735],[-99.0778,21.1707],[-99.0712,21.166],[-99.077,21.1591],[-99.084,21.1596],[-99.0906,21.1531],[-99.1104,21.1566],[-99.112,21.1483],[-99.1268,21.1467],[-99.1326,21.153],[-99.1442,21.1451],[-99.1505,21.1478],[-99.1635,21.1399],[-99.1762,21.1378],[-99.1846,21.1223],[-99.2062,21.1187],[-99.2141,21.1068],[-99.2306,21.1076],[-99.2342,21.1128],[-99.2477,21.1013],[-99.2713,21.1131],[-99.2719,21.1213],[-99.2823,21.1221],[-99.2832,21.1318],[-99.2869,21.131],[-99.2958,21.1418],[-99.3027,21.1394],[-99.3076,21.147],[-99.3233,21.1396],[-99.3305,21.1304],[-99.3403,21.1316],[-99.3418,21.1357],[-99.3513,21.1402],[-99.35,21.1537],[-99.3611,21.1628],[-99.351,21.1718],[-99.3456,21.17],[-99.3458,21.1803],[-99.3501,21.1858],[-99.3626,21.1853],[-99.3626,21.193],[-99.3694,21.1964],[-99.3554,21.2101],[-99.3566,21.2032],[-99.3441,21.1926],[-99.3414,21.184],[-99.3364,21.1877],[-99.3471,21.2159],[-99.3529,21.2161],[-99.3478,21.2331],[-99.3466,21.2282],[-99.3444,21.232],[-99.3404,21.2311],[-99.3437,21.2331],[-99.3371,21.2408],[-99.3216,21.233],[-99.3217,21.2267],[-99.3269,21.223],[-99.3225,21.2137],[-99.3062,21.2278],[-99.297,21.2273],[-99.3,21.233],[-99.2961,21.2403],[-99.2975,21.2512],[-99.3043,21.258],[-99.3013,21.2664],[-99.2945,21.2648],[-99.2978,21.2688],[-99.2925,21.2732],[-99.2851,21.2634],[-99.2903,21.2817],[-99.2866,21.2844],[-99.2793,21.278],[-99.2714,21.284],[-99.2711,21.2946],[-99.2641,21.3051],[-99.2669,21.3121],[-99.2554,21.3191],[-99.2587,21.328],[-99.2493,21.3325],[-99.2449,21.3309],[-99.2392,21.3393],[-99.2475,21.35],[-99.2448,21.3648],[-99.2373,21.3719],[-99.2335,21.3848],[-99.2221,21.3891],[-99.22,21.3948],[-99.2188,21.4059],[-99.2247,21.4172],[-99.2253,21.4347],[-99.2294,21.4452],[-99.2253,21.4497],[-99.2043,21.4487],[-99.197,21.4541],[-99.1925,21.4471],[-99.1825,21.444],[-99.1784,21.4377],[-99.171,21.4359],[-99.1658,21.4298],[-99.1582,21.4298],[-99.1367,21.4628],[-99.1224,21.4534]]]}},{"type":"Feature","properties":{"cve_ent":"22","cve_mun":"011","cvegeo":"22011","nombre":"El Marqués"},"geometry":{"type":"Polygon","coordinates":[[[-100.2636,20.971],[-100.2009,20.937],[-100.1878,20.9325],[-100.2041,20.9323],[-100.2335,20.9197],[-100.232,20.918],[-100.2427,20.9058],[-100.2716,20.8554],[-100.2276,20.8657],[-100.2108,20.8324],[-100.2135,20.8316],[-100.2122,20.8247],[-100.2096,20.8246],[-100.2072,20.7959],[-100.2061,20.791],[-100.1993,20.7854],[-100.1994,20.7709],[-100.1892,20.7721],[-100.1847,20.7761],[-100.1869,20.778],[-100.1801,20.781],[-100.1798,20.7676],[-100.1861,20.7678],[-100.1868,20.7641],[-100.1942,20.7614],[-100.1902,20.7504],[-100.1812,20.7403],[-100.1825,20.7334],[-100.1626,20.7301],[-100.1593,20.7214],[-100.1668,20.7219],[-100.1694,20.7043],[-100.1549,20.698],[-100.1777,20.6953],[-100.1971,20.6431],[-100.1898,20.636],[-100.184,20.6118],[-100.189,20.608],[-100.1861,20.606],[-100.1919,20.5897],[-100.2018,20.5842],[-100.196,20.5744],[-100.1992,20.5724],[-100.1904,20.552],[-100.1866,20.5532],[-100.1853,20.5501],[-100.1804,20.5349],[-100.1844,20.5325],[-100.1806,20.5298],[-100.1788,20.5327],[-100.1752,20.5277],[-100.2031,20.517],[-100.206,20.5219],[-100.1934,20.5293],[-100.1919,20.5334],[-100.218,20.5371],[-100.2379,20.5305],[-100.2538,20.5324],[-100.2652,20.5268],[-100.3008,20.5197],[-100.3026,20.5065],[-100.3221,20.5009],[-100.34,20.536],[-100.3459,20.5564],[-100.3505,20.5609],[-100.3373,20.5646],[-100.3297,20.5609],[-100.3288,20.5667],[-100.3457,20.5792],[-100.3468,20.5851],[-100.3554,20.5851],[-100.3522,20.588],[-100.3413,20.5864],[-100.3423,20.5893],[-100.339,20.5912],[-100.3478,20.6087],[-100.3369,20.6132],[-100.3354,20.6181],[-100.3389,20.6239],[-100.3364,20.6267],[-100.3397,20.641],[-100.3443,20.6409],[-100.3428,20.6671],[-100.3519,20.6686],[-100.3507,20.6773],[-100.3593,20.6817],[-100.3572,20.686],[-100.3628,20.6864],[-100.3602,20.6907],[-100.3877,20.6961],[-100.3838,20.7456],[-100.3888,20.7541],[-100.3825,20.7728],[-100.4025,20.7801],[-100.403,20.7985],[-100.4072,20.8048],[-100.3843,20.8174],[-100.3825,20.8229],[-100.3701,20.8331],[-100.3701,20.8385],[-100.3481,20.8475],[-100.3458,20.8551],[-100.3491,20.8595],[-100.346,20.8595],[-100.3373,20.8709],[-100.3322,20.8825],[-100.3336,20.8907],[-100.2984,20.9153],[-100.3052,20.922],[-100.3042,20.9283],[-100.2992,20.9313],[-100.2655,20.9292],[-100.2627,20.9335],[-100.2618,20.9534],[-100.2721,20.963],[-100.2678,20.9686],[-100.2636,20.971]]]}},{"type":"Feature","properties":{"cve_ent":"22","cve_mun":"012","cvegeo":"22012","nombre":"Pedro Escobedo"},"geometry":{"type":"Polygon","coordinates":[[[-100.0752,20.5773],[-100.0791,20.5491],[-100.0846,20.5492],[-100.085,20.5387],[-100.0707,20.5317],[-100.0658,20.5244],[-100.0617,20.502],[-100.0688,20.4942],[-100.0674,20.4917],[-100.0579,20.4924],[-100.0519,20.4882],[-100.041,20.4913],[-100.0425,20.483],[-100.0474,20.4802],[-100.051,20.4834],[-100.0673,20.4829],[-100.0759,20.4672],[-100.0839,20.4743],[-100.0853,20.4681],[-100.0931,20.4733],[-100.0929,20.4562],[-100.0892,20.453],[-100.0926,20.446],[-100.1016,20.4397],[-100.1254,20.4456],[-100.1332,20.4396],[-100.1269,20.4321],[-100.1259,20.4392],[-100.1214,20.4411],[-100.1289,20.4197],[-100.1323,20.4237],[-100.129,20.4321],[-100.1343,20.4377],[-100.1414,20.4148],[-100.157,20.417],[-100.1875,20.374],[-100.1944,20.37],[-100.1975,20.3604],[-100.253,20.3585],[-100.255,20.3619],[-100.2529,20.3639],[-100.2582,20.3707],[-100.2503,20.3745],[-100.2515,20.3846],[-100.2336,20.3837],[-100.2301,20.3875],[-100.2342,20.3935],[-100.2461,20.392],[-100.2523,20.4017],[-100.2531,20.3977],[-100.2705,20.3934],[-100.2724,20.3975],[-100.2777,20.3981],[-100.2812,20.4062],[-100.2779,20.4174],[-100.2856,20.4346],[-100.2966,20.4495],[-100.2986,20.4487],[-100.2967,20.4505],[-100.2729,20.4504],[-100.2589,20.4572],[-100.2635,20.4608],[-100.2597,20.4619],[-100.2475,20.4588],[-100.2528,20.478],[-100.2487,20.488],[-100.2401,20.5037],[-100.2314,20.5043],[-100.2195,20.5192],[-100.2235,20.5265],[-100.2294,20.5247],[-100.2323,20.5324],[-100.218,20.5371],[-100.1919,20.5334],[-100.1934,20.5293],[-100.206,20.5219],[-100.2031,20.517],[-100.1771,20.5254],[-100.1752,20.5277],[-100.1788,20.5327],[-100.1806,20.5298],[-100.1844,20.5325],[-100.1804,20.5349],[-100.1866,20.5532],[-100.1904,20.552],[-100.1992,20.5724],[-100.196,20.5744],[-100.1901,20.562],[-100.1548,20.5678],[-100.144,20.5658],[-100.1056,20.5688],[-100.1056,20.566],[-100.095,20.5648],[-100.0951,20.5793],[-100.0752,20.5773]]]}},{"type":"Feature","properties":{"cve_ent":"22","cve_mun":"013","cvegeo":"22013","nombre":"Peñamiller"},"geometry":{"type":"Polygon","coordinates":[[[-99.6568,21.0152],[-99.6811,20.985],[-99.6922,20.9903],[-99.6987,20.9668],[-99.7117,20.9662],[-99.7221,20.9443],[-99.7891,20.9547],[-99.818,21.0236],[-99.8176,21.0281],[-99.8339,21.0008],[-99.8571,21.0255],[-99.862,21.0404],[-99.8635,21.0359],[-99.8719,21.03],[-99.8779,21.0317],[-99.8825,21.0358],[-99.8785,21.0436],[-99.8905,21.0461],[-99.9028,21.0568],[-99.9018,21.0529],[-99.908,21.0504],[-99.9114,21.0599],[-99.9225,21.0692],[-99.9212,21.0569],[-99.9251,21.0515],[-99.9353,21.0467],[-99.9408,21.0722],[-99.957,21.054],[-99.9671,21.0479],[-99.9767,21.044],[-100.0113,21.0408],[-100.0067,21.0464],[-100.0198,21.0551],[-100.0203,21.064],[-100.0263,21.0728],[-100.0215,21.0967],[-100.0219,21.1001],[-100.0275,21.1003],[-100.0168,21.123],[-100.0071,21.1567],[-100.003,21.1574],[-100.0059,21.1611],[-100.0024,21.1687],[-100.0041,21.1737],[-99.9964,21.1826],[-100.0012,21.1885],[-100.0111,21.1895],[-99.9864,21.2183],[-99.9479,21.2124],[-99.9547,21.2057],[-99.9454,21.2099],[-99.9426,21.1944],[-99.8993,21.1839],[-99.8886,21.1738],[-99.8883,21.1696],[-99.8716,21.1697],[-99.8313,21.1573],[-99.777,21.1959],[-99.7758,21.2073],[-99.7581,21.2164],[-99.7385,21.2358],[-99.6879,21.2258],[-99.6934,21.2359],[-99.6835,21.2219],[-99.686,21.1982],[-99.7158,21.1828],[-99.7143,21.1746],[-99.6941,21.138],[-99.7012,21.1186],[-99.6877,21.1171],[-99.692,21.0806],[-99.6764,21.0751],[-99.6853,21.0691],[-99.6937,21.0221],[-99.6568,21.0152]]]}},{"type":"Feature","properties":{"cve_ent":"22","cve_mun":"014","cvegeo":"22014","nombre":"Querétaro"},"geometry":{"type":"Polygon","coordinates":[[[-100.3336,20.8907],[-100.3322,20.8825],[-100.3373,20.8709],[-100.346,20.8595],[-100.3491,20.8595],[-100.3458,20.8551],[-100.3481,20.8475],[-100.3701,20.8385],[-100.3701,20.8331],[-100.3825,20.8229],[-100.3843,20.8174],[-100.4072,20.8048],[-100.403,20.7985],[-100.4025,20.7801],[-100.3825,20.7728],[-100.3888,20.7541],[-100.3838,20.7456],[-100.3877,20.6961],[-100.3602,20.6907],[-100.3628,20.6864],[-100.3572,20.686],[-100.3593,20.6817],[-100.3507,20.6773],[-100.3519,20.6686],[-100.3428,20.6671],[-100.3443,20.6409],[-100.3397,20.641],[-100.3364,20.6267],[-100.3389,20.6239],[-100.3354,20.6181],[-100.3369,20.6132],[-100.3478,20.6087],[-100.339,20.5912],[-100.3423,20.5893],[-100.3413,20.5864],[-100.3522,20.588],[-100.3554,20.5851],[-100.3468,20.5851],[-100.3457,20.5792],[-100.3288,20.5667],[-100.3297,20.5609],[-100.3373,20.5646],[-100.3505,20.5609],[-100.3452,20.553],[-100.3594,20.5505],[-100.3581,20.5305],[-100.3642,20.5267],[-100.3826,20.5235],[-100.3918,20.5553],[-100.4108,20.5538],[-100.4104,20.5639],[-100.417,20.5592],[-100.4172,20.562],[-100.4237,20.5599],[-100.4248,20.5709],[-100.4306,20.5757],[-100.4333,20.5899],[-100.4888,20.5944],[-100.4962,20.6162],[-100.5215,20.6249],[-100.5271,20.6298],[-100.5289,20.6383],[-100.5511,20.6338],[-100.5619,20.6714],[-100.574,20.6721],[-100.5836,20.6784],[-100.5813,20.6929],[-100.5965,20.7173],[-100.5883,20.7224],[-100.5844,20.7289],[-100.5489,20.7364],[-100.5481,20.7496],[-100.5595,20.7626],[-100.5641,20.7747],[-100.5583,20.8046],[-100.5707,20.8059],[-100.5734,20.8037],[-100.5778,20.8084],[-100.5776,20.8167],[-100.5663,20.8208],[-100.5593,20.8299],[-100.502,20.8529],[-100.509,20.8707],[-100.5027,20.8755],[-100.4916,20.8962],[-100.485,20.9008],[-100.4854,20.9088],[-100.47,20.907],[-100.4722,20.9284],[-100.4532,20.9232],[-100.454,20.9002],[-100.4134,20.8874],[-100.3944,20.8922],[-100.3336,20.8907]]]}},{"type":"Feature","properties":{"cve_ent":"22","cve_mun":"015","cvegeo":"22015","nombre":"San Joaquín"},"geometry":{"type":"Polygon","coordinates":[[[-99.3899,21.1024],[-99.3974,21.102],[-99.3995,21.0949],[-99.3945,21.0796],[-99.3888,21.0793],[-99.3878,21.068],[-99.373,21.0735],[-99.3663,21.0666],[-99.3688,21.0611],[-99.3734,21.0622],[-99.3771,21.0582],[-99.3639,21.0485],[-99.3684,21.0248],[-99.3752,21.0243],[-99.3846,21.0181],[-99.384,21.0097],[-99.3999,21.0142],[-99.4608,21.0186],[-99.4585,21.0116],[-99.4718,20.9898],[-99.4668,20.9813],[-99.4684,20.9729],[-99.4662,20.9717],[-99.4713,20.9627],[-99.4691,20.9519],[-99.475,20.9333],[-99.4834,20.9303],[-99.5074,20.9351],[-99.5155,20.9313],[-99.5285,20.9185],[-99.5252,20.9123],[-99.5272,20.9091],[-99.5217,20.903],[-99.5362,20.8963],[-99.537,20.8995],[-99.5439,20.9022],[-99.5446,20.8974],[-99.5495,20.8951],[-99.5585,20.882],[-99.5675,20.8848],[-99.5743,20.8819],[-99.5844,20.8842],[-99.5848,20.9033],[-99.588,20.9048],[-99.5949,20.9033],[-99.6084,20.9081],[-99.6398,20.9104],[-99.6487,20.9071],[-99.6708,20.9409],[-99.6813,20.9413],[-99.6808,20.9558],[-99.6858,20.9685],[-99.6518,20.9792],[-99.6446,20.978],[-99.6497,20.9849],[-99.6395,20.9852],[-99.6231,20.9804],[-99.6164,20.9833],[-99.6091,20.9797],[-99.5859,20.9829],[-99.5649,20.9785],[-99.562,20.9749],[-99.5327,20.9854],[-99.5269,20.9933],[-99.5159,20.9994],[-99.5159,21.008],[-99.5081,21.0193],[-99.5096,21.0238],[-99.5022,21.0248],[-99.5083,21.0261],[-99.5039,21.0341],[-99.4902,21.0313],[-99.4891,21.0399],[-99.482,21.0386],[-99.4861,21.0429],[-99.4771,21.0461],[-99.4829,21.0518],[-99.4735,21.0517],[-99.4749,21.0556],[-99.4691,21.0561],[-99.4572,21.064],[-99.4479,21.0648],[-99.4451,21.0695],[-99.4397,21.0689],[-99.4406,21.075],[-99.4356,21.0817],[-99.4388,21.0849],[-99.4379,21.0898],[-99.4333,21.089],[-99.4302,21.1032],[-99.4192,21.1031],[-99.4027,21.1164],[-99.3972,21.1146],[-99.396,21.1077],[-99.3899,21.1024]]]}},{"type":"Feature","properties":{"cve_ent":"22","cve_mun":"016","cvegeo":"22016","nombre":"San Juan del Río"},"geometry":{"type":"Polygon","coordinates":[[[-99.8354,20.4778],[-99.8591,20.2685],[-99.8774,20.2714],[-99.9114,20.2856],[-99.9195,20.2817],[-99.9296,20.2685],[-99.9285,20.2502],[-99.9341,20.2498],[-99.9284,20.2327],[-99.9224,20.2311],[-99.9184,20.2118],[-99.9509,20.2159],[-99.9527,20.2404],[-99.9563,20.2484],[-99.9742,20.2628],[-99.9773,20.2725],[-99.9812,20.2714],[-99.9865,20.2571],[-99.9809,20.2531],[-99.9786,20.2361],[-99.9883,20.2349],[-100.0212,20.2074],[-100.0265,20.2067],[-100.0407,20.2188],[-100.035,20.2248],[-100.0439,20.2295],[-100.0475,20.2265],[-100.0521,20.2302],[-100.0487,20.2249],[-100.0564,20.2207],[-100.0688,20.2272],[-100.0574,20.2437],[-100.0765,20.2482],[-100.0839,20.2571],[-100.0949,20.2612],[-100.0763,20.2862],[-100.0828,20.2902],[-100.082,20.2965],[-100.0756,20.299],[-100.0829,20.3084],[-100.082,20.3173],[-100.0873,20.3172],[-100.0876,20.3016],[-100.0909,20.2989],[-100.1008,20.3024],[-100.0954,20.3143],[-100.1127,20.3144],[-100.1354,20.3202],[-100.1377,20.3179],[-100.1433,20.3232],[-100.1486,20.3219],[-100.1747,20.3383],[-100.1731,20.3479],[-100.1701,20.3495],[-100.1769,20.3572],[-100.1912,20.3615],[-100.196,20.3666],[-100.1875,20.374],[-100.157,20.417],[-100.1414,20.4148],[-100.1343,20.4377],[-100.129,20.4321],[-100.1323,20.4237],[-100.1289,20.4197],[-100.1214,20.4411],[-100.1259,20.4392],[-100.1269,20.4321],[-100.1302,20.438],[-100.1339,20.4384],[-100.126,20.4452],[-100.1016,20.4397],[-100.0926,20.446],[-100.0892,20.453],[-100.0929,20.4562],[-100.0931,20.4733],[-100.0853,20.4681],[-100.0839,20.4743],[-100.0759,20.4672],[-100.0673,20.4829],[-100.051,20.4834],[-100.0474,20.4802],[-100.0425,20.483],[-100.041,20.4913],[-100.0519,20.4882],[-100.0688,20.4942],[-100.0617,20.502],[-100.0667,20.5264],[-100.065,20.5247],[-100.0576,20.5336],[-100.0633,20.5325],[-100.067,20.5408],[-100.0365,20.5474],[-100.0326,20.5239],[-100.0125,20.5328],[-100.0138,20.5353],[-100.007,20.5364],[-99.9953,20.5149],[-99.9898,20.5197],[-99.9874,20.5185],[-99.9981,20.4952],[-99.9702,20.491],[-99.9667,20.4767],[-99.9596,20.4662],[-99.9648,20.465],[-99.9683,20.4505],[-99.9569,20.4582],[-99.9483,20.44],[-99.95,20.4385],[-99.9476,20.4393],[-99.9391,20.4316],[-99.9132,20.4445],[-99.9117,20.4644],[-99.8867,20.4616],[-99.8777,20.4666],[-99.868,20.4652],[-99.8638,20.46],[-99.8584,20.459],[-99.8354,20.4778]]]}},{"type":"Feature","properties":{"cve_ent":"22","cve_mun":"017","cvegeo":"22017","nombre":"Tequisquiapan"},"geometry":{"type":"Polygon","coordinates":[[[-100.0158,20.637],[-99.9758,20.6333],[-99.9747,20.6364],[-99.9483,20.635],[-99.9467,20.625],[-99.9389,20.6192],[-99.9335,20.6273],[-99.9323,20.6246],[-99.928,20.6255],[-99.9302,20.6314],[-99.9187,20.6323],[-99.9063,20.6122],[-99.9006,20.6095],[-99.9016,20.6049],[-99.8943,20.6018],[-99.897,20.5832],[-99.8865,20.5859],[-99.8826,20.5964],[-99.8761,20.5944],[-99.8751,20.59],[-99.8561,20.5898],[-99.8512,20.5845],[-99.8448,20.5737],[-99.8526,20.5737],[-99.8606,20.5666],[-99.8693,20.5685],[-99.8706,20.5568],[-99.8559,20.5503],[-99.851,20.5526],[-99.8545,20.5439],[-99.8614,20.5424],[-99.8608,20.5386],[-99.8543,20.5428],[-99.8484,20.5393],[-99.8417,20.5455],[-99.8281,20.5425],[-99.8354,20.4778],[-99.8465,20.4673],[-99.8529,20.466],[-99.8584,20.459],[-99.8638,20.46],[-99.868,20.4652],[-99.8777,20.4666],[-99.8867,20.4616],[-99.9117,20.4644],[-99.9132,20.4445],[-99.9391,20.4316],[-99.9476,20.4393],[-99.95,20.4385],[-99.9483,20.44],[-99.9569,20.4582],[-99.9683,20.4505],[-99.9648,20.465],[-99.9596,20.4662],[-99.9667,20.4767],[-99.9702,20.491],[-99.9981,20.4952],[-99.9874,20.5185],[-99.9898,20.5197],[-99.9953,20.5149],[-100.007,20.5364],[-100.0138,20.5353],[-100.0125,20.5328],[-100.0326,20.5239],[-100.0346,20.5463],[-100.0455,20.5457],[-100.067,20.5408],[-100.0633,20.5325],[-100.0576,20.5336],[-100.065,20.5247],[-100.0707,20.5317],[-100.085,20.5387],[-100.0846,20.5492],[-100.0791,20.5491],[-100.0752,20.5773],[-100.0637,20.5754],[-100.0656,20.59],[-100.0633,20.6213],[-100.0775,20.6252],[-100.0798,20.6421],[-100.0612,20.6493],[-100.0042,20.6529],[-100.0165,20.6417],[-100.0158,20.637]]]}},{"type":"Feature","properties":{"cve_ent":"22","cve_mun":"018","cvegeo":"22018","nombre":"Tolimán"},"geometry":{"type":"Polygon","coordinates":[[[-99.7891,20.9547],[-99.8059,20.9498],[-99.7903,20.9177],[-99.8321,20.925],[-99.8739,20.9237],[-99.8694,20.9058],[-99.8817,20.905],[-99.8437,20.8721],[-99.8246,20.8744],[-99.8062,20.8649],[-99.8224,20.8416],[-99.8056,20.8327],[-99.7982,20.8135],[-99.8063,20.8035],[-99.8173,20.801],[-99.8332,20.7882],[-99.8589,20.7883],[-99.8671,20.7713],[-99.874,20.7641],[-99.8977,20.7531],[-99.9002,20.7586],[-99.8942,20.7654],[-99.898,20.7672],[-99.8993,20.764],[-99.9141,20.7585],[-99.9294,20.7559],[-99.9662,20.7574],[-99.9592,20.7718],[-99.9632,20.7734],[-99.9642,20.779],[-99.9523,20.7944],[-99.9465,20.7935],[-99.9475,20.8142],[-100.0159,20.8278],[-100.0068,20.8456],[-100.011,20.8451],[-100.0176,20.8504],[-100.0248,20.8484],[-100.0316,20.856],[-100.0316,20.8624],[-100.0268,20.8678],[-100.0278,20.8737],[-100.0365,20.8709],[-100.0444,20.8797],[-100.0514,20.8815],[-100.0528,20.8879],[-100.061,20.8915],[-100.0815,20.8886],[-100.09,20.9055],[-100.0923,20.9317],[-100.0642,20.9363],[-100.0669,20.9422],[-100.0807,20.9499],[-100.0688,20.9579],[-100.0698,20.9648],[-100.078,20.9727],[-100.0699,20.9835],[-100.0738,20.9918],[-100.0607,21.0058],[-100.0682,21.0237],[-100.0612,21.0285],[-100.0545,21.0278],[-100.0291,21.0151],[-100.0226,21.0146],[-100.0111,21.0285],[-100.0113,21.0408],[-99.9767,21.044],[-99.9671,21.0479],[-99.957,21.054],[-99.9408,21.0722],[-99.9353,21.0467],[-99.9251,21.0515],[-99.9212,21.0569],[-99.9225,21.0692],[-99.9174,21.067],[-99.908,21.0504],[-99.9018,21.0529],[-99.9028,21.0568],[-99.8905,21.0461],[-99.8785,21.0436],[-99.8825,21.0358],[-99.8779,21.0317],[-99.8719,21.03],[-99.8635,21.0359],[-99.862,21.0404],[-99.8571,21.0255],[-99.8339,21.0008],[-99.8176,21.0281],[-99.818,21.0236],[-99.7891,20.9547]]]}}]}