{"type":"FeatureCollection","features":[{"type":"Feature","properties":{"cve_ent":"23","cve_mun":"001","cvegeo":"23001","nombre":"Cozumel"},"geometry":{"type":"MultiPolygon","coordinates":[[[[-86.7231,20.5901],[-86.7379,20.5527],[-86.7578,20.5255],[-86.7634,20.5071],[-86.7936,20.4648],[-86.8069,20.4559],[-86.8181,20.4383],[-86.8306,20.4381],[-86.8789,20.3784],[-86.8985,20.3442],[-86.9028,20.3466],[-86.9081,20.3433],[-86.9323,20.3122],[-86.9473,20.3043],[-86.9575,20.2924],[-86.9646,20.2905],[-86.9882,20.2716],[-86.9944,20.2745],[-87.003,20.2974],[-87.017,20.2994],[-87.0099,20.3156],[-87.0137,20.3287],[-87.0214,20.3398],[-87.0253,20.367],[-87.0171,20.4122],[-87.0059,20.4332],[-86.9943,20.4433],[-86.9828,20.4666],[-86.9801,20.4658],[-86.9818,20.468],[-86.9756,20.4754],[-86.9784,20.4761],[-86.9789,20.4783],[-86.9755,20.4756],[-86.9743,20.4782],[-86.9756,20.4794],[-86.9757,20.4832],[-86.9744,20.4791],[-86.9555,20.5078],[-86.9571,20.5094],[-86.9562,20.5118],[-86.954,20.5082],[-86.9473,20.5143],[-86.9392,20.5276],[-86.9374,20.5375],[-86.9262,20.5525],[-86.9086,20.5575],[-86.897,20.5656],[-86.8816,20.5577],[-86.8836,20.5534],[-86.8802,20.5444],[-86.865,20.5372],[-86.8572,20.5433],[-86.8587,20.5479],[-86.8543,20.5499],[-86.79,20.5563],[-86.7676,20.5689],[-86.7736,20.5632],[-86.7687,20.5606],[-86.763,20.5675],[-86.7674,20.5683],[-86.7593,20.5754],[-86.7477,20.5787],[-86.7269,20.5922],[-86.7231,20.5901]]],[[[-86.8648,20.5482],[-86.8625,20.5473],[-86.8591,20.5472],[-86.8629,20.5457],[-86.8648,20.5482]]],[[[-87.1325,20.5837],[-87.1219,20.5755],[-87.1287,20.569],[-87.1408,20.5823],[-87.1568,20.57],[-87.1901,20.5847],[-87.1814,20.5977],[-87.1325,20.5837]]],[[[-87.3514,20.3209],[-87.3564,20.3151],[-87.3559,20.3116],[-87.3634,20.3144],[-87.3585,20.3248],[-87.3514,20.3209]]]]}},{"type":"Feature","properties":{"cve_ent":"23","cve_mun":"002","cvegeo":"23002","nombre":"Felipe Carrillo Puerto"},"geometry":{"type":"MultiPolygon","coordinates":[[[[-87.993,20.4241],[-87.9735,20.2096],[-87.628,20.2065],[-87.628,20.1346],[-87.5,20.1345],[-87.5,19.8071],[-87.515,19.799],[-87.5216,19.8009],[-87.5257,19.7967],[-87.5333,19.7956],[-87.5442,19.7994],[-87.5452,19.7957],[-87.5523,19.8003],[-87.5546,19.8085],[-87.5787,19.7903],[-87.587,19.7743],[-87.5852,19.7719],[-87.5948,19.7637],[-87.6156,19.7246],[-87.6287,19.7104],[-87.6428,19.688],[-87.6529,19.65],[-87.6675,19.6157],[-87.6793,19.6146],[-87.684,19.6215],[-87.6764,19.6213],[-87.6894,19.6262],[-87.6724,19.6257],[-87.669,19.6275],[-87.6798,19.6289],[-87.6676,19.6286],[-87.6607,19.6343],[-87.6673,19.6385],[-87.6595,19.6372],[-87.6587,19.6402],[-87.6616,19.6401],[-87.6617,19.6408],[-87.6586,19.6417],[-87.6634,19.6474],[-87.657,19.6469],[-87.6605,19.6513],[-87.656,19.656],[-87.6508,19.6756],[-87.6534,19.6796],[-87.6491,19.6881],[-87.6567,19.6814],[-87.6934,19.6811],[-87.7259,19.6686],[-87.7322,19.6691],[-87.7312,19.6648],[-87.7405,19.6662],[-87.7434,19.6567],[-87.7427,19.6472],[-87.7384,19.6417],[-87.7421,19.625],[-87.7407,19.6179],[-87.7486,19.5999],[-87.7389,19.5865],[-87.7234,19.5875],[-87.7269,19.5827],[-87.7349,19.5839],[-87.7285,19.5764],[-87.7237,19.575],[-87.7207,19.5779],[-87.7076,19.5731],[-87.7131,19.5684],[-87.7139,19.5612],[-87.702,19.5502],[-87.6816,19.5581],[-87.6764,19.5638],[-87.6821,19.5667],[-87.6897,19.5648],[-87.6925,19.5618],[-87.6932,19.5616],[-87.6892,19.5669],[-87.6769,19.5695],[-87.667,19.5492],[-87.6739,19.5437],[-87.6694,19.5376],[-87.6777,19.5379],[-87.6864,19.533],[-87.6872,19.5305],[-87.6764,19.5347],[-87.6703,19.5286],[-87.6638,19.5294],[-87.6641,19.5211],[-87.673,19.519],[-87.6688,19.5162],[-87.669,19.5126],[-87.6635,19.5132],[-87.6717,19.5075],[-87.6687,19.5058],[-87.6695,19.501],[-87.6625,19.5041],[-87.6631,19.5007],[-87.6592,19.5002],[-87.6504,19.5052],[-87.6377,19.524],[-87.6322,19.5391],[-87.6145,19.5528],[-87.5825,19.5565],[-87.5504,19.5661],[-87.5452,19.5612],[-87.5401,19.5616],[-87.5381,19.5577],[-87.5315,19.562],[-87.5368,19.5466],[-87.5257,19.5405],[-87.5255,19.5464],[-87.515,19.5631],[-87.5079,19.5641],[-87.5025,19.5704],[-87.4924,19.5707],[-87.5099,19.5764],[-87.5087,19.5818],[-87.502,19.5806],[-87.5072,19.5867],[-87.5048,19.5901],[-87.4954,19.5858],[-87.4902,19.5903],[-87.4819,19.5879],[-87.4517,19.596],[-87.4519,19.6007],[-87.4572,19.6008],[-87.4584,19.6073],[-87.4623,19.6075],[-87.4562,19.6158],[-87.4503,19.6164],[-87.4451,19.6228],[-87.4533,19.6376],[-87.4544,19.6339],[-87.4561,19.6362],[-87.4573,19.643],[-87.4545,19.648],[-87.4483,19.6321],[-87.4283,19.6189],[-87.4194,19.6034],[-87.4101,19.5984],[-87.4143,19.5641],[-87.4165,19.5574],[-87.42,19.5576],[-87.4234,19.5517],[-87.4223,19.5388],[-87.4274,19.5313],[-87.4267,19.5235],[-87.4309,19.5167],[-87.4287,19.4986],[-87.4402,19.469],[-87.445,19.4687],[-87.4711,19.4449],[-87.4918,19.4364],[-87.5257,19.3953],[-87.5456,19.3913],[-87.5496,19.3936],[-87.5551,19.3914],[-87.5646,19.3939],[-87.5647,19.3971],[-87.5536,19.3928],[-87.5399,19.4031],[-87.5393,19.4185],[-87.5433,19.4196],[-87.5454,19.417],[-87.5479,19.4186],[-87.5418,19.4202],[-87.5394,19.4258],[-87.5386,19.4258],[-87.5357,19.4282],[-87.5354,19.4286],[-87.5355,19.429],[-87.552,19.425],[-87.5539,19.427],[-87.5887,19.4037],[-87.596,19.4031],[-87.6189,19.3818],[-87.636,19.3734],[-87.6502,19.3393],[-87.6563,19.3028],[-87.6691,19.2952],[-87.6579,19.2821],[-87.6612,19.2607],[-87.6869,19.2348],[-87.6865,19.2309],[-87.6736,19.228],[-87.6738,19.2235],[-87.6833,19.2233],[-87.6861,19.2205],[-87.6769,19.2191],[-87.6823,19.2136],[-87.6822,19.2058],[-87.6739,19.2058],[-87.6785,19.1999],[-87.6693,19.1993],[-87.6736,19.194],[-87.6708,19.1899],[-87.6663,19.1911],[-87.6649,19.1879],[-87.6572,19.1901],[-87.6587,19.1857],[-87.654,19.1807],[-87.6418,19.1828],[-87.6379,19.1819],[-87.6405,19.1799],[-87.6381,19.1772],[-87.6336,19.1791],[-87.6325,19.1837],[-87.6323,19.1826],[-87.63,19.1834],[-87.6339,19.1879],[-87.6275,19.1882],[-87.6244,19.1917],[-87.6069,19.2302],[-87.5988,19.2374],[-87.5934,19.2369],[-87.5891,19.2467],[-87.5868,19.2461],[-87.5833,19.2619],[-87.5778,19.2698],[-87.5895,19.2597],[-87.5894,19.2546],[-87.5977,19.2491],[-87.5998,19.2427],[-87.6022,19.2415],[-87.6017,19.2479],[-87.612,19.2401],[-87.5939,19.2548],[-87.5873,19.2647],[-87.569,19.2782],[-87.563,19.2898],[-87.5464,19.3029],[-87.5376,19.307],[-87.5229,19.3058],[-87.5161,19.3082],[-87.5096,19.3198],[-87.4893,19.3264],[-87.4798,19.3237],[-87.4765,19.3261],[-87.4725,19.3233],[-87.4638,19.3259],[-87.4536,19.3131],[-87.4454,19.3118],[-87.4751,19.2811],[-87.4897,19.2607],[-87.5148,19.2353],[-87.5196,19.2357],[-87.5279,19.2272],[-87.5396,19.1998],[-87.5379,19.1863],[-87.5422,19.168],[-87.5408,19.1551],[-87.5483,19.1455],[-87.55,19.1186],[-88.017,19.1166],[-88.0792,19.1264],[-88.1445,19.1412],[-88.1729,19.1403],[-88.173,19.1502],[-88.2084,19.1566],[-88.2207,19.1157],[-88.22,19.1072],[-88.2425,19.0518],[-88.3879,19.094],[-88.4236,19.0969],[-88.3989,19.1727],[-88.3852,19.1982],[-88.4738,19.1939],[-88.4825,19.1959],[-88.4849,19.2025],[-88.5555,19.2016],[-88.5553,19.1895],[-88.5899,19.1895],[-88.5899,19.2123],[-88.5984,19.2182],[-88.6552,19.2177],[-88.6552,19.23],[-88.6503,19.236],[-88.6494,19.282],[-88.636,19.2819],[-88.6359,19.303],[-88.6245,19.3024],[-88.6251,19.338],[-88.6752,19.3386],[-88.6689,19.3947],[-88.6745,19.3952],[-88.6747,19.4032],[-88.6994,19.4039],[-88.6957,19.4372],[-88.6895,19.4375],[-88.6897,19.4439],[-88.6947,19.4436],[-88.6926,19.4622],[-88.6452,19.4572],[-88.6453,19.4513],[-88.6227,19.4487],[-88.6186,19.5963],[-88.6306,19.5975],[-88.6533,19.6286],[-88.6384,19.6351],[-88.6395,19.6372],[-88.6331,19.6434],[-88.5906,19.6341],[-88.5984,19.6433],[-88.5759,19.6382],[-88.5489,19.7493],[-88.5284,19.7454],[-88.5116,19.7846],[-88.4868,19.8803],[-88.4836,19.8836],[-88.484,19.8918],[-88.4684,19.8914],[-88.4685,19.957],[-88.4103,19.9573],[-88.4103,19.9509],[-88.397,19.9513],[-88.3971,19.9577],[-88.3934,19.9577],[-88.3929,19.9705],[-88.3952,19.9702],[-88.3959,19.9763],[-88.3925,19.9767],[-88.3914,20.0161],[-88.4406,20.0226],[-88.4432,20.0068],[-88.4842,20.0099],[-88.4834,20.0197],[-88.4756,20.0184],[-88.4753,20.0377],[-88.4983,20.0382],[-88.4971,20.0586],[-88.4369,20.0523],[-88.4225,20.1541],[-88.4471,20.182],[-88.5199,20.1923],[-88.4434,20.2381],[-88.4151,20.233],[-88.4091,20.2397],[-88.4029,20.2395],[-88.4091,20.2521],[-88.3519,20.259],[-88.3088,20.2535],[-88.273,20.2699],[-88.2668,20.2691],[-88.2646,20.2903],[-88.2327,20.2902],[-88.2327,20.287],[-88.1672,20.2854],[-88.1365,20.2814],[-88.0473,20.3663],[-88.0475,20.3788],[-88.034,20.3789],[-87.993,20.418],[-87.993,20.4241]]],[[[-87.4583,19.5961],[-87.4554,19.5982],[-87.4547,19.5965],[-87.4583,19.5961]]],[[[-87.4617,19.6958],[-87.4582,19.6908],[-87.4643,19.6947],[-87.4617,19.6958]]],[[[-87.4621,19.5944],[-87.4647,19.5977],[-87.4635,19.5984],[-87.4623,19.5967],[-87.4621,19.5944]]],[[[-87.4648,19.6033],[-87.4627,19.5988],[-87.4726,19.6007],[-87.4648,19.6033]]],[[[-87.464,19.6067],[-87.4664,19.607],[-87.4661,19.6133],[-87.4651,19.6133],[-87.464,19.6067]]],[[[-87.4681,19.699],[-87.4643,19.6938],[-87.4682,19.6948],[-87.4681,19.699]]],[[[-87.4678,19.334],[-87.4648,19.3307],[-87.4655,19.3266],[-87.4672,19.3329],[-87.4712,19.3348],[-87.4678,19.334]]],[[[-87.4782,19.7043],[-87.4699,19.7032],[-87.4683,19.6992],[-87.4782,19.7043]]],[[[-87.5184,19.3708],[-87.5011,19.3616],[-87.4834,19.3445],[-87.4784,19.339],[-87.4793,19.3354],[-87.4946,19.3468],[-87.4948,19.3507],[-87.5055,19.351],[-87.5063,19.3585],[-87.51,19.3584],[-87.509,19.3559],[-87.515,19.3573],[-87.5184,19.3708]]],[[[-87.4942,19.603],[-87.4832,19.6044],[-87.4784,19.6023],[-87.4789,19.5998],[-87.4846,19.5986],[-87.4839,19.6027],[-87.4942,19.603]]],[[[-87.4785,19.7046],[-87.4795,19.704],[-87.4791,19.7053],[-87.4785,19.7046]]],[[[-87.5059,19.71],[-87.4853,19.7075],[-87.4797,19.7046],[-87.5059,19.71]]],[[[-87.4908,19.5989],[-87.4918,19.5949],[-87.4939,19.5951],[-87.4908,19.5989]]],[[[-87.4923,19.611],[-87.4943,19.6071],[-87.4951,19.607],[-87.4956,19.6099],[-87.4923,19.611]]],[[[-87.4965,19.5899],[-87.4993,19.5913],[-87.4993,19.5926],[-87.4977,19.5926],[-87.4965,19.5899]]],[[[-87.5191,19.6286],[-87.5152,19.628],[-87.5207,19.6232],[-87.5191,19.6286]]],[[[-87.5234,19.6129],[-87.5179,19.6118],[-87.5234,19.6047],[-87.5234,19.6129]]],[[[-87.5544,19.4137],[-87.5494,19.4124],[-87.5495,19.4084],[-87.5555,19.4107],[-87.5544,19.4137]]],[[[-87.5577,19.5836],[-87.5582,19.5831],[-87.5585,19.5837],[-87.5577,19.5836]]],[[[-87.5614,19.5809],[-87.5626,19.5804],[-87.5615,19.5812],[-87.5614,19.5809]]],[[[-87.5735,19.3973],[-87.5654,19.3973],[-87.5655,19.3937],[-87.5716,19.3943],[-87.5735,19.3973]]],[[[-87.5662,19.5774],[-87.5675,19.5772],[-87.5663,19.5777],[-87.5662,19.5774]]],[[[-87.5769,19.566],[-87.577,19.5647],[-87.5774,19.5652],[-87.5769,19.566]]],[[[-87.6032,19.2369],[-87.6054,19.2341],[-87.606,19.2351],[-87.6032,19.2369]]],[[[-87.6409,19.2171],[-87.652,19.2155],[-87.6402,19.2185],[-87.6146,19.236],[-87.6313,19.2215],[-87.6409,19.2171]]],[[[-87.6275,19.1967],[-87.6286,19.191],[-87.634,19.1931],[-87.6275,19.1967]]],[[[-87.6287,19.2045],[-87.6285,19.2026],[-87.631,19.2027],[-87.6287,19.2045]]],[[[-87.6363,19.588],[-87.6391,19.588],[-87.636,19.5889],[-87.6363,19.588]]],[[[-87.6411,19.188],[-87.6403,19.1845],[-87.6471,19.1864],[-87.6457,19.188],[-87.6411,19.188]]],[[[-87.6472,19.5869],[-87.6484,19.5872],[-87.647,19.5874],[-87.6472,19.5869]]],[[[-87.6573,19.5171],[-87.6578,19.5113],[-87.6616,19.5093],[-87.6573,19.5171]]],[[[-87.6596,19.5079],[-87.6596,19.504],[-87.6618,19.5047],[-87.6596,19.5079]]],[[[-87.6594,19.588],[-87.66,19.5875],[-87.6601,19.5878],[-87.6594,19.588]]],[[[-87.6741,19.6412],[-87.6801,19.642],[-87.6814,19.6457],[-87.6758,19.6451],[-87.6741,19.6412]]],[[[-87.6999,19.591],[-87.6906,19.5879],[-87.6755,19.5874],[-87.6947,19.5872],[-87.713,19.5897],[-87.6999,19.591]]],[[[-87.6967,19.6455],[-87.6994,19.6426],[-87.6994,19.6462],[-87.6967,19.6455]]],[[[-87.7096,19.6501],[-87.704,19.6463],[-87.7135,19.6488],[-87.7096,19.6501]]]]}},{"type":"Feature","properties":{"cve_ent":"23","cve_mun":"003","cvegeo":"23003","nombre":"Isla Mujeres"},"geometry":{"type":"MultiPolygon","coordinates":[[[[-86.7487,21.2651],[-86.7389,21.2455],[-86.7104,21.2015],[-86.7184,21.2055],[-86.7426,21.2344],[-86.7436,21.2374],[-86.7401,21.2394],[-86.7399,21.2337],[-86.7301,21.2214],[-86.7454,21.2543],[-86.7531,21.2578],[-86.7487,21.2651]]],[[[-86.8038,21.5317],[-86.7915,21.494],[-86.7842,21.458],[-86.7894,21.4635],[-86.7887,21.4756],[-86.7948,21.4846],[-86.7909,21.4839],[-86.797,21.5019],[-86.7958,21.4894],[-86.7988,21.4907],[-86.8015,21.509],[-86.7981,21.5121],[-86.8018,21.511],[-86.7995,21.5178],[-86.8038,21.5317]]],[[[-87.0896,21.5895],[-87.0752,21.5822],[-87.0787,21.5784],[-87.066,21.5705],[-87.0455,21.5628],[-87.0417,21.5659],[-87.0315,21.5587],[-87.0294,21.5619],[-87.0273,21.5578],[-87.0258,21.5598],[-87.0232,21.5571],[-87.0103,21.5574],[-87.004,21.544],[-87.001,21.5453],[-86.9994,21.5359],[-86.9888,21.526],[-86.9817,21.5249],[-86.9821,21.5194],[-86.9748,21.5105],[-86.9774,21.5211],[-86.9702,21.5313],[-86.9814,21.5394],[-86.9901,21.5433],[-86.9977,21.5414],[-86.9953,21.551],[-86.9972,21.5517],[-86.9959,21.5526],[-86.9934,21.55],[-86.9902,21.5528],[-86.9925,21.5559],[-86.9851,21.5515],[-86.9928,21.5622],[-86.9802,21.5489],[-86.9837,21.5459],[-86.9759,21.5476],[-86.9733,21.54],[-86.9523,21.5147],[-86.9476,21.4952],[-86.9525,21.4886],[-86.935,21.4696],[-86.933,21.4618],[-86.9298,21.4566],[-86.926,21.4562],[-86.919,21.4402],[-86.9104,21.436],[-86.9072,21.4255],[-86.899,21.4178],[-86.8967,21.4104],[-86.8923,21.4113],[-86.8867,21.4035],[-86.8855,21.3862],[-86.8745,21.3445],[-86.8618,21.3231],[-86.8643,21.3039],[-86.8589,21.2956],[-86.8614,21.2872],[-86.8535,21.2763],[-86.8559,21.2719],[-86.8509,21.2559],[-86.8485,21.2519],[-86.8235,21.244],[-86.8206,21.2455],[-86.8232,21.2514],[-86.8316,21.2537],[-86.8309,21.2724],[-86.8369,21.2725],[-86.8303,21.2826],[-86.8273,21.2791],[-86.8211,21.2818],[-86.8274,21.2963],[-86.8223,21.3053],[-86.8213,21.316],[-86.8021,21.3258],[-86.7925,21.3424],[-86.7966,21.3479],[-86.7949,21.3655],[-86.8005,21.3739],[-86.8057,21.3752],[-86.8047,21.3829],[-86.8135,21.393],[-86.8101,21.3986],[-86.8224,21.4047],[-86.8208,21.4092],[-86.8265,21.4097],[-86.8279,21.413],[-86.8221,21.4201],[-86.8098,21.4129],[-86.8052,21.4089],[-86.7992,21.3888],[-86.7951,21.3859],[-86.7983,21.3886],[-86.7944,21.3882],[-86.7999,21.4024],[-86.7963,21.411],[-86.8013,21.4124],[-86.7958,21.4123],[-86.7898,21.3887],[-86.7904,21.3456],[-86.8116,21.303],[-86.8159,21.2833],[-86.807,21.2513],[-86.7998,21.2392],[-86.8012,21.2122],[-86.9145,21.2101],[-86.9781,21.212],[-86.9781,21.2172],[-86.9975,21.2172],[-86.9975,21.212],[-87.0972,21.212],[-87.0972,21.362],[-87.1058,21.3625],[-87.1058,21.5253],[-87.1004,21.5278],[-87.0991,21.5326],[-87.1058,21.547],[-87.1058,21.578],[-87.1015,21.585],[-87.0951,21.5833],[-87.0947,21.5883],[-87.0896,21.5895]]],[[[-86.8519,21.4364],[-86.8704,21.4287],[-86.8785,21.4204],[-86.8883,21.4168],[-86.8748,21.4263],[-86.8784,21.4249],[-86.879,21.4284],[-86.8791,21.425],[-86.8826,21.4248],[-86.8815,21.427],[-86.8878,21.4307],[-86.8836,21.434],[-86.8791,21.4348],[-86.8687,21.4297],[-86.8687,21.432],[-86.8519,21.4364]]],[[[-86.9038,21.4662],[-86.9019,21.4573],[-86.9039,21.4511],[-86.9132,21.4493],[-86.9023,21.457],[-86.9038,21.4662]]],[[[-86.9222,21.4779],[-86.9132,21.4719],[-86.9118,21.4664],[-86.9203,21.4723],[-86.9222,21.4779]]],[[[-86.9361,21.4755],[-86.9318,21.4742],[-86.9273,21.4683],[-86.934,21.4668],[-86.9328,21.4715],[-86.9355,21.4709],[-86.9361,21.4755]]],[[[-86.9775,21.5355],[-86.972,21.531],[-86.9747,21.5264],[-86.9775,21.5355]]],[[[-87.0381,21.586],[-87.0189,21.5813],[-87.0,21.5714],[-86.9925,21.564],[-87.0014,21.5704],[-87.0145,21.5698],[-87.0173,21.5735],[-87.0144,21.5747],[-87.021,21.5763],[-87.0231,21.5802],[-87.0295,21.5783],[-87.0303,21.5746],[-87.0359,21.5844],[-87.0418,21.5837],[-87.0381,21.586]]],[[[-87.006,21.5678],[-87.0037,21.5621],[-87.0093,21.5597],[-87.01,21.5649],[-87.006,21.5678]]],[[[-87.0255,21.5739],[-87.02,21.5724],[-87.0191,21.5696],[-87.0255,21.5739]]],[[[-87.1058,21.6049],[-87.0828,21.5969],[-87.0575,21.5927],[-87.0493,21.5896],[-87.0462,21.5851],[-87.0556,21.5865],[-87.0581,21.5907],[-87.0678,21.5943],[-87.0728,21.5904],[-87.0795,21.5948],[-87.0797,21.5922],[-87.0846,21.5935],[-87.0886,21.59],[-87.0965,21.5973],[-87.1017,21.5945],[-87.0989,21.6023],[-87.1033,21.5992],[-87.1058,21.6049]]],[[[-87.1055,21.5994],[-87.1058,21.5996],[-87.1056,21.5998],[-87.1055,21.5994]]]]}},{"type":"Feature","properties":{"cve_ent":"23","cve_mun":"004","cvegeo":"23004","nombre":"Othón P. Blanco"},"geometry":{"type":"MultiPolygon","coordinates":[[[[-87.2738,18.7394],[-87.2669,18.7322],[-87.2521,18.6904],[-87.2453,18.6835],[-87.2474,18.6453],[-87.2594,18.6228],[-87.2645,18.6188],[-87.2676,18.6228],[-87.2571,18.6429],[-87.2527,18.6674],[-87.2786,18.7357],[-87.2738,18.7394]]],[[[-87.2794,18.7417],[-87.2802,18.74],[-87.2807,18.7436],[-87.2794,18.7417]]],[[[-87.289,18.7544],[-87.2905,18.7528],[-87.2898,18.7545],[-87.289,18.7544]]],[[[-87.2991,18.751],[-87.2983,18.7483],[-87.3034,18.7448],[-87.3029,18.7499],[-87.2991,18.751]]],[[[-87.3055,18.7419],[-87.3032,18.7399],[-87.3051,18.7375],[-87.3069,18.7397],[-87.3055,18.7419]]],[[[-87.3094,18.6036],[-87.3054,18.5976],[-87.3178,18.5778],[-87.3266,18.5722],[-87.3398,18.5755],[-87.341,18.5735],[-87.3409,18.5751],[-87.3362,18.579],[-87.323,18.5851],[-87.324,18.592],[-87.3205,18.5988],[-87.3094,18.6036]]],[[[-87.3619,18.3851],[-87.3719,18.3782],[-87.3833,18.3751],[-87.3843,18.3802],[-87.3725,18.3848],[-87.3644,18.3934],[-87.361,18.4064],[-87.3322,18.4438],[-87.3282,18.4763],[-87.337,18.523],[-87.3243,18.5493],[-87.3144,18.5555],[-87.312,18.5505],[-87.3232,18.5404],[-87.331,18.5264],[-87.32,18.4926],[-87.3229,18.4566],[-87.3296,18.4389],[-87.338,18.4291],[-87.3466,18.4105],[-87.3565,18.4004],[-87.3619,18.3851]]],[[[-87.3152,18.7471],[-87.318,18.7469],[-87.3178,18.7484],[-87.3152,18.7471]]],[[[-87.3181,18.7701],[-87.3193,18.7666],[-87.3201,18.7702],[-87.3181,18.7701]]],[[[-87.3203,18.7559],[-87.3204,18.7532],[-87.3218,18.754],[-87.3203,18.7559]]],[[[-87.3204,18.7622],[-87.3219,18.7589],[-87.3216,18.7625],[-87.3204,18.7622]]],[[[-87.3285,18.754],[-87.3318,18.7586],[-87.3267,18.765],[-87.325,18.7617],[-87.3285,18.754]]],[[[-87.3424,18.7802],[-87.3494,18.7787],[-87.3391,18.7861],[-87.3424,18.7802]]],[[[-87.3543,18.7705],[-87.3575,18.7649],[-87.3581,18.7655],[-87.3543,18.7705]]],[[[-87.358,18.7713],[-87.3611,18.772],[-87.3567,18.7735],[-87.358,18.7713]]],[[[-87.3779,18.7393],[-87.38,18.7412],[-87.3724,18.753],[-87.3736,18.7436],[-87.3779,18.7393]]],[[[-87.384,18.7325],[-87.3875,18.7325],[-87.3852,18.7364],[-87.384,18.7325]]],[[[-87.391,18.7203],[-87.3927,18.7232],[-87.3895,18.7253],[-87.3877,18.7223],[-87.391,18.7203]]],[[[-87.3884,18.3751],[-87.392,18.3745],[-87.3946,18.3808],[-87.389,18.3776],[-87.3884,18.3751]]],[[[-87.4078,18.6767],[-87.4106,18.6798],[-87.3947,18.7119],[-87.4025,18.6817],[-87.4078,18.6767]]],[[[-87.4088,18.3901],[-87.3995,18.3798],[-87.4026,18.3776],[-87.4084,18.3803],[-87.4088,18.3901]]],[[[-87.4116,18.3921],[-87.4207,18.3959],[-87.4213,18.3993],[-87.4175,18.3996],[-87.4116,18.3921]]],[[[-87.4364,18.6237],[-87.4334,18.6383],[-87.4203,18.66],[-87.4283,18.6329],[-87.4364,18.6237]]],[[[-87.426,18.4055],[-87.4292,18.4048],[-87.4301,18.4095],[-87.426,18.4055]]],[[[-87.435,18.4206],[-87.4389,18.4193],[-87.4392,18.4202],[-87.436,18.4238],[-87.435,18.4206]]],[[[-87.4365,18.5554],[-87.4392,18.5604],[-87.4367,18.5623],[-87.4346,18.559],[-87.4365,18.5554]]],[[[-87.4357,18.5829],[-87.4392,18.5875],[-87.4369,18.5897],[-87.4356,18.5889],[-87.4357,18.5829]]],[[[-87.4395,18.5984],[-87.4425,18.6009],[-87.4401,18.6133],[-87.4366,18.6095],[-87.4395,18.5984]]],[[[-87.4383,18.4289],[-87.4418,18.4297],[-87.4474,18.46],[-87.4453,18.4624],[-87.4395,18.4545],[-87.4383,18.4289]]],[[[-87.4446,18.4754],[-87.447,18.4802],[-87.4406,18.5187],[-87.4372,18.5161],[-87.4406,18.5073],[-87.4407,18.4788],[-87.4446,18.4754]]],[[[-88.0487,18.9805],[-87.6483,18.9765],[-87.6142,18.9625],[-87.6164,18.9538],[-87.6143,18.9541],[-87.614,18.9532],[-87.6256,18.9432],[-87.6315,18.9264],[-87.6313,18.9036],[-87.642,18.8843],[-87.6424,18.8596],[-87.6539,18.8463],[-87.6539,18.8394],[-87.6631,18.8265],[-87.6625,18.817],[-87.6689,18.8018],[-87.6674,18.7887],[-87.6714,18.7759],[-87.6682,18.7709],[-87.6693,18.7634],[-87.6766,18.7479],[-87.6921,18.7332],[-87.6899,18.7302],[-87.6866,18.7319],[-87.6898,18.7301],[-87.688,18.7279],[-87.6922,18.7328],[-87.6988,18.7282],[-87.7118,18.7101],[-87.7252,18.6685],[-87.7292,18.6283],[-87.7394,18.582],[-87.7406,18.539],[-87.7448,18.529],[-87.7578,18.5142],[-87.7619,18.4973],[-87.7638,18.4183],[-87.7702,18.4014],[-87.7885,18.3837],[-87.8021,18.3523],[-87.8186,18.3329],[-87.8238,18.322],[-87.833,18.2927],[-87.8348,18.2742],[-87.8323,18.2742],[-87.8348,18.2738],[-87.8367,18.2478],[-87.8416,18.2293],[-87.8438,18.1926],[-87.8496,18.1844],[-87.8565,18.1813],[-87.8602,18.1898],[-87.8661,18.1892],[-87.8575,18.1968],[-87.853,18.2089],[-87.8585,18.2117],[-87.8655,18.2085],[-87.8599,18.2166],[-87.8635,18.2197],[-87.8727,18.2109],[-87.8712,18.2201],[-87.8683,18.2189],[-87.8638,18.2244],[-87.8649,18.231],[-87.8611,18.2346],[-87.8728,18.233],[-87.8761,18.2404],[-87.8737,18.2334],[-87.8831,18.2319],[-87.881,18.2276],[-87.8673,18.2307],[-87.8714,18.2229],[-87.8932,18.215],[-87.8925,18.2181],[-87.885,18.2197],[-87.8895,18.2268],[-87.8907,18.2186],[-87.8926,18.2292],[-87.8952,18.228],[-87.8946,18.2187],[-87.8985,18.2195],[-87.898,18.244],[-87.8947,18.2449],[-87.894,18.2498],[-87.8927,18.2447],[-87.885,18.2426],[-87.8735,18.265],[-87.8772,18.2722],[-87.8764,18.285],[-87.8786,18.2859],[-87.8837,18.2798],[-87.8869,18.2834],[-87.8817,18.2833],[-87.8778,18.2874],[-87.8799,18.2895],[-87.8779,18.2917],[-87.8822,18.2945],[-87.8795,18.2943],[-87.8792,18.2977],[-87.8827,18.2989],[-87.882,18.2967],[-87.8894,18.2941],[-87.8948,18.2778],[-87.899,18.2988],[-87.8976,18.3144],[-87.8967,18.2995],[-87.8888,18.3079],[-87.8893,18.3182],[-87.887,18.3148],[-87.8784,18.3205],[-87.8871,18.3218],[-87.8899,18.3262],[-87.8799,18.328],[-87.8809,18.3335],[-87.8882,18.3304],[-87.888,18.3342],[-87.8832,18.3346],[-87.8833,18.3417],[-87.8787,18.3439],[-87.8809,18.3448],[-87.8789,18.3506],[-87.8846,18.3505],[-87.8822,18.3555],[-87.8892,18.3515],[-87.8969,18.3537],[-87.8953,18.3558],[-87.8989,18.359],[-87.9039,18.3591],[-87.8953,18.3729],[-87.9038,18.3801],[-87.9023,18.3843],[-87.9115,18.384],[-87.914,18.3866],[-87.9108,18.3884],[-87.9146,18.3896],[-87.9302,18.3847],[-87.9304,18.3908],[-87.9392,18.3937],[-87.9365,18.4048],[-87.931,18.4088],[-87.9363,18.4098],[-87.9364,18.4157],[-87.9321,18.416],[-87.9363,18.4191],[-87.9312,18.4287],[-87.9341,18.4382],[-87.9559,18.4388],[-88.009,18.4599],[-88.0232,18.4578],[-88.0257,18.4622],[-88.036,18.4629],[-88.0391,18.4691],[-88.0481,18.4701],[-88.0483,18.4738],[-88.054,18.4769],[-88.0749,18.4787],[-88.0728,18.4831],[-88.0712,18.4799],[-88.0705,18.4843],[-88.0649,18.486],[-88.0668,18.4888],[-88.0641,18.4914],[-88.0728,18.4842],[-88.0655,18.4944],[-88.066,18.498],[-88.0719,18.4904],[-88.0711,18.4988],[-88.0761,18.4971],[-88.0783,18.5105],[-88.061,18.5172],[-88.0555,18.5303],[-88.0493,18.5264],[-88.0432,18.5355],[-88.0403,18.5438],[-88.042,18.5538],[-88.0372,18.5548],[-88.0377,18.5593],[-88.0352,18.559],[-88.0376,18.5631],[-88.0338,18.5631],[-88.0326,18.5701],[-88.0429,18.5702],[-88.0459,18.5736],[-88.0445,18.5777],[-88.0396,18.5793],[-88.0444,18.5817],[-88.0397,18.5852],[-88.0378,18.5948],[-88.0331,18.5899],[-88.033,18.5982],[-88.0358,18.5959],[-88.0359,18.6001],[-88.0314,18.5999],[-88.0292,18.6036],[-88.0337,18.6011],[-88.0344,18.605],[-88.0255,18.6087],[-88.0177,18.618],[-88.0181,18.6265],[-88.013,18.6325],[-88.0093,18.6474],[-88.0034,18.6541],[-88.0033,18.6686],[-87.9975,18.6667],[-88.0043,18.6787],[-88.0135,18.684],[-88.019,18.6971],[-88.0146,18.6974],[-88.0166,18.706],[-88.0105,18.7071],[-88.0115,18.7169],[-88.0075,18.7182],[-88.0084,18.727],[-88.0052,18.728],[-88.0092,18.7329],[-88.0028,18.7331],[-88.002,18.738],[-88.0093,18.7485],[-88.0136,18.748],[-88.0138,18.7522],[-88.0126,18.7566],[-88.0074,18.7565],[-88.0077,18.7643],[-88.0005,18.7712],[-88.0056,18.7734],[-88.0144,18.7686],[-88.0153,18.7716],[-88.0086,18.7759],[-88.0115,18.7743],[-88.0161,18.7783],[-88.0223,18.7779],[-88.0171,18.7852],[-88.0196,18.7859],[-88.0176,18.7914],[-88.0277,18.8029],[-88.0364,18.8055],[-88.0373,18.8118],[-88.0471,18.8114],[-88.0368,18.8502],[-88.0458,18.855],[-88.0463,18.867],[-88.0509,18.8711],[-88.0537,18.8585],[-88.0679,18.8616],[-88.0714,18.8588],[-88.0717,18.8535],[-88.0821,18.8428],[-88.0821,18.8382],[-88.0784,18.835],[-88.0849,18.8338],[-88.0885,18.8275],[-88.1065,18.8194],[-88.1088,18.8022],[-88.1257,18.7838],[-88.1293,18.7646],[-88.145,18.7444],[-88.1463,18.7311],[-88.1412,18.7249],[-88.1603,18.727],[-88.1565,18.7463],[-88.1525,18.7506],[-88.1483,18.7777],[-88.1595,18.7536],[-88.1603,18.7454],[-88.1691,18.7355],[-88.1714,18.7225],[-88.1772,18.7209],[-88.1824,18.7237],[-88.1867,18.718],[-88.2029,18.7108],[-88.205,18.7018],[-88.2018,18.7],[-88.2052,18.6898],[-88.2023,18.6811],[-88.1978,18.7005],[-88.1937,18.7056],[-88.1749,18.7091],[-88.1704,18.7157],[-88.1632,18.7179],[-88.1601,18.7106],[-88.153,18.7073],[-88.1604,18.7046],[-88.1669,18.6925],[-88.1755,18.6859],[-88.1812,18.6896],[-88.1916,18.6803],[-88.1946,18.6637],[-88.2009,18.655],[-88.2053,18.6378],[-88.2258,18.611],[-88.2256,18.6023],[-88.231,18.5868],[-88.2394,18.5781],[-88.2496,18.5605],[-88.2483,18.5583],[-88.2507,18.5585],[-88.2588,18.5456],[-88.2607,18.5352],[-88.272,18.5142],[-88.275,18.514],[-88.2831,18.5018],[-88.2857,18.4937],[-88.2971,18.4918],[-88.3163,18.4956],[-88.3147,18.4884],[-88.3276,18.4901],[-88.3511,18.4845],[-88.3658,18.4864],[-88.3801,18.4789],[-88.387,18.4816],[-88.4024,18.4967],[-88.4425,18.4814],[-88.4471,18.4756],[-88.4542,18.4885],[-88.4651,18.487],[-88.4764,18.4947],[-88.5186,18.4622],[-88.5279,18.4354],[-88.5319,18.4082],[-88.5452,18.3912],[-88.5516,18.3761],[-88.5459,18.3684],[-88.5444,18.36],[-88.5753,18.3202],[-88.5788,18.3204],[-88.6058,18.2917],[-88.5973,18.2889],[-88.6023,18.2683],[-88.6064,18.2644],[-88.6031,18.2506],[-88.6066,18.2456],[-88.6041,18.2451],[-88.6047,18.241],[-88.6123,18.2324],[-88.6155,18.2233],[-88.629,18.219],[-88.6324,18.2129],[-88.641,18.2167],[-88.6582,18.2037],[-88.6666,18.2027],[-88.6735,18.1942],[-88.6867,18.1947],[-88.6943,18.1869],[-88.6973,18.1802],[-88.6844,18.1778],[-88.6801,18.1602],[-88.6892,18.1558],[-88.6952,18.1482],[-88.7095,18.1239],[-88.7102,18.1171],[-88.7186,18.1088],[-88.7121,18.1041],[-88.7103,18.097],[-88.7157,18.0942],[-88.7196,18.0839],[-88.7139,18.0754],[-88.7191,18.072],[-88.7167,18.0605],[-88.7315,18.0496],[-88.7396,18.0482],[-88.7408,18.0437],[-88.7474,18.0402],[-88.7667,18.0343],[-88.7708,18.0292],[-88.7669,18.016],[-88.7731,18.0099],[-88.7698,18.0068],[-88.7777,18.0046],[-88.7885,17.993],[-88.7855,17.9872],[-88.7831,17.9883],[-88.7851,17.9852],[-88.7815,17.9851],[-88.7845,17.9799],[-88.7888,17.981],[-88.7925,17.9716],[-88.796,17.9743],[-88.8152,17.9503],[-88.8259,17.9467],[-88.8305,17.9488],[-88.8337,17.9419],[-88.8443,17.9403],[-88.8439,17.9374],[-88.8522,17.9335],[-88.8556,17.9262],[-88.8594,17.9252],[-88.855,17.9201],[-88.8542,17.9077],[-88.8604,17.9008],[-88.8578,17.8998],[-88.8598,17.8945],[-88.8829,17.8962],[-88.8826,17.9006],[-88.8873,17.9038],[-88.8854,17.9076],[-88.8963,17.9061],[-88.9066,17.9159],[-88.9137,17.9106],[-88.9154,17.9166],[-88.9205,17.9158],[-88.9269,17.9297],[-88.9337,17.9313],[-88.9305,17.9414],[-88.9329,17.9433],[-88.938,17.9406],[-88.9374,17.9464],[-88.9453,17.9527],[-88.9448,17.9591],[-88.9538,17.9546],[-88.9569,17.9567],[-88.9598,17.9517],[-88.9661,17.9543],[-88.9704,17.9525],[-88.9739,17.9562],[-88.9833,17.958],[-88.9872,17.9473],[-88.9996,17.9675],[-88.9982,17.9717],[-89.004,17.9725],[-88.9989,17.9799],[-89.0006,17.9844],[-89.0216,17.9927],[-89.0286,17.9973],[-89.0285,18.0026],[-89.0359,18.0023],[-89.0375,18.0051],[-89.0523,18.0002],[-89.0586,17.9903],[-89.0764,17.9938],[-89.0851,17.9904],[-89.0961,17.9819],[-89.102,17.981],[-89.1116,17.9698],[-89.1167,17.9689],[-89.1242,17.9753],[-89.1327,17.972],[-89.1362,17.9554],[-89.145,17.9511],[-89.1481,17.9424],[-89.152,17.9403],[-89.1522,17.9536],[-89.2059,17.9541],[-89.2067,18.0211],[-89.163,18.0185],[-89.1634,18.0579],[-89.1448,18.0577],[-89.1444,18.0824],[-89.2025,18.0833],[-89.2002,18.1446],[-89.1431,18.1458],[-89.1429,18.2242],[-89.1581,18.2213],[-89.1517,18.2936],[-89.1324,18.2934],[-89.1382,18.3855],[-89.1212,18.3858],[-89.1255,18.4506],[-89.1502,18.4511],[-89.1513,18.724],[-89.1557,18.7531],[-89.1444,18.7559],[-89.1486,18.8773],[-89.0663,18.8876],[-89.0618,18.8574],[-89.0065,18.8653],[-89.0067,18.8169],[-88.9651,18.8168],[-88.9662,18.7976],[-88.9237,18.7956],[-88.923,18.8186],[-88.8268,18.8199],[-88.8249,18.7592],[-88.7538,18.7595],[-88.7532,18.6261],[-88.587,18.6274],[-88.5853,18.6582],[-88.5604,18.6491],[-88.4138,18.6277],[-88.4115,18.6427],[-88.4064,18.643],[-88.4055,18.6476],[-88.3886,18.6625],[-88.3901,18.6655],[-88.3809,18.6783],[-88.3804,18.6982],[-88.3761,18.7047],[-88.3644,18.7154],[-88.3459,18.7223],[-88.3062,18.7566],[-88.3067,18.7692],[-88.2984,18.7834],[-88.2763,18.7995],[-88.2632,18.8269],[-88.2317,18.8695],[-88.2309,18.8754],[-88.2234,18.8778],[-88.2028,18.867],[-88.1875,18.8667],[-88.1711,18.9006],[-88.144,18.9003],[-88.1389,18.9276],[-88.0849,18.9278],[-88.0873,18.9771],[-88.0644,18.977],[-88.0625,18.9805],[-88.0616,18.9771],[-88.0487,18.9805]]]]}},{"type":"Feature","properties":{"cve_ent":"23","cve_mun":"005","cvegeo":"23005","nombre":"Benito Juárez"},"geometry":{"type":"Polygon","coordinates":[[[-86.8018,21.212],[-86.8068,21.1894],[-86.807,21.1839],[-86.8044,21.1844],[-86.8045,21.1827],[-86.807,21.1837],[-86.8071,21.1809],[-86.7982,21.1551],[-86.7875,21.1432],[-86.78,21.1464],[-86.7619,21.1366],[-86.7496,21.1398],[-86.7436,21.1363],[-86.741,21.1383],[-86.7406,21.1349],[-86.7511,21.1255],[-86.7703,21.0848],[-86.7815,21.0493],[-86.7786,21.0325],[-86.7877,21.0298],[-86.7921,21.034],[-86.8005,21.0352],[-86.8098,21.0292],[-86.813,21.0231],[-86.8287,20.9796],[-86.8378,20.9355],[-86.8593,20.9347],[-86.8597,20.9321],[-87.0797,20.9315],[-87.0787,21.0988],[-87.0972,21.0987],[-87.0972,21.212],[-86.9975,21.212],[-86.9975,21.2172],[-86.9781,21.2172],[-86.9781,21.212],[-86.9145,21.2101],[-86.8018,21.212]]]}},{"type":"Feature","properties":{"cve_ent":"23","cve_mun":"006","cvegeo":"23006","nombre":"José María Morelos"},"geometry":{"type":"Polygon","coordinates":[[[-88.6552,19.2177],[-88.7175,19.2182],[-88.7174,19.2311],[-89.147,19.2266],[-89.1467,19.4239],[-89.2966,19.5512],[-89.2196,19.608],[-89.2229,19.6367],[-89.1902,19.6333],[-89.1892,19.644],[-89.1449,19.6374],[-89.1495,19.5812],[-89.109,19.5823],[-89.1084,19.6123],[-89.1336,19.6146],[-89.1234,19.7034],[-89.0742,19.6942],[-89.076,19.6854],[-89.0362,19.678],[-89.0305,19.7088],[-88.9975,19.7049],[-88.9947,19.7274],[-89.0154,19.723],[-89.017,19.7264],[-89.0488,19.7215],[-89.0252,19.7767],[-89.0041,19.772],[-88.9995,19.798],[-88.9844,19.7982],[-88.9844,19.8052],[-88.9761,19.8108],[-88.9745,19.8181],[-88.9564,19.8168],[-88.9581,19.8105],[-88.9439,19.8134],[-88.9454,19.7919],[-88.9295,19.7909],[-88.9203,19.804],[-88.9111,19.8009],[-88.9082,19.8207],[-88.8976,19.8369],[-88.9005,19.8611],[-88.8904,19.8585],[-88.8906,19.861],[-88.8791,19.8624],[-88.8802,19.8781],[-88.8259,19.8799],[-88.8204,19.8905],[-88.8298,19.8986],[-88.8274,19.9045],[-88.8294,19.906],[-88.8273,19.9109],[-88.8232,19.9081],[-88.8244,19.9048],[-88.8165,19.9045],[-88.8161,19.9155],[-88.8126,19.9256],[-88.8097,19.926],[-88.8102,19.9449],[-88.806,19.9446],[-88.8056,19.9538],[-88.7984,19.9525],[-88.798,19.9749],[-88.7908,19.972],[-88.7905,19.9921],[-88.7892,19.9956],[-88.7844,19.9952],[-88.7835,20.0082],[-88.7712,20.0077],[-88.7715,20.0135],[-88.7577,20.0122],[-88.7425,20.0151],[-88.7426,20.0086],[-88.7362,20.0097],[-88.7323,20.0141],[-88.736,20.0176],[-88.7228,20.0132],[-88.7221,20.0051],[-88.7184,20.0103],[-88.713,20.0092],[-88.7125,20.0123],[-88.7002,20.0104],[-88.6948,20.03],[-88.6918,20.0292],[-88.6849,20.0774],[-88.6908,20.077],[-88.6906,20.0899],[-88.6399,20.1204],[-88.6192,20.1172],[-88.6208,20.1318],[-88.6164,20.1345],[-88.588,20.1315],[-88.5877,20.1405],[-88.5782,20.1392],[-88.5767,20.1481],[-88.5076,20.1434],[-88.5023,20.1901],[-88.4471,20.182],[-88.4225,20.1541],[-88.4369,20.0523],[-88.4971,20.0586],[-88.4983,20.0382],[-88.4753,20.0377],[-88.4756,20.0184],[-88.4834,20.0197],[-88.4842,20.0099],[-88.4432,20.0068],[-88.4406,20.0226],[-88.3914,20.0161],[-88.3925,19.9767],[-88.3959,19.9763],[-88.3952,19.9702],[-88.3929,19.9705],[-88.3934,19.9577],[-88.3971,19.9577],[-88.397,19.9513],[-88.4103,19.9509],[-88.4103,19.9573],[-88.4685,19.957],[-88.4684,19.8914],[-88.484,19.8918],[-88.4836,19.8836],[-88.4868,19.8803],[-88.5116,19.7846],[-88.5284,19.7454],[-88.5489,19.7493],[-88.5759,19.6382],[-88.5984,19.6433],[-88.5906,19.6341],[-88.6331,19.6434],[-88.6395,19.6372],[-88.6384,19.6351],[-88.6533,19.6286],[-88.6306,19.5975],[-88.6186,19.5963],[-88.6227,19.4487],[-88.6453,19.4513],[-88.6452,19.4572],[-88.6926,19.4622],[-88.6947,19.4436],[-88.6897,19.4439],[-88.6895,19.4375],[-88.6957,19.4372],[-88.6994,19.4039],[-88.6747,19.4032],[-88.6745,19.3952],[-88.6689,19.3947],[-88.6752,19.3386],[-88.6251,19.338],[-88.6245,19.3024],[-88.6359,19.303],[-88.636,19.2819],[-88.6494,19.282],[-88.6503,19.236],[-88.6552,19.23],[-88.6552,19.2177]]]}},{"type":"Feature","properties":{"cve_ent":"23","cve_mun":"007","cvegeo":"23007","nombre":"Lázaro Cárdenas"},"geometry":{"type":"MultiPolygon","coordinates":[[[[-87.1069,21.5261],[-87.1058,21.3625],[-87.0972,21.362],[-87.0972,21.0987],[-87.3204,21.1012],[-87.3234,20.872],[-87.192,20.871],[-87.1919,20.7628],[-87.2458,20.7059],[-87.2383,20.7002],[-87.2684,20.6687],[-87.2524,20.6582],[-87.5238,20.6606],[-87.522,20.5928],[-87.6136,20.5999],[-87.6113,20.6527],[-87.7437,20.6548],[-87.5331,20.9996],[-87.5349,21.4902],[-87.4883,21.4852],[-87.4857,21.4812],[-87.4866,21.4653],[-87.4732,21.4572],[-87.4642,21.4571],[-87.4552,21.4634],[-87.4311,21.4686],[-87.4028,21.4572],[-87.3792,21.4548],[-87.3694,21.4488],[-87.3554,21.4468],[-87.3471,21.4351],[-87.3411,21.4323],[-87.337,21.4347],[-87.3274,21.4325],[-87.3158,21.4414],[-87.2957,21.4346],[-87.2927,21.4399],[-87.2721,21.4323],[-87.2739,21.4433],[-87.2681,21.4341],[-87.2657,21.4391],[-87.2645,21.4355],[-87.2585,21.4378],[-87.2583,21.4349],[-87.2567,21.4369],[-87.2559,21.4335],[-87.2501,21.4341],[-87.2443,21.4255],[-87.2406,21.423],[-87.239,21.4252],[-87.2366,21.4199],[-87.2325,21.4186],[-87.229,21.4327],[-87.2225,21.4313],[-87.2217,21.4385],[-87.2156,21.4433],[-87.2059,21.445],[-87.1884,21.4397],[-87.1666,21.4497],[-87.1584,21.4633],[-87.1496,21.4649],[-87.1332,21.4595],[-87.1242,21.4643],[-87.122,21.4696],[-87.1153,21.4673],[-87.1106,21.4772],[-87.1135,21.484],[-87.1099,21.4859],[-87.1097,21.5055],[-87.1068,21.5059],[-87.111,21.5192],[-87.1081,21.5196],[-87.1069,21.5261]]],[[[-87.1058,21.578],[-87.1058,21.547],[-87.1286,21.5538],[-87.1128,21.5716],[-87.1066,21.5734],[-87.1058,21.578]]],[[[-87.1058,21.6049],[-87.1058,21.5979],[-87.1068,21.5969],[-87.108,21.6003],[-87.1115,21.5986],[-87.1097,21.5941],[-87.1205,21.5892],[-87.1235,21.5762],[-87.1295,21.5684],[-87.1388,21.5624],[-87.1469,21.5638],[-87.1481,21.5669],[-87.1484,21.5603],[-87.1514,21.5619],[-87.1518,21.5604],[-87.154,21.5594],[-87.1526,21.5609],[-87.1579,21.5622],[-87.1623,21.5585],[-87.1569,21.5611],[-87.1513,21.5571],[-87.1665,21.5563],[-87.1704,21.5503],[-87.1836,21.5435],[-87.1787,21.5455],[-87.1808,21.5425],[-87.2024,21.5306],[-87.2099,21.5196],[-87.2256,21.5164],[-87.2099,21.521],[-87.207,21.526],[-87.2112,21.524],[-87.2118,21.5242],[-87.2084,21.5274],[-87.2146,21.5215],[-87.2193,21.5231],[-87.2175,21.5265],[-87.2304,21.5217],[-87.2282,21.5229],[-87.2317,21.5229],[-87.2325,21.5245],[-87.2284,21.526],[-87.231,21.5235],[-87.229,21.5248],[-87.2254,21.526],[-87.2242,21.5268],[-87.2291,21.5274],[-87.2388,21.5228],[-87.235,21.5264],[-87.2591,21.5233],[-87.2638,21.5252],[-87.2616,21.5298],[-87.2662,21.525],[-87.2734,21.5257],[-87.2809,21.516],[-87.2898,21.5111],[-87.2923,21.5182],[-87.2872,21.5225],[-87.2968,21.5193],[-87.2908,21.5237],[-87.2966,21.5213],[-87.2936,21.5246],[-87.2999,21.5238],[-87.3061,21.528],[-87.3001,21.5293],[-87.3159,21.5258],[-87.3178,21.5295],[-87.3152,21.534],[-87.3188,21.5332],[-87.3247,21.5391],[-87.3188,21.5396],[-87.3269,21.5411],[-87.3259,21.5474],[-87.3306,21.5424],[-87.3285,21.5492],[-87.3354,21.5465],[-87.3377,21.5405],[-87.3448,21.541],[-87.3528,21.5352],[-87.3587,21.5352],[-87.3597,21.5287],[-87.3644,21.5299],[-87.3608,21.5224],[-87.3652,21.5213],[-87.3646,21.5188],[-87.376,21.5194],[-87.3718,21.5098],[-87.3753,21.5147],[-87.3784,21.5108],[-87.3805,21.5146],[-87.3853,21.5051],[-87.3903,21.5031],[-87.3973,21.5112],[-87.3877,21.5207],[-87.3688,21.5318],[-87.345,21.5605],[-87.3349,21.5662],[-87.3114,21.5498],[-87.2977,21.5448],[-87.2703,21.5403],[-87.2282,21.5426],[-87.1986,21.5503],[-87.1471,21.5714],[-87.1293,21.583],[-87.1218,21.5934],[-87.1058,21.6049]]]]}},{"type":"Feature","properties":{"cve_ent":"23","cve_mun":"008","cvegeo":"23008","nombre":"Solidaridad"},"geometry":{"type":"Polygon","coordinates":[[[-86.921,20.8072],[-86.9405,20.7823],[-86.9476,20.7666],[-86.9571,20.759],[-86.9642,20.7478],[-86.9627,20.7301],[-87.0102,20.7024],[-87.0184,20.6907],[-87.0218,20.6743],[-87.0317,20.6621],[-87.0474,20.6477],[-87.0535,20.6468],[-87.0657,20.63],[-87.0648,20.6266],[-87.0714,20.6254],[-87.0747,20.6212],[-87.0728,20.6191],[-87.0752,20.6208],[-87.1019,20.5899],[-87.1219,20.5755],[-87.1358,20.5862],[-87.1814,20.5977],[-87.1901,20.5847],[-87.1568,20.57],[-87.1408,20.5823],[-87.1287,20.569],[-87.134,20.5639],[-87.1428,20.5624],[-87.1533,20.5485],[-87.169,20.5358],[-87.1838,20.5313],[-87.1957,20.5173],[-87.2186,20.5038],[-87.2236,20.497],[-87.2313,20.4974],[-87.2326,20.4933],[-87.2303,20.4929],[-87.2346,20.4926],[-87.2367,20.4881],[-87.2463,20.4849],[-87.245,20.4797],[-87.2529,20.4775],[-87.2669,20.4572],[-87.2846,20.4431],[-87.2841,20.4376],[-87.2929,20.4289],[-87.2914,20.4267],[-87.3019,20.4141],[-87.3016,20.4104],[-87.3217,20.4167],[-87.3296,20.4123],[-87.3483,20.442],[-87.3573,20.4485],[-87.3637,20.4384],[-87.3816,20.4467],[-87.4081,20.4045],[-87.3648,20.3815],[-87.3778,20.3569],[-87.4484,20.3941],[-87.5253,20.3741],[-87.581,20.442],[-87.5895,20.4692],[-87.6356,20.5158],[-87.7705,20.5161],[-87.8463,20.4413],[-87.9627,20.4467],[-87.7437,20.6548],[-87.6113,20.6527],[-87.6136,20.5999],[-87.522,20.5928],[-87.5238,20.6606],[-87.2524,20.6582],[-87.2684,20.6687],[-87.2383,20.7002],[-87.2458,20.7059],[-87.1919,20.7628],[-87.0797,20.8114],[-86.9207,20.8121],[-86.921,20.8072]]]}},{"type":"Feature","properties":{"cve_ent":"23","cve_mun":"009","cvegeo":"23009","nombre":"Tulum"},"geometry":{"type":"Polygon","coordinates":[[[-87.3036,20.4106],[-87.3034,20.407],[-87.3089,20.405],[-87.3075,20.4007],[-87.3104,20.3952],[-87.3147,20.3955],[-87.3229,20.3865],[-87.3231,20.3753],[-87.3317,20.3665],[-87.3335,20.3564],[-87.338,20.3564],[-87.3355,20.353],[-87.3395,20.3514],[-87.3414,20.3416],[-87.347,20.3392],[-87.3539,20.3297],[-87.3524,20.3229],[-87.3585,20.3248],[-87.3634,20.3144],[-87.3559,20.3116],[-87.3601,20.3009],[-87.3642,20.2933],[-87.37,20.2957],[-87.3745,20.2906],[-87.3734,20.2868],[-87.3676,20.286],[-87.3789,20.2836],[-87.3812,20.2778],[-87.3782,20.274],[-87.382,20.2672],[-87.386,20.2694],[-87.3909,20.266],[-87.4244,20.2242],[-87.431,20.2038],[-87.4396,20.1926],[-87.4541,20.1596],[-87.4728,20.1023],[-87.478,20.076],[-87.4789,20.0414],[-87.4759,20.0207],[-87.4782,20.0072],[-87.4727,19.9932],[-87.4643,19.9945],[-87.4638,19.986],[-87.468,19.9804],[-87.465,19.9586],[-87.4525,19.9332],[-87.4481,19.9292],[-87.4402,19.9308],[-87.436,19.927],[-87.4321,19.9082],[-87.4299,19.885],[-87.4362,19.8724],[-87.4354,19.8652],[-87.4441,19.8532],[-87.4486,19.839],[-87.452,19.8344],[-87.4676,19.828],[-87.4739,19.8188],[-87.4768,19.8033],[-87.4683,19.7835],[-87.4747,19.7776],[-87.4811,19.7812],[-87.4757,19.7815],[-87.4756,19.784],[-87.4865,19.787],[-87.4872,19.8013],[-87.4811,19.8035],[-87.4833,19.8112],[-87.4771,19.8149],[-87.4725,19.826],[-87.4769,19.8284],[-87.4725,19.8358],[-87.4694,19.8356],[-87.4726,19.8326],[-87.4726,19.8306],[-87.4668,19.8384],[-87.4513,19.8381],[-87.4488,19.8514],[-87.4385,19.8664],[-87.442,19.8754],[-87.4335,19.8859],[-87.4385,19.8874],[-87.4313,19.8871],[-87.4313,19.8953],[-87.4353,19.9152],[-87.4362,19.9121],[-87.4383,19.9132],[-87.4365,19.9102],[-87.4397,19.911],[-87.4502,19.9216],[-87.4589,19.9248],[-87.4608,19.9273],[-87.4559,19.9299],[-87.4577,19.9383],[-87.4673,19.9451],[-87.4717,19.9438],[-87.4732,19.939],[-87.4649,19.9286],[-87.4628,19.9166],[-87.4573,19.9171],[-87.464,19.9055],[-87.4634,19.8934],[-87.4592,19.8877],[-87.4475,19.8899],[-87.4565,19.8813],[-87.4552,19.8747],[-87.4598,19.8667],[-87.4594,19.8584],[-87.4641,19.8613],[-87.4736,19.8562],[-87.4799,19.8396],[-87.4877,19.8326],[-87.4863,19.8269],[-87.4909,19.824],[-87.4938,19.8109],[-87.5,19.8071],[-87.5,20.1345],[-87.628,20.1346],[-87.628,20.2065],[-87.9735,20.2096],[-87.9951,20.4473],[-87.8793,20.4447],[-87.8463,20.4413],[-87.7705,20.5161],[-87.6356,20.5158],[-87.5895,20.4692],[-87.581,20.442],[-87.5253,20.3741],[-87.4484,20.3941],[-87.3778,20.3569],[-87.3648,20.3815],[-87.4081,20.4045],[-87.3816,20.4467],[-87.3637,20.4384],[-87.3573,20.4485],[-87.3483,20.442],[-87.3296,20.4123],[-87.3217,20.4167],[-87.3036,20.4106]]]}},{"type":"Feature","properties":{"cve_ent":"23","cve_mun":"010","cvegeo":"23010","nombre":"Bacalar"},"geometry":{"type":"Polygon","coordinates":[[[-88.7175,19.2182],[-88.5984,19.2182],[-88.5899,19.2123],[-88.5899,19.1895],[-88.5553,19.1895],[-88.5555,19.2016],[-88.4849,19.2025],[-88.4825,19.1959],[-88.4738,19.1939],[-88.3852,19.1982],[-88.3989,19.1727],[-88.4236,19.0969],[-88.3879,19.094],[-88.2425,19.0518],[-88.22,19.1072],[-88.2207,19.1157],[-88.2084,19.1566],[-88.173,19.1502],[-88.1729,19.1403],[-88.1445,19.1412],[-88.0792,19.1264],[-88.017,19.1166],[-87.55,19.1186],[-87.5522,19.0937],[-87.549,19.0862],[-87.5563,19.0686],[-87.562,19.0686],[-87.5668,19.0623],[-87.5903,19.0066],[-87.6053,18.9877],[-87.6142,18.9625],[-87.6483,18.9765],[-88.0487,18.9805],[-88.0616,18.9771],[-88.0625,18.9805],[-88.0644,18.977],[-88.0873,18.9771],[-88.0849,18.9278],[-88.1389,18.9276],[-88.144,18.9003],[-88.1711,18.9006],[-88.1887,18.8661],[-88.2042,18.8674],[-88.2234,18.8778],[-88.2312,18.8751],[-88.2317,18.8695],[-88.2632,18.8269],[-88.2763,18.7995],[-88.2984,18.7834],[-88.3067,18.7692],[-88.3062,18.7566],[-88.3459,18.7223],[-88.3644,18.7154],[-88.3761,18.7047],[-88.3804,18.6982],[-88.3809,18.6783],[-88.3901,18.6655],[-88.3886,18.6625],[-88.4055,18.6476],[-88.4064,18.643],[-88.4115,18.6427],[-88.4138,18.6277],[-88.5604,18.6491],[-88.5853,18.6582],[-88.587,18.6274],[-88.7532,18.6261],[-88.7538,18.7595],[-88.8249,18.7592],[-88.8268,18.8199],[-88.923,18.8186],[-88.9237,18.7956],[-88.9662,18.7976],[-88.9651,18.8168],[-89.0067,18.8169],[-89.0065,18.8653],[-89.0618,18.8574],[-89.0663,18.8876],[-89.1486,18.8773],[-89.1471,18.995],[-89.1358,19.1324],[-89.147,19.1332],[-89.147,19.2266],[-88.7174,19.2311],[-88.7175,19.2182]]]}},{"type":"Feature","properties":{"cve_ent":"23","cve_mun":"011","cvegeo":"23011","nombre":"Puerto Morelos"},"geometry":{"type":"Polygon","coordinates":[[[-87.3204,21.1012],[-87.0787,21.0988],[-87.0797,20.9315],[-86.8597,20.9321],[-86.8593,20.9347],[-86.8391,20.9356],[-86.8381,20.9287],[-86.8442,20.9202],[-86.8469,20.904],[-86.8605,20.8912],[-86.8738,20.8471],[-86.8894,20.8325],[-86.8881,20.8305],[-86.8891,20.8278],[-86.89,20.8313],[-86.8919,20.829],[-86.8898,20.8282],[-86.8934,20.8286],[-86.9047,20.8124],[-86.921,20.8072],[-86.9207,20.8121],[-87.0797,20.8114],[-87.1919,20.7628],[-87.192,20.871],[-87.3234,20.872],[-87.3204,21.1012]]]}}]}