{"type":"FeatureCollection","features":[{"type":"Feature","properties":{"cve_ent":"25","cve_mun":"001","cvegeo":"25001","nombre":"Ahome"},"geometry":{"type":"Polygon","coordinates":[[[-108.9498,26.3922],[-108.9315,26.377],[-108.9329,26.3067],[-108.9295,26.307],[-108.9277,26.3022],[-108.95,26.2896],[-108.9471,26.3058],[-108.9524,26.3021],[-108.9521,26.3055],[-108.9582,26.3041],[-108.9632,26.2862],[-108.9931,26.2932],[-109.0267,26.2751],[-109.0242,26.2718],[-109.0267,26.2723],[-109.0283,26.2669],[-109.0321,26.2679],[-109.0382,26.2465],[-109.0426,26.2474],[-109.0319,26.2378],[-109.0155,26.2343],[-109.0089,26.2305],[-109.0079,26.2258],[-108.9923,26.2212],[-109.0164,26.1361],[-109.0025,26.1329],[-108.9997,26.1276],[-108.987,26.1235],[-108.9826,26.1153],[-108.9723,26.1091],[-108.9648,26.1122],[-108.9732,26.1027],[-108.9581,26.0938],[-109.0179,26.0347],[-108.9878,26.0046],[-108.9965,25.9965],[-108.9882,25.9733],[-108.996,25.9714],[-108.9959,25.9642],[-108.9984,25.9641],[-109.0092,25.9445],[-108.9925,25.9312],[-108.9739,25.9264],[-108.984,25.9184],[-108.9763,25.8735],[-108.9803,25.8676],[-108.9644,25.8582],[-108.9663,25.8555],[-108.9615,25.85],[-108.9511,25.8775],[-108.943,25.873],[-108.9403,25.8768],[-108.9112,25.8586],[-108.9064,25.8666],[-108.9232,25.8742],[-108.9151,25.8941],[-108.8955,25.883],[-108.8985,25.8778],[-108.8546,25.8401],[-108.8666,25.8203],[-108.8591,25.8166],[-108.8537,25.8393],[-108.7783,25.8723],[-108.7772,25.8682],[-108.7699,25.8687],[-108.7579,25.8309],[-108.7661,25.8266],[-108.7722,25.8181],[-108.7749,25.8195],[-108.7795,25.8155],[-108.7944,25.7926],[-108.8075,25.7996],[-108.8111,25.7975],[-108.8328,25.774],[-108.8268,25.768],[-108.8294,25.764],[-108.832,25.7654],[-108.84,25.7522],[-108.8527,25.7511],[-108.8644,25.7403],[-108.8538,25.7392],[-108.8698,25.7162],[-108.8632,25.623],[-108.8589,25.6227],[-108.8451,25.5963],[-108.8416,25.5878],[-108.846,25.5859],[-108.8416,25.5798],[-108.8491,25.5815],[-108.8477,25.5885],[-108.8543,25.5912],[-108.8524,25.5816],[-108.8601,25.5734],[-108.8919,25.513],[-108.8844,25.5087],[-108.8866,25.4957],[-108.8965,25.4802],[-108.9073,25.4475],[-109.0266,25.4444],[-109.0364,25.4622],[-109.0435,25.4628],[-109.0665,25.4857],[-109.0807,25.4927],[-109.0808,25.4998],[-109.087,25.5113],[-109.1192,25.545],[-109.1617,25.5618],[-109.1675,25.5748],[-109.183,25.5951],[-109.2192,25.6228],[-109.2515,25.6352],[-109.2979,25.6454],[-109.3329,25.6465],[-109.3712,25.6396],[-109.3971,25.6385],[-109.3921,25.6428],[-109.3905,25.6696],[-109.3925,25.6771],[-109.3966,25.678],[-109.3997,25.6854],[-109.405,25.7313],[-109.4116,25.7589],[-109.4323,25.8059],[-109.4219,25.8527],[-109.4216,25.8707],[-109.4249,25.8959],[-109.4341,25.9119],[-109.4437,25.9419],[-109.4439,25.9594],[-109.4308,26.0072],[-109.4109,26.0506],[-109.3888,26.0874],[-109.3853,26.0881],[-109.3687,26.1074],[-109.3174,26.1897],[-109.299,26.2264],[-109.2894,26.2752],[-109.2519,26.3122],[-109.2583,26.3199],[-109.2468,26.316],[-109.2156,26.3345],[-109.2113,26.3427],[-109.2039,26.3418],[-109.2025,26.3445],[-109.1931,26.3409],[-109.1903,26.3328],[-109.1649,26.3068],[-109.1496,26.3064],[-109.1354,26.3016],[-109.1331,26.2979],[-109.1252,26.297],[-109.1197,26.3031],[-109.1001,26.3129],[-109.0967,26.3121],[-109.0742,26.3535],[-109.0064,26.4024],[-108.9498,26.3922]]]}},{"type":"Feature","properties":{"cve_ent":"25","cve_mun":"002","cvegeo":"25002","nombre":"Angostura"},"geometry":{"type":"MultiPolygon","coordinates":[[[[-108.0949,25.444],[-108.0971,25.4393],[-108.1018,25.4401],[-108.0971,25.4381],[-108.0971,25.4339],[-108.0907,25.4375],[-108.0903,25.441],[-108.0886,25.4352],[-108.0831,25.4309],[-108.0972,25.4224],[-108.0509,25.391],[-108.0367,25.3944],[-108.0309,25.3888],[-108.036,25.3853],[-108.0278,25.3829],[-108.0334,25.3795],[-108.0375,25.3683],[-108.0263,25.3692],[-108.0282,25.3611],[-108.041,25.3625],[-108.0405,25.3549],[-108.0454,25.3413],[-108.0432,25.3415],[-108.0424,25.3301],[-108.0345,25.3242],[-108.0311,25.3038],[-108.034,25.3006],[-108.0044,25.2629],[-108.0007,25.2534],[-108.0192,25.2475],[-108.0259,25.2411],[-108.0381,25.2389],[-108.0381,25.236],[-108.0352,25.2365],[-108.0151,25.2201],[-107.9884,25.2213],[-107.9771,25.1923],[-107.9695,25.1808],[-107.972,25.1771],[-107.9678,25.1561],[-107.97,25.1543],[-107.9856,25.1583],[-107.986,25.1499],[-107.9895,25.1499],[-107.9991,25.134],[-107.9955,25.1341],[-107.9955,25.1317],[-107.9594,25.1318],[-107.9554,25.1181],[-107.9515,25.1181],[-107.9497,25.1225],[-107.9497,25.1145],[-107.9397,25.1146],[-107.9396,25.0911],[-107.9436,25.091],[-107.9456,25.0865],[-107.9455,25.0685],[-107.9372,25.0703],[-107.9378,25.0766],[-107.9337,25.0775],[-107.9314,25.0702],[-107.9261,25.0784],[-107.929,25.0663],[-107.9197,25.0599],[-107.9197,25.0631],[-107.9099,25.0631],[-107.9078,25.0502],[-107.8951,25.0316],[-107.9095,24.9789],[-107.9137,24.98],[-107.9152,24.9692],[-107.9201,24.9701],[-107.9243,24.9783],[-107.9678,24.9765],[-107.9637,24.9684],[-107.9695,24.9718],[-107.9755,24.9698],[-107.9712,24.9745],[-107.9732,24.9782],[-107.9885,24.9673],[-108.0095,24.9226],[-108.0244,24.9138],[-108.025,24.8934],[-108.008,24.8654],[-108.0042,24.8499],[-108.0092,24.8452],[-108.0219,24.8424],[-108.0346,24.8079],[-108.0699,24.7851],[-108.0908,24.8161],[-108.1066,24.8203],[-108.118,24.8286],[-108.1237,24.8476],[-108.1365,24.8721],[-108.2278,25.0183],[-108.2509,25.0451],[-108.2785,25.0696],[-108.3423,25.1115],[-108.3424,25.1192],[-108.3344,25.1248],[-108.3575,25.1692],[-108.3837,25.1867],[-108.3755,25.2004],[-108.3722,25.2182],[-108.3843,25.2298],[-108.3821,25.2349],[-108.3847,25.2395],[-108.3715,25.2466],[-108.372,25.2598],[-108.3603,25.2677],[-108.3569,25.2738],[-108.3589,25.2882],[-108.3698,25.2823],[-108.3789,25.297],[-108.3774,25.3079],[-108.3704,25.3124],[-108.3739,25.3168],[-108.3729,25.3328],[-108.365,25.3363],[-108.3632,25.3451],[-108.3679,25.3565],[-108.352,25.3575],[-108.3442,25.3689],[-108.3377,25.362],[-108.3207,25.3707],[-108.32,25.368],[-108.3145,25.3696],[-108.3145,25.3666],[-108.307,25.3665],[-108.3071,25.3737],[-108.2988,25.371],[-108.2966,25.3809],[-108.2935,25.3803],[-108.2996,25.3519],[-108.2921,25.3488],[-108.2935,25.3592],[-108.2745,25.3596],[-108.2724,25.3714],[-108.2637,25.3725],[-108.2595,25.3614],[-108.2326,25.3698],[-108.2311,25.3777],[-108.2335,25.3796],[-108.1866,25.4081],[-108.1948,25.4254],[-108.183,25.4253],[-108.1847,25.4092],[-108.169,25.4179],[-108.1666,25.4058],[-108.1776,25.4042],[-108.1617,25.3945],[-108.162,25.4011],[-108.1555,25.4018],[-108.1439,25.4107],[-108.1389,25.4285],[-108.1213,25.4334],[-108.1167,25.4367],[-108.1175,25.4415],[-108.1028,25.4505],[-108.0949,25.444]]],[[[-108.3667,25.1581],[-108.3613,25.1569],[-108.3541,25.1618],[-108.3604,25.1531],[-108.3687,25.1489],[-108.372,25.1522],[-108.3735,25.1531],[-108.3763,25.1569],[-108.3778,25.1582],[-108.3771,25.167],[-108.3717,25.1628],[-108.3732,25.1608],[-108.3772,25.1637],[-108.3717,25.1571],[-108.363,25.1686],[-108.3667,25.1581]]],[[[-108.3789,25.1695],[-108.3768,25.1681],[-108.3807,25.1612],[-108.3785,25.1601],[-108.3777,25.1578],[-108.3743,25.1539],[-108.373,25.1526],[-108.3721,25.1521],[-108.3689,25.1488],[-108.3841,25.1602],[-108.3827,25.1704],[-108.3862,25.1755],[-108.3809,25.1816],[-108.3789,25.1695]]],[[[-108.3749,25.1735],[-108.3761,25.1679],[-108.3773,25.173],[-108.3792,25.1715],[-108.3807,25.1806],[-108.3798,25.1837],[-108.3749,25.1735]]]]}},{"type":"Feature","properties":{"cve_ent":"25","cve_mun":"003","cvegeo":"25003","nombre":"Badiraguato"},"geometry":{"type":"Polygon","coordinates":[[[-106.9943,25.6622],[-106.9733,25.6296],[-107.0342,25.5963],[-107.1131,25.5611],[-107.1211,25.5564],[-107.1195,25.5542],[-107.1246,25.5504],[-107.1383,25.5522],[-107.1387,25.5601],[-107.1701,25.5595],[-107.1739,25.5566],[-107.1726,25.5517],[-107.1752,25.5492],[-107.1718,25.5428],[-107.1762,25.5444],[-107.1769,25.5408],[-107.1734,25.5337],[-107.1695,25.5325],[-107.1743,25.5291],[-107.172,25.5238],[-107.176,25.5227],[-107.1781,25.5152],[-107.1663,25.503],[-107.1477,25.505],[-107.1398,25.4966],[-107.1393,25.4896],[-107.1511,25.4767],[-107.1531,25.4611],[-107.1505,25.458],[-107.1566,25.4564],[-107.1558,25.4469],[-107.161,25.4448],[-107.1587,25.442],[-107.1849,25.4368],[-107.2101,25.4171],[-107.1716,25.3264],[-107.2078,25.3316],[-107.1584,25.263],[-107.1481,25.2589],[-107.1692,25.2583],[-107.2041,25.276],[-107.2758,25.276],[-107.2557,25.2301],[-107.234,25.1531],[-107.3181,25.1667],[-107.3249,25.164],[-107.3116,25.175],[-107.3242,25.1948],[-107.3312,25.2144],[-107.3698,25.2121],[-107.3865,25.1971],[-107.3747,25.1864],[-107.3772,25.1827],[-107.3639,25.1728],[-107.3531,25.1735],[-107.359,25.1659],[-107.3461,25.165],[-107.3381,25.1739],[-107.3425,25.163],[-107.348,25.1596],[-107.3493,25.1442],[-107.3433,25.126],[-107.3264,25.1138],[-107.3261,25.1107],[-107.3303,25.1045],[-107.3295,25.1004],[-107.3332,25.101],[-107.3322,25.0959],[-107.3395,25.0982],[-107.3379,25.0967],[-107.3407,25.0971],[-107.3434,25.092],[-107.3467,25.1002],[-107.35,25.0993],[-107.3498,25.1031],[-107.3508,25.1006],[-107.3515,25.1032],[-107.3522,25.1003],[-107.356,25.1015],[-107.3576,25.067],[-107.4068,25.0841],[-107.467,25.1223],[-107.5249,25.1204],[-107.512,25.139],[-107.5229,25.1617],[-107.5384,25.1812],[-107.5386,25.193],[-107.5561,25.2158],[-107.5804,25.2132],[-107.6037,25.2284],[-107.6123,25.223],[-107.6294,25.2213],[-107.6299,25.2151],[-107.6491,25.215],[-107.6542,25.2088],[-107.6725,25.2182],[-107.6789,25.2133],[-107.6923,25.2292],[-107.69,25.2389],[-107.6985,25.2427],[-107.6958,25.2453],[-107.7061,25.2562],[-107.7125,25.272],[-107.7459,25.272],[-107.7465,25.3077],[-107.7578,25.2957],[-107.7557,25.311],[-107.7612,25.31],[-107.7641,25.3027],[-107.7804,25.2973],[-107.793,25.2978],[-107.7562,25.3413],[-107.7506,25.3367],[-107.7515,25.3418],[-107.7449,25.3449],[-107.746,25.3534],[-107.7227,25.3617],[-107.7209,25.3718],[-107.7027,25.3757],[-107.7014,25.3815],[-107.6955,25.3808],[-107.6986,25.3858],[-107.695,25.386],[-107.6903,25.4009],[-107.6741,25.4074],[-107.6798,25.4092],[-107.6944,25.4279],[-107.6846,25.4439],[-107.6861,25.4462],[-107.6465,25.4521],[-107.6632,25.4875],[-107.6495,25.4847],[-107.6401,25.494],[-107.6416,25.5103],[-107.6355,25.5313],[-107.641,25.5371],[-107.6386,25.5451],[-107.6403,25.5537],[-107.6096,25.5755],[-107.6084,25.5802],[-107.5893,25.5943],[-107.5863,25.5914],[-107.586,25.5965],[-107.5801,25.5991],[-107.5818,25.6048],[-107.5784,25.6073],[-107.5918,25.6178],[-107.5858,25.6203],[-107.5878,25.6247],[-107.5838,25.6268],[-107.5847,25.6361],[-107.5758,25.6415],[-107.5856,25.6557],[-107.5852,25.6652],[-107.5796,25.6654],[-107.5811,25.6689],[-107.5735,25.6733],[-107.5712,25.6795],[-107.6298,25.6829],[-107.6518,25.7711],[-107.6465,25.8123],[-107.6045,25.8403],[-107.5969,25.89],[-107.6041,25.943],[-107.5338,25.9813],[-107.5094,25.9798],[-107.4899,25.9998],[-107.4974,26.018],[-107.5066,26.0195],[-107.5174,26.0304],[-107.5156,26.04],[-107.5357,26.0413],[-107.5367,26.0476],[-107.5461,26.0462],[-107.5468,26.0493],[-107.5426,26.0572],[-107.5273,26.0671],[-107.5194,26.0682],[-107.5117,26.0775],[-107.5281,26.0811],[-107.5169,26.1084],[-107.5045,26.116],[-107.4937,26.1106],[-107.4853,26.1154],[-107.4853,26.1198],[-107.4778,26.121],[-107.46,26.1383],[-107.451,26.1376],[-107.431,26.1429],[-107.4323,26.1382],[-107.4161,26.1412],[-107.3465,26.1095],[-107.327,26.0909],[-107.3049,26.0764],[-107.3067,26.0488],[-107.2763,26.002],[-107.2824,25.9899],[-107.28,25.9581],[-107.287,25.954],[-107.2961,25.9248],[-107.2425,25.8924],[-107.2465,25.8778],[-107.2394,25.8804],[-107.229,25.8697],[-107.2131,25.8619],[-107.2069,25.8639],[-107.2089,25.8563],[-107.1946,25.8523],[-107.0579,25.7574],[-107.0647,25.7482],[-107.0605,25.74],[-107.0647,25.7328],[-107.0654,25.7252],[-107.062,25.7229],[-107.0642,25.7191],[-107.0481,25.7108],[-107.0469,25.7006],[-107.0431,25.6977],[-107.0316,25.6979],[-107.02,25.6922],[-107.0107,25.6915],[-107.0106,25.6984],[-107.0055,25.6987],[-107.0048,25.7031],[-106.9914,25.7105],[-106.9903,25.7149],[-106.9653,25.6979],[-106.9692,25.683],[-106.9659,25.6771],[-106.9669,25.6683],[-106.9943,25.6622]]]}},{"type":"Feature","properties":{"cve_ent":"25","cve_mun":"004","cvegeo":"25004","nombre":"Concordia"},"geometry":{"type":"Polygon","coordinates":[[[-105.9267,23.7615],[-105.9197,23.7578],[-105.9231,23.7478],[-105.9061,23.7394],[-105.9159,23.7264],[-105.9166,23.7154],[-105.9266,23.6841],[-105.9089,23.5883],[-105.8927,23.5526],[-105.8843,23.5904],[-105.8536,23.5973],[-105.8452,23.5837],[-105.8455,23.6033],[-105.8116,23.611],[-105.8066,23.5889],[-105.7854,23.575],[-105.7859,23.5695],[-105.7688,23.5557],[-105.7691,23.5419],[-105.7604,23.5351],[-105.7568,23.5245],[-105.76,23.5025],[-105.751,23.5003],[-105.7486,23.4937],[-105.7405,23.4893],[-105.7394,23.4853],[-105.7298,23.4823],[-105.7236,23.4752],[-105.7281,23.4668],[-105.7247,23.4608],[-105.7389,23.4452],[-105.7284,23.4396],[-105.7306,23.434],[-105.7283,23.429],[-105.7071,23.4259],[-105.7003,23.4197],[-105.704,23.4113],[-105.7103,23.4081],[-105.7086,23.4039],[-105.7121,23.3926],[-105.7171,23.3927],[-105.7224,23.386],[-105.7173,23.3786],[-105.7305,23.377],[-105.7299,23.374],[-105.718,23.3685],[-105.7386,23.3386],[-105.849,23.33],[-105.8388,23.3077],[-105.9173,23.3317],[-105.9305,23.3215],[-105.9399,23.2677],[-105.933,23.2586],[-105.9357,23.2575],[-105.9361,23.2489],[-105.9281,23.2387],[-105.9492,23.2345],[-105.9434,23.2008],[-105.9383,23.2],[-105.9372,23.1933],[-105.9227,23.19],[-105.9264,23.1782],[-105.9099,23.1389],[-105.909,23.1193],[-105.9306,23.118],[-105.963,23.0846],[-105.9619,23.0889],[-105.9657,23.0902],[-105.964,23.0955],[-105.968,23.0965],[-105.9716,23.1043],[-105.9766,23.1052],[-105.974,23.1075],[-105.9805,23.1202],[-105.9808,23.1083],[-105.9992,23.105],[-106.0131,23.0965],[-106.0385,23.1155],[-106.0457,23.1053],[-106.0606,23.1145],[-106.069,23.1149],[-106.0692,23.1094],[-106.0776,23.1069],[-106.0777,23.0983],[-106.0927,23.1108],[-106.1023,23.0955],[-106.0963,23.0898],[-106.1058,23.076],[-106.1308,23.0989],[-106.1101,23.1323],[-106.1068,23.143],[-106.0961,23.156],[-106.1032,23.1615],[-106.1204,23.161],[-106.121,23.1643],[-106.1343,23.1664],[-106.1392,23.1761],[-106.1398,23.183],[-106.1363,23.1826],[-106.1471,23.1903],[-106.1961,23.1896],[-106.2007,23.1907],[-106.2,23.1988],[-106.2056,23.1996],[-106.1949,23.2066],[-106.1861,23.2075],[-106.1851,23.2131],[-106.1595,23.2138],[-106.1746,23.3039],[-106.1851,23.3104],[-106.1857,23.3272],[-106.2174,23.3327],[-106.2204,23.3345],[-106.2217,23.3442],[-106.2261,23.3428],[-106.2319,23.3472],[-106.2322,23.3538],[-106.2429,23.3521],[-106.2387,23.3563],[-106.2291,23.3577],[-106.2369,23.3654],[-106.2352,23.3681],[-106.2087,23.3725],[-106.2106,23.3851],[-106.2224,23.3971],[-106.2117,23.4],[-106.2068,23.405],[-106.2116,23.4222],[-106.2172,23.4328],[-106.2336,23.4379],[-106.237,23.4463],[-106.2314,23.4522],[-106.2168,23.4511],[-106.2108,23.4538],[-106.2081,23.4618],[-106.2122,23.4659],[-106.2117,23.4696],[-106.2007,23.4701],[-106.2057,23.482],[-106.1973,23.4844],[-106.2001,23.4958],[-106.1969,23.5046],[-106.1984,23.5139],[-106.1839,23.526],[-106.1854,23.5374],[-106.1928,23.5464],[-106.1911,23.5526],[-106.1808,23.5549],[-106.1807,23.5608],[-106.1743,23.5664],[-106.1677,23.5645],[-106.1641,23.5594],[-106.1501,23.5554],[-106.1438,23.5636],[-106.1546,23.5737],[-106.1522,23.5817],[-106.1486,23.5837],[-106.1228,23.5762],[-106.1212,23.5681],[-106.1164,23.5679],[-106.1046,23.5785],[-106.1057,23.5827],[-106.1125,23.5855],[-106.1109,23.6001],[-106.1075,23.6022],[-106.0938,23.5985],[-106.0851,23.6043],[-106.0945,23.6181],[-106.0923,23.623],[-106.087,23.6153],[-106.081,23.613],[-106.075,23.6166],[-106.0661,23.6112],[-106.0616,23.6129],[-106.0606,23.6158],[-106.0675,23.627],[-106.0616,23.6356],[-106.0692,23.6436],[-106.063,23.6531],[-106.057,23.6533],[-106.0497,23.6487],[-106.042,23.6557],[-106.0367,23.6522],[-106.0333,23.6537],[-106.0395,23.6597],[-106.0341,23.6644],[-106.035,23.6704],[-106.0427,23.6721],[-106.0442,23.676],[-106.0346,23.6812],[-106.0239,23.6774],[-106.0209,23.682],[-106.0221,23.6908],[-106.0143,23.7009],[-106.022,23.7041],[-106.0263,23.7119],[-106.0199,23.7164],[-106.013,23.7128],[-106.0051,23.7189],[-106.0075,23.725],[-106.006,23.7355],[-106.0123,23.7413],[-106.0115,23.7473],[-106.0001,23.751],[-105.9914,23.7464],[-105.9751,23.7663],[-105.9675,23.766],[-105.9567,23.7572],[-105.9429,23.7613],[-105.9316,23.7558],[-105.9267,23.7615]]]}},{"type":"Feature","properties":{"cve_ent":"25","cve_mun":"005","cvegeo":"25005","nombre":"Cosalá"},"geometry":{"type":"Polygon","coordinates":[[[-106.5083,24.2909],[-106.4629,24.2697],[-106.4631,24.238],[-106.4852,24.24],[-106.5051,24.2328],[-106.504,24.2294],[-106.5074,24.2292],[-106.5104,24.2239],[-106.514,24.2283],[-106.5174,24.2248],[-106.5244,24.2272],[-106.526,24.2235],[-106.532,24.2281],[-106.5358,24.2238],[-106.548,24.2254],[-106.5488,24.2225],[-106.552,24.227],[-106.5595,24.224],[-106.5612,24.2264],[-106.5674,24.2251],[-106.6049,24.2381],[-106.6134,24.2279],[-106.6113,24.2209],[-106.603,24.2209],[-106.6059,24.2164],[-106.7081,24.2331],[-106.715,24.2257],[-106.7164,24.2166],[-106.7228,24.2139],[-106.7244,24.2207],[-106.7335,24.2225],[-106.7337,24.2282],[-106.7413,24.2245],[-106.747,24.2454],[-106.7591,24.2519],[-106.7577,24.2601],[-106.7659,24.257],[-106.7771,24.2646],[-106.7739,24.2727],[-106.7793,24.2829],[-106.7939,24.2872],[-106.8466,24.2687],[-106.8891,24.284],[-106.9132,24.2762],[-106.9489,24.3005],[-106.9399,24.325],[-106.959,24.3577],[-106.9926,24.3677],[-107.0185,24.3968],[-107.0173,24.4096],[-107.0236,24.4143],[-107.0329,24.4332],[-107.0462,24.4282],[-107.051,24.452],[-107.0513,24.4714],[-107.0556,24.4792],[-107.0529,24.4829],[-107.0388,24.4864],[-107.0225,24.4852],[-107.0218,24.4927],[-106.9986,24.4975],[-106.9897,24.5031],[-106.9648,24.5074],[-106.9743,24.543],[-107.0227,24.554],[-107.0238,24.5584],[-107.0216,24.5656],[-107.0156,24.5681],[-107.0145,24.5758],[-107.0234,24.5994],[-107.0335,24.6106],[-107.0423,24.6432],[-107.029,24.6511],[-107.0257,24.6584],[-107.0162,24.6465],[-107.0168,24.6533],[-107.0406,24.6818],[-107.0122,24.7179],[-107.0051,24.7168],[-106.9976,24.7271],[-106.9868,24.7275],[-106.9753,24.723],[-106.9686,24.7263],[-106.971,24.7297],[-106.9694,24.7339],[-106.9479,24.7371],[-106.9474,24.7442],[-106.9455,24.7428],[-106.9459,24.7645],[-106.9067,24.7679],[-106.8738,24.797],[-106.8712,24.8094],[-106.886,24.8264],[-106.8659,24.823],[-106.7961,24.7534],[-106.793,24.7439],[-106.7843,24.7415],[-106.7059,24.6653],[-106.6891,24.6238],[-106.6836,24.5985],[-106.6455,24.529],[-106.6322,24.53],[-106.6226,24.5249],[-106.6301,24.5065],[-106.6255,24.501],[-106.61,24.4979],[-106.6004,24.4832],[-106.5959,24.4938],[-106.5866,24.4925],[-106.5732,24.4776],[-106.56,24.4727],[-106.5628,24.4588],[-106.5683,24.4531],[-106.5693,24.437],[-106.6016,24.4146],[-106.5953,24.4095],[-106.5835,24.3903],[-106.586,24.379],[-106.5341,24.3095],[-106.528,24.2951],[-106.5171,24.287],[-106.5083,24.2909]]]}},{"type":"Feature","properties":{"cve_ent":"25","cve_mun":"006","cvegeo":"25006","nombre":"Culiacán"},"geometry":{"type":"Polygon","coordinates":[[[-107.1483,25.2592],[-107.1211,25.2431],[-107.1317,25.2322],[-107.132,25.2267],[-107.1488,25.2245],[-107.129,25.1884],[-107.1249,25.1866],[-107.1299,25.0531],[-107.0674,25.0302],[-107.0636,25.0253],[-107.0665,25.0204],[-107.0604,25.0024],[-107.0183,24.9336],[-107.0251,24.9284],[-107.0211,24.9099],[-107.0006,24.9282],[-106.9732,24.9096],[-106.951,24.888],[-106.9463,24.889],[-106.9345,24.8805],[-106.9306,24.8735],[-106.9329,24.8715],[-106.9271,24.8666],[-106.9514,24.859],[-106.9464,24.8585],[-106.944,24.8515],[-106.9431,24.8431],[-106.9465,24.8398],[-106.9381,24.8353],[-106.9307,24.8209],[-106.9193,24.814],[-106.9029,24.8284],[-106.886,24.8264],[-106.8712,24.8094],[-106.8738,24.797],[-106.9067,24.7679],[-106.9459,24.7645],[-106.9455,24.7428],[-106.9474,24.7442],[-106.9479,24.7371],[-106.9694,24.7339],[-106.971,24.7297],[-106.9686,24.7263],[-106.9753,24.723],[-106.9868,24.7275],[-106.9976,24.7271],[-107.0051,24.7168],[-107.0122,24.7179],[-107.0406,24.6818],[-107.0168,24.6533],[-107.0162,24.6465],[-107.0257,24.6584],[-107.029,24.6511],[-107.0423,24.6432],[-107.0335,24.6106],[-107.0234,24.5994],[-107.0145,24.5758],[-107.0156,24.5681],[-107.0211,24.5661],[-107.0238,24.5609],[-107.0227,24.554],[-106.9743,24.543],[-106.9648,24.5074],[-106.9897,24.5031],[-106.9986,24.4975],[-107.0218,24.4927],[-107.0225,24.4852],[-107.0388,24.4864],[-107.0542,24.4819],[-107.0462,24.4282],[-107.0329,24.4332],[-107.0236,24.4143],[-107.0173,24.4096],[-107.0185,24.3968],[-106.9926,24.3677],[-106.959,24.3577],[-106.9399,24.325],[-106.9489,24.3005],[-106.9132,24.2762],[-106.9139,24.2657],[-106.9189,24.2671],[-106.9208,24.2498],[-106.9259,24.2404],[-106.9251,24.232],[-106.9287,24.2259],[-106.9341,24.2234],[-106.9377,24.2272],[-106.9393,24.2236],[-106.9336,24.2124],[-106.9291,24.2106],[-106.9264,24.1999],[-106.9392,24.1871],[-106.9377,24.1682],[-106.9423,24.1647],[-106.9425,24.1562],[-106.9472,24.1545],[-106.9534,24.1574],[-106.9498,24.1641],[-106.9872,24.1582],[-107.0001,24.1633],[-107.0001,24.167],[-107.012,24.1594],[-107.0271,24.1589],[-107.0289,24.1618],[-107.0337,24.1586],[-107.0457,24.1586],[-107.0492,24.1467],[-107.0354,24.1284],[-107.0503,24.1164],[-107.0279,24.085],[-107.0326,24.085],[-107.0302,24.0805],[-107.0262,24.0775],[-107.0237,24.0792],[-107.0162,24.0673],[-107.0428,24.0672],[-107.0562,24.0623],[-107.0642,24.0654],[-107.066,24.0619],[-107.0598,24.0582],[-107.0621,24.0488],[-107.0568,24.0397],[-107.0639,24.0411],[-107.0813,24.053],[-107.0935,24.0685],[-107.1121,24.0733],[-107.1244,24.0812],[-107.1282,24.0947],[-107.1462,24.0939],[-107.1598,24.1038],[-107.1649,24.104],[-107.1649,24.0989],[-107.1477,24.0907],[-107.1445,24.0854],[-107.1377,24.0833],[-107.1352,24.0771],[-107.125,24.0743],[-107.1177,24.065],[-107.1103,24.0614],[-107.111,24.0511],[-107.1042,24.0439],[-107.1126,24.0397],[-107.11,24.0393],[-107.1118,24.0347],[-107.1962,24.0936],[-107.2031,24.1019],[-107.1992,24.0996],[-107.1956,24.1034],[-107.219,24.1214],[-107.2373,24.1297],[-107.4052,24.232],[-107.4401,24.2656],[-107.5407,24.3363],[-107.7023,24.4392],[-107.7586,24.4712],[-107.8149,24.4975],[-107.8254,24.5061],[-107.8226,24.5133],[-107.8172,24.5167],[-107.8231,24.5224],[-107.8005,24.526],[-107.6173,24.4173],[-107.5365,24.456],[-107.54,24.5175],[-107.5377,24.5259],[-107.5283,24.5336],[-107.5336,24.5398],[-107.5335,24.5723],[-107.5237,24.5723],[-107.5237,24.5902],[-107.5138,24.5901],[-107.5138,24.6178],[-107.5037,24.6718],[-107.4663,24.6721],[-107.469,24.6834],[-107.4617,24.6834],[-107.4612,24.6976],[-107.4529,24.6975],[-107.453,24.7102],[-107.4714,24.7111],[-107.474,24.7137],[-107.474,24.7446],[-107.477,24.7447],[-107.4778,24.7529],[-107.5046,24.7676],[-107.5064,24.7718],[-107.5124,24.7698],[-107.5123,24.7615],[-107.5133,24.7713],[-107.54,24.7703],[-107.5452,24.7847],[-107.549,24.7829],[-107.5526,24.7895],[-107.5535,24.8016],[-107.5624,24.7991],[-107.5625,24.8046],[-107.5856,24.8012],[-107.5842,24.8091],[-107.598,24.81],[-107.5969,24.8156],[-107.5854,24.8146],[-107.5853,24.8225],[-107.5977,24.8226],[-107.5987,24.8314],[-107.6125,24.8316],[-107.6099,24.8556],[-107.6826,24.8897],[-107.723,24.916],[-107.7199,24.9195],[-107.7248,24.9253],[-107.723,24.9276],[-107.7014,24.9225],[-107.6979,24.9262],[-107.6915,24.9255],[-107.6888,24.9283],[-107.6851,24.9254],[-107.6817,24.9289],[-107.6703,24.9312],[-107.6568,24.9276],[-107.648,24.9371],[-107.6527,24.9407],[-107.6465,24.9389],[-107.6424,24.9456],[-107.6418,24.958],[-107.6269,24.9665],[-107.6229,24.9744],[-107.6158,24.9706],[-107.6002,24.9729],[-107.5892,24.9777],[-107.5862,24.9845],[-107.5798,24.9865],[-107.588,24.9943],[-107.5966,24.9927],[-107.5909,25.0024],[-107.5881,25.0175],[-107.5915,25.0385],[-107.5578,25.0703],[-107.5275,25.0791],[-107.5237,25.0906],[-107.53,25.1157],[-107.5249,25.1204],[-107.467,25.1223],[-107.4068,25.0841],[-107.3576,25.067],[-107.356,25.1015],[-107.3522,25.1003],[-107.3515,25.1032],[-107.3508,25.1006],[-107.3498,25.1031],[-107.35,25.0993],[-107.3467,25.1002],[-107.3434,25.092],[-107.3407,25.0971],[-107.3379,25.0967],[-107.3395,25.0982],[-107.3322,25.0959],[-107.3332,25.101],[-107.3295,25.1004],[-107.3303,25.1045],[-107.3261,25.1107],[-107.3264,25.1138],[-107.3433,25.126],[-107.3493,25.1442],[-107.348,25.1596],[-107.3425,25.163],[-107.3381,25.1739],[-107.3461,25.165],[-107.359,25.1659],[-107.3531,25.1735],[-107.3639,25.1728],[-107.3772,25.1827],[-107.3747,25.1864],[-107.3865,25.1971],[-107.3698,25.2121],[-107.3312,25.2144],[-107.3242,25.1948],[-107.3116,25.175],[-107.3249,25.164],[-107.3181,25.1667],[-107.234,25.1531],[-107.2557,25.2301],[-107.2758,25.276],[-107.2041,25.276],[-107.1692,25.2583],[-107.1483,25.2592]]]}},{"type":"Feature","properties":{"cve_ent":"25","cve_mun":"007","cvegeo":"25007","nombre":"Choix"},"geometry":{"type":"Polygon","coordinates":[[[-108.0941,26.8705],[-108.0268,26.7985],[-108.0376,26.7698],[-108.0143,26.7732],[-108.0057,26.761],[-108.0137,26.7503],[-108.0152,26.7371],[-108.0192,26.7307],[-108.0088,26.7233],[-108.0079,26.6993],[-108.0143,26.686],[-108.0303,26.6743],[-108.0317,26.668],[-108.0427,26.6668],[-108.0465,26.6598],[-108.056,26.6565],[-108.0563,26.6519],[-108.0646,26.6474],[-108.0779,26.6462],[-108.0816,26.642],[-108.0744,26.6364],[-108.0746,26.628],[-108.0717,26.6269],[-108.0688,26.6314],[-108.0587,26.6266],[-108.0516,26.6298],[-108.0445,26.625],[-108.0452,26.6197],[-108.0375,26.6197],[-108.0318,26.6159],[-108.0354,26.6097],[-108.0325,26.6032],[-108.0122,26.5914],[-108.0125,26.5796],[-108.001,26.5726],[-107.9976,26.5647],[-107.992,26.5623],[-107.9897,26.548],[-107.9797,26.5432],[-107.9775,26.5361],[-107.961,26.527],[-107.962,26.5178],[-107.9555,26.506],[-107.9573,26.4937],[-107.9705,26.4891],[-107.9856,26.4721],[-107.9696,26.4702],[-107.9994,26.4484],[-108.0143,26.4533],[-108.0194,26.4495],[-108.0139,26.3904],[-108.0366,26.3689],[-108.0309,26.3389],[-108.0531,26.3136],[-108.0854,26.3088],[-108.0977,26.3119],[-108.1115,26.2983],[-108.1231,26.3016],[-108.128,26.2994],[-108.1546,26.3023],[-108.158,26.2952],[-108.1549,26.2864],[-108.1657,26.2838],[-108.1759,26.2951],[-108.1814,26.2926],[-108.1888,26.294],[-108.2171,26.3069],[-108.2189,26.3105],[-108.2205,26.3248],[-108.2058,26.3225],[-108.1988,26.3485],[-108.192,26.3565],[-108.1867,26.3737],[-108.2049,26.374],[-108.2145,26.364],[-108.2205,26.3777],[-108.2626,26.3848],[-108.2626,26.3633],[-108.301,26.3737],[-108.3043,26.4126],[-108.3103,26.4407],[-108.2882,26.4424],[-108.2605,26.4566],[-108.2972,26.4523],[-108.305,26.4719],[-108.3196,26.49],[-108.3267,26.491],[-108.3372,26.4872],[-108.3384,26.4783],[-108.3558,26.4781],[-108.361,26.4897],[-108.3651,26.4908],[-108.3665,26.4781],[-108.3744,26.4757],[-108.3862,26.4916],[-108.3924,26.4836],[-108.404,26.5067],[-108.4184,26.5119],[-108.4177,26.517],[-108.4226,26.5218],[-108.4217,26.5291],[-108.4245,26.5335],[-108.4363,26.5335],[-108.4392,26.5369],[-108.4565,26.5342],[-108.4649,26.5376],[-108.4561,26.5481],[-108.4422,26.5531],[-108.4312,26.5697],[-108.4397,26.5863],[-108.4271,26.5859],[-108.4119,26.6016],[-108.4053,26.5971],[-108.3911,26.6145],[-108.3859,26.6163],[-108.4035,26.6436],[-108.4355,26.6445],[-108.4349,26.6367],[-108.4466,26.6166],[-108.4691,26.6108],[-108.4676,26.6029],[-108.4726,26.5991],[-108.4915,26.601],[-108.5014,26.61],[-108.5084,26.6108],[-108.5053,26.603],[-108.5117,26.6036],[-108.5164,26.6079],[-108.5184,26.6062],[-108.5212,26.6102],[-108.5192,26.6145],[-108.5223,26.6106],[-108.5251,26.6129],[-108.5192,26.6206],[-108.5203,26.6265],[-108.5238,26.6295],[-108.5286,26.6279],[-108.5337,26.6239],[-108.5319,26.621],[-108.5367,26.6111],[-108.5338,26.6129],[-108.5232,26.6099],[-108.5237,26.6053],[-108.5194,26.6008],[-108.5228,26.5971],[-108.5195,26.5808],[-108.5297,26.584],[-108.5298,26.5771],[-108.5703,26.5597],[-108.5813,26.5596],[-108.5875,26.5642],[-108.5868,26.5593],[-108.5981,26.5664],[-108.5953,26.5705],[-108.6029,26.5673],[-108.6053,26.5688],[-108.6013,26.5732],[-108.6014,26.5838],[-108.6187,26.5916],[-108.6129,26.5936],[-108.6115,26.5975],[-108.6151,26.5995],[-108.6148,26.5948],[-108.6172,26.5942],[-108.6189,26.6041],[-108.6349,26.6103],[-108.6272,26.6213],[-108.6379,26.6298],[-108.6311,26.6331],[-108.6305,26.6393],[-108.6184,26.6399],[-108.6201,26.6476],[-108.6636,26.658],[-108.6577,26.6691],[-108.6304,26.6766],[-108.6337,26.6796],[-108.6299,26.6805],[-108.6318,26.6872],[-108.636,26.6905],[-108.6284,26.7184],[-108.6177,26.722],[-108.6163,26.7265],[-108.601,26.7272],[-108.5972,26.7432],[-108.5989,26.7503],[-108.5942,26.7592],[-108.5816,26.7591],[-108.5783,26.7628],[-108.576,26.7778],[-108.5808,26.7896],[-108.5752,26.7932],[-108.5648,26.7785],[-108.554,26.7799],[-108.5498,26.7876],[-108.5369,26.7984],[-108.5379,26.8041],[-108.5477,26.8058],[-108.5554,26.8116],[-108.557,26.8238],[-108.547,26.8286],[-108.5351,26.841],[-108.5221,26.8797],[-108.518,26.8804],[-108.467,26.9707],[-108.4243,26.9762],[-108.5025,26.9874],[-108.5042,26.9924],[-108.5018,26.9967],[-108.5063,27.0031],[-108.5044,27.0072],[-108.5009,27.0044],[-108.5016,27.0084],[-108.4973,27.0134],[-108.4842,27.0174],[-108.4854,27.0278],[-108.4917,27.0314],[-108.48,27.0396],[-108.4755,27.0399],[-108.4713,27.0305],[-108.4643,27.0401],[-108.4548,27.027],[-108.4431,27.0295],[-108.4137,27.0202],[-108.4096,27.0134],[-108.3716,27.023],[-108.3501,27.0226],[-108.3333,27.0046],[-108.322,27.0089],[-108.326,27.0205],[-108.3166,27.0345],[-108.3034,27.0366],[-108.2946,27.0259],[-108.2889,27.0266],[-108.2909,27.0148],[-108.2842,27.0125],[-108.2699,27.0251],[-108.2629,27.0268],[-108.2609,27.0331],[-108.2504,27.041],[-108.2462,27.0388],[-108.2412,27.0418],[-108.2259,27.0272],[-108.2147,27.0302],[-108.2125,27.0342],[-108.2028,27.0307],[-108.1977,27.0347],[-108.1943,27.032],[-108.1918,27.0259],[-108.1944,27.0242],[-108.1873,27.0103],[-108.1836,27.0091],[-108.1803,27.0002],[-108.1836,26.9953],[-108.1815,26.9941],[-108.1863,26.9931],[-108.1879,26.9864],[-108.1971,26.9838],[-108.1969,26.9811],[-108.2013,26.983],[-108.2047,26.9803],[-108.2074,26.9831],[-108.2109,26.978],[-108.2158,26.9777],[-108.2184,26.9648],[-108.235,26.9586],[-108.2355,26.9535],[-108.2293,26.9427],[-108.231,26.9328],[-108.2263,26.9295],[-108.225,26.9229],[-108.2302,26.9057],[-108.2097,26.8854],[-108.2062,26.8855],[-108.2028,26.8906],[-108.2074,26.906],[-108.1977,26.9027],[-108.1901,26.8959],[-108.1839,26.8997],[-108.1776,26.8822],[-108.1745,26.8815],[-108.1714,26.8839],[-108.1717,26.8923],[-108.1671,26.8958],[-108.1559,26.8952],[-108.1475,26.9085],[-108.1442,26.9084],[-108.1396,26.8955],[-108.1442,26.8676],[-108.0941,26.8705]]]}},{"type":"Feature","properties":{"cve_ent":"25","cve_mun":"008","cvegeo":"25008","nombre":"Elota"},"geometry":{"type":"Polygon","coordinates":[[[-106.6059,24.2164],[-106.6107,24.2136],[-106.6059,24.2112],[-106.6058,24.2052],[-106.621,24.1995],[-106.6184,24.1942],[-106.6211,24.1914],[-106.6206,24.1848],[-106.6238,24.1789],[-106.6308,24.176],[-106.6295,24.1709],[-106.6351,24.1682],[-106.632,24.1602],[-106.6344,24.156],[-106.6435,24.16],[-106.6543,24.1512],[-106.6463,24.138],[-106.6565,24.1368],[-106.6611,24.1443],[-106.6652,24.1455],[-106.6683,24.1424],[-106.6635,24.1381],[-106.664,24.1349],[-106.6682,24.1384],[-106.6752,24.1344],[-106.6755,24.1306],[-106.692,24.13],[-106.6907,24.126],[-106.6963,24.128],[-106.6957,24.1204],[-106.6788,24.1163],[-106.6776,24.1086],[-106.6806,24.1014],[-106.6748,24.0904],[-106.6587,24.0822],[-106.6538,24.0696],[-106.6549,24.0601],[-106.6593,24.0581],[-106.6547,24.0481],[-106.6706,24.0318],[-106.6779,24.0307],[-106.6801,24.0234],[-106.6754,24.0171],[-106.6799,24.0127],[-106.6853,23.9975],[-106.6911,23.9609],[-106.7041,23.9576],[-106.7125,23.9662],[-106.7152,23.962],[-106.7089,23.958],[-106.7032,23.9449],[-106.6966,23.9504],[-106.6904,23.9491],[-106.6706,23.9196],[-106.6855,23.8936],[-106.7356,23.8533],[-106.7317,23.8344],[-106.7374,23.8332],[-106.7429,23.8026],[-106.7379,23.8006],[-106.7401,23.7893],[-106.8619,23.7743],[-106.882,23.7958],[-106.8874,23.83],[-106.8933,23.8417],[-107.0116,23.9528],[-107.1161,24.0374],[-107.1118,24.0347],[-107.11,24.0393],[-107.1126,24.0397],[-107.1042,24.0439],[-107.111,24.0511],[-107.1103,24.0614],[-107.1177,24.065],[-107.125,24.0743],[-107.1352,24.0771],[-107.1377,24.0833],[-107.1445,24.0854],[-107.1477,24.0907],[-107.1651,24.0993],[-107.1652,24.1037],[-107.1616,24.1043],[-107.1462,24.0939],[-107.1282,24.0947],[-107.1244,24.0812],[-107.1121,24.0733],[-107.0935,24.0685],[-107.0813,24.053],[-107.0639,24.0411],[-107.0568,24.0397],[-107.0621,24.0488],[-107.0598,24.0582],[-107.066,24.0619],[-107.0642,24.0654],[-107.0562,24.0623],[-107.0428,24.0672],[-107.0162,24.0673],[-107.0237,24.0792],[-107.0262,24.0775],[-107.0302,24.0805],[-107.0326,24.085],[-107.0279,24.085],[-107.0503,24.1164],[-107.0354,24.1284],[-107.0492,24.1467],[-107.0457,24.1586],[-107.0337,24.1586],[-107.0289,24.1618],[-107.0271,24.1589],[-107.012,24.1594],[-107.0001,24.167],[-107.0001,24.1633],[-106.9872,24.1582],[-106.9498,24.1641],[-106.9526,24.1566],[-106.9425,24.1562],[-106.9423,24.1647],[-106.9372,24.1705],[-106.9404,24.1796],[-106.9392,24.1871],[-106.9264,24.1999],[-106.9284,24.2092],[-106.9336,24.2124],[-106.9389,24.225],[-106.9377,24.2272],[-106.9341,24.2234],[-106.9287,24.2259],[-106.9251,24.232],[-106.9259,24.2404],[-106.9208,24.2498],[-106.9189,24.2671],[-106.9139,24.2657],[-106.9132,24.2762],[-106.8891,24.284],[-106.8466,24.2687],[-106.7939,24.2872],[-106.7793,24.2829],[-106.7739,24.2727],[-106.7771,24.2646],[-106.7659,24.257],[-106.7577,24.2601],[-106.7591,24.2519],[-106.747,24.2454],[-106.7413,24.2245],[-106.7337,24.2282],[-106.7335,24.2225],[-106.7244,24.2207],[-106.7228,24.2139],[-106.7164,24.2166],[-106.715,24.2257],[-106.7081,24.2331],[-106.6059,24.2164]]]}},{"type":"Feature","properties":{"cve_ent":"25","cve_mun":"009","cvegeo":"25009","nombre":"Escuinapa"},"geometry":{"type":"Polygon","coordinates":[[[-105.4949,22.8106],[-105.5021,22.8101],[-105.5056,22.8059],[-105.5065,22.7977],[-105.5112,22.7969],[-105.5092,22.7922],[-105.5191,22.7839],[-105.5165,22.7806],[-105.5199,22.7728],[-105.5247,22.7752],[-105.5194,22.759],[-105.5141,22.7593],[-105.5153,22.7395],[-105.5229,22.7243],[-105.4981,22.6514],[-105.464,22.6592],[-105.4624,22.6569],[-105.4604,22.6475],[-105.4694,22.6414],[-105.4739,22.6311],[-105.47,22.6252],[-105.4505,22.6268],[-105.4481,22.6101],[-105.4544,22.6052],[-105.456,22.5987],[-105.4376,22.5849],[-105.4387,22.5652],[-105.4346,22.55],[-105.4366,22.5375],[-105.4442,22.5294],[-105.4417,22.5243],[-105.4545,22.5188],[-105.4608,22.5086],[-105.4632,22.5106],[-105.4664,22.5054],[-105.4741,22.5029],[-105.4816,22.5088],[-105.4807,22.5139],[-105.4838,22.5177],[-105.492,22.5194],[-105.4932,22.5234],[-105.5032,22.5277],[-105.5096,22.517],[-105.5219,22.521],[-105.5336,22.515],[-105.5417,22.5365],[-105.5736,22.5393],[-105.576,22.5351],[-105.5839,22.5335],[-105.5973,22.5363],[-105.6017,22.5422],[-105.6005,22.5589],[-105.6121,22.5682],[-105.622,22.5714],[-105.6314,22.5888],[-105.6309,22.593],[-105.6422,22.5939],[-105.6392,22.577],[-105.654,22.5808],[-105.6606,22.5864],[-105.671,22.5763],[-105.6764,22.5768],[-105.69,22.5684],[-105.6988,22.5679],[-105.7001,22.557],[-105.6772,22.5129],[-105.6711,22.4816],[-105.677,22.4681],[-105.6925,22.4672],[-105.7012,22.4677],[-105.7141,22.4749],[-105.7264,22.49],[-105.7502,22.5393],[-105.7596,22.5376],[-105.7605,22.551],[-105.7689,22.556],[-105.7735,22.5765],[-105.7937,22.6131],[-105.8178,22.6487],[-105.8427,22.6784],[-105.9343,22.7667],[-105.998,22.8131],[-105.9892,22.8249],[-105.9731,22.8228],[-105.9419,22.851],[-105.9343,22.84],[-105.9252,22.8465],[-105.9189,22.8459],[-105.908,22.8518],[-105.8901,22.8476],[-105.8879,22.8426],[-105.8833,22.8411],[-105.8813,22.8435],[-105.8783,22.8381],[-105.8707,22.8442],[-105.8727,22.839],[-105.8776,22.8367],[-105.8745,22.8313],[-105.8611,22.8265],[-105.8554,22.8286],[-105.8567,22.832],[-105.8541,22.8335],[-105.8485,22.8247],[-105.8345,22.831],[-105.8333,22.8373],[-105.8313,22.8338],[-105.8166,22.836],[-105.8311,22.8504],[-105.8562,22.8846],[-105.84,22.8874],[-105.8384,22.8841],[-105.8353,22.892],[-105.8252,22.8935],[-105.8264,22.9096],[-105.8178,22.9151],[-105.8149,22.9281],[-105.8116,22.9248],[-105.8087,22.9258],[-105.804,22.9396],[-105.7888,22.9448],[-105.7598,22.9625],[-105.7524,22.9605],[-105.6787,22.8941],[-105.6561,22.8817],[-105.6582,22.9017],[-105.6198,22.8966],[-105.6193,22.9081],[-105.5989,22.9193],[-105.5901,22.9045],[-105.5971,22.898],[-105.585,22.884],[-105.585,22.8801],[-105.5774,22.8791],[-105.5782,22.8707],[-105.5613,22.8696],[-105.5503,22.873],[-105.5453,22.8641],[-105.5399,22.8632],[-105.5365,22.8518],[-105.5296,22.8484],[-105.5341,22.8306],[-105.5228,22.8187],[-105.5009,22.8161],[-105.4949,22.8106]]]}},{"type":"Feature","properties":{"cve_ent":"25","cve_mun":"010","cvegeo":"25010","nombre":"El Fuerte"},"geometry":{"type":"Polygon","coordinates":[[[-108.2722,26.3664],[-108.2846,26.3429],[-108.2791,26.3234],[-108.2809,26.3089],[-108.2851,26.3077],[-108.286,26.2951],[-108.2827,26.2978],[-108.2732,26.278],[-108.2853,26.2642],[-108.2756,26.2481],[-108.3199,26.2222],[-108.3577,26.2189],[-108.3544,26.2028],[-108.3813,26.1623],[-108.3978,26.1659],[-108.4153,26.145],[-108.4082,26.1311],[-108.4152,26.117],[-108.4305,26.1162],[-108.4437,26.124],[-108.4395,26.1322],[-108.4478,26.1445],[-108.4526,26.1413],[-108.4554,26.1504],[-108.4655,26.1562],[-108.4776,26.1292],[-108.4848,26.1426],[-108.4878,26.139],[-108.4924,26.1461],[-108.5035,26.1471],[-108.4974,26.1158],[-108.5135,26.1138],[-108.5158,26.0989],[-108.6143,26.1063],[-108.617,26.1004],[-108.5998,26.0847],[-108.6286,26.03],[-108.6318,26.0343],[-108.633,26.0207],[-108.6451,25.991],[-108.6478,25.9758],[-108.614,25.9752],[-108.615,25.927],[-108.6571,25.9178],[-108.6643,25.8946],[-108.6499,25.8806],[-108.6709,25.8732],[-108.6675,25.8508],[-108.7049,25.8462],[-108.7249,25.8503],[-108.7243,25.8612],[-108.7304,25.8632],[-108.7384,25.8549],[-108.7648,25.8508],[-108.7699,25.8687],[-108.7772,25.8682],[-108.7783,25.8723],[-108.8537,25.8393],[-108.8591,25.8166],[-108.8666,25.8203],[-108.8546,25.8401],[-108.8985,25.8778],[-108.8955,25.883],[-108.9151,25.8941],[-108.9232,25.8742],[-108.9064,25.8666],[-108.9112,25.8586],[-108.9403,25.8768],[-108.943,25.873],[-108.9511,25.8775],[-108.9615,25.85],[-108.9663,25.8555],[-108.9644,25.8582],[-108.9803,25.8676],[-108.9763,25.8735],[-108.984,25.9184],[-108.9739,25.9264],[-108.9925,25.9312],[-109.0095,25.9458],[-108.9959,25.9642],[-108.996,25.9714],[-108.9882,25.9733],[-108.9965,25.9965],[-108.9878,26.0046],[-109.0179,26.0347],[-108.9581,26.0938],[-108.9732,26.1027],[-108.9648,26.1122],[-108.9723,26.1091],[-108.9826,26.1153],[-108.987,26.1235],[-108.9997,26.1276],[-109.0025,26.1329],[-109.0164,26.1361],[-108.9923,26.2212],[-109.0079,26.2258],[-109.0089,26.2305],[-109.0155,26.2343],[-109.0319,26.2378],[-109.0426,26.2474],[-109.0382,26.2465],[-109.0321,26.2679],[-109.0283,26.2669],[-109.0267,26.2723],[-109.0242,26.2718],[-109.0267,26.2751],[-108.9931,26.2932],[-108.9632,26.2862],[-108.9582,26.3041],[-108.9521,26.3055],[-108.9524,26.3021],[-108.9471,26.3058],[-108.95,26.2896],[-108.9277,26.3022],[-108.9295,26.307],[-108.9329,26.3067],[-108.9315,26.377],[-108.9498,26.3922],[-108.9365,26.3902],[-108.9092,26.4166],[-108.9101,26.4217],[-108.8814,26.4063],[-108.8603,26.4328],[-108.8761,26.4476],[-108.8378,26.4725],[-108.8378,26.4769],[-108.8475,26.4872],[-108.8567,26.4805],[-108.9147,26.4795],[-108.8913,26.4896],[-108.8732,26.5511],[-108.8064,26.5706],[-108.7877,26.5653],[-108.7771,26.5709],[-108.7766,26.5801],[-108.7343,26.5936],[-108.7107,26.5936],[-108.7106,26.5871],[-108.6788,26.587],[-108.679,26.6429],[-108.6636,26.658],[-108.6201,26.6476],[-108.6184,26.6399],[-108.6305,26.6393],[-108.6311,26.6331],[-108.6379,26.6298],[-108.6272,26.6213],[-108.6349,26.6103],[-108.6189,26.6041],[-108.6172,26.5942],[-108.6148,26.5948],[-108.6151,26.5995],[-108.6115,26.5975],[-108.6129,26.5936],[-108.6187,26.5916],[-108.6014,26.5838],[-108.6013,26.5732],[-108.6053,26.5688],[-108.5953,26.5705],[-108.5981,26.5664],[-108.5868,26.5593],[-108.5875,26.5642],[-108.5813,26.5596],[-108.5703,26.5597],[-108.5298,26.5771],[-108.5297,26.584],[-108.5195,26.5808],[-108.5228,26.5971],[-108.5194,26.6008],[-108.5237,26.6053],[-108.5232,26.6099],[-108.5338,26.6129],[-108.5367,26.6111],[-108.5319,26.621],[-108.5337,26.6239],[-108.5286,26.6279],[-108.5238,26.6295],[-108.5203,26.6265],[-108.5192,26.6206],[-108.5251,26.6129],[-108.5223,26.6106],[-108.5192,26.6145],[-108.5212,26.6102],[-108.5184,26.6062],[-108.5164,26.6079],[-108.5117,26.6036],[-108.5053,26.603],[-108.5084,26.6108],[-108.5014,26.61],[-108.4915,26.601],[-108.4726,26.5991],[-108.4676,26.6029],[-108.4691,26.6108],[-108.4466,26.6166],[-108.4349,26.6367],[-108.4355,26.6445],[-108.4035,26.6436],[-108.3859,26.6163],[-108.3911,26.6145],[-108.4053,26.5971],[-108.4119,26.6016],[-108.4271,26.5859],[-108.4397,26.5863],[-108.4312,26.5697],[-108.4422,26.5531],[-108.4561,26.5481],[-108.4649,26.5376],[-108.4565,26.5342],[-108.4392,26.5369],[-108.4363,26.5335],[-108.4245,26.5335],[-108.4217,26.5291],[-108.4226,26.5218],[-108.4177,26.517],[-108.4184,26.5119],[-108.404,26.5067],[-108.3924,26.4836],[-108.3862,26.4916],[-108.3744,26.4757],[-108.3665,26.4781],[-108.3651,26.4908],[-108.361,26.4897],[-108.3558,26.4781],[-108.3384,26.4783],[-108.3372,26.4872],[-108.3267,26.491],[-108.3196,26.49],[-108.305,26.4719],[-108.2972,26.4523],[-108.2605,26.4566],[-108.2882,26.4424],[-108.3103,26.4407],[-108.3043,26.4126],[-108.301,26.3737],[-108.2722,26.3664]]]}},{"type":"Feature","properties":{"cve_ent":"25","cve_mun":"011","cvegeo":"25011","nombre":"Guasave"},"geometry":{"type":"Polygon","coordinates":[[[-108.1786,25.6161],[-108.2135,25.5897],[-108.1895,25.5506],[-108.1907,25.5368],[-108.2018,25.5261],[-108.2045,25.514],[-108.1968,25.5109],[-108.1892,25.4865],[-108.1931,25.4825],[-108.2202,25.4905],[-108.2526,25.4868],[-108.2596,25.4785],[-108.2744,25.4727],[-108.2798,25.457],[-108.2903,25.396],[-108.3027,25.3991],[-108.3071,25.3935],[-108.307,25.3665],[-108.3145,25.3666],[-108.3145,25.3696],[-108.32,25.368],[-108.3207,25.3707],[-108.3377,25.362],[-108.3442,25.3689],[-108.352,25.3575],[-108.3679,25.3565],[-108.3632,25.3451],[-108.365,25.3363],[-108.3729,25.3328],[-108.3739,25.3168],[-108.3704,25.3124],[-108.3774,25.3079],[-108.3789,25.297],[-108.3698,25.2823],[-108.3589,25.2882],[-108.3569,25.2738],[-108.3603,25.2677],[-108.372,25.2598],[-108.3715,25.2466],[-108.3847,25.2395],[-108.3821,25.2349],[-108.3843,25.2298],[-108.3722,25.2182],[-108.3755,25.2004],[-108.3874,25.1852],[-108.4351,25.2436],[-108.4503,25.2566],[-108.4717,25.2702],[-108.4952,25.2801],[-108.4983,25.2843],[-108.5333,25.297],[-108.5445,25.3049],[-108.6787,25.3512],[-108.7226,25.3604],[-108.7454,25.3619],[-108.7516,25.3649],[-108.7515,25.3685],[-108.7858,25.3693],[-108.8015,25.3736],[-108.9088,25.4198],[-108.9627,25.4317],[-109.0205,25.4381],[-109.0266,25.4444],[-108.9073,25.4475],[-108.8965,25.4802],[-108.8866,25.4957],[-108.8844,25.5087],[-108.8919,25.513],[-108.8601,25.5734],[-108.8524,25.5816],[-108.8543,25.5912],[-108.8477,25.5885],[-108.8491,25.5815],[-108.8416,25.5798],[-108.846,25.5859],[-108.8416,25.5878],[-108.8451,25.5963],[-108.8589,25.6227],[-108.8632,25.623],[-108.8698,25.7162],[-108.8538,25.7392],[-108.8644,25.7403],[-108.8527,25.7511],[-108.84,25.7522],[-108.832,25.7654],[-108.8294,25.764],[-108.8268,25.768],[-108.8328,25.774],[-108.8111,25.7975],[-108.8075,25.7996],[-108.7944,25.7926],[-108.7795,25.8155],[-108.7749,25.8195],[-108.7722,25.8181],[-108.7661,25.8266],[-108.7579,25.8309],[-108.747,25.8107],[-108.7319,25.7916],[-108.7205,25.7915],[-108.7205,25.7854],[-108.7134,25.7885],[-108.7051,25.7841],[-108.7055,25.7392],[-108.6867,25.7269],[-108.6911,25.7201],[-108.6825,25.7155],[-108.6893,25.7051],[-108.675,25.6979],[-108.6633,25.7076],[-108.655,25.7006],[-108.6551,25.7058],[-108.5627,25.7054],[-108.5624,25.7094],[-108.5577,25.7091],[-108.5571,25.7119],[-108.5503,25.7098],[-108.5508,25.7213],[-108.5402,25.7215],[-108.5406,25.7299],[-108.53,25.7302],[-108.5304,25.7399],[-108.4916,25.7329],[-108.4915,25.7425],[-108.483,25.7436],[-108.4756,25.7424],[-108.4752,25.736],[-108.4579,25.7368],[-108.4557,25.7433],[-108.4468,25.7436],[-108.4373,25.7906],[-108.4187,25.7834],[-108.4184,25.7684],[-108.3665,25.7644],[-108.3646,25.7336],[-108.3607,25.7349],[-108.3596,25.7422],[-108.3477,25.7548],[-108.348,25.7439],[-108.342,25.7424],[-108.3347,25.7573],[-108.292,25.7171],[-108.2995,25.7114],[-108.2944,25.6975],[-108.2987,25.6983],[-108.3049,25.6931],[-108.3117,25.6997],[-108.3136,25.698],[-108.3119,25.6828],[-108.3097,25.6843],[-108.3018,25.6761],[-108.3098,25.6701],[-108.2977,25.6643],[-108.2985,25.6605],[-108.2622,25.6538],[-108.2512,25.6438],[-108.1943,25.6333],[-108.1786,25.6161]]]}},{"type":"Feature","properties":{"cve_ent":"25","cve_mun":"012","cvegeo":"25012","nombre":"Mazatlán"},"geometry":{"type":"MultiPolygon","coordinates":[[[[-105.9519,23.8196],[-105.9393,23.7914],[-105.9322,23.7947],[-105.9288,23.7866],[-105.9295,23.781],[-105.9249,23.7738],[-105.9294,23.7666],[-105.9272,23.7605],[-105.9316,23.7558],[-105.9429,23.7613],[-105.9567,23.7572],[-105.9675,23.766],[-105.9751,23.7663],[-105.9914,23.7464],[-106.0001,23.751],[-106.0115,23.7473],[-106.0123,23.7413],[-106.006,23.7355],[-106.0075,23.725],[-106.0051,23.7189],[-106.013,23.7128],[-106.0199,23.7164],[-106.0263,23.7119],[-106.022,23.7041],[-106.0143,23.7009],[-106.0221,23.6908],[-106.0209,23.682],[-106.0239,23.6774],[-106.0346,23.6812],[-106.0442,23.676],[-106.0427,23.6721],[-106.035,23.6704],[-106.0341,23.6644],[-106.0395,23.6597],[-106.0333,23.6537],[-106.0367,23.6522],[-106.042,23.6557],[-106.0497,23.6487],[-106.057,23.6533],[-106.063,23.6531],[-106.0692,23.6436],[-106.0616,23.6356],[-106.0675,23.627],[-106.0606,23.6158],[-106.0616,23.6129],[-106.0661,23.6112],[-106.075,23.6166],[-106.081,23.613],[-106.087,23.6153],[-106.0923,23.623],[-106.0945,23.6181],[-106.0851,23.6043],[-106.0938,23.5985],[-106.1075,23.6022],[-106.1109,23.6001],[-106.1125,23.5855],[-106.1057,23.5827],[-106.1046,23.5785],[-106.1164,23.5679],[-106.1212,23.5681],[-106.1228,23.5762],[-106.1486,23.5837],[-106.1522,23.5817],[-106.1546,23.5737],[-106.1438,23.5636],[-106.1501,23.5554],[-106.1641,23.5594],[-106.1677,23.5645],[-106.1743,23.5664],[-106.1807,23.5608],[-106.1808,23.5549],[-106.1911,23.5526],[-106.1928,23.5464],[-106.1854,23.5374],[-106.1839,23.526],[-106.1984,23.5139],[-106.1969,23.5046],[-106.2001,23.4958],[-106.1973,23.4844],[-106.2057,23.482],[-106.2007,23.4701],[-106.2117,23.4696],[-106.2122,23.4659],[-106.2081,23.4618],[-106.2108,23.4538],[-106.2168,23.4511],[-106.2314,23.4522],[-106.237,23.4463],[-106.2336,23.4379],[-106.2172,23.4328],[-106.2116,23.4222],[-106.2068,23.405],[-106.2117,23.4],[-106.2224,23.3971],[-106.2106,23.3851],[-106.2087,23.3725],[-106.2352,23.3681],[-106.2369,23.3654],[-106.2291,23.3577],[-106.2387,23.3563],[-106.2429,23.3521],[-106.2322,23.3538],[-106.2319,23.3472],[-106.2261,23.3428],[-106.2217,23.3442],[-106.2204,23.3345],[-106.2174,23.3327],[-106.1857,23.3272],[-106.1851,23.3104],[-106.1746,23.3039],[-106.1595,23.2138],[-106.1851,23.2131],[-106.1861,23.2075],[-106.1949,23.2066],[-106.2056,23.1996],[-106.2,23.1988],[-106.2007,23.1907],[-106.1961,23.1896],[-106.1471,23.1903],[-106.1363,23.1826],[-106.1398,23.183],[-106.1392,23.1761],[-106.1343,23.1664],[-106.121,23.1643],[-106.1204,23.161],[-106.1032,23.1615],[-106.0956,23.1553],[-106.1068,23.143],[-106.1199,23.1147],[-106.1403,23.0854],[-106.1507,23.0866],[-106.1773,23.1129],[-106.1824,23.1092],[-106.1895,23.115],[-106.1894,23.121],[-106.1941,23.115],[-106.1884,23.1037],[-106.204,23.0909],[-106.2205,23.0953],[-106.2232,23.0823],[-106.2278,23.0814],[-106.2292,23.0908],[-106.2353,23.0935],[-106.2449,23.0918],[-106.2522,23.0958],[-106.2592,23.0894],[-106.2481,23.0802],[-106.2579,23.0684],[-106.2902,23.091],[-106.3307,23.1315],[-106.3943,23.1819],[-106.4084,23.187],[-106.4119,23.186],[-106.4141,23.178],[-106.4236,23.1795],[-106.43,23.1766],[-106.4246,23.186],[-106.4283,23.1895],[-106.4268,23.196],[-106.431,23.2029],[-106.4293,23.2085],[-106.4229,23.2096],[-106.4219,23.2159],[-106.4307,23.2281],[-106.4536,23.2414],[-106.4582,23.2527],[-106.4666,23.2606],[-106.4687,23.2672],[-106.4662,23.2716],[-106.4704,23.2808],[-106.4939,23.304],[-106.4941,23.3095],[-106.4879,23.3075],[-106.481,23.3127],[-106.4827,23.3295],[-106.5388,23.4018],[-106.6184,23.4735],[-106.6045,23.5508],[-106.5974,23.6162],[-106.5187,23.6242],[-106.5293,23.6602],[-106.5266,23.6642],[-106.5296,23.6681],[-106.5212,23.691],[-106.4773,23.6895],[-106.4667,23.6988],[-106.4165,23.6927],[-106.386,23.6777],[-106.3691,23.6382],[-106.3664,23.641],[-106.3534,23.6383],[-106.3516,23.6339],[-106.3419,23.6304],[-106.332,23.6153],[-106.3296,23.6173],[-106.3237,23.6144],[-106.3107,23.6147],[-106.3081,23.6117],[-106.3103,23.6057],[-106.3039,23.6013],[-106.2959,23.6046],[-106.2901,23.6002],[-106.2859,23.6028],[-106.2807,23.6003],[-106.2758,23.6054],[-106.2717,23.6033],[-106.2722,23.6067],[-106.2668,23.6086],[-106.2652,23.6196],[-106.2604,23.6187],[-106.2604,23.6234],[-106.2527,23.6242],[-106.2542,23.6306],[-106.2516,23.6323],[-106.2494,23.6295],[-106.2502,23.6346],[-106.2464,23.6357],[-106.2473,23.6389],[-106.2432,23.6427],[-106.2423,23.6372],[-106.2367,23.636],[-106.2361,23.6423],[-106.2344,23.6392],[-106.2315,23.6408],[-106.2324,23.6459],[-106.228,23.6488],[-106.2272,23.6543],[-106.2091,23.6583],[-106.2121,23.6632],[-106.2084,23.6633],[-106.2092,23.6679],[-106.2043,23.6709],[-106.2076,23.6719],[-106.2043,23.6737],[-106.2057,23.6765],[-106.1792,23.6632],[-106.1731,23.7074],[-106.1154,23.7285],[-106.1597,23.7702],[-106.0683,23.8912],[-105.9519,23.8196]]],[[[-106.4045,23.18],[-106.4028,23.1797],[-106.4039,23.1784],[-106.4045,23.18]]],[[[-106.4129,23.1733],[-106.4132,23.1731],[-106.4132,23.1733],[-106.4129,23.1733]]],[[[-106.4359,23.1875],[-106.4367,23.1872],[-106.4366,23.1877],[-106.4359,23.1875]]],[[[-106.4406,23.1847],[-106.4391,23.1843],[-106.4406,23.1838],[-106.4406,23.1847]]],[[[-106.4673,23.2392],[-106.4623,23.2309],[-106.464,23.2278],[-106.4713,23.2341],[-106.4673,23.2392]]],[[[-106.4633,23.2246],[-106.4672,23.2223],[-106.4635,23.2277],[-106.4633,23.2246]]],[[[-106.4752,23.2584],[-106.4736,23.2515],[-106.4795,23.2504],[-106.4794,23.2567],[-106.4752,23.2584]]]]}},{"type":"Feature","properties":{"cve_ent":"25","cve_mun":"013","cvegeo":"25013","nombre":"Mocorito"},"geometry":{"type":"Polygon","coordinates":[[[-107.512,25.139],[-107.53,25.1157],[-107.5237,25.0906],[-107.5275,25.0791],[-107.5578,25.0703],[-107.5915,25.0385],[-107.5881,25.0175],[-107.5909,25.0024],[-107.5966,24.9927],[-107.588,24.9943],[-107.5798,24.9865],[-107.5862,24.9845],[-107.5892,24.9777],[-107.6002,24.9729],[-107.6158,24.9706],[-107.6229,24.9744],[-107.6269,24.9665],[-107.6418,24.958],[-107.6424,24.9456],[-107.6465,24.9389],[-107.6527,24.9407],[-107.648,24.9371],[-107.6568,24.9276],[-107.6703,24.9312],[-107.6817,24.9289],[-107.6851,24.9254],[-107.6888,24.9283],[-107.6915,24.9255],[-107.6979,24.9262],[-107.7014,24.9225],[-107.723,24.9276],[-107.7253,24.9234],[-107.7199,24.9195],[-107.723,24.916],[-107.7368,24.9254],[-107.7444,24.9368],[-107.7602,24.9359],[-107.7567,24.9417],[-107.7583,24.9471],[-107.7658,24.9462],[-107.7665,24.952],[-107.7704,24.9483],[-107.7781,24.9516],[-107.7811,24.9457],[-107.7836,24.9498],[-107.7907,24.9495],[-107.7989,24.9544],[-107.7919,24.963],[-107.7997,24.9663],[-107.8085,24.9796],[-107.8173,25.0045],[-107.8272,25.0076],[-107.8407,25.0321],[-107.8889,25.0206],[-107.8844,25.0332],[-107.8959,25.0324],[-107.9078,25.0502],[-107.9099,25.0631],[-107.9197,25.0631],[-107.9197,25.0599],[-107.929,25.0663],[-107.9261,25.0784],[-107.9314,25.0702],[-107.9337,25.0775],[-107.9378,25.0766],[-107.9372,25.0703],[-107.9455,25.0685],[-107.9456,25.0865],[-107.9436,25.091],[-107.9396,25.0911],[-107.9389,25.1136],[-107.9497,25.1145],[-107.9497,25.1225],[-107.9515,25.1181],[-107.9554,25.1181],[-107.9594,25.1318],[-107.9955,25.1317],[-107.9955,25.1341],[-107.9991,25.134],[-107.9895,25.1499],[-107.986,25.1499],[-107.9866,25.1575],[-107.97,25.1543],[-107.9678,25.1561],[-107.971,25.1636],[-107.9688,25.1647],[-107.9583,25.1542],[-107.9508,25.152],[-107.9514,25.1481],[-107.9397,25.1479],[-107.9328,25.2041],[-107.8701,25.2036],[-107.8686,25.2288],[-107.8751,25.2287],[-107.8748,25.2353],[-107.8793,25.2375],[-107.8826,25.2345],[-107.8847,25.2402],[-107.8987,25.2391],[-107.8976,25.2465],[-107.902,25.2448],[-107.9071,25.2542],[-107.9064,25.2635],[-107.9258,25.2991],[-107.9123,25.3064],[-107.8995,25.3068],[-107.8972,25.3121],[-107.9013,25.3184],[-107.9121,25.3198],[-107.9151,25.3155],[-107.9129,25.3115],[-107.9166,25.3099],[-107.9319,25.3102],[-107.9439,25.332],[-107.9506,25.3376],[-107.9467,25.341],[-107.9362,25.3403],[-107.9294,25.3455],[-107.9251,25.3568],[-107.9197,25.3609],[-107.9155,25.3602],[-107.9142,25.3725],[-107.951,25.3807],[-107.9438,25.4101],[-107.9332,25.417],[-107.9447,25.4209],[-107.9497,25.4081],[-107.9753,25.409],[-107.9963,25.4179],[-107.9999,25.4316],[-107.992,25.4312],[-108.0036,25.4556],[-108.0014,25.4587],[-108.0078,25.4661],[-108.0016,25.4811],[-108.0056,25.4847],[-108.0037,25.4974],[-108.0103,25.5031],[-108.0219,25.4994],[-108.0082,25.5108],[-108.0092,25.5181],[-108.0203,25.537],[-108.0177,25.5425],[-108.0097,25.5424],[-108.0087,25.5454],[-108.0135,25.5471],[-108.0113,25.5555],[-108.0137,25.5575],[-108.0244,25.5548],[-108.0276,25.5579],[-108.0267,25.561],[-108.0191,25.5631],[-108.014,25.5793],[-108.0027,25.5862],[-108.0001,25.5931],[-108.0048,25.5959],[-108.013,25.5877],[-108.0159,25.5892],[-108.0138,25.5937],[-108.0212,25.5949],[-108.0468,25.5862],[-108.0485,25.5909],[-108.0468,25.6091],[-108.0392,25.6187],[-108.0344,25.6392],[-108.0272,25.6506],[-108.0172,25.6488],[-108.0038,25.6393],[-107.9945,25.6393],[-107.9908,25.6512],[-107.9844,25.6478],[-107.9626,25.654],[-107.95,25.6659],[-107.9575,25.6827],[-107.9578,25.6892],[-107.9538,25.6917],[-107.9147,25.6671],[-107.8845,25.6867],[-107.8661,25.6887],[-107.8641,25.6996],[-107.8537,25.6991],[-107.8575,25.7144],[-107.8378,25.723],[-107.8389,25.7298],[-107.8353,25.7356],[-107.8258,25.7368],[-107.7993,25.7262],[-107.7951,25.7314],[-107.8014,25.7489],[-107.7929,25.7532],[-107.7944,25.7567],[-107.7915,25.7592],[-107.7786,25.755],[-107.7737,25.7501],[-107.769,25.7535],[-107.7587,25.7533],[-107.7562,25.7502],[-107.7316,25.7558],[-107.7317,25.761],[-107.7219,25.7587],[-107.7131,25.7725],[-107.6894,25.7735],[-107.6773,25.7818],[-107.699,25.7952],[-107.6465,25.8123],[-107.6518,25.7711],[-107.6298,25.6829],[-107.5712,25.6795],[-107.5735,25.6733],[-107.5811,25.6689],[-107.5796,25.6654],[-107.5852,25.6652],[-107.5856,25.6557],[-107.5758,25.6415],[-107.5847,25.6361],[-107.5838,25.6268],[-107.5878,25.6247],[-107.5858,25.6203],[-107.5918,25.6178],[-107.5784,25.6073],[-107.5818,25.6048],[-107.58,25.5994],[-107.586,25.5965],[-107.5863,25.5914],[-107.5893,25.5943],[-107.6084,25.5802],[-107.6096,25.5755],[-107.6403,25.5537],[-107.6386,25.5451],[-107.641,25.5371],[-107.6355,25.5313],[-107.6416,25.5103],[-107.6401,25.494],[-107.6495,25.4847],[-107.6632,25.4875],[-107.6465,25.4521],[-107.6861,25.4462],[-107.6846,25.4439],[-107.6944,25.4279],[-107.6798,25.4092],[-107.6741,25.4074],[-107.6903,25.4009],[-107.695,25.386],[-107.6986,25.3858],[-107.6955,25.3808],[-107.7014,25.3815],[-107.7027,25.3757],[-107.7209,25.3718],[-107.7227,25.3617],[-107.746,25.3534],[-107.7449,25.3449],[-107.7515,25.3418],[-107.7506,25.3367],[-107.7562,25.3413],[-107.793,25.2978],[-107.7804,25.2973],[-107.7641,25.3027],[-107.7612,25.31],[-107.7557,25.311],[-107.7578,25.2957],[-107.7465,25.3077],[-107.7459,25.272],[-107.7125,25.272],[-107.7061,25.2562],[-107.6958,25.2453],[-107.6985,25.2427],[-107.69,25.2389],[-107.6923,25.2292],[-107.6789,25.2133],[-107.6725,25.2182],[-107.6542,25.2088],[-107.6491,25.215],[-107.6299,25.2151],[-107.6294,25.2213],[-107.6123,25.223],[-107.6037,25.2284],[-107.5804,25.2132],[-107.5561,25.2158],[-107.5386,25.193],[-107.5384,25.1812],[-107.5229,25.1617],[-107.512,25.139]]]}},{"type":"Feature","properties":{"cve_ent":"25","cve_mun":"014","cvegeo":"25014","nombre":"Rosario"},"geometry":{"type":"Polygon","coordinates":[[[-105.3922,23.0841],[-105.413,23.0741],[-105.4099,23.0444],[-105.4132,23.0371],[-105.409,23.0236],[-105.4326,23.024],[-105.4533,22.9774],[-105.5013,22.9586],[-105.4961,22.9342],[-105.4987,22.9336],[-105.4712,22.8833],[-105.4753,22.8806],[-105.4842,22.8587],[-105.4746,22.8514],[-105.4792,22.842],[-105.4872,22.8391],[-105.4877,22.826],[-105.4934,22.8262],[-105.4949,22.8106],[-105.5009,22.8161],[-105.5228,22.8187],[-105.5341,22.8306],[-105.5296,22.8484],[-105.5365,22.8518],[-105.5399,22.8632],[-105.5453,22.8641],[-105.5503,22.873],[-105.5613,22.8696],[-105.5782,22.8707],[-105.5774,22.8791],[-105.585,22.8801],[-105.585,22.884],[-105.5971,22.898],[-105.5901,22.9045],[-105.5989,22.9193],[-105.6193,22.9081],[-105.6198,22.8966],[-105.6582,22.9017],[-105.6561,22.8817],[-105.6787,22.8941],[-105.7524,22.9605],[-105.7598,22.9625],[-105.7888,22.9448],[-105.804,22.9396],[-105.8087,22.9258],[-105.8116,22.9248],[-105.8149,22.9281],[-105.8178,22.9151],[-105.8264,22.9096],[-105.8252,22.8935],[-105.8353,22.892],[-105.8384,22.8841],[-105.84,22.8874],[-105.8562,22.8846],[-105.8311,22.8504],[-105.8166,22.836],[-105.8313,22.8338],[-105.8333,22.8373],[-105.8345,22.831],[-105.8485,22.8247],[-105.8541,22.8335],[-105.8567,22.832],[-105.8554,22.8286],[-105.8611,22.8265],[-105.8745,22.8313],[-105.8776,22.8367],[-105.8727,22.839],[-105.8707,22.8442],[-105.8783,22.8381],[-105.8813,22.8435],[-105.8833,22.8411],[-105.8879,22.8426],[-105.8901,22.8476],[-105.908,22.8518],[-105.9189,22.8459],[-105.9252,22.8465],[-105.9343,22.84],[-105.9419,22.851],[-105.9731,22.8228],[-105.9892,22.8249],[-105.998,22.8131],[-106.0268,22.8314],[-106.0345,22.8297],[-106.0649,22.8693],[-106.1461,22.9612],[-106.2066,23.0226],[-106.2579,23.0684],[-106.2481,23.0802],[-106.2592,23.0894],[-106.2522,23.0958],[-106.2449,23.0918],[-106.2353,23.0935],[-106.2292,23.0908],[-106.2278,23.0814],[-106.2232,23.0823],[-106.2205,23.0953],[-106.204,23.0909],[-106.1881,23.1042],[-106.1941,23.115],[-106.1894,23.121],[-106.1895,23.115],[-106.1862,23.112],[-106.1824,23.1092],[-106.1773,23.1129],[-106.1507,23.0866],[-106.1403,23.0854],[-106.1308,23.0989],[-106.1058,23.076],[-106.0963,23.0898],[-106.1023,23.0955],[-106.0927,23.1108],[-106.0777,23.0983],[-106.0776,23.1069],[-106.0692,23.1094],[-106.069,23.1149],[-106.0606,23.1145],[-106.0457,23.1053],[-106.0385,23.1155],[-106.0131,23.0965],[-105.9992,23.105],[-105.9808,23.1083],[-105.9805,23.1202],[-105.974,23.1075],[-105.9766,23.1052],[-105.9716,23.1043],[-105.968,23.0965],[-105.964,23.0955],[-105.9657,23.0902],[-105.9619,23.0889],[-105.963,23.0846],[-105.9306,23.118],[-105.909,23.1193],[-105.9099,23.1389],[-105.9264,23.1782],[-105.9227,23.19],[-105.9372,23.1933],[-105.9383,23.2],[-105.9434,23.2008],[-105.9492,23.2345],[-105.9281,23.2387],[-105.9361,23.2489],[-105.9357,23.2575],[-105.933,23.2586],[-105.9399,23.2677],[-105.9305,23.3215],[-105.9173,23.3317],[-105.8388,23.3077],[-105.849,23.33],[-105.7386,23.3386],[-105.718,23.3685],[-105.7119,23.3634],[-105.7152,23.3502],[-105.7052,23.3487],[-105.7035,23.3401],[-105.694,23.3406],[-105.7022,23.3327],[-105.6988,23.3282],[-105.7008,23.3242],[-105.6937,23.3204],[-105.6923,23.311],[-105.6995,23.3077],[-105.6917,23.3051],[-105.6874,23.3071],[-105.694,23.3013],[-105.6871,23.2875],[-105.677,23.2858],[-105.6726,23.2816],[-105.6648,23.2827],[-105.6637,23.2874],[-105.6583,23.2822],[-105.6432,23.2765],[-105.6455,23.2694],[-105.6428,23.266],[-105.6475,23.2616],[-105.6468,23.2534],[-105.6392,23.245],[-105.6423,23.2381],[-105.6303,23.2356],[-105.6297,23.2192],[-105.6357,23.2147],[-105.6297,23.2023],[-105.6352,23.1969],[-105.6343,23.1898],[-105.6407,23.1855],[-105.633,23.1734],[-105.6389,23.1676],[-105.6369,23.1559],[-105.6462,23.1489],[-105.644,23.1418],[-105.624,23.1224],[-105.6188,23.1263],[-105.617,23.122],[-105.607,23.1218],[-105.6058,23.1182],[-105.609,23.1166],[-105.6014,23.1141],[-105.5976,23.1091],[-105.5842,23.1129],[-105.5804,23.1094],[-105.5747,23.1101],[-105.5754,23.105],[-105.5702,23.1067],[-105.5693,23.1101],[-105.5543,23.0989],[-105.5493,23.1004],[-105.5486,23.1044],[-105.5371,23.1045],[-105.5312,23.1181],[-105.504,23.1277],[-105.4553,23.1173],[-105.4462,23.1196],[-105.4404,23.1167],[-105.4341,23.1205],[-105.4244,23.1203],[-105.4159,23.1169],[-105.4085,23.1032],[-105.3988,23.1022],[-105.4012,23.0962],[-105.3996,23.0897],[-105.3922,23.0841]]]}},{"type":"Feature","properties":{"cve_ent":"25","cve_mun":"015","cvegeo":"25015","nombre":"Salvador Alvarado"},"geometry":{"type":"Polygon","coordinates":[[[-108.0483,25.5918],[-108.0468,25.5862],[-108.0212,25.5949],[-108.0138,25.5937],[-108.0159,25.5892],[-108.013,25.5877],[-108.0048,25.5959],[-108.0001,25.5931],[-108.0027,25.5862],[-108.014,25.5793],[-108.0191,25.5631],[-108.0267,25.561],[-108.0276,25.5579],[-108.0244,25.5548],[-108.0137,25.5575],[-108.0113,25.5555],[-108.0135,25.5471],[-108.0087,25.5454],[-108.0097,25.5424],[-108.0177,25.5425],[-108.0203,25.537],[-108.0092,25.5181],[-108.0082,25.5108],[-108.0219,25.4994],[-108.0103,25.5031],[-108.0037,25.4974],[-108.0056,25.4847],[-108.0016,25.4811],[-108.0078,25.4661],[-108.0014,25.4587],[-108.0036,25.4556],[-107.992,25.4312],[-107.9999,25.4316],[-107.9963,25.4179],[-107.9753,25.409],[-107.9497,25.4081],[-107.9447,25.4209],[-107.9332,25.417],[-107.9438,25.4101],[-107.951,25.3807],[-107.9142,25.3725],[-107.9155,25.3602],[-107.9197,25.3609],[-107.9251,25.3568],[-107.9294,25.3455],[-107.9362,25.3403],[-107.9467,25.341],[-107.9506,25.3376],[-107.9439,25.332],[-107.9319,25.3102],[-107.9166,25.3099],[-107.9129,25.3115],[-107.9151,25.3155],[-107.9121,25.3198],[-107.9013,25.3184],[-107.8972,25.3121],[-107.8995,25.3068],[-107.9123,25.3064],[-107.9258,25.2991],[-107.9064,25.2635],[-107.9071,25.2542],[-107.902,25.2448],[-107.8976,25.2465],[-107.8987,25.2391],[-107.8847,25.2402],[-107.8826,25.2345],[-107.8793,25.2375],[-107.8748,25.2353],[-107.8751,25.2287],[-107.8686,25.2288],[-107.8701,25.2036],[-107.9328,25.2041],[-107.9397,25.1479],[-107.9514,25.1481],[-107.9508,25.152],[-107.9583,25.1542],[-107.9682,25.1626],[-107.972,25.1771],[-107.9695,25.1808],[-107.9771,25.1923],[-107.9884,25.2213],[-108.0151,25.2201],[-108.0352,25.2365],[-108.0381,25.236],[-108.0381,25.2389],[-108.0259,25.2411],[-108.0192,25.2475],[-108.0007,25.2534],[-108.0044,25.2629],[-108.034,25.3006],[-108.0311,25.3038],[-108.0345,25.3242],[-108.0424,25.3301],[-108.0432,25.3415],[-108.0454,25.3413],[-108.0405,25.3549],[-108.041,25.3625],[-108.0282,25.3611],[-108.0263,25.3692],[-108.0375,25.3683],[-108.0334,25.3795],[-108.0278,25.3829],[-108.036,25.3853],[-108.0309,25.3888],[-108.0367,25.3944],[-108.0509,25.391],[-108.0972,25.4224],[-108.0831,25.4309],[-108.0886,25.4352],[-108.0882,25.4396],[-108.0903,25.441],[-108.0907,25.4375],[-108.0971,25.4339],[-108.0971,25.4381],[-108.1018,25.4401],[-108.0971,25.4393],[-108.0949,25.444],[-108.1028,25.4505],[-108.1175,25.4415],[-108.1167,25.4367],[-108.1213,25.4334],[-108.1389,25.4285],[-108.1439,25.4107],[-108.1555,25.4018],[-108.162,25.4011],[-108.1617,25.3945],[-108.1776,25.4042],[-108.1666,25.4058],[-108.169,25.4179],[-108.1847,25.4092],[-108.183,25.4253],[-108.1895,25.4264],[-108.1948,25.4254],[-108.1866,25.4081],[-108.2335,25.3796],[-108.2311,25.3777],[-108.2326,25.3698],[-108.2595,25.3614],[-108.2637,25.3725],[-108.2724,25.3714],[-108.2745,25.3596],[-108.2935,25.3592],[-108.2928,25.3486],[-108.2996,25.3519],[-108.2935,25.3805],[-108.2966,25.3809],[-108.2988,25.371],[-108.3071,25.3737],[-108.3071,25.3935],[-108.3027,25.3991],[-108.2903,25.396],[-108.2768,25.4708],[-108.2596,25.4785],[-108.2526,25.4868],[-108.2202,25.4905],[-108.1931,25.4825],[-108.1892,25.4865],[-108.1968,25.5109],[-108.2045,25.514],[-108.2018,25.5261],[-108.1907,25.5368],[-108.1895,25.5506],[-108.2135,25.5897],[-108.1805,25.6137],[-108.1673,25.604],[-108.1635,25.6039],[-108.1635,25.6069],[-108.1587,25.607],[-108.1581,25.6041],[-108.1204,25.6067],[-108.1177,25.5858],[-108.0937,25.5941],[-108.0931,25.6045],[-108.0836,25.6011],[-108.0713,25.5905],[-108.0685,25.5929],[-108.0608,25.5884],[-108.0483,25.5918]]]}},{"type":"Feature","properties":{"cve_ent":"25","cve_mun":"016","cvegeo":"25016","nombre":"San Ignacio"},"geometry":{"type":"Polygon","coordinates":[[[-106.1525,24.3388],[-106.0898,24.2854],[-106.0869,24.2777],[-106.0758,24.2714],[-106.0721,24.2563],[-106.0699,24.2202],[-106.0439,24.2209],[-106.0442,24.2117],[-106.0364,24.204],[-106.034,24.1919],[-106.0268,24.1865],[-106.0286,24.1803],[-106.0032,24.1468],[-106.0042,24.13],[-106.0012,24.1283],[-106.004,24.1205],[-105.9966,24.1145],[-105.9897,24.1144],[-105.9891,24.108],[-105.9894,24.1024],[-105.9956,24.0983],[-105.9945,24.0918],[-106.002,24.0884],[-106.0007,24.0761],[-106.0079,24.0725],[-106.0066,24.0672],[-106.0012,24.0631],[-105.9999,24.0551],[-105.9967,24.0542],[-105.9987,24.0434],[-105.9941,24.0446],[-105.9843,24.0387],[-105.9795,24.042],[-105.973,24.0327],[-105.9666,24.0318],[-105.9654,24.0271],[-105.9598,24.0238],[-105.9598,24.0174],[-105.9503,24.0148],[-105.9487,24.0118],[-105.9469,24.0152],[-105.946,24.0122],[-105.9423,24.0143],[-105.9376,24.005],[-105.9289,23.9993],[-105.9171,24.0001],[-105.9121,23.9975],[-105.9129,23.992],[-105.9085,23.9834],[-105.9454,23.948],[-105.8999,23.9439],[-105.8816,23.9328],[-105.879,23.9261],[-105.866,23.9161],[-105.8641,23.9053],[-105.8576,23.8993],[-105.8585,23.8931],[-105.8633,23.8894],[-105.8607,23.8864],[-105.8655,23.8807],[-105.8641,23.8756],[-105.8833,23.8785],[-105.9537,23.9086],[-105.9613,23.8407],[-105.9519,23.8196],[-106.0683,23.8912],[-106.1597,23.7702],[-106.1154,23.7285],[-106.1731,23.7074],[-106.1792,23.6632],[-106.2057,23.6765],[-106.2043,23.6737],[-106.2076,23.6719],[-106.2043,23.6709],[-106.2092,23.6679],[-106.2084,23.6633],[-106.2121,23.6632],[-106.2091,23.6583],[-106.2272,23.6543],[-106.228,23.6488],[-106.2324,23.6459],[-106.2315,23.6408],[-106.2344,23.6392],[-106.2361,23.6423],[-106.2367,23.636],[-106.2423,23.6372],[-106.2432,23.6427],[-106.2473,23.6389],[-106.2464,23.6357],[-106.2502,23.6346],[-106.2494,23.6295],[-106.2516,23.6323],[-106.2542,23.6306],[-106.2527,23.6242],[-106.2604,23.6234],[-106.2604,23.6187],[-106.2652,23.6196],[-106.2668,23.6086],[-106.2722,23.6067],[-106.2717,23.6033],[-106.2758,23.6054],[-106.2807,23.6003],[-106.2859,23.6028],[-106.2901,23.6002],[-106.2959,23.6046],[-106.3039,23.6013],[-106.3103,23.6057],[-106.3081,23.6117],[-106.3107,23.6147],[-106.3237,23.6144],[-106.3296,23.6173],[-106.332,23.6153],[-106.3419,23.6304],[-106.3516,23.6339],[-106.3534,23.6383],[-106.3664,23.641],[-106.3691,23.6382],[-106.386,23.6777],[-106.4165,23.6927],[-106.4667,23.6988],[-106.4773,23.6895],[-106.5212,23.691],[-106.5296,23.6681],[-106.5266,23.6642],[-106.5293,23.6602],[-106.5187,23.6242],[-106.5974,23.6162],[-106.6045,23.5508],[-106.6184,23.4735],[-106.6266,23.4778],[-106.6304,23.487],[-106.6264,23.4919],[-106.6278,23.4968],[-106.6822,23.541],[-106.686,23.5581],[-106.6994,23.5735],[-106.7292,23.5952],[-106.7642,23.6132],[-106.7713,23.624],[-106.7859,23.6319],[-106.785,23.6349],[-106.7902,23.6404],[-106.8109,23.6527],[-106.8116,23.6581],[-106.8053,23.6596],[-106.8044,23.6676],[-106.7987,23.6661],[-106.7956,23.67],[-106.7957,23.6832],[-106.8198,23.7148],[-106.847,23.7401],[-106.8444,23.7426],[-106.8441,23.754],[-106.8619,23.7743],[-106.7401,23.7893],[-106.7379,23.8006],[-106.7429,23.8026],[-106.7374,23.8332],[-106.7317,23.8344],[-106.7356,23.8533],[-106.6855,23.8936],[-106.6706,23.9196],[-106.6904,23.9491],[-106.6966,23.9504],[-106.7032,23.9449],[-106.7089,23.958],[-106.7152,23.962],[-106.7125,23.9662],[-106.7041,23.9576],[-106.6911,23.9609],[-106.6853,23.9975],[-106.6799,24.0127],[-106.6754,24.0171],[-106.6801,24.0234],[-106.6779,24.0307],[-106.6706,24.0318],[-106.6547,24.0481],[-106.6593,24.0581],[-106.6549,24.0601],[-106.6538,24.0696],[-106.6587,24.0822],[-106.6748,24.0904],[-106.6806,24.1014],[-106.6776,24.1086],[-106.6788,24.1163],[-106.6957,24.1204],[-106.6963,24.128],[-106.6907,24.126],[-106.692,24.13],[-106.6755,24.1306],[-106.6752,24.1344],[-106.6682,24.1384],[-106.664,24.1349],[-106.6635,24.1381],[-106.6683,24.1424],[-106.6652,24.1455],[-106.6611,24.1443],[-106.6565,24.1368],[-106.6463,24.138],[-106.6543,24.1512],[-106.6435,24.16],[-106.6344,24.156],[-106.632,24.1602],[-106.6351,24.1682],[-106.6295,24.1709],[-106.6308,24.176],[-106.6238,24.1789],[-106.6206,24.1848],[-106.6211,24.1914],[-106.6184,24.1942],[-106.621,24.1995],[-106.6048,24.207],[-106.6059,24.2112],[-106.6107,24.2136],[-106.603,24.2209],[-106.6113,24.2209],[-106.6134,24.2279],[-106.6054,24.2349],[-106.6059,24.2377],[-106.575,24.2297],[-106.5674,24.2251],[-106.5612,24.2264],[-106.5595,24.224],[-106.552,24.227],[-106.5488,24.2225],[-106.548,24.2254],[-106.5358,24.2238],[-106.532,24.2281],[-106.526,24.2235],[-106.5244,24.2272],[-106.5174,24.2248],[-106.514,24.2283],[-106.5104,24.2239],[-106.5074,24.2292],[-106.504,24.2294],[-106.5051,24.2328],[-106.4852,24.24],[-106.4631,24.238],[-106.4629,24.2697],[-106.5083,24.2909],[-106.4697,24.2779],[-106.4295,24.2851],[-106.3675,24.3019],[-106.3526,24.3165],[-106.3441,24.3488],[-106.3278,24.3611],[-106.2689,24.3748],[-106.1944,24.3518],[-106.17,24.3337],[-106.1525,24.3388]]]}},{"type":"Feature","properties":{"cve_ent":"25","cve_mun":"017","cvegeo":"25017","nombre":"Sinaloa"},"geometry":{"type":"Polygon","coordinates":[[[-107.9994,26.4484],[-108.0128,26.439],[-107.973,26.3925],[-107.9741,26.3886],[-107.8563,26.226],[-107.854,26.1965],[-107.8399,26.1829],[-107.824,26.1841],[-107.8228,26.1876],[-107.8182,26.1835],[-107.8103,26.1837],[-107.8045,26.1748],[-107.7889,26.1686],[-107.7807,26.1369],[-107.7552,26.1345],[-107.7479,26.1435],[-107.7476,26.1538],[-107.7379,26.1569],[-107.7387,26.1672],[-107.7249,26.1632],[-107.7174,26.1647],[-107.7111,26.1744],[-107.7061,26.1701],[-107.6992,26.1707],[-107.6963,26.1655],[-107.6528,26.1636],[-107.6357,26.1546],[-107.6208,26.1626],[-107.5932,26.166],[-107.5898,26.1698],[-107.5823,26.1707],[-107.5775,26.1647],[-107.5654,26.1646],[-107.5557,26.1596],[-107.554,26.1518],[-107.5402,26.1424],[-107.5437,26.1373],[-107.5374,26.1377],[-107.5346,26.1309],[-107.5263,26.1277],[-107.5281,26.1214],[-107.5221,26.1118],[-107.5239,26.1072],[-107.52,26.1042],[-107.5219,26.0914],[-107.5284,26.0853],[-107.5281,26.0811],[-107.5117,26.0775],[-107.5194,26.0682],[-107.5273,26.0671],[-107.5426,26.0572],[-107.5461,26.0462],[-107.5387,26.0489],[-107.5357,26.0413],[-107.5156,26.04],[-107.5174,26.0304],[-107.5066,26.0195],[-107.4974,26.018],[-107.4899,25.9998],[-107.5094,25.9798],[-107.5338,25.9813],[-107.6041,25.943],[-107.5969,25.89],[-107.6045,25.8403],[-107.6465,25.8123],[-107.699,25.7952],[-107.6773,25.7826],[-107.6862,25.7747],[-107.7131,25.7725],[-107.7202,25.7595],[-107.7317,25.761],[-107.7316,25.7558],[-107.7562,25.7502],[-107.7587,25.7533],[-107.769,25.7535],[-107.7741,25.7502],[-107.7786,25.755],[-107.791,25.7595],[-107.7944,25.7567],[-107.7929,25.7532],[-107.8014,25.7489],[-107.7951,25.7314],[-107.7993,25.7262],[-107.8258,25.7368],[-107.8353,25.7356],[-107.8389,25.7298],[-107.8378,25.723],[-107.8575,25.7144],[-107.8537,25.6991],[-107.8641,25.6996],[-107.8661,25.6887],[-107.8845,25.6867],[-107.9147,25.6671],[-107.9538,25.6917],[-107.9578,25.6892],[-107.9575,25.6827],[-107.95,25.6659],[-107.9626,25.654],[-107.9844,25.6478],[-107.9908,25.6512],[-107.9945,25.6393],[-108.0038,25.6393],[-108.0172,25.6488],[-108.0272,25.6506],[-108.0344,25.6392],[-108.0392,25.6187],[-108.0468,25.6091],[-108.0483,25.5918],[-108.0548,25.5891],[-108.0608,25.5884],[-108.0685,25.5929],[-108.0713,25.5905],[-108.0836,25.6011],[-108.0931,25.6045],[-108.0937,25.5941],[-108.1177,25.5858],[-108.1204,25.6067],[-108.1581,25.6041],[-108.1587,25.607],[-108.1635,25.6069],[-108.1635,25.6039],[-108.1673,25.604],[-108.1805,25.6137],[-108.1786,25.6161],[-108.1943,25.6333],[-108.2512,25.6438],[-108.2622,25.6538],[-108.2985,25.6605],[-108.2977,25.6643],[-108.3098,25.6701],[-108.3018,25.6761],[-108.3097,25.6843],[-108.3119,25.6828],[-108.3136,25.698],[-108.3117,25.6997],[-108.3049,25.6931],[-108.2987,25.6983],[-108.2944,25.6975],[-108.2995,25.7114],[-108.292,25.7171],[-108.3055,25.7319],[-108.3298,25.7503],[-108.3347,25.7573],[-108.342,25.7424],[-108.348,25.7439],[-108.3477,25.7548],[-108.3596,25.7422],[-108.3607,25.7349],[-108.3646,25.7336],[-108.3665,25.7644],[-108.4184,25.7684],[-108.4187,25.7834],[-108.4373,25.7906],[-108.4468,25.7436],[-108.4557,25.7433],[-108.4579,25.7368],[-108.4752,25.736],[-108.4756,25.7424],[-108.483,25.7436],[-108.4915,25.7425],[-108.4916,25.7329],[-108.5304,25.7399],[-108.53,25.7302],[-108.5406,25.7299],[-108.5402,25.7215],[-108.5508,25.7213],[-108.5503,25.7098],[-108.5571,25.7119],[-108.5577,25.7091],[-108.5624,25.7094],[-108.5627,25.7054],[-108.6551,25.7058],[-108.655,25.7006],[-108.6633,25.7076],[-108.675,25.6979],[-108.6893,25.7051],[-108.6825,25.7155],[-108.6911,25.7201],[-108.6867,25.7269],[-108.703,25.7358],[-108.7063,25.7416],[-108.7046,25.7831],[-108.7134,25.7885],[-108.7205,25.7854],[-108.7205,25.7915],[-108.7319,25.7916],[-108.7484,25.8127],[-108.7648,25.8508],[-108.7384,25.8549],[-108.7304,25.8632],[-108.7243,25.8612],[-108.7249,25.8503],[-108.7049,25.8462],[-108.6675,25.8508],[-108.6709,25.8732],[-108.6499,25.8806],[-108.6643,25.8946],[-108.6571,25.9178],[-108.615,25.927],[-108.614,25.9752],[-108.6478,25.9758],[-108.6451,25.991],[-108.633,26.0207],[-108.6318,26.0343],[-108.6286,26.03],[-108.5998,26.0847],[-108.617,26.1004],[-108.6143,26.1063],[-108.5158,26.0989],[-108.5135,26.1138],[-108.4974,26.1158],[-108.5035,26.1471],[-108.4924,26.1461],[-108.4878,26.139],[-108.4848,26.1426],[-108.4776,26.1292],[-108.4655,26.1562],[-108.4554,26.1504],[-108.4526,26.1413],[-108.4478,26.1445],[-108.4395,26.1322],[-108.4437,26.124],[-108.4305,26.1162],[-108.4152,26.117],[-108.4082,26.1311],[-108.4153,26.145],[-108.3978,26.1659],[-108.3813,26.1623],[-108.3544,26.2028],[-108.3577,26.2189],[-108.3199,26.2222],[-108.2756,26.2481],[-108.2853,26.2642],[-108.2732,26.278],[-108.2827,26.2978],[-108.286,26.2951],[-108.2851,26.3077],[-108.2809,26.3089],[-108.2791,26.3234],[-108.2846,26.3429],[-108.2722,26.3664],[-108.2626,26.3633],[-108.2626,26.3848],[-108.2205,26.3777],[-108.2145,26.364],[-108.2049,26.374],[-108.1867,26.3737],[-108.192,26.3565],[-108.1988,26.3485],[-108.2058,26.3225],[-108.2205,26.3248],[-108.2189,26.3105],[-108.2171,26.3069],[-108.1888,26.294],[-108.1814,26.2926],[-108.1759,26.2951],[-108.1657,26.2838],[-108.1549,26.2864],[-108.158,26.2952],[-108.1546,26.3023],[-108.128,26.2994],[-108.1231,26.3016],[-108.1115,26.2983],[-108.0977,26.3119],[-108.0854,26.3088],[-108.0531,26.3136],[-108.0309,26.3389],[-108.0366,26.3689],[-108.0139,26.3904],[-108.0194,26.4495],[-108.0143,26.4533],[-107.9994,26.4484]]]}},{"type":"Feature","properties":{"cve_ent":"25","cve_mun":"018","cvegeo":"25018","nombre":"Navolato"},"geometry":{"type":"Polygon","coordinates":[[[-107.7368,24.9254],[-107.6826,24.8897],[-107.6099,24.8556],[-107.6125,24.8316],[-107.5987,24.8314],[-107.5977,24.8226],[-107.5853,24.8225],[-107.5854,24.8146],[-107.5969,24.8156],[-107.598,24.81],[-107.5842,24.8091],[-107.5856,24.8012],[-107.5625,24.8046],[-107.5624,24.7991],[-107.5535,24.8016],[-107.5526,24.7895],[-107.549,24.7829],[-107.5452,24.7847],[-107.54,24.7703],[-107.5133,24.7713],[-107.5123,24.7615],[-107.5124,24.7698],[-107.5068,24.7719],[-107.5046,24.7676],[-107.4887,24.7607],[-107.4778,24.7529],[-107.477,24.7447],[-107.474,24.7446],[-107.474,24.7137],[-107.4714,24.7111],[-107.453,24.7102],[-107.4529,24.6975],[-107.4612,24.6976],[-107.4617,24.6834],[-107.469,24.6834],[-107.4663,24.6721],[-107.5037,24.6718],[-107.5138,24.6178],[-107.5138,24.5901],[-107.5237,24.5902],[-107.5237,24.5723],[-107.5335,24.5723],[-107.5336,24.5398],[-107.5283,24.5336],[-107.5377,24.5259],[-107.54,24.5175],[-107.5365,24.456],[-107.6173,24.4173],[-107.8005,24.526],[-107.8285,24.5215],[-107.8309,24.5399],[-107.8437,24.5526],[-107.9848,24.6398],[-108.0029,24.6574],[-108.0189,24.6816],[-108.0215,24.7285],[-108.0373,24.7511],[-108.0714,24.7829],[-108.0346,24.8079],[-108.0219,24.8424],[-108.0092,24.8452],[-108.0042,24.8499],[-108.008,24.8654],[-108.025,24.8934],[-108.0244,24.9138],[-108.0095,24.9226],[-107.9885,24.9673],[-107.9732,24.9782],[-107.9712,24.9745],[-107.9755,24.9698],[-107.9695,24.9718],[-107.9637,24.9684],[-107.9678,24.9765],[-107.9243,24.9783],[-107.9201,24.9701],[-107.9152,24.9692],[-107.9137,24.98],[-107.9095,24.9789],[-107.8945,25.0333],[-107.8844,25.0332],[-107.8889,25.0206],[-107.8407,25.0321],[-107.8272,25.0076],[-107.8173,25.0045],[-107.8085,24.9796],[-107.7997,24.9663],[-107.7919,24.963],[-107.7989,24.9544],[-107.7907,24.9495],[-107.7836,24.9498],[-107.7811,24.9457],[-107.7781,24.9516],[-107.7704,24.9483],[-107.7665,24.952],[-107.7658,24.9462],[-107.7583,24.9471],[-107.7567,24.9417],[-107.7602,24.9359],[-107.7444,24.9368],[-107.7368,24.9254]]]}}]}