{"type":"FeatureCollection","features":[{"type":"Feature","properties":{"cve_ent":"27","cve_mun":"001","cvegeo":"27001","nombre":"Balancán"},"geometry":{"type":"Polygon","coordinates":[[[-91.3283,18.0628],[-91.3184,18.0494],[-91.2967,18.0419],[-91.2814,18.024],[-91.2531,18.0092],[-91.2421,17.9889],[-91.2333,17.983],[-91.2238,17.9813],[-91.2175,17.975],[-91.2001,17.9745],[-91.1927,17.9782],[-91.1856,17.973],[-91.1726,17.978],[-91.1447,17.9752],[-91.1511,17.9627],[-91.1332,17.958],[-91.1307,17.9823],[-91.1136,17.9759],[-91.1202,17.9634],[-90.988,17.9625],[-90.9877,17.9014],[-90.9955,17.9022],[-90.9956,17.8755],[-90.9877,17.8754],[-90.9878,17.4231],[-90.9921,17.4235],[-90.9921,17.428],[-90.9968,17.4284],[-90.997,17.4243],[-91.0109,17.4237],[-91.0096,17.4286],[-91.0129,17.4288],[-91.0169,17.4234],[-91.0218,17.4256],[-91.0271,17.4214],[-91.0322,17.4223],[-91.0317,17.4673],[-91.0579,17.4701],[-91.0579,17.483],[-91.0817,17.4851],[-91.0817,17.4809],[-91.0892,17.4817],[-91.0904,17.4771],[-91.0953,17.4777],[-91.0956,17.4816],[-91.0978,17.4788],[-91.1089,17.4777],[-91.1387,17.4778],[-91.1412,17.4841],[-91.1342,17.4908],[-91.1399,17.4929],[-91.1409,17.5019],[-91.1766,17.5198],[-91.1727,17.528],[-91.1732,17.5612],[-91.1881,17.5622],[-91.2067,17.5787],[-91.2096,17.5663],[-91.207,17.5622],[-91.2414,17.5564],[-91.2394,17.5547],[-91.2476,17.5397],[-91.253,17.5388],[-91.2606,17.5825],[-91.2642,17.5837],[-91.2753,17.5787],[-91.2837,17.5836],[-91.298,17.5833],[-91.2964,17.5871],[-91.2995,17.5882],[-91.2963,17.591],[-91.3055,17.5938],[-91.3029,17.5887],[-91.3076,17.5864],[-91.3035,17.5828],[-91.3044,17.5796],[-91.3157,17.5755],[-91.3152,17.572],[-91.3212,17.574],[-91.3231,17.5628],[-91.3296,17.5616],[-91.3324,17.564],[-91.331,17.5578],[-91.3338,17.5563],[-91.3441,17.5659],[-91.346,17.5601],[-91.3517,17.5592],[-91.3588,17.5712],[-91.353,17.5791],[-91.3588,17.5863],[-91.3535,17.5974],[-91.3597,17.6075],[-91.3925,17.6251],[-91.4107,17.626],[-91.422,17.6194],[-91.4224,17.6164],[-91.4382,17.6197],[-91.4392,17.6176],[-91.478,17.6425],[-91.4647,17.6574],[-91.4674,17.6651],[-91.5138,17.657],[-91.52,17.6406],[-91.5295,17.6416],[-91.5418,17.6164],[-91.5511,17.6136],[-91.5661,17.6299],[-91.5659,17.6382],[-91.5716,17.648],[-91.5697,17.6571],[-91.5728,17.684],[-91.5637,17.6889],[-91.562,17.6991],[-91.5742,17.7024],[-91.5705,17.7127],[-91.5667,17.7127],[-91.5689,17.7252],[-91.5634,17.7266],[-91.5695,17.732],[-91.5722,17.7419],[-91.5706,17.7618],[-91.5984,17.7616],[-91.6174,17.7659],[-91.6253,17.7598],[-91.654,17.7615],[-91.6553,17.7574],[-91.6521,17.7544],[-91.6209,17.7412],[-91.6164,17.7335],[-91.618,17.7266],[-91.6295,17.7237],[-91.6601,17.7388],[-91.6718,17.7287],[-91.6726,17.7164],[-91.6809,17.7093],[-91.709,17.7143],[-91.7105,17.7432],[-91.6986,17.747],[-91.7128,17.7651],[-91.7127,17.7861],[-91.7102,17.786],[-91.6863,17.8305],[-91.6917,17.8345],[-91.6788,17.8438],[-91.684,17.8505],[-91.6785,17.8545],[-91.6855,17.8623],[-91.6751,17.8726],[-91.6807,17.876],[-91.6719,17.8947],[-91.6388,17.874],[-91.6291,17.8971],[-91.6331,17.905],[-91.6127,17.9129],[-91.6196,17.9192],[-91.6247,17.9491],[-91.6198,17.9576],[-91.62,17.9764],[-91.6158,17.9891],[-91.6193,18.0175],[-91.6123,18.045],[-91.6193,18.0608],[-91.6076,18.0745],[-91.6062,18.084],[-91.6103,18.0918],[-91.6095,18.0984],[-91.6032,18.1077],[-91.5895,18.1084],[-91.5953,18.1252],[-91.592,18.1305],[-91.5874,18.1292],[-91.5722,18.142],[-91.5827,18.1525],[-91.5801,18.1581],[-91.5528,18.1582],[-91.5345,18.1462],[-91.5245,18.1599],[-91.5201,18.1605],[-91.5158,18.1699],[-91.5073,18.1705],[-91.5019,18.1556],[-91.5152,18.155],[-91.5165,18.1305],[-91.5057,18.13],[-91.5027,18.1263],[-91.5048,18.1234],[-91.5019,18.1223],[-91.504,18.1165],[-91.495,18.1154],[-91.4889,18.1181],[-91.4844,18.1128],[-91.4773,18.1128],[-91.4702,18.1036],[-91.4653,18.1042],[-91.4493,18.0947],[-91.4442,18.0951],[-91.4383,18.0845],[-91.4334,18.0821],[-91.3986,18.08],[-91.3929,18.0751],[-91.3897,18.0665],[-91.3844,18.0641],[-91.3676,18.0662],[-91.3594,18.0704],[-91.3472,18.064],[-91.3283,18.0628]]]}},{"type":"Feature","properties":{"cve_ent":"27","cve_mun":"002","cvegeo":"27002","nombre":"Cárdenas"},"geometry":{"type":"Polygon","coordinates":[[[-93.512,18.3849],[-93.5214,18.3809],[-93.5185,18.3804],[-93.5286,18.3443],[-93.5219,18.3432],[-93.5174,18.3338],[-93.5107,18.3365],[-93.5086,18.3273],[-93.4978,18.309],[-93.492,18.3119],[-93.4857,18.3071],[-93.4852,18.2875],[-93.4758,18.2815],[-93.4753,18.2778],[-93.4721,18.2779],[-93.4745,18.2631],[-93.4853,18.2614],[-93.4796,18.2471],[-93.4834,18.2453],[-93.4693,18.2332],[-93.4766,18.2253],[-93.472,18.2177],[-93.4788,18.211],[-93.472,18.204],[-93.4674,18.2076],[-93.4621,18.199],[-93.4481,18.2011],[-93.4482,18.1959],[-93.4526,18.1964],[-93.4518,18.1945],[-93.4395,18.1865],[-93.44,18.1842],[-93.421,18.1908],[-93.4206,18.1676],[-93.4163,18.1718],[-93.4107,18.169],[-93.4127,18.1588],[-93.4023,18.1502],[-93.4001,18.1415],[-93.4039,18.1365],[-93.4042,18.1274],[-93.3736,18.1171],[-93.3505,18.0904],[-93.3458,18.0976],[-93.3406,18.0926],[-93.3351,18.0975],[-93.3248,18.0844],[-93.3292,18.0798],[-93.3189,18.0653],[-93.326,18.0675],[-93.336,18.0652],[-93.3481,18.0563],[-93.3455,18.0537],[-93.3371,18.0623],[-93.3299,18.0594],[-93.3284,18.0503],[-93.3225,18.0529],[-93.3118,18.0385],[-93.3281,18.0357],[-93.3266,18.0331],[-93.3307,18.0256],[-93.3275,18.0233],[-93.3179,18.0264],[-93.3191,18.0202],[-93.3081,18.0138],[-93.3038,17.9991],[-93.2869,17.9991],[-93.2869,17.9919],[-93.2917,17.9852],[-93.2813,17.9815],[-93.2817,17.972],[-93.2982,17.9474],[-93.316,17.9476],[-93.3234,17.9529],[-93.336,17.9532],[-93.3437,17.9487],[-93.3511,17.9387],[-93.3584,17.9428],[-93.3617,17.9304],[-93.366,17.9308],[-93.3672,17.9413],[-93.3809,17.9423],[-93.3813,17.945],[-93.368,17.945],[-93.3682,17.9498],[-93.387,17.9829],[-93.3904,17.9832],[-93.419,17.9736],[-93.4206,17.9763],[-93.4217,17.9723],[-93.4332,17.9751],[-93.4315,17.9723],[-93.4482,17.9743],[-93.4488,17.9721],[-93.4495,17.9744],[-93.4501,17.9722],[-93.4538,17.9747],[-93.4538,17.9722],[-93.4753,17.9745],[-93.4756,17.9718],[-93.482,17.972],[-93.4866,17.9748],[-93.4866,17.9722],[-93.4945,17.9747],[-93.5071,17.9745],[-93.508,17.9723],[-93.5085,17.975],[-93.5087,17.9722],[-93.514,17.9743],[-93.52,17.9722],[-93.52,17.9746],[-93.5217,17.9722],[-93.5235,17.9757],[-93.5242,17.9722],[-93.5272,17.9758],[-93.5311,17.9722],[-93.5326,17.9762],[-93.5361,17.9698],[-93.542,17.9673],[-93.5414,17.9529],[-93.5452,17.9503],[-93.5624,17.9561],[-93.5887,17.9545],[-93.589,17.9826],[-93.6206,17.9879],[-93.6319,17.9974],[-93.6078,17.9974],[-93.608,18.0444],[-93.6834,18.0443],[-93.6834,18.0674],[-93.6883,18.0818],[-93.6864,18.0896],[-93.7308,18.0894],[-93.7307,18.057],[-93.7485,18.0603],[-93.7431,18.0777],[-93.7591,18.0866],[-93.8019,18.0923],[-93.8187,18.1051],[-93.8234,18.1041],[-93.8271,18.0986],[-93.8332,18.0988],[-93.8365,18.1001],[-93.8359,18.1042],[-93.8458,18.1063],[-93.8497,18.0962],[-93.8584,18.0921],[-93.8776,18.1006],[-93.8868,18.094],[-93.8973,18.1129],[-93.8918,18.1164],[-93.9023,18.1187],[-93.9105,18.1551],[-93.956,18.1405],[-93.9566,18.1513],[-93.9741,18.1463],[-93.9923,18.1381],[-94.0081,18.1215],[-94.0189,18.1204],[-94.025,18.1324],[-94.024,18.1406],[-94.028,18.1412],[-93.9904,18.1605],[-93.9892,18.1732],[-93.9961,18.193],[-94.0121,18.1901],[-94.0098,18.1921],[-94.0138,18.1992],[-94.0208,18.1939],[-94.0265,18.1996],[-94.0358,18.1944],[-94.0435,18.1948],[-94.0395,18.1874],[-94.0466,18.1907],[-94.0508,18.1878],[-94.0588,18.1911],[-94.0659,18.2003],[-94.087,18.2113],[-94.0984,18.2062],[-94.0942,18.1957],[-94.1003,18.1921],[-94.1173,18.1945],[-94.123,18.1926],[-94.1298,18.1987],[-94.13,18.2129],[-94.1254,18.2167],[-94.0238,18.246],[-93.8502,18.3006],[-93.8496,18.303],[-93.8505,18.2986],[-93.8477,18.2982],[-93.8459,18.299],[-93.8445,18.301],[-93.8462,18.3061],[-93.8097,18.3156],[-93.5855,18.3921],[-93.5266,18.4082],[-93.5262,18.4036],[-93.512,18.3994],[-93.5183,18.389],[-93.512,18.3849]]]}},{"type":"Feature","properties":{"cve_ent":"27","cve_mun":"003","cvegeo":"27003","nombre":"Centla"},"geometry":{"type":"Polygon","coordinates":[[[-92.3316,18.4603],[-92.3225,18.4574],[-92.3204,18.4514],[-92.3269,18.4498],[-92.3229,18.4371],[-92.3136,18.4275],[-92.3252,18.4209],[-92.3528,18.3946],[-92.3138,18.3742],[-92.3123,18.3764],[-92.3123,18.3671],[-92.308,18.3619],[-92.3043,18.3638],[-92.3041,18.3589],[-92.2985,18.3581],[-92.2989,18.3545],[-92.2921,18.3532],[-92.2954,18.3478],[-92.2723,18.3277],[-92.2963,18.3072],[-92.2609,18.3003],[-92.2549,18.3062],[-92.2463,18.2961],[-92.2579,18.2932],[-92.2438,18.2886],[-92.2375,18.3005],[-92.2228,18.2908],[-92.2184,18.2823],[-92.2231,18.2805],[-92.2146,18.2759],[-92.2188,18.2749],[-92.2161,18.2662],[-92.2355,18.2624],[-92.2649,18.2667],[-92.2811,18.2748],[-92.2954,18.2553],[-92.307,18.2575],[-92.3093,18.2612],[-92.3173,18.2569],[-92.3232,18.2459],[-92.3205,18.2404],[-92.316,18.2445],[-92.3133,18.2415],[-92.3159,18.239],[-92.3123,18.2358],[-92.321,18.2305],[-92.3315,18.2178],[-92.3167,18.2104],[-92.3148,18.213],[-92.313,18.2092],[-92.323,18.1862],[-92.3248,18.1723],[-92.318,18.1562],[-92.3,18.1523],[-92.2849,18.1385],[-92.2914,18.13],[-92.3199,18.1403],[-92.3223,18.1329],[-92.3305,18.1341],[-92.3334,18.1299],[-92.3394,18.13],[-92.3417,18.1238],[-92.348,18.1234],[-92.36,18.131],[-92.3715,18.133],[-92.3703,18.1435],[-92.3857,18.1603],[-92.4137,18.1565],[-92.4122,18.153],[-92.3994,18.1465],[-92.3985,18.1415],[-92.3941,18.1411],[-92.3935,18.1352],[-92.3957,18.1395],[-92.3972,18.134],[-92.3885,18.1283],[-92.441,18.0968],[-92.4633,18.1017],[-92.4616,18.1134],[-92.4918,18.1159],[-92.4909,18.123],[-92.4712,18.1179],[-92.4732,18.1261],[-92.4973,18.1461],[-92.5049,18.147],[-92.4998,18.1571],[-92.503,18.1685],[-92.5146,18.1675],[-92.5177,18.1709],[-92.5354,18.1616],[-92.5371,18.1555],[-92.5345,18.1479],[-92.5282,18.1471],[-92.5253,18.1419],[-92.5483,18.1038],[-92.5475,18.1],[-92.5536,18.0964],[-92.5498,18.0813],[-92.5314,18.0738],[-92.5298,18.0567],[-92.5357,18.0602],[-92.5334,18.067],[-92.5366,18.0733],[-92.543,18.0733],[-92.5498,18.0787],[-92.5547,18.0784],[-92.5561,18.0622],[-92.5659,18.0642],[-92.5953,18.0565],[-92.5979,18.0633],[-92.6089,18.0628],[-92.6074,18.0783],[-92.6241,18.0814],[-92.6225,18.1236],[-92.6187,18.1307],[-92.6301,18.1439],[-92.6311,18.1501],[-92.6375,18.1455],[-92.651,18.159],[-92.6588,18.1438],[-92.6699,18.1453],[-92.6687,18.1518],[-92.6742,18.1555],[-92.6729,18.1605],[-92.6784,18.1671],[-92.6712,18.1735],[-92.6697,18.1794],[-92.6725,18.1834],[-92.6786,18.1748],[-92.6957,18.1792],[-92.6958,18.1818],[-92.7047,18.1789],[-92.7313,18.1956],[-92.6943,18.2305],[-92.696,18.2419],[-92.6993,18.2423],[-92.6978,18.255],[-92.6889,18.2633],[-92.6772,18.2849],[-92.6751,18.2952],[-92.7176,18.302],[-92.7918,18.2549],[-92.8077,18.2898],[-92.8125,18.2923],[-92.8108,18.298],[-92.8193,18.31],[-92.8378,18.3266],[-92.8497,18.3225],[-92.8624,18.3275],[-92.8658,18.3318],[-92.8626,18.3379],[-92.869,18.3418],[-92.8857,18.3299],[-92.8865,18.3195],[-92.898,18.3293],[-92.9112,18.3334],[-92.9235,18.3469],[-92.9407,18.3494],[-92.949,18.3028],[-93.0196,18.3084],[-92.9974,18.4037],[-92.9984,18.4106],[-93.0197,18.4231],[-93.0352,18.4198],[-93.0484,18.4256],[-93.0669,18.4241],[-93.0969,18.4429],[-93.0509,18.4332],[-92.991,18.4322],[-92.9268,18.4376],[-92.8703,18.4515],[-92.8108,18.4783],[-92.7638,18.514],[-92.7226,18.5588],[-92.7029,18.5897],[-92.7017,18.6037],[-92.6916,18.618],[-92.6866,18.6193],[-92.6722,18.6114],[-92.6297,18.6145],[-92.5311,18.6334],[-92.4688,18.651],[-92.4651,18.6346],[-92.4657,18.6166],[-92.4519,18.6035],[-92.4492,18.5942],[-92.4262,18.557],[-92.4235,18.5322],[-92.4264,18.515],[-92.4129,18.4856],[-92.402,18.4795],[-92.3848,18.4781],[-92.3655,18.4646],[-92.3597,18.4569],[-92.3607,18.4468],[-92.3538,18.4423],[-92.3487,18.4431],[-92.3389,18.4565],[-92.3316,18.4603]]]}},{"type":"Feature","properties":{"cve_ent":"27","cve_mun":"004","cvegeo":"27004","nombre":"Centro"},"geometry":{"type":"Polygon","coordinates":[[[-92.6074,18.0783],[-92.6119,18.0622],[-92.6217,18.0562],[-92.6404,18.076],[-92.6701,18.0475],[-92.6627,18.0377],[-92.6454,18.0326],[-92.6464,18.0307],[-92.5953,18.022],[-92.5968,18.0069],[-92.5832,18.0076],[-92.5926,17.981],[-92.5889,17.9751],[-92.591,17.9714],[-92.6081,17.979],[-92.6065,17.9862],[-92.6148,17.9871],[-92.616,17.9776],[-92.6226,17.9731],[-92.6444,17.9681],[-92.6473,17.9712],[-92.65,17.9695],[-92.6475,17.9621],[-92.652,17.9558],[-92.6594,17.9545],[-92.6624,17.9599],[-92.668,17.9552],[-92.6613,17.9492],[-92.6724,17.9433],[-92.6672,17.9362],[-92.6683,17.932],[-92.6754,17.9309],[-92.6777,17.9274],[-92.7041,17.9297],[-92.7059,17.9213],[-92.7157,17.9227],[-92.718,17.9149],[-92.7277,17.9119],[-92.736,17.9141],[-92.7402,17.9019],[-92.7449,17.9023],[-92.7472,17.8942],[-92.7539,17.8905],[-92.7578,17.8834],[-92.7676,17.8862],[-92.7755,17.8837],[-92.7842,17.8911],[-92.7973,17.8888],[-92.8,17.8948],[-92.8058,17.8975],[-92.8093,17.8922],[-92.8194,17.8921],[-92.8222,17.8974],[-92.8367,17.8861],[-92.8318,17.8797],[-92.8353,17.8779],[-92.8359,17.8705],[-92.8396,17.8704],[-92.8401,17.8636],[-92.8453,17.8648],[-92.8467,17.8603],[-92.8518,17.86],[-92.8481,17.8445],[-92.8558,17.8437],[-92.8614,17.8326],[-92.8669,17.8352],[-92.8745,17.8307],[-92.8838,17.8081],[-92.8794,17.8048],[-92.8799,17.7941],[-92.8853,17.7945],[-92.8876,17.7899],[-92.8937,17.792],[-92.8957,17.7856],[-92.8932,17.7804],[-92.9013,17.7847],[-92.9114,17.8016],[-92.9187,17.802],[-92.922,17.7898],[-92.926,17.7969],[-92.9313,17.7957],[-92.9285,17.7848],[-92.9358,17.7832],[-92.9374,17.7751],[-92.9326,17.7718],[-92.9265,17.7585],[-92.923,17.7487],[-92.9239,17.7395],[-92.9488,17.7524],[-92.9832,17.7413],[-92.9862,17.7538],[-92.9954,17.738],[-92.9806,17.7342],[-92.9767,17.7182],[-92.9798,17.7137],[-92.9862,17.7125],[-93.0131,17.7309],[-92.9989,17.7484],[-93.01,17.7573],[-93.019,17.7548],[-93.0231,17.7608],[-93.0328,17.7626],[-93.0335,17.7702],[-93.0278,17.7716],[-93.0266,17.7764],[-93.0166,17.7844],[-93.0187,17.7907],[-93.012,17.7936],[-93.014,17.7949],[-93.0119,17.7977],[-93.0196,17.8031],[-93.0164,17.8081],[-93.0273,17.8203],[-93.0254,17.8254],[-93.0403,17.8409],[-93.0413,17.8383],[-93.0431,17.8426],[-93.0587,17.8442],[-93.0941,17.8412],[-93.1016,17.8458],[-93.1156,17.8222],[-93.129,17.8447],[-93.1318,17.8523],[-93.1236,17.8678],[-93.1236,17.8745],[-93.1143,17.8754],[-93.092,17.8866],[-93.0914,17.8976],[-93.105,17.9074],[-93.1291,17.9079],[-93.1369,17.9184],[-93.146,17.9199],[-93.1451,17.9324],[-93.1831,17.9403],[-93.192,17.9561],[-93.2007,17.9564],[-93.2074,17.9606],[-93.2142,17.9567],[-93.2296,17.9585],[-93.2402,17.9551],[-93.2509,17.9677],[-93.2428,17.9714],[-93.2427,17.9765],[-93.2371,17.9708],[-93.2241,17.9729],[-93.2214,17.9682],[-93.2135,17.9685],[-93.2184,17.9638],[-93.1898,17.9636],[-93.1857,17.9669],[-93.1958,17.9726],[-93.1791,17.9772],[-93.1638,17.9877],[-93.1689,17.992],[-93.1675,18.0026],[-93.1633,18.0062],[-93.1632,18.011],[-93.1588,18.0045],[-93.1588,18.0114],[-93.137,17.9894],[-93.1406,17.9842],[-93.1359,17.9843],[-93.1357,17.9786],[-93.1278,17.9782],[-93.1264,17.9742],[-93.1202,17.9775],[-93.1177,17.9729],[-93.1142,17.973],[-93.1162,17.968],[-93.1089,17.9707],[-93.1048,17.9674],[-93.1084,17.9758],[-93.1005,17.9738],[-93.0972,17.9768],[-93.0942,17.9744],[-93.0862,17.9774],[-93.0865,17.9828],[-93.0773,17.9898],[-93.055,17.9906],[-93.053,17.9953],[-93.056,18.002],[-93.0505,18.0141],[-93.0529,18.0181],[-93.0334,18.0241],[-93.0231,18.0338],[-93.0192,18.0261],[-93.0198,18.0483],[-93.0036,18.0495],[-92.9899,18.0435],[-92.9957,18.0388],[-92.9928,18.0345],[-92.9868,18.0339],[-92.9895,18.0235],[-92.985,18.0146],[-92.9868,18.0127],[-92.976,18.0073],[-92.9544,18.0139],[-92.9536,18.0219],[-92.943,18.0193],[-92.943,18.0367],[-92.9336,18.036],[-92.9336,18.033],[-92.9308,18.0352],[-92.9268,18.0269],[-92.9199,18.0276],[-92.9221,18.0354],[-92.9177,18.0375],[-92.914,18.0337],[-92.9111,18.0346],[-92.9113,18.0409],[-92.9063,18.042],[-92.9063,18.0466],[-92.9024,18.0475],[-92.899,18.0545],[-92.9027,18.061],[-92.9057,18.0571],[-92.9146,18.0582],[-92.9127,18.0778],[-92.8944,18.076],[-92.8917,18.0888],[-92.8957,18.1007],[-92.8857,18.1123],[-92.8901,18.1185],[-92.885,18.1231],[-92.8816,18.1343],[-92.8816,18.1486],[-92.8644,18.1584],[-92.8739,18.168],[-92.8647,18.1713],[-92.8766,18.1733],[-92.8474,18.2012],[-92.8541,18.2023],[-92.8545,18.2172],[-92.8488,18.219],[-92.8418,18.2286],[-92.8297,18.2364],[-92.834,18.2399],[-92.8338,18.2505],[-92.8456,18.2513],[-92.8491,18.2623],[-92.8462,18.2734],[-92.8544,18.2918],[-92.8581,18.2945],[-92.8643,18.2929],[-92.8642,18.3002],[-92.8815,18.3073],[-92.8803,18.3114],[-92.8865,18.3195],[-92.8857,18.3299],[-92.8707,18.3417],[-92.8626,18.3379],[-92.8658,18.3318],[-92.8624,18.3275],[-92.8497,18.3225],[-92.8378,18.3266],[-92.8193,18.31],[-92.8108,18.298],[-92.8125,18.2923],[-92.8077,18.2898],[-92.7918,18.2549],[-92.7176,18.302],[-92.6751,18.2952],[-92.6772,18.2849],[-92.6889,18.2633],[-92.6978,18.255],[-92.6993,18.2423],[-92.696,18.2419],[-92.6943,18.2305],[-92.7313,18.1956],[-92.7047,18.1789],[-92.6958,18.1818],[-92.6957,18.1792],[-92.6786,18.1748],[-92.6725,18.1834],[-92.6697,18.1794],[-92.6712,18.1735],[-92.6784,18.1671],[-92.6729,18.1605],[-92.6742,18.1555],[-92.6687,18.1518],[-92.6699,18.1453],[-92.6588,18.1438],[-92.651,18.159],[-92.6375,18.1455],[-92.6311,18.1501],[-92.6301,18.1439],[-92.6187,18.1307],[-92.6225,18.1236],[-92.6241,18.0814],[-92.6074,18.0783]]]}},{"type":"Feature","properties":{"cve_ent":"27","cve_mun":"005","cvegeo":"27005","nombre":"Comalcalco"},"geometry":{"type":"Polygon","coordinates":[[[-93.1103,18.2746],[-93.108,18.2629],[-93.0957,18.2615],[-93.1054,18.2349],[-93.112,18.2363],[-93.124,18.2277],[-93.1313,18.2141],[-93.1427,18.2284],[-93.1423,18.2239],[-93.1571,18.2203],[-93.1569,18.2155],[-93.1633,18.2147],[-93.1653,18.2191],[-93.1621,18.2195],[-93.159,18.226],[-93.1714,18.2257],[-93.1824,18.2129],[-93.1892,18.2119],[-93.1903,18.2078],[-93.1962,18.2083],[-93.1936,18.1974],[-93.207,18.1859],[-93.2144,18.1689],[-93.2195,18.1714],[-93.2346,18.1512],[-93.2433,18.1565],[-93.2539,18.1693],[-93.2626,18.1657],[-93.2656,18.1588],[-93.2763,18.1726],[-93.2737,18.181],[-93.2782,18.1794],[-93.2859,18.1857],[-93.294,18.1859],[-93.3157,18.1706],[-93.3129,18.1822],[-93.3203,18.1845],[-93.3154,18.1977],[-93.3224,18.2078],[-93.3232,18.2158],[-93.3338,18.2258],[-93.3386,18.2237],[-93.3394,18.2181],[-93.3456,18.2146],[-93.3556,18.199],[-93.3649,18.1991],[-93.372,18.194],[-93.3746,18.1849],[-93.3715,18.1815],[-93.3799,18.1791],[-93.3799,18.1747],[-93.397,18.152],[-93.4084,18.1548],[-93.4127,18.1588],[-93.4107,18.169],[-93.4163,18.1718],[-93.4206,18.1676],[-93.421,18.1908],[-93.44,18.1842],[-93.4395,18.1865],[-93.4518,18.1945],[-93.4526,18.1964],[-93.4482,18.1959],[-93.4481,18.2011],[-93.4621,18.199],[-93.4674,18.2076],[-93.472,18.204],[-93.4788,18.211],[-93.472,18.2177],[-93.4766,18.2253],[-93.4693,18.2332],[-93.4834,18.2453],[-93.4796,18.2471],[-93.4853,18.2614],[-93.4745,18.2631],[-93.4721,18.2779],[-93.4753,18.2778],[-93.4758,18.2815],[-93.4852,18.2875],[-93.4857,18.3071],[-93.492,18.3119],[-93.4978,18.309],[-93.5086,18.3273],[-93.5107,18.3365],[-93.5174,18.3338],[-93.5219,18.3432],[-93.5281,18.3434],[-93.5185,18.3804],[-93.5214,18.3809],[-93.5016,18.3925],[-93.4983,18.4063],[-93.493,18.41],[-93.4765,18.4015],[-93.473,18.3921],[-93.46,18.3825],[-93.435,18.397],[-93.437,18.4102],[-93.4402,18.41],[-93.4363,18.4119],[-93.4336,18.4192],[-93.4405,18.4191],[-93.4451,18.4132],[-93.4482,18.4162],[-93.4435,18.4198],[-93.4313,18.4216],[-93.4323,18.4271],[-93.4269,18.4279],[-93.428,18.4252],[-93.4247,18.4249],[-93.4234,18.4276],[-93.4262,18.4212],[-93.4133,18.4167],[-93.3976,18.424],[-93.3805,18.4243],[-93.3821,18.4209],[-93.3719,18.4202],[-93.3673,18.4245],[-93.3588,18.4236],[-93.3543,18.4286],[-93.3514,18.4221],[-93.3335,18.4119],[-93.322,18.4124],[-93.306,18.3916],[-93.2961,18.3887],[-93.2929,18.3838],[-93.2942,18.3793],[-93.2885,18.3795],[-93.2933,18.3716],[-93.2878,18.3729],[-93.2831,18.3699],[-93.2864,18.3651],[-93.2793,18.3571],[-93.2875,18.3526],[-93.2799,18.3455],[-93.2852,18.3379],[-93.2781,18.337],[-93.2789,18.3254],[-93.2749,18.3221],[-93.2756,18.3186],[-93.2794,18.3211],[-93.2919,18.3153],[-93.293,18.3222],[-93.3008,18.3322],[-93.3057,18.3286],[-93.3086,18.3196],[-93.3068,18.3173],[-93.3019,18.3219],[-93.2986,18.3213],[-93.2971,18.3068],[-93.2925,18.3048],[-93.2668,18.3069],[-93.271,18.3215],[-93.2617,18.3199],[-93.2557,18.3154],[-93.254,18.3191],[-93.2412,18.3188],[-93.2404,18.3215],[-93.23,18.3191],[-93.2224,18.3236],[-93.2287,18.3306],[-93.2203,18.3305],[-93.2168,18.3219],[-93.2142,18.3235],[-93.2115,18.3204],[-93.2006,18.3251],[-93.1723,18.3195],[-93.1561,18.3004],[-93.1583,18.2934],[-93.154,18.2847],[-93.1438,18.2771],[-93.1378,18.2767],[-93.1388,18.2742],[-93.1306,18.2716],[-93.1238,18.276],[-93.1204,18.2724],[-93.1161,18.2756],[-93.1103,18.2746]]]}},{"type":"Feature","properties":{"cve_ent":"27","cve_mun":"006","cvegeo":"27006","nombre":"Cunduacán"},"geometry":{"type":"Polygon","coordinates":[[[-93.22,18.1709],[-93.209,18.1599],[-93.2025,18.1601],[-93.2027,18.1534],[-93.1987,18.1521],[-93.1854,18.1586],[-93.1831,18.1529],[-93.1799,18.1542],[-93.1773,18.1501],[-93.1625,18.1517],[-93.1536,18.1572],[-93.1537,18.1521],[-93.1382,18.1486],[-93.1288,18.1385],[-93.1247,18.1414],[-93.1246,18.1335],[-93.1196,18.1325],[-93.1229,18.1318],[-93.12,18.1282],[-93.1252,18.1174],[-93.129,18.1108],[-93.1494,18.0962],[-93.1481,18.092],[-93.1379,18.0928],[-93.1365,18.0817],[-93.1161,18.0886],[-93.1011,18.0893],[-93.0938,18.0882],[-93.0896,18.0818],[-93.0819,18.0829],[-93.0873,18.0859],[-93.086,18.0879],[-93.0558,18.0713],[-93.0498,18.0732],[-93.0454,18.0691],[-93.0357,18.0719],[-93.0264,18.0678],[-93.0306,18.0598],[-93.0245,18.0588],[-93.0255,18.0504],[-93.0299,18.0443],[-93.0231,18.0338],[-93.0334,18.0241],[-93.0529,18.0181],[-93.0505,18.0141],[-93.056,18.002],[-93.053,17.9953],[-93.055,17.9906],[-93.0773,17.9898],[-93.0865,17.9828],[-93.0862,17.9774],[-93.0942,17.9744],[-93.0972,17.9768],[-93.1005,17.9738],[-93.1084,17.9758],[-93.1042,17.9678],[-93.1089,17.9707],[-93.1162,17.968],[-93.1142,17.973],[-93.1177,17.9729],[-93.1202,17.9775],[-93.1264,17.9742],[-93.1278,17.9782],[-93.1357,17.9786],[-93.1359,17.9843],[-93.1406,17.9842],[-93.1363,17.987],[-93.1371,17.9896],[-93.1478,17.9976],[-93.1559,18.0106],[-93.1601,18.011],[-93.1598,18.0041],[-93.1632,18.011],[-93.169,17.9925],[-93.1638,17.9877],[-93.1791,17.9772],[-93.1958,17.9726],[-93.1857,17.9669],[-93.1898,17.9636],[-93.2184,17.9638],[-93.2135,17.9685],[-93.2214,17.9682],[-93.2241,17.9729],[-93.2371,17.9708],[-93.2441,17.9761],[-93.2428,17.9714],[-93.2509,17.9677],[-93.2402,17.9551],[-93.2296,17.9585],[-93.2185,17.956],[-93.231,17.9488],[-93.2409,17.9501],[-93.2453,17.9601],[-93.2567,17.963],[-93.2737,17.9823],[-93.278,17.9824],[-93.2783,17.9853],[-93.2813,17.9815],[-93.291,17.9842],[-93.2869,17.9991],[-93.3038,17.9991],[-93.3081,18.0138],[-93.3191,18.0202],[-93.3179,18.0264],[-93.3275,18.0233],[-93.3307,18.0256],[-93.3266,18.0331],[-93.3281,18.0357],[-93.3118,18.0385],[-93.3225,18.0529],[-93.3284,18.0503],[-93.3299,18.0594],[-93.3371,18.0623],[-93.3455,18.0537],[-93.3481,18.0563],[-93.336,18.0652],[-93.326,18.0675],[-93.3189,18.0653],[-93.3292,18.0798],[-93.3248,18.0844],[-93.3351,18.0975],[-93.3406,18.0926],[-93.3458,18.0976],[-93.3505,18.0904],[-93.3736,18.1171],[-93.4042,18.1274],[-93.4039,18.1365],[-93.4001,18.1415],[-93.4023,18.1502],[-93.4084,18.1548],[-93.397,18.152],[-93.3799,18.1747],[-93.3799,18.1791],[-93.3715,18.1815],[-93.3746,18.1849],[-93.372,18.194],[-93.3649,18.1991],[-93.3556,18.199],[-93.3456,18.2146],[-93.3394,18.2181],[-93.3386,18.2237],[-93.3338,18.2258],[-93.3232,18.2158],[-93.3224,18.2078],[-93.3154,18.1977],[-93.3203,18.1845],[-93.3129,18.1822],[-93.3157,18.1706],[-93.294,18.1859],[-93.2859,18.1857],[-93.2782,18.1794],[-93.2737,18.181],[-93.2763,18.1726],[-93.2656,18.1588],[-93.2626,18.1657],[-93.2539,18.1693],[-93.2433,18.1565],[-93.2346,18.1512],[-93.22,18.1709]]]}},{"type":"Feature","properties":{"cve_ent":"27","cve_mun":"007","cvegeo":"27007","nombre":"Emiliano Zapata"},"geometry":{"type":"Polygon","coordinates":[[[-91.7605,17.9576],[-91.7251,17.9245],[-91.7124,17.9216],[-91.7128,17.9189],[-91.6719,17.8947],[-91.6807,17.876],[-91.6751,17.8726],[-91.6855,17.8623],[-91.6785,17.8545],[-91.684,17.8505],[-91.6788,17.8438],[-91.6917,17.8345],[-91.6863,17.8305],[-91.7102,17.786],[-91.7127,17.7861],[-91.7128,17.7651],[-91.6986,17.747],[-91.7105,17.7432],[-91.709,17.7143],[-91.6809,17.7093],[-91.6726,17.7164],[-91.6718,17.7287],[-91.6601,17.7388],[-91.6295,17.7237],[-91.618,17.7266],[-91.6164,17.7335],[-91.6209,17.7412],[-91.6521,17.7544],[-91.6553,17.7574],[-91.654,17.7615],[-91.6253,17.7598],[-91.6174,17.7659],[-91.5984,17.7616],[-91.5706,17.7618],[-91.5722,17.7419],[-91.5695,17.732],[-91.5634,17.7266],[-91.5689,17.7252],[-91.5667,17.7127],[-91.5705,17.7127],[-91.5742,17.7024],[-91.562,17.6991],[-91.5637,17.6889],[-91.5728,17.684],[-91.5697,17.6571],[-91.5718,17.6493],[-91.5659,17.6382],[-91.5661,17.6299],[-91.5541,17.6186],[-91.5627,17.5957],[-91.5743,17.5948],[-91.5731,17.5826],[-91.5766,17.5815],[-91.5847,17.5683],[-91.5754,17.5576],[-91.5789,17.5531],[-91.576,17.5474],[-91.5774,17.5435],[-91.5651,17.4914],[-91.5786,17.4888],[-91.5833,17.4746],[-91.5885,17.4759],[-91.5981,17.4552],[-91.5958,17.4409],[-91.6025,17.4331],[-91.6202,17.4317],[-91.6349,17.4365],[-91.6373,17.43],[-91.6433,17.431],[-91.672,17.4441],[-91.6652,17.4617],[-91.7003,17.4678],[-91.6921,17.467],[-91.6899,17.4751],[-91.6819,17.4694],[-91.6768,17.4759],[-91.6746,17.4715],[-91.6709,17.4745],[-91.6726,17.4781],[-91.6702,17.4764],[-91.6669,17.4821],[-91.6628,17.4798],[-91.661,17.4874],[-91.6577,17.4867],[-91.6572,17.4913],[-91.6522,17.4922],[-91.6545,17.4967],[-91.6501,17.4957],[-91.6524,17.5004],[-91.6473,17.504],[-91.6499,17.5058],[-91.6466,17.5091],[-91.6491,17.5178],[-91.6418,17.5189],[-91.6425,17.529],[-91.6392,17.5296],[-91.6401,17.5331],[-91.6343,17.5346],[-91.6392,17.5416],[-91.6357,17.5427],[-91.6358,17.5474],[-91.6379,17.5471],[-91.6348,17.5505],[-91.641,17.558],[-91.6388,17.5815],[-91.6471,17.5902],[-91.6443,17.5915],[-91.6471,17.5924],[-91.6446,17.5957],[-91.6477,17.5942],[-91.6531,17.5987],[-91.6529,17.6032],[-91.6569,17.604],[-91.6636,17.6122],[-91.6568,17.6122],[-91.657,17.6153],[-91.6508,17.6173],[-91.6522,17.6198],[-91.6467,17.6179],[-91.6446,17.6219],[-91.657,17.6254],[-91.6599,17.6304],[-91.6549,17.6305],[-91.6581,17.6345],[-91.6544,17.634],[-91.6562,17.636],[-91.6528,17.6386],[-91.6559,17.6419],[-91.6588,17.6397],[-91.6567,17.6456],[-91.6553,17.643],[-91.6541,17.6452],[-91.6565,17.6495],[-91.6598,17.6492],[-91.6587,17.6565],[-91.6632,17.658],[-91.6606,17.6603],[-91.6636,17.6622],[-91.6604,17.6655],[-91.6643,17.6667],[-91.659,17.6659],[-91.6547,17.6762],[-91.6585,17.6748],[-91.6657,17.68],[-91.6658,17.6835],[-91.673,17.6835],[-91.6814,17.6701],[-91.683,17.6756],[-91.6937,17.685],[-91.6991,17.6828],[-91.6967,17.6796],[-91.701,17.6789],[-91.701,17.6897],[-91.704,17.6922],[-91.7082,17.6881],[-91.7171,17.6877],[-91.7146,17.695],[-91.7185,17.6948],[-91.7175,17.6984],[-91.7192,17.6933],[-91.7248,17.6921],[-91.7333,17.6966],[-91.7379,17.7054],[-91.7414,17.7058],[-91.7386,17.7069],[-91.7388,17.7108],[-91.7482,17.7002],[-91.7539,17.7053],[-91.7679,17.7031],[-91.7766,17.7154],[-91.776,17.7092],[-91.7805,17.7078],[-91.7865,17.719],[-91.8184,17.7274],[-91.8307,17.7377],[-91.8103,17.7513],[-91.7984,17.7442],[-91.7902,17.746],[-91.7912,17.7565],[-91.7886,17.7565],[-91.7823,17.7825],[-91.7822,17.792],[-91.7924,17.8245],[-91.7904,17.8354],[-91.7797,17.8513],[-91.8044,17.8689],[-91.8093,17.8968],[-91.8145,17.9005],[-91.7855,17.9234],[-91.768,17.9485],[-91.7623,17.939],[-91.7571,17.9397],[-91.7614,17.946],[-91.7605,17.9576]]]}},{"type":"Feature","properties":{"cve_ent":"27","cve_mun":"008","cvegeo":"27008","nombre":"Huimanguillo"},"geometry":{"type":"Polygon","coordinates":[[[-93.2982,17.9474],[-93.2955,17.9412],[-93.3124,17.9313],[-93.3271,17.9281],[-93.3362,17.9366],[-93.3409,17.9303],[-93.336,17.905],[-93.3413,17.9031],[-93.3506,17.8761],[-93.3497,17.868],[-93.3343,17.8517],[-93.3353,17.8462],[-93.341,17.8432],[-93.3395,17.8357],[-93.3493,17.8154],[-93.3406,17.7981],[-93.3521,17.7954],[-93.3666,17.8029],[-93.3655,17.7996],[-93.3705,17.794],[-93.3764,17.7959],[-93.3809,17.7832],[-93.3796,17.7806],[-93.3644,17.7791],[-93.3585,17.7884],[-93.3431,17.7875],[-93.3491,17.7671],[-93.3528,17.7637],[-93.3754,17.7668],[-93.3773,17.7715],[-93.3811,17.7745],[-93.3844,17.7731],[-93.3866,17.7776],[-93.3905,17.7734],[-93.3816,17.7485],[-93.3698,17.7374],[-93.3739,17.733],[-93.3695,17.733],[-93.3681,17.7276],[-93.3626,17.7287],[-93.364,17.7235],[-93.3601,17.7225],[-93.3543,17.7129],[-93.3565,17.7106],[-93.3529,17.7058],[-93.3558,17.6998],[-93.3532,17.6968],[-93.3567,17.6872],[-93.3538,17.6811],[-93.3605,17.6649],[-93.3563,17.648],[-93.3848,17.6444],[-93.385,17.6342],[-93.3966,17.6296],[-93.4096,17.6193],[-93.4205,17.59],[-93.4459,17.586],[-93.4517,17.5465],[-93.4586,17.5456],[-93.473,17.5535],[-93.4841,17.5499],[-93.4943,17.5313],[-93.4956,17.5227],[-93.4988,17.5222],[-93.5025,17.4995],[-93.5076,17.5014],[-93.505,17.4954],[-93.5086,17.4961],[-93.5092,17.4905],[-93.5149,17.4903],[-93.506,17.4773],[-93.5098,17.474],[-93.5071,17.4665],[-93.5116,17.4595],[-93.511,17.4484],[-93.5152,17.4405],[-93.5244,17.4329],[-93.526,17.4268],[-93.6079,17.3149],[-93.6244,17.3225],[-93.6274,17.3128],[-93.6359,17.3144],[-93.6415,17.318],[-93.6454,17.3291],[-93.635,17.3377],[-93.6857,17.3724],[-93.6831,17.3764],[-93.6901,17.3795],[-93.6949,17.3878],[-93.6835,17.3956],[-93.6837,17.4045],[-93.679,17.411],[-93.6734,17.4123],[-93.673,17.4199],[-93.6671,17.42],[-93.6657,17.416],[-93.6631,17.4197],[-93.6576,17.4169],[-93.6529,17.4196],[-93.6493,17.4325],[-93.6456,17.4303],[-93.6382,17.4361],[-93.6372,17.4391],[-93.6452,17.4424],[-93.6413,17.4491],[-93.6351,17.4512],[-93.6366,17.4553],[-93.6425,17.4561],[-93.6442,17.4522],[-93.6469,17.4542],[-93.6446,17.4586],[-93.6504,17.4589],[-93.6477,17.4617],[-93.6393,17.4596],[-93.64,17.4646],[-93.6357,17.4681],[-93.637,17.4739],[-93.6312,17.4869],[-93.6241,17.4935],[-93.6299,17.5009],[-93.6255,17.501],[-93.6261,17.5044],[-93.6373,17.5098],[-93.625,17.5146],[-93.6273,17.5317],[-93.6247,17.5383],[-93.6196,17.5376],[-93.6182,17.5421],[-93.6215,17.5448],[-93.6136,17.5525],[-93.6175,17.5552],[-93.6245,17.5489],[-93.6295,17.5494],[-93.6311,17.5567],[-93.6383,17.5553],[-93.6424,17.5581],[-93.6485,17.5553],[-93.6537,17.56],[-93.6567,17.5553],[-93.6592,17.5655],[-93.6712,17.5696],[-93.6711,17.5763],[-93.6773,17.5758],[-93.6808,17.5849],[-93.6776,17.5859],[-93.6854,17.5871],[-93.6872,17.5937],[-93.6932,17.5935],[-93.6933,17.5896],[-93.6995,17.596],[-93.6997,17.6137],[-93.7041,17.6103],[-93.7097,17.6116],[-93.7085,17.6234],[-93.7132,17.6307],[-93.7192,17.6335],[-93.7121,17.6238],[-93.7147,17.6209],[-93.7234,17.6232],[-93.7291,17.6299],[-93.7329,17.6258],[-93.731,17.6358],[-93.7353,17.6301],[-93.738,17.635],[-93.73,17.6413],[-93.7327,17.6492],[-93.7374,17.6517],[-93.7409,17.6494],[-93.7425,17.6571],[-93.7466,17.6601],[-93.7411,17.6648],[-93.7424,17.6665],[-93.7456,17.6622],[-93.7471,17.6684],[-93.7385,17.6794],[-93.7478,17.6754],[-93.7491,17.6792],[-93.7518,17.6766],[-93.7532,17.6802],[-93.7567,17.6769],[-93.7565,17.6826],[-93.7518,17.684],[-93.7598,17.6851],[-93.7654,17.6805],[-93.765,17.6746],[-93.7682,17.688],[-93.7729,17.6877],[-93.7726,17.6927],[-93.7761,17.6903],[-93.7783,17.6924],[-93.7805,17.6887],[-93.7812,17.6932],[-93.7848,17.6909],[-93.7911,17.6947],[-93.7978,17.6922],[-93.7963,17.6899],[-93.7989,17.6874],[-93.8052,17.6894],[-93.807,17.7059],[-93.8126,17.7025],[-93.8125,17.7069],[-93.8223,17.6996],[-93.826,17.706],[-93.8235,17.7094],[-93.8286,17.7129],[-93.8266,17.7192],[-93.8305,17.7137],[-93.8349,17.7165],[-93.8374,17.7136],[-93.8399,17.7149],[-93.8388,17.7115],[-93.843,17.7114],[-93.8459,17.7172],[-93.847,17.7141],[-93.8504,17.7167],[-93.8486,17.7207],[-93.8593,17.7169],[-93.8587,17.7209],[-93.865,17.7222],[-93.8692,17.718],[-93.8646,17.7167],[-93.87,17.7135],[-93.8744,17.7179],[-93.8759,17.7265],[-93.8775,17.7244],[-93.8807,17.7263],[-93.8762,17.7333],[-93.8837,17.7355],[-93.8782,17.7375],[-93.8738,17.7347],[-93.8743,17.7399],[-93.8696,17.7393],[-93.8747,17.7472],[-93.87,17.7506],[-93.8742,17.7553],[-93.8774,17.7536],[-93.877,17.7566],[-93.8812,17.7513],[-93.8853,17.7572],[-93.8867,17.751],[-93.8913,17.7481],[-93.8939,17.7496],[-93.8907,17.7511],[-93.8922,17.7537],[-93.9011,17.7557],[-93.9043,17.7501],[-93.9101,17.7547],[-93.9223,17.7463],[-93.9271,17.7481],[-93.9246,17.7509],[-93.9291,17.7533],[-93.9401,17.7532],[-93.9414,17.7556],[-93.9353,17.7591],[-93.9411,17.7598],[-93.9408,17.7651],[-93.9495,17.7695],[-93.9561,17.7817],[-93.9529,17.7867],[-93.9553,17.7996],[-93.9506,17.8004],[-93.9577,17.8024],[-93.9606,17.7983],[-93.9632,17.7995],[-93.9568,17.8106],[-93.968,17.8179],[-93.9583,17.8197],[-93.965,17.83],[-93.9584,17.8302],[-93.9574,17.8253],[-93.956,17.8334],[-93.9598,17.8373],[-93.9629,17.8343],[-93.9679,17.837],[-93.9656,17.8414],[-93.9678,17.8453],[-93.9732,17.8423],[-93.9759,17.8504],[-93.9846,17.8516],[-93.9862,17.8471],[-93.9812,17.846],[-93.9832,17.8399],[-93.9882,17.8447],[-93.9879,17.8344],[-93.9946,17.846],[-93.9976,17.8395],[-93.9939,17.8395],[-93.9956,17.8366],[-94.003,17.8423],[-94.0062,17.84],[-94.0163,17.8445],[-94.017,17.8396],[-94.0259,17.8404],[-94.023,17.8463],[-94.0294,17.8457],[-94.0327,17.8621],[-94.0375,17.8627],[-94.038,17.87],[-94.0332,17.8726],[-94.0429,17.8735],[-94.0429,17.8674],[-94.052,17.8707],[-94.0626,17.8631],[-94.0651,17.8685],[-94.0723,17.8656],[-94.0834,17.8699],[-94.0829,17.8858],[-94.0793,17.891],[-94.0851,17.8929],[-94.0818,17.8999],[-94.088,17.9065],[-94.085,17.9155],[-94.0913,17.9366],[-94.0871,17.9584],[-94.092,17.9619],[-94.0889,17.9706],[-94.0807,17.9683],[-94.0825,17.978],[-94.0735,17.9878],[-94.0685,17.9796],[-94.0614,17.9881],[-94.067,17.9925],[-94.0642,18.0023],[-94.0665,18.0094],[-94.0727,18.0101],[-94.0812,18.0045],[-94.0837,18.0065],[-94.0799,18.0223],[-94.0836,18.0339],[-94.0744,18.0586],[-94.0972,18.0786],[-94.0959,18.0835],[-94.0831,18.0908],[-94.0811,18.0958],[-94.0834,18.1024],[-94.0966,18.1125],[-94.1004,18.1259],[-94.0947,18.1607],[-94.0999,18.1711],[-94.1047,18.174],[-94.1189,18.1654],[-94.1256,18.1667],[-94.1292,18.1751],[-94.1298,18.1987],[-94.123,18.1926],[-94.1173,18.1945],[-94.1003,18.1921],[-94.0942,18.1957],[-94.0984,18.2062],[-94.087,18.2113],[-94.0659,18.2003],[-94.0588,18.1911],[-94.0508,18.1878],[-94.0466,18.1907],[-94.0395,18.1874],[-94.0435,18.1948],[-94.0358,18.1944],[-94.0265,18.1996],[-94.0208,18.1939],[-94.0138,18.1992],[-94.0098,18.1921],[-94.0121,18.1901],[-93.9961,18.193],[-93.9892,18.1732],[-93.9904,18.1605],[-94.028,18.1412],[-94.024,18.1406],[-94.025,18.1324],[-94.0189,18.1204],[-94.0081,18.1215],[-93.9923,18.1381],[-93.9741,18.1463],[-93.9566,18.1513],[-93.956,18.1405],[-93.9105,18.1551],[-93.9023,18.1187],[-93.8918,18.1164],[-93.8973,18.1129],[-93.8868,18.094],[-93.8776,18.1006],[-93.8584,18.0921],[-93.8497,18.0962],[-93.8458,18.1063],[-93.8359,18.1042],[-93.8365,18.1001],[-93.8332,18.0988],[-93.8271,18.0986],[-93.8234,18.1041],[-93.8187,18.1051],[-93.8019,18.0923],[-93.7591,18.0866],[-93.7431,18.0777],[-93.7485,18.0603],[-93.7307,18.057],[-93.7308,18.0894],[-93.6864,18.0896],[-93.6883,18.0818],[-93.6834,18.0674],[-93.6834,18.0443],[-93.608,18.0444],[-93.6078,17.9974],[-93.6319,17.9974],[-93.6206,17.9879],[-93.589,17.9826],[-93.5887,17.9545],[-93.5624,17.9561],[-93.5452,17.9503],[-93.5414,17.9529],[-93.542,17.9673],[-93.5361,17.9698],[-93.5326,17.9762],[-93.5311,17.9722],[-93.5272,17.9758],[-93.5242,17.9722],[-93.5235,17.9757],[-93.5217,17.9722],[-93.52,17.9746],[-93.52,17.9722],[-93.514,17.9743],[-93.5087,17.9722],[-93.5085,17.975],[-93.508,17.9723],[-93.5071,17.9745],[-93.4945,17.9747],[-93.4866,17.9722],[-93.4866,17.9748],[-93.482,17.972],[-93.4756,17.9718],[-93.4753,17.9745],[-93.4538,17.9722],[-93.4538,17.9747],[-93.4501,17.9722],[-93.4495,17.9744],[-93.4488,17.9721],[-93.4482,17.9743],[-93.4315,17.9723],[-93.4332,17.9751],[-93.4217,17.9723],[-93.4206,17.9763],[-93.419,17.9736],[-93.3904,17.9832],[-93.387,17.9829],[-93.3682,17.9498],[-93.368,17.945],[-93.3813,17.945],[-93.3809,17.9423],[-93.3672,17.9413],[-93.366,17.9308],[-93.3617,17.9304],[-93.3584,17.9428],[-93.3511,17.9387],[-93.3437,17.9487],[-93.336,17.9532],[-93.3234,17.9529],[-93.316,17.9476],[-93.2982,17.9474]]]}},{"type":"Feature","properties":{"cve_ent":"27","cve_mun":"009","cvegeo":"27009","nombre":"Jalapa"},"geometry":{"type":"Polygon","coordinates":[[[-92.718,17.9149],[-92.7135,17.9063],[-92.7077,17.9054],[-92.7093,17.8948],[-92.6929,17.8938],[-92.6942,17.8755],[-92.6905,17.8711],[-92.685,17.8748],[-92.6778,17.8687],[-92.6778,17.8661],[-92.684,17.864],[-92.6821,17.86],[-92.6783,17.8596],[-92.6821,17.8562],[-92.6731,17.8511],[-92.6767,17.8431],[-92.684,17.8494],[-92.6945,17.8398],[-92.6845,17.8369],[-92.6867,17.8246],[-92.6791,17.8198],[-92.6809,17.8146],[-92.6771,17.8109],[-92.6815,17.8098],[-92.6845,17.8014],[-92.6802,17.8],[-92.6814,17.7897],[-92.6772,17.79],[-92.6734,17.7969],[-92.6684,17.7915],[-92.6694,17.784],[-92.6791,17.7794],[-92.6717,17.7735],[-92.6723,17.7704],[-92.6762,17.7706],[-92.6773,17.7633],[-92.682,17.7626],[-92.6814,17.7649],[-92.6863,17.7661],[-92.691,17.7616],[-92.6844,17.7526],[-92.6856,17.7476],[-92.6831,17.7457],[-92.6857,17.7401],[-92.6817,17.7381],[-92.6829,17.7249],[-92.6884,17.7209],[-92.6913,17.7243],[-92.6952,17.7189],[-92.6922,17.7177],[-92.6947,17.708],[-92.6896,17.7047],[-92.6969,17.7029],[-92.6943,17.6975],[-92.7,17.6976],[-92.7036,17.6887],[-92.6926,17.6795],[-92.692,17.6735],[-92.6865,17.6685],[-92.6881,17.6621],[-92.6832,17.6526],[-92.6858,17.6495],[-92.7184,17.6532],[-92.7189,17.6419],[-92.7286,17.6419],[-92.7287,17.6338],[-92.7376,17.6389],[-92.7372,17.6443],[-92.7463,17.645],[-92.7469,17.6401],[-92.7563,17.6313],[-92.7636,17.6323],[-92.7614,17.626],[-92.7885,17.6394],[-92.7884,17.6473],[-92.7925,17.648],[-92.8149,17.6388],[-92.8102,17.6454],[-92.8223,17.6391],[-92.8337,17.6404],[-92.8365,17.6457],[-92.8392,17.6347],[-92.8713,17.6385],[-92.8759,17.6607],[-92.8742,17.6731],[-92.8841,17.6742],[-92.8896,17.6852],[-92.9057,17.6917],[-92.9021,17.6959],[-92.9054,17.6979],[-92.9029,17.7057],[-92.9079,17.7231],[-92.9129,17.7296],[-92.9143,17.7421],[-92.8962,17.7437],[-92.8928,17.7415],[-92.8893,17.7612],[-92.909,17.7627],[-92.9111,17.7685],[-92.9122,17.763],[-92.918,17.7616],[-92.9173,17.7582],[-92.9267,17.7562],[-92.9324,17.7716],[-92.9374,17.7751],[-92.9358,17.7832],[-92.9285,17.7848],[-92.9313,17.7957],[-92.926,17.7969],[-92.922,17.7898],[-92.9187,17.802],[-92.9114,17.8016],[-92.9013,17.7847],[-92.8932,17.7804],[-92.8957,17.7856],[-92.8937,17.792],[-92.8876,17.7899],[-92.8853,17.7945],[-92.8799,17.7941],[-92.8794,17.8048],[-92.8838,17.8081],[-92.8745,17.8307],[-92.8669,17.8352],[-92.8614,17.8326],[-92.8558,17.8437],[-92.8481,17.8445],[-92.8518,17.86],[-92.8467,17.8603],[-92.8453,17.8648],[-92.8401,17.8636],[-92.8396,17.8704],[-92.8359,17.8705],[-92.8353,17.8779],[-92.8318,17.8797],[-92.8367,17.8861],[-92.8222,17.8974],[-92.8194,17.8921],[-92.8093,17.8922],[-92.8058,17.8975],[-92.8,17.8948],[-92.7973,17.8888],[-92.7842,17.8911],[-92.7755,17.8837],[-92.7676,17.8862],[-92.7578,17.8834],[-92.7539,17.8905],[-92.7472,17.8942],[-92.7449,17.9023],[-92.7402,17.9019],[-92.7379,17.9127],[-92.718,17.9149]]]}},{"type":"Feature","properties":{"cve_ent":"27","cve_mun":"010","cvegeo":"27010","nombre":"Jalpa de Méndez"},"geometry":{"type":"Polygon","coordinates":[[[-92.9989,18.4027],[-93.0173,18.3196],[-93.0319,18.3155],[-93.0288,18.2869],[-93.0372,18.2774],[-93.0331,18.2652],[-93.0394,18.2592],[-93.0303,18.247],[-93.0508,18.2412],[-93.0529,18.2292],[-93.0576,18.227],[-93.0621,18.2293],[-93.0512,18.2142],[-93.0452,18.1992],[-93.0327,18.2018],[-93.0297,18.1836],[-93.0348,18.1847],[-93.0399,18.1769],[-93.0249,18.1761],[-93.0276,18.1671],[-93.0315,18.166],[-93.0345,18.1566],[-93.0392,18.1561],[-93.0392,18.1536],[-93.0295,18.151],[-93.0305,18.1459],[-93.0194,18.1442],[-93.0188,18.1407],[-93.0228,18.1399],[-93.0213,18.1368],[-93.0121,18.1364],[-93.0218,18.1203],[-93.0125,18.1152],[-93.012,18.1097],[-93.0063,18.1077],[-93.0264,18.0678],[-93.0357,18.0719],[-93.0454,18.0691],[-93.0498,18.0732],[-93.0558,18.0713],[-93.086,18.0879],[-93.0873,18.0859],[-93.0819,18.0829],[-93.0896,18.0818],[-93.0938,18.0882],[-93.1011,18.0893],[-93.1161,18.0886],[-93.1365,18.0817],[-93.1379,18.0928],[-93.1481,18.092],[-93.1494,18.0962],[-93.129,18.1108],[-93.1252,18.1174],[-93.12,18.1282],[-93.1229,18.1318],[-93.1196,18.1325],[-93.1246,18.1335],[-93.1247,18.1414],[-93.1288,18.1385],[-93.1382,18.1486],[-93.1537,18.1521],[-93.1536,18.1572],[-93.1625,18.1517],[-93.1773,18.1501],[-93.1799,18.1542],[-93.1831,18.1529],[-93.1854,18.1586],[-93.1987,18.1521],[-93.2027,18.1534],[-93.2025,18.1601],[-93.209,18.1599],[-93.2173,18.1684],[-93.2144,18.1689],[-93.207,18.1859],[-93.1936,18.1974],[-93.1962,18.2083],[-93.1903,18.2078],[-93.1892,18.2119],[-93.1824,18.2129],[-93.1714,18.2257],[-93.159,18.226],[-93.1621,18.2195],[-93.1653,18.2191],[-93.1633,18.2147],[-93.1569,18.2155],[-93.1571,18.2203],[-93.1423,18.2239],[-93.1427,18.2284],[-93.1313,18.2141],[-93.124,18.2277],[-93.112,18.2363],[-93.1054,18.2349],[-93.0957,18.2615],[-93.108,18.2629],[-93.1085,18.2779],[-93.1156,18.2832],[-93.1068,18.288],[-93.1034,18.2862],[-93.0963,18.2928],[-93.0974,18.2963],[-93.0931,18.2976],[-93.099,18.3029],[-93.0933,18.3096],[-93.0914,18.3195],[-93.0851,18.3233],[-93.085,18.3412],[-93.0922,18.3497],[-93.0917,18.3595],[-93.0954,18.3603],[-93.0936,18.3631],[-93.089,18.3625],[-93.0885,18.3658],[-93.0839,18.3656],[-93.088,18.3742],[-93.0795,18.376],[-93.0686,18.3841],[-93.0598,18.3802],[-93.0532,18.3841],[-93.0472,18.3823],[-93.0312,18.3936],[-93.0245,18.3938],[-93.0231,18.4024],[-93.0208,18.3978],[-93.0137,18.3964],[-93.0097,18.4075],[-92.9989,18.4027]]]}},{"type":"Feature","properties":{"cve_ent":"27","cve_mun":"011","cvegeo":"27011","nombre":"Jonuta"},"geometry":{"type":"Polygon","coordinates":[[[-92.1761,18.4582],[-92.1774,18.3759],[-92.1819,18.3759],[-92.1714,18.339],[-92.1804,18.2898],[-92.1772,18.2887],[-92.1744,18.2933],[-92.173,18.2753],[-92.1832,18.2741],[-92.1489,18.2104],[-92.1644,18.1979],[-92.1606,18.1887],[-92.1609,18.1554],[-92.1488,18.1493],[-92.149,18.1367],[-92.1283,18.1201],[-92.1274,18.1087],[-92.1101,18.0944],[-92.0922,18.092],[-92.0816,18.0857],[-92.0768,18.0943],[-92.068,18.0921],[-92.0622,18.0982],[-92.0526,18.0941],[-92.0399,18.098],[-92.036,18.0874],[-92.0421,18.0783],[-92.0282,18.0772],[-92.0144,18.0526],[-91.9922,18.0393],[-91.9788,18.0428],[-91.9667,18.016],[-91.9354,18.0102],[-91.9097,18.0138],[-91.9004,18.0121],[-91.8881,18.0063],[-91.8672,17.9833],[-91.8046,17.9726],[-91.7712,17.9444],[-91.7855,17.9234],[-91.8354,17.8866],[-91.8497,17.8829],[-91.8707,17.8908],[-91.8942,17.8875],[-91.903,17.896],[-91.9158,17.9001],[-91.9255,17.8919],[-91.9239,17.8824],[-91.9281,17.8708],[-91.9376,17.8645],[-91.9484,17.8633],[-91.9571,17.8706],[-91.9568,17.8799],[-91.9394,17.9011],[-91.9403,17.9074],[-91.945,17.9103],[-91.9699,17.9104],[-91.9785,17.9137],[-91.9852,17.9204],[-91.993,17.9397],[-91.9999,17.9433],[-91.9913,17.9196],[-92.0034,17.8905],[-92.0155,17.8975],[-92.0192,17.8955],[-92.0197,17.8878],[-92.0297,17.8891],[-92.0671,17.8764],[-92.0718,17.8777],[-92.0673,17.8704],[-92.0605,17.8719],[-92.0525,17.8672],[-92.0494,17.8548],[-92.0563,17.8468],[-92.0905,17.8566],[-92.0905,17.8507],[-92.102,17.8509],[-92.1065,17.8381],[-92.0994,17.8346],[-92.1046,17.8276],[-92.1055,17.8129],[-92.1205,17.796],[-92.1399,17.8098],[-92.1404,17.8196],[-92.1454,17.8248],[-92.1441,17.8309],[-92.1498,17.8379],[-92.1495,17.8455],[-92.1783,17.8664],[-92.1704,17.9025],[-92.1933,17.9069],[-92.2032,17.9039],[-92.2106,17.8993],[-92.2191,17.8828],[-92.2436,17.8927],[-92.2641,17.9075],[-92.2641,17.9018],[-92.2958,17.9143],[-92.2892,17.9239],[-92.3139,17.9272],[-92.3196,17.9314],[-92.3127,17.9453],[-92.3164,17.9578],[-92.3059,17.9626],[-92.3129,17.9695],[-92.3116,17.9728],[-92.3187,17.982],[-92.3171,17.9918],[-92.3075,18.0053],[-92.3127,18.0091],[-92.3128,18.0133],[-92.2993,18.022],[-92.3167,18.0288],[-92.3076,18.0379],[-92.3074,18.0459],[-92.3158,18.0419],[-92.3135,18.0479],[-92.3223,18.0486],[-92.3228,18.061],[-92.3429,18.0646],[-92.3363,18.0746],[-92.3102,18.0934],[-92.307,18.0931],[-92.3059,18.0865],[-92.303,18.0867],[-92.3062,18.0981],[-92.3047,18.109],[-92.2964,18.1103],[-92.2916,18.1149],[-92.2939,18.1189],[-92.2898,18.1281],[-92.2917,18.1306],[-92.2849,18.1385],[-92.3,18.1523],[-92.318,18.1562],[-92.3248,18.1723],[-92.323,18.1862],[-92.313,18.2092],[-92.3148,18.213],[-92.3167,18.2104],[-92.3315,18.2178],[-92.321,18.2305],[-92.3123,18.2358],[-92.3159,18.239],[-92.3133,18.2415],[-92.316,18.2445],[-92.3205,18.2404],[-92.3232,18.2459],[-92.3173,18.2569],[-92.3093,18.2612],[-92.307,18.2575],[-92.2954,18.2553],[-92.2811,18.2748],[-92.2649,18.2667],[-92.2355,18.2624],[-92.2161,18.2662],[-92.2188,18.2749],[-92.2146,18.2759],[-92.2231,18.2805],[-92.2184,18.2823],[-92.2228,18.2908],[-92.2375,18.3005],[-92.2438,18.2886],[-92.2579,18.2932],[-92.2463,18.2961],[-92.2549,18.3062],[-92.2609,18.3003],[-92.2963,18.3072],[-92.2723,18.3277],[-92.2954,18.3478],[-92.2921,18.3532],[-92.2989,18.3545],[-92.2985,18.3581],[-92.3041,18.3589],[-92.3043,18.3638],[-92.308,18.3619],[-92.3123,18.3671],[-92.3123,18.3764],[-92.3138,18.3742],[-92.3528,18.3946],[-92.3252,18.4209],[-92.3136,18.4275],[-92.3229,18.4371],[-92.3269,18.4498],[-92.3204,18.4514],[-92.3225,18.4574],[-92.3316,18.4603],[-92.3225,18.4731],[-92.3216,18.4675],[-92.3106,18.4605],[-92.3103,18.4556],[-92.1761,18.4582]]]}},{"type":"Feature","properties":{"cve_ent":"27","cve_mun":"012","cvegeo":"27012","nombre":"Macuspana"},"geometry":{"type":"Polygon","coordinates":[[[-92.2914,18.13],[-92.2939,18.1189],[-92.2916,18.1149],[-92.2964,18.1103],[-92.3047,18.109],[-92.3062,18.0981],[-92.303,18.0867],[-92.3059,18.0865],[-92.307,18.0931],[-92.3102,18.0934],[-92.3363,18.0746],[-92.3429,18.0646],[-92.3228,18.061],[-92.3223,18.0486],[-92.3135,18.0479],[-92.3158,18.0419],[-92.3074,18.0459],[-92.3076,18.0379],[-92.3167,18.0288],[-92.2993,18.022],[-92.3128,18.0133],[-92.3127,18.0091],[-92.3075,18.0053],[-92.3171,17.9918],[-92.3187,17.982],[-92.3116,17.9728],[-92.3129,17.9695],[-92.3059,17.9626],[-92.3164,17.9578],[-92.3127,17.9453],[-92.3196,17.9314],[-92.3139,17.9272],[-92.2892,17.9239],[-92.2958,17.9143],[-92.2641,17.9018],[-92.2641,17.9075],[-92.2436,17.8927],[-92.2191,17.8828],[-92.2106,17.8993],[-92.2032,17.9039],[-92.1933,17.9069],[-92.1704,17.9025],[-92.1783,17.8664],[-92.1492,17.8451],[-92.1493,17.8364],[-92.1448,17.833],[-92.1453,17.8244],[-92.1406,17.8199],[-92.138,17.8107],[-92.1466,17.8147],[-92.1466,17.8124],[-92.1271,17.7859],[-92.136,17.779],[-92.1299,17.767],[-92.1517,17.7646],[-92.1525,17.7791],[-92.172,17.7866],[-92.1885,17.7681],[-92.1945,17.7766],[-92.2293,17.7456],[-92.2746,17.6923],[-92.2887,17.7027],[-92.2948,17.6999],[-92.3087,17.7063],[-92.3133,17.7045],[-92.3153,17.7097],[-92.3281,17.7137],[-92.3296,17.7107],[-92.3373,17.7121],[-92.3401,17.7038],[-92.3499,17.7028],[-92.3492,17.6547],[-92.3549,17.6541],[-92.3559,17.642],[-92.3581,17.642],[-92.3507,17.6179],[-92.4009,17.586],[-92.4021,17.578],[-92.4082,17.5806],[-92.4368,17.5701],[-92.445,17.5743],[-92.4562,17.573],[-92.4676,17.5771],[-92.4972,17.5722],[-92.52,17.573],[-92.5301,17.55],[-92.5583,17.5403],[-92.5631,17.5457],[-92.5593,17.5485],[-92.5653,17.5498],[-92.562,17.5529],[-92.5575,17.5517],[-92.5598,17.5552],[-92.5533,17.5537],[-92.5564,17.558],[-92.5512,17.5577],[-92.5538,17.5611],[-92.5503,17.5622],[-92.551,17.5649],[-92.5459,17.5649],[-92.5473,17.5696],[-92.5749,17.5727],[-92.5735,17.5918],[-92.5788,17.5924],[-92.5804,17.5969],[-92.5829,17.5963],[-92.5816,17.5935],[-92.5868,17.5963],[-92.5862,17.6003],[-92.5925,17.6056],[-92.6059,17.6049],[-92.6149,17.6145],[-92.6156,17.611],[-92.6257,17.6128],[-92.6277,17.6028],[-92.6386,17.6069],[-92.6364,17.6252],[-92.6313,17.6243],[-92.6266,17.6314],[-92.6311,17.6355],[-92.6354,17.635],[-92.64,17.6413],[-92.6383,17.6497],[-92.6506,17.6525],[-92.6538,17.6603],[-92.6576,17.6564],[-92.6544,17.6555],[-92.6568,17.6496],[-92.6654,17.6511],[-92.6679,17.6423],[-92.6809,17.6459],[-92.6778,17.649],[-92.6858,17.6495],[-92.6832,17.6526],[-92.6881,17.6621],[-92.6865,17.6685],[-92.692,17.6735],[-92.6926,17.6795],[-92.7036,17.6876],[-92.7,17.6976],[-92.6943,17.6975],[-92.6969,17.7029],[-92.6896,17.7047],[-92.6947,17.708],[-92.6922,17.7177],[-92.6952,17.7189],[-92.6913,17.7243],[-92.6884,17.7209],[-92.6829,17.7249],[-92.6817,17.7381],[-92.6857,17.7401],[-92.6831,17.7457],[-92.6856,17.7476],[-92.6844,17.7526],[-92.691,17.7616],[-92.6863,17.7661],[-92.6814,17.7649],[-92.682,17.7626],[-92.6773,17.7633],[-92.6762,17.7706],[-92.6723,17.7704],[-92.6717,17.7735],[-92.6791,17.7794],[-92.6694,17.784],[-92.6684,17.7915],[-92.6734,17.7969],[-92.6772,17.79],[-92.6814,17.7897],[-92.6802,17.8],[-92.6845,17.8014],[-92.6815,17.8098],[-92.6771,17.8109],[-92.6809,17.8146],[-92.6791,17.8198],[-92.6867,17.8246],[-92.6845,17.8369],[-92.6945,17.8398],[-92.684,17.8494],[-92.6772,17.8431],[-92.6736,17.8459],[-92.6738,17.8524],[-92.6821,17.8562],[-92.6783,17.8596],[-92.684,17.8638],[-92.6769,17.8673],[-92.685,17.8748],[-92.6905,17.8711],[-92.6942,17.8755],[-92.6929,17.8938],[-92.7093,17.8948],[-92.7081,17.9063],[-92.7117,17.905],[-92.7176,17.9118],[-92.7157,17.9227],[-92.7059,17.9213],[-92.7041,17.9297],[-92.6777,17.9274],[-92.6754,17.9309],[-92.6683,17.932],[-92.6672,17.9362],[-92.6724,17.9433],[-92.6613,17.9492],[-92.668,17.9552],[-92.666,17.9586],[-92.6602,17.9587],[-92.6594,17.9545],[-92.652,17.9558],[-92.6472,17.963],[-92.65,17.9695],[-92.6473,17.9712],[-92.6444,17.9681],[-92.6226,17.9731],[-92.616,17.9776],[-92.6148,17.9871],[-92.6065,17.9862],[-92.6081,17.979],[-92.5917,17.9709],[-92.5889,17.9751],[-92.5926,17.981],[-92.5835,18.0032],[-92.5832,18.0076],[-92.5968,18.0069],[-92.5953,18.022],[-92.6464,18.0307],[-92.6454,18.0326],[-92.6627,18.0377],[-92.6701,18.0475],[-92.6404,18.076],[-92.6235,18.0569],[-92.6129,18.0612],[-92.6092,18.0688],[-92.6089,18.0628],[-92.5979,18.0633],[-92.5953,18.0565],[-92.5659,18.0642],[-92.5561,18.0622],[-92.5547,18.0784],[-92.5498,18.0787],[-92.543,18.0733],[-92.5366,18.0733],[-92.5334,18.067],[-92.5357,18.0602],[-92.5298,18.0567],[-92.5314,18.0738],[-92.5498,18.0813],[-92.5536,18.0964],[-92.5475,18.1],[-92.5483,18.1038],[-92.5253,18.1419],[-92.5282,18.1471],[-92.5345,18.1479],[-92.5361,18.1611],[-92.5177,18.1709],[-92.5146,18.1675],[-92.5026,18.1681],[-92.4998,18.1571],[-92.5049,18.147],[-92.4973,18.1461],[-92.4732,18.1261],[-92.4712,18.1179],[-92.4909,18.123],[-92.4918,18.1159],[-92.4616,18.1134],[-92.4633,18.1017],[-92.4467,18.0978],[-92.4388,18.0976],[-92.3885,18.1283],[-92.3972,18.134],[-92.3957,18.1395],[-92.3935,18.1352],[-92.3941,18.1411],[-92.3985,18.1415],[-92.3994,18.1465],[-92.4122,18.153],[-92.4137,18.1565],[-92.3857,18.1603],[-92.3703,18.1435],[-92.3715,18.133],[-92.36,18.131],[-92.348,18.1234],[-92.3417,18.1238],[-92.3394,18.13],[-92.3334,18.1299],[-92.3305,18.1341],[-92.3223,18.1329],[-92.3199,18.1403],[-92.2914,18.13]]]}},{"type":"Feature","properties":{"cve_ent":"27","cve_mun":"013","cvegeo":"27013","nombre":"Nacajuca"},"geometry":{"type":"Polygon","coordinates":[[[-92.898,18.3293],[-92.8803,18.3114],[-92.8815,18.3073],[-92.8642,18.3002],[-92.8643,18.2929],[-92.8581,18.2945],[-92.8544,18.2918],[-92.8462,18.2734],[-92.8491,18.2623],[-92.8456,18.2513],[-92.8338,18.2505],[-92.834,18.2399],[-92.8297,18.2364],[-92.8418,18.2286],[-92.8488,18.219],[-92.8545,18.2172],[-92.8541,18.2023],[-92.8474,18.2012],[-92.8766,18.1733],[-92.8647,18.1713],[-92.8739,18.168],[-92.8644,18.1584],[-92.8816,18.1486],[-92.8816,18.1343],[-92.885,18.1231],[-92.8901,18.1185],[-92.8857,18.1123],[-92.8957,18.1007],[-92.8917,18.0888],[-92.8931,18.0787],[-92.8944,18.076],[-92.9127,18.0778],[-92.9146,18.0582],[-92.9057,18.0571],[-92.9025,18.061],[-92.899,18.0545],[-92.9023,18.0477],[-92.9063,18.0466],[-92.9063,18.042],[-92.9111,18.0413],[-92.9111,18.0346],[-92.914,18.0337],[-92.9177,18.0375],[-92.9221,18.0354],[-92.9199,18.0276],[-92.9268,18.0269],[-92.9308,18.0352],[-92.9336,18.033],[-92.9336,18.036],[-92.943,18.0367],[-92.943,18.0193],[-92.9536,18.0219],[-92.9544,18.0139],[-92.9773,18.0076],[-92.986,18.011],[-92.985,18.0146],[-92.9894,18.0199],[-92.9868,18.0339],[-92.9928,18.0345],[-92.9957,18.0388],[-92.9899,18.0435],[-93.0036,18.0495],[-93.0198,18.0483],[-93.0192,18.0261],[-93.0299,18.0443],[-93.0257,18.0495],[-93.0245,18.0588],[-93.0306,18.0598],[-93.0063,18.1077],[-93.012,18.1097],[-93.0125,18.1152],[-93.0218,18.1203],[-93.0121,18.1364],[-93.0213,18.1368],[-93.0228,18.1399],[-93.0188,18.1407],[-93.0194,18.1442],[-93.0305,18.1459],[-93.0295,18.151],[-93.0392,18.1536],[-93.0392,18.1561],[-93.0345,18.1566],[-93.0315,18.166],[-93.0276,18.1671],[-93.0249,18.1761],[-93.0399,18.1769],[-93.0348,18.1847],[-93.0297,18.1836],[-93.0327,18.2018],[-93.0452,18.1992],[-93.0512,18.2142],[-93.0621,18.2293],[-93.0576,18.227],[-93.0529,18.2292],[-93.0508,18.2412],[-93.0303,18.247],[-93.0394,18.2592],[-93.0331,18.2652],[-93.0372,18.2774],[-93.0288,18.2869],[-93.0319,18.3155],[-93.0173,18.3196],[-93.0196,18.3084],[-92.949,18.3028],[-92.9407,18.3494],[-92.9235,18.3469],[-92.9112,18.3334],[-92.898,18.3293]]]}},{"type":"Feature","properties":{"cve_ent":"27","cve_mun":"014","cvegeo":"27014","nombre":"Paraíso"},"geometry":{"type":"Polygon","coordinates":[[[-93.0969,18.4429],[-93.0669,18.4241],[-93.0484,18.4256],[-93.0352,18.4198],[-93.0168,18.4223],[-93.0001,18.4124],[-92.9974,18.4037],[-93.0097,18.4075],[-93.0137,18.3964],[-93.0208,18.3978],[-93.0231,18.4024],[-93.0245,18.3938],[-93.0312,18.3936],[-93.0472,18.3823],[-93.0532,18.3841],[-93.0598,18.3802],[-93.0686,18.3841],[-93.0795,18.376],[-93.088,18.3742],[-93.0839,18.3656],[-93.0885,18.3658],[-93.089,18.3625],[-93.0936,18.3631],[-93.0954,18.3603],[-93.0917,18.3595],[-93.0922,18.3497],[-93.085,18.3412],[-93.0866,18.3297],[-93.0844,18.3279],[-93.099,18.3029],[-93.0931,18.2974],[-93.0973,18.2964],[-93.0963,18.2928],[-93.1034,18.2862],[-93.1068,18.288],[-93.1155,18.2834],[-93.1086,18.2782],[-93.1094,18.2745],[-93.1161,18.2756],[-93.1203,18.2724],[-93.1233,18.276],[-93.1306,18.2716],[-93.1388,18.2742],[-93.1378,18.2767],[-93.1438,18.2771],[-93.1538,18.2845],[-93.1583,18.2934],[-93.1561,18.3002],[-93.1615,18.309],[-93.1723,18.3195],[-93.1804,18.3201],[-93.1817,18.3233],[-93.2006,18.3251],[-93.2115,18.3204],[-93.2142,18.3235],[-93.2168,18.3219],[-93.2203,18.3305],[-93.2248,18.3312],[-93.2287,18.3306],[-93.2224,18.3236],[-93.23,18.3191],[-93.2404,18.3215],[-93.2412,18.3188],[-93.254,18.3191],[-93.2557,18.3154],[-93.2689,18.3221],[-93.272,18.3192],[-93.2668,18.3069],[-93.2925,18.3048],[-93.2971,18.3068],[-93.2986,18.3213],[-93.3019,18.3219],[-93.3068,18.3173],[-93.3086,18.3196],[-93.3057,18.3286],[-93.3008,18.3322],[-93.293,18.3222],[-93.2919,18.3153],[-93.2794,18.3211],[-93.2756,18.3186],[-93.2749,18.3221],[-93.2789,18.3254],[-93.2781,18.337],[-93.2852,18.3379],[-93.2799,18.3455],[-93.2875,18.3526],[-93.2793,18.3571],[-93.2864,18.3651],[-93.2831,18.3699],[-93.2878,18.3729],[-93.2933,18.3716],[-93.2885,18.3795],[-93.2942,18.3793],[-93.2929,18.3838],[-93.2961,18.3887],[-93.306,18.3916],[-93.322,18.4124],[-93.3335,18.4119],[-93.3514,18.4221],[-93.3537,18.4284],[-93.3588,18.4236],[-93.3673,18.4245],[-93.3719,18.4202],[-93.3821,18.4209],[-93.3805,18.4243],[-93.3976,18.424],[-93.4133,18.4167],[-93.4262,18.4212],[-93.4234,18.4276],[-93.4247,18.4249],[-93.428,18.4252],[-93.4269,18.4279],[-93.4323,18.4271],[-93.4313,18.4216],[-93.4435,18.4198],[-93.4482,18.4162],[-93.4451,18.4132],[-93.4405,18.4191],[-93.4336,18.4192],[-93.4363,18.4119],[-93.4402,18.41],[-93.437,18.4102],[-93.435,18.397],[-93.46,18.3825],[-93.473,18.3921],[-93.4765,18.4015],[-93.4898,18.4093],[-93.4983,18.4063],[-93.5016,18.3925],[-93.511,18.3848],[-93.5183,18.389],[-93.512,18.3994],[-93.5262,18.4036],[-93.5266,18.4082],[-93.5101,18.4124],[-93.4399,18.4272],[-93.3956,18.4336],[-93.2376,18.4395],[-93.2148,18.4423],[-93.2145,18.4459],[-93.2139,18.447],[-93.2142,18.4412],[-93.205,18.4412],[-93.2068,18.4325],[-93.2104,18.4319],[-93.2105,18.4305],[-93.2009,18.4346],[-93.2018,18.4361],[-93.2023,18.4416],[-93.2015,18.4385],[-93.1968,18.4388],[-93.1928,18.4436],[-93.1943,18.4334],[-93.1868,18.4312],[-93.1837,18.4377],[-93.1903,18.4379],[-93.1895,18.4476],[-93.1984,18.4532],[-93.1898,18.4486],[-93.1888,18.4469],[-93.1888,18.443],[-93.1851,18.4413],[-93.1638,18.4437],[-93.0969,18.4429]]]}},{"type":"Feature","properties":{"cve_ent":"27","cve_mun":"015","cvegeo":"27015","nombre":"Tacotalpa"},"geometry":{"type":"Polygon","coordinates":[[[-92.7184,17.6532],[-92.6778,17.649],[-92.6809,17.6459],[-92.6679,17.6423],[-92.6654,17.6511],[-92.6568,17.6496],[-92.6544,17.6555],[-92.6576,17.6564],[-92.6532,17.6601],[-92.6506,17.6525],[-92.6381,17.6495],[-92.6401,17.6415],[-92.6356,17.6352],[-92.6311,17.6355],[-92.6266,17.6314],[-92.6313,17.6243],[-92.6364,17.6252],[-92.6386,17.6069],[-92.6277,17.6028],[-92.6257,17.6128],[-92.6156,17.611],[-92.6149,17.6145],[-92.6059,17.6049],[-92.5925,17.6056],[-92.5862,17.6003],[-92.5868,17.5963],[-92.5816,17.5935],[-92.5829,17.5963],[-92.5804,17.5969],[-92.5788,17.5924],[-92.5735,17.5918],[-92.5749,17.5727],[-92.5493,17.5703],[-92.5457,17.5653],[-92.5512,17.5647],[-92.5503,17.5622],[-92.5538,17.5609],[-92.5509,17.5605],[-92.5518,17.5573],[-92.5564,17.558],[-92.5533,17.5536],[-92.5591,17.5554],[-92.5575,17.5517],[-92.5637,17.5519],[-92.5649,17.5487],[-92.5593,17.5483],[-92.5631,17.5457],[-92.5714,17.5496],[-92.597,17.5204],[-92.5923,17.5096],[-92.5999,17.5008],[-92.5941,17.493],[-92.6058,17.4774],[-92.6243,17.4659],[-92.6489,17.4607],[-92.6545,17.4557],[-92.6594,17.4443],[-92.6658,17.4568],[-92.6682,17.4567],[-92.6679,17.426],[-92.6762,17.4116],[-92.6788,17.3785],[-92.7085,17.3634],[-92.7295,17.3481],[-92.755,17.3434],[-92.7587,17.3582],[-92.7707,17.3604],[-92.7683,17.3855],[-92.7908,17.405],[-92.7858,17.4175],[-92.8063,17.4106],[-92.8294,17.4086],[-92.8292,17.3963],[-92.8543,17.4112],[-92.8562,17.4189],[-92.8258,17.4238],[-92.8196,17.4327],[-92.8223,17.4522],[-92.8269,17.4536],[-92.8288,17.4726],[-92.8335,17.482],[-92.8262,17.4903],[-92.8282,17.5047],[-92.8341,17.5121],[-92.8335,17.5205],[-92.847,17.5309],[-92.8476,17.5348],[-92.8542,17.5327],[-92.8625,17.5421],[-92.859,17.5446],[-92.8651,17.5617],[-92.8611,17.572],[-92.8648,17.5818],[-92.861,17.5873],[-92.8616,17.5927],[-92.8733,17.5933],[-92.876,17.6067],[-92.8889,17.6072],[-92.9057,17.6235],[-92.9096,17.6364],[-92.9009,17.6401],[-92.9009,17.6429],[-92.9126,17.6532],[-92.9125,17.6608],[-92.9079,17.6716],[-92.9036,17.6738],[-92.9013,17.6714],[-92.899,17.6782],[-92.903,17.6792],[-92.8999,17.6798],[-92.8987,17.6892],[-92.8963,17.6892],[-92.8863,17.6813],[-92.8841,17.6742],[-92.8742,17.6731],[-92.8759,17.6607],[-92.8713,17.6385],[-92.8392,17.6347],[-92.8365,17.6457],[-92.8337,17.6404],[-92.8223,17.6391],[-92.8102,17.6454],[-92.8149,17.6388],[-92.7925,17.648],[-92.7884,17.6473],[-92.7885,17.6394],[-92.7614,17.626],[-92.7636,17.6323],[-92.7563,17.6313],[-92.7469,17.6401],[-92.7463,17.645],[-92.7372,17.6443],[-92.7376,17.6389],[-92.7287,17.6338],[-92.7286,17.6419],[-92.7189,17.6419],[-92.7184,17.6532]]]}},{"type":"Feature","properties":{"cve_ent":"27","cve_mun":"016","cvegeo":"27016","nombre":"Teapa"},"geometry":{"type":"Polygon","coordinates":[[[-92.9267,17.7562],[-92.9173,17.7582],[-92.918,17.7616],[-92.9122,17.763],[-92.9111,17.7685],[-92.909,17.7627],[-92.8893,17.7612],[-92.8935,17.7407],[-92.8962,17.7437],[-92.9143,17.7421],[-92.9125,17.7279],[-92.9079,17.7231],[-92.9029,17.7057],[-92.9055,17.7015],[-92.9027,17.693],[-92.9042,17.6949],[-92.906,17.6925],[-92.8987,17.6892],[-92.8999,17.6798],[-92.903,17.6792],[-92.899,17.6782],[-92.9013,17.6714],[-92.9036,17.6738],[-92.9102,17.6688],[-92.9126,17.6532],[-92.9009,17.6429],[-92.9009,17.6401],[-92.9096,17.6364],[-92.9057,17.6235],[-92.8889,17.6072],[-92.876,17.6067],[-92.8733,17.5933],[-92.8616,17.5927],[-92.861,17.5873],[-92.8648,17.5818],[-92.8611,17.572],[-92.8651,17.5617],[-92.859,17.5446],[-92.8625,17.5421],[-92.8542,17.5327],[-92.8476,17.5348],[-92.847,17.5309],[-92.8335,17.5205],[-92.8342,17.5123],[-92.8282,17.5047],[-92.8262,17.4903],[-92.8358,17.4805],[-92.8357,17.4752],[-92.8486,17.469],[-92.8557,17.479],[-92.8598,17.5003],[-92.8859,17.5102],[-92.8981,17.503],[-92.9073,17.5052],[-92.9129,17.4982],[-92.9205,17.5027],[-92.9392,17.5024],[-92.9448,17.483],[-92.9548,17.4879],[-92.968,17.518],[-92.9751,17.5186],[-92.9787,17.5126],[-92.9849,17.5113],[-92.983,17.5189],[-92.9926,17.53],[-92.9822,17.5334],[-92.9805,17.5376],[-92.9884,17.5414],[-92.9883,17.55],[-93.0053,17.5549],[-93.0077,17.5613],[-93.0044,17.5795],[-93.0108,17.5806],[-93.0169,17.5931],[-93.0316,17.5994],[-93.0405,17.6098],[-93.0441,17.62],[-93.0451,17.6671],[-93.0405,17.6681],[-93.0444,17.6734],[-93.0404,17.6747],[-93.0418,17.6807],[-93.0379,17.6807],[-93.042,17.6864],[-93.0391,17.692],[-93.0379,17.6884],[-93.0371,17.6937],[-93.0408,17.6936],[-93.0379,17.6986],[-93.0402,17.701],[-93.0371,17.7034],[-93.0389,17.7068],[-93.0431,17.7044],[-93.0415,17.7075],[-93.0448,17.708],[-93.0448,17.7111],[-93.0421,17.7103],[-93.0444,17.7134],[-93.0538,17.7114],[-93.0535,17.7188],[-93.0577,17.7202],[-93.0541,17.7293],[-93.0543,17.7424],[-93.0469,17.7484],[-93.0478,17.7584],[-93.0444,17.7605],[-93.0426,17.7684],[-93.0399,17.7699],[-93.0366,17.7664],[-93.0372,17.769],[-93.0335,17.7702],[-93.0315,17.7611],[-93.0231,17.7608],[-93.019,17.7548],[-93.01,17.7573],[-92.9989,17.7484],[-93.0131,17.7309],[-92.9862,17.7125],[-92.9798,17.7137],[-92.9767,17.7182],[-92.9806,17.7342],[-92.9954,17.738],[-92.9862,17.7538],[-92.9832,17.7413],[-92.9488,17.7524],[-92.9239,17.7395],[-92.923,17.7487],[-92.9267,17.7562]]]}},{"type":"Feature","properties":{"cve_ent":"27","cve_mun":"017","cvegeo":"27017","nombre":"Tenosique"},"geometry":{"type":"Polygon","coordinates":[[[-90.9878,17.4231],[-90.9875,17.251],[-91.4397,17.251],[-91.4275,17.2766],[-91.4252,17.3023],[-91.4126,17.3075],[-91.3903,17.2993],[-91.3837,17.3112],[-91.3847,17.3196],[-91.397,17.3379],[-91.4168,17.3456],[-91.4144,17.3592],[-91.4198,17.3741],[-91.4393,17.3843],[-91.4472,17.3829],[-91.4527,17.3758],[-91.4565,17.3757],[-91.505,17.3995],[-91.5099,17.3922],[-91.5368,17.4074],[-91.5372,17.4197],[-91.5521,17.4226],[-91.5579,17.4222],[-91.5588,17.4005],[-91.6069,17.4169],[-91.6089,17.4255],[-91.6175,17.4262],[-91.6202,17.4317],[-91.6025,17.4331],[-91.5966,17.439],[-91.5981,17.4552],[-91.5885,17.4759],[-91.5833,17.4746],[-91.5786,17.4888],[-91.5651,17.4914],[-91.5774,17.5435],[-91.576,17.5474],[-91.5789,17.5531],[-91.5754,17.5576],[-91.5847,17.5683],[-91.5766,17.5815],[-91.5731,17.5826],[-91.5743,17.5948],[-91.5627,17.5957],[-91.5541,17.6186],[-91.5511,17.6136],[-91.5418,17.6164],[-91.5295,17.6416],[-91.52,17.6406],[-91.5138,17.657],[-91.4674,17.6651],[-91.4647,17.6574],[-91.478,17.6425],[-91.4392,17.6176],[-91.4382,17.6197],[-91.4224,17.6164],[-91.422,17.6194],[-91.4107,17.626],[-91.3925,17.6251],[-91.3597,17.6075],[-91.3535,17.5974],[-91.3588,17.5863],[-91.353,17.5791],[-91.3588,17.5712],[-91.3517,17.5592],[-91.346,17.5601],[-91.3441,17.5659],[-91.3338,17.5563],[-91.331,17.5578],[-91.3324,17.564],[-91.3296,17.5616],[-91.3231,17.5628],[-91.3212,17.574],[-91.3152,17.572],[-91.3157,17.5755],[-91.3044,17.5796],[-91.3035,17.5828],[-91.3076,17.5864],[-91.3029,17.5887],[-91.3055,17.5938],[-91.2963,17.591],[-91.2995,17.5882],[-91.2964,17.5871],[-91.298,17.5833],[-91.2837,17.5836],[-91.2753,17.5787],[-91.2642,17.5837],[-91.2606,17.5825],[-91.253,17.5388],[-91.2476,17.5397],[-91.2394,17.5547],[-91.2414,17.5564],[-91.207,17.5622],[-91.2096,17.5663],[-91.2067,17.5787],[-91.1881,17.5622],[-91.1732,17.5612],[-91.1727,17.528],[-91.1766,17.5198],[-91.1409,17.5019],[-91.1399,17.4929],[-91.1342,17.4908],[-91.1412,17.4841],[-91.1387,17.4778],[-91.1089,17.4777],[-91.0978,17.4788],[-91.0956,17.4816],[-91.0953,17.4777],[-91.0904,17.4771],[-91.0892,17.4817],[-91.0817,17.4809],[-91.0817,17.4851],[-91.0579,17.483],[-91.0579,17.4701],[-91.0317,17.4673],[-91.0322,17.4223],[-91.0271,17.4214],[-91.0218,17.4256],[-91.0169,17.4234],[-91.0129,17.4288],[-91.0096,17.4286],[-91.0109,17.4237],[-90.997,17.4243],[-90.9968,17.4284],[-90.9921,17.428],[-90.9921,17.4235],[-90.9878,17.4231]]]}}]}