{"type":"FeatureCollection","features":[{"type":"Feature","properties":{"cve_ent":"28","cve_mun":"001","cvegeo":"28001","nombre":"Abasolo"},"geometry":{"type":"Polygon","coordinates":[[[-98.0196,24.3222],[-98.0194,24.263],[-98.0149,24.2615],[-98.0019,24.2337],[-98.0356,24.2335],[-98.0371,24.1976],[-98.0599,24.1975],[-98.0599,24.1847],[-98.0747,24.1701],[-98.001,24.1225],[-98.0489,24.1229],[-98.049,24.1147],[-98.1329,24.1151],[-98.1355,24.0861],[-98.1418,24.0768],[-98.14,24.0569],[-98.2004,24.0565],[-98.1976,24.0479],[-98.1882,24.0366],[-98.1945,24.0029],[-98.2013,24.0083],[-98.2109,24.0076],[-98.2295,23.9958],[-98.2304,23.9907],[-98.2354,23.9867],[-98.2334,23.9836],[-98.2371,23.9814],[-98.2377,23.9737],[-98.2342,23.9712],[-98.2337,23.9652],[-98.2168,23.9657],[-98.1978,23.9746],[-98.1905,23.9709],[-98.1883,23.962],[-98.2063,23.9614],[-98.2228,23.95],[-98.2378,23.952],[-98.2414,23.9325],[-98.2488,23.9298],[-98.2514,23.9252],[-98.2634,23.9256],[-98.5273,23.7935],[-98.5407,23.8216],[-98.5593,23.8191],[-98.5359,23.8298],[-98.5404,23.8776],[-98.4871,23.9065],[-98.4856,23.914],[-98.4924,23.9184],[-98.4978,23.9393],[-98.5049,23.9432],[-98.5154,23.9418],[-98.5205,23.9531],[-98.5029,24.0681],[-98.4892,24.0782],[-98.4961,24.0827],[-98.4918,24.0895],[-98.4775,24.0863],[-98.4638,24.097],[-98.4711,24.1009],[-98.4693,24.1176],[-98.4613,24.1179],[-98.455,24.1247],[-98.4465,24.1248],[-98.4402,24.1383],[-98.4431,24.1428],[-98.4329,24.1492],[-98.4237,24.1534],[-98.4216,24.1508],[-98.4037,24.1538],[-98.4053,24.1618],[-98.398,24.1629],[-98.3874,24.1548],[-98.3811,24.1573],[-98.3775,24.1673],[-98.3522,24.1652],[-98.3497,24.1617],[-98.3182,24.2313],[-98.2847,24.3331],[-98.2952,24.3446],[-98.29,24.3438],[-98.278,24.4176],[-98.2369,24.4112],[-98.2371,24.4231],[-98.1846,24.4626],[-98.1845,24.4228],[-98.1446,24.4231],[-98.1115,24.4183],[-98.111,24.4025],[-98.0192,24.4042],[-98.0117,24.3647],[-98.0328,24.3468],[-98.0686,24.3246],[-98.0537,24.3005],[-98.0196,24.3222]]]}},{"type":"Feature","properties":{"cve_ent":"28","cve_mun":"002","cvegeo":"28002","nombre":"Aldama"},"geometry":{"type":"Polygon","coordinates":[[[-97.769,23.2723],[-97.7604,23.0554],[-97.7661,22.8927],[-97.7889,22.7906],[-97.8368,22.6728],[-97.8412,22.6715],[-97.845,22.6603],[-97.8558,22.6058],[-97.8595,22.549],[-97.8658,22.5519],[-97.873,22.5743],[-97.8775,22.5676],[-97.8763,22.5627],[-97.8816,22.5646],[-97.8888,22.5616],[-97.8932,22.5705],[-97.9041,22.572],[-97.9099,22.579],[-97.9081,22.5903],[-97.9124,22.5966],[-97.909,22.613],[-97.9169,22.6257],[-97.9133,22.6384],[-97.9209,22.6525],[-97.9264,22.65],[-97.9332,22.6384],[-97.936,22.6405],[-97.9297,22.65],[-97.9314,22.6569],[-97.9393,22.6552],[-97.9483,22.6446],[-97.9595,22.6454],[-97.9571,22.6609],[-97.9631,22.6621],[-97.9709,22.651],[-97.9687,22.6655],[-97.9734,22.6706],[-97.9722,22.6588],[-97.9778,22.6506],[-97.9822,22.6526],[-97.9762,22.6585],[-97.9758,22.6632],[-97.9835,22.6691],[-97.9908,22.6662],[-97.9938,22.6595],[-98.0022,22.6596],[-98.0033,22.6523],[-97.9994,22.6506],[-98.0116,22.6313],[-98.0141,22.6315],[-98.0112,22.6352],[-98.0142,22.6401],[-98.0182,22.6401],[-98.0233,22.6347],[-98.0308,22.6426],[-98.0346,22.6414],[-98.0571,22.752],[-98.0495,22.7998],[-98.0883,22.8045],[-98.0897,22.7949],[-98.1103,22.7976],[-98.1161,22.7585],[-98.1621,22.7431],[-98.2082,22.7485],[-98.2176,22.6791],[-98.2145,22.671],[-98.2203,22.6732],[-98.2215,22.6786],[-98.2279,22.6792],[-98.2413,22.6742],[-98.2413,22.6713],[-98.2518,22.6715],[-98.2611,22.6806],[-98.2558,22.7187],[-98.2658,22.7198],[-98.2648,22.7283],[-98.2792,22.73],[-98.2755,22.7583],[-98.3026,22.7834],[-98.3007,22.7973],[-98.3205,22.7996],[-98.3196,22.8053],[-98.3286,22.8072],[-98.3302,22.7973],[-98.3362,22.7984],[-98.3361,22.8191],[-98.3452,22.8203],[-98.3445,22.8249],[-98.3414,22.8245],[-98.3386,22.8427],[-98.3234,22.8406],[-98.3221,22.851],[-98.3525,22.8545],[-98.3273,22.887],[-98.3456,22.8896],[-98.34,22.9074],[-98.3322,22.9068],[-98.3313,22.915],[-98.3417,22.9176],[-98.3276,23.0232],[-98.3456,23.0463],[-98.3677,23.0622],[-98.3304,23.0858],[-98.3326,23.108],[-98.3173,23.113],[-98.3125,23.1247],[-98.3396,23.145],[-98.3285,23.1661],[-98.304,23.1461],[-98.2908,23.1789],[-98.267,23.2156],[-98.2611,23.2349],[-98.2323,23.2263],[-98.2306,23.2457],[-98.2098,23.2533],[-98.2128,23.293],[-98.2059,23.3228],[-98.2109,23.3474],[-98.1989,23.3491],[-98.1827,23.3578],[-98.1297,23.3495],[-98.1236,23.3698],[-98.0983,23.366],[-98.0977,23.3611],[-98.0892,23.3621],[-98.0892,23.3525],[-98.0798,23.3453],[-98.0612,23.3435],[-98.0486,23.3335],[-98.0338,23.333],[-98.0238,23.3424],[-98.0064,23.3421],[-97.987,23.3024],[-97.9647,23.2993],[-97.9614,23.2896],[-97.9459,23.2885],[-97.9456,23.2931],[-97.9487,23.2934],[-97.9336,23.3007],[-97.9302,23.3082],[-97.9126,23.315],[-97.9086,23.3088],[-97.9019,23.3085],[-97.8876,23.3164],[-97.8902,23.3],[-97.8626,23.2977],[-97.8597,23.3148],[-97.8509,23.3136],[-97.8558,23.328],[-97.8376,23.3263],[-97.8363,23.3337],[-97.8171,23.3382],[-97.8083,23.3314],[-97.8117,23.3113],[-97.8021,23.3098],[-97.8059,23.2921],[-97.7895,23.2888],[-97.7919,23.2736],[-97.7841,23.2763],[-97.769,23.2723]]]}},{"type":"Feature","properties":{"cve_ent":"28","cve_mun":"003","cvegeo":"28003","nombre":"Altamira"},"geometry":{"type":"Polygon","coordinates":[[[-97.8595,22.549],[-97.8566,22.5099],[-97.8503,22.493],[-97.8335,22.493],[-97.8576,22.4926],[-97.8575,22.4822],[-97.8344,22.4819],[-97.8568,22.4818],[-97.8587,22.4672],[-97.8452,22.4054],[-97.8196,22.3258],[-97.8353,22.3261],[-97.8352,22.3231],[-97.8448,22.3225],[-97.8464,22.3264],[-97.8572,22.3217],[-97.9022,22.3265],[-97.95,22.3233],[-97.9626,22.3258],[-97.9661,22.3319],[-97.9852,22.3412],[-97.99,22.3509],[-98.0007,22.3482],[-98.0129,22.3533],[-98.0211,22.3528],[-98.0285,22.3584],[-98.054,22.3555],[-98.0595,22.3464],[-98.0743,22.3478],[-98.086,22.3702],[-98.0955,22.3727],[-98.1062,22.3667],[-98.1119,22.3782],[-98.1135,22.3953],[-98.1516,22.4129],[-98.1633,22.41],[-98.189,22.4253],[-98.1897,22.4418],[-98.1999,22.449],[-98.1936,22.4687],[-98.207,22.464],[-98.2198,22.4718],[-98.2324,22.4613],[-98.2403,22.4697],[-98.2479,22.4717],[-98.2534,22.4665],[-98.2566,22.4534],[-98.2755,22.4477],[-98.2836,22.4634],[-98.2927,22.4689],[-98.294,22.4751],[-98.3045,22.4786],[-98.3102,22.4986],[-98.3065,22.4992],[-98.3113,22.5003],[-98.3078,22.51],[-98.329,22.5128],[-98.3221,22.5597],[-98.3435,22.5619],[-98.3321,22.6539],[-98.3093,22.6516],[-98.304,22.6918],[-98.3088,22.6925],[-98.3054,22.718],[-98.2994,22.7184],[-98.3048,22.7222],[-98.3009,22.7512],[-98.2921,22.7501],[-98.2892,22.7709],[-98.2755,22.7583],[-98.2792,22.73],[-98.2648,22.7283],[-98.2658,22.7198],[-98.2558,22.7187],[-98.2611,22.6806],[-98.2518,22.6715],[-98.2413,22.6713],[-98.2413,22.6742],[-98.2279,22.6792],[-98.2215,22.6786],[-98.2203,22.6732],[-98.2155,22.6706],[-98.2176,22.6791],[-98.2082,22.7485],[-98.1621,22.7431],[-98.1161,22.7585],[-98.1103,22.7976],[-98.0897,22.7949],[-98.0883,22.8045],[-98.0495,22.7998],[-98.0571,22.752],[-98.0346,22.6414],[-98.0308,22.6426],[-98.0233,22.6347],[-98.0182,22.6401],[-98.0142,22.6401],[-98.0112,22.6352],[-98.0141,22.6315],[-98.0116,22.6313],[-97.9994,22.6506],[-98.0033,22.6523],[-98.0022,22.6596],[-97.9938,22.6595],[-97.9908,22.6662],[-97.9835,22.6691],[-97.9758,22.6632],[-97.9762,22.6585],[-97.9822,22.6526],[-97.9778,22.6506],[-97.9722,22.6588],[-97.9734,22.6706],[-97.9687,22.6655],[-97.9709,22.651],[-97.9631,22.6621],[-97.9571,22.6609],[-97.9595,22.6454],[-97.9483,22.6446],[-97.9393,22.6552],[-97.9314,22.6569],[-97.9297,22.65],[-97.936,22.6405],[-97.9332,22.6384],[-97.9264,22.65],[-97.9209,22.6525],[-97.9133,22.6384],[-97.9169,22.6257],[-97.909,22.613],[-97.9124,22.5966],[-97.9081,22.5903],[-97.9099,22.579],[-97.9041,22.572],[-97.8932,22.5705],[-97.8888,22.5616],[-97.8816,22.5646],[-97.8763,22.5627],[-97.8775,22.5676],[-97.873,22.5743],[-97.8658,22.5519],[-97.8595,22.549]]]}},{"type":"Feature","properties":{"cve_ent":"28","cve_mun":"004","cvegeo":"28004","nombre":"Antiguo Morelos"},"geometry":{"type":"Polygon","coordinates":[[[-99.1392,22.7671],[-99.1164,22.765],[-99.117,22.7578],[-99.1191,22.7581],[-99.1165,22.7515],[-99.0865,22.7469],[-99.0755,22.7174],[-99.0813,22.7172],[-99.0639,22.6286],[-99.0516,22.6362],[-99.0363,22.6361],[-99.0245,22.6185],[-99.0144,22.6101],[-99.0119,22.6042],[-99.0273,22.5996],[-99.014,22.5863],[-99.0184,22.585],[-98.9687,22.5029],[-98.9591,22.4567],[-98.9388,22.4558],[-98.9253,22.3729],[-98.9127,22.3742],[-98.9099,22.3722],[-98.91,22.3717],[-98.9135,22.374],[-98.9255,22.3717],[-98.932,22.3928],[-99.0604,22.4153],[-99.1146,22.4067],[-99.1099,22.442],[-99.1226,22.4721],[-99.1285,22.5025],[-99.1478,22.5423],[-99.1617,22.5539],[-99.179,22.5872],[-99.1884,22.6211],[-99.201,22.6109],[-99.2105,22.6142],[-99.2072,22.6424],[-99.203,22.6419],[-99.2014,22.6473],[-99.2009,22.6646],[-99.2052,22.6742],[-99.1962,22.6733],[-99.1939,22.6873],[-99.2002,22.6878],[-99.199,22.6934],[-99.1886,22.6925],[-99.1904,22.7022],[-99.1979,22.7029],[-99.1971,22.7108],[-99.1818,22.7087],[-99.1807,22.716],[-99.1671,22.7142],[-99.1662,22.7214],[-99.1628,22.7209],[-99.1607,22.7412],[-99.1511,22.7385],[-99.1501,22.7459],[-99.1446,22.7465],[-99.1411,22.7536],[-99.1392,22.7671]]]}},{"type":"Feature","properties":{"cve_ent":"28","cve_mun":"005","cvegeo":"28005","nombre":"Burgos"},"geometry":{"type":"Polygon","coordinates":[[[-99.036,25.1203],[-99.0287,25.1101],[-99.0337,25.1071],[-99.0295,25.0964],[-99.026,25.0926],[-99.022,25.0939],[-99.0204,25.0883],[-99.0155,25.0859],[-99.0142,25.0803],[-99.0198,25.079],[-99.0175,25.0756],[-99.0219,25.0719],[-99.0049,25.0671],[-98.9998,25.0674],[-98.9977,25.0713],[-98.9894,25.0674],[-98.9842,25.0746],[-98.9768,25.0688],[-98.9699,25.0719],[-98.9716,25.0738],[-98.9681,25.0733],[-98.9683,25.0704],[-98.9588,25.0761],[-98.9566,25.0733],[-98.9552,25.0761],[-98.9475,25.0739],[-98.946,25.0765],[-98.9412,25.0709],[-98.9342,25.0728],[-98.9343,25.0802],[-98.9337,25.0761],[-98.929,25.0773],[-98.8638,25.1271],[-98.8634,25.0996],[-98.843,25.0989],[-98.8408,25.0855],[-98.833,25.0885],[-98.8329,25.0962],[-98.8231,25.0986],[-98.8231,25.0812],[-98.8177,25.0811],[-98.8142,25.0861],[-98.8007,25.0902],[-98.7907,25.0973],[-98.7923,25.0876],[-98.7387,25.0795],[-98.7406,25.0504],[-98.7531,25.057],[-98.7613,25.0274],[-98.7179,25.0146],[-98.711,25.0203],[-98.7064,25.0193],[-98.7014,25.0225],[-98.7013,25.0324],[-98.6925,25.0305],[-98.6884,25.0373],[-98.6824,25.0389],[-98.6814,25.0467],[-98.6753,25.0469],[-98.6725,25.0439],[-98.5907,25.0318],[-98.597,24.9718],[-98.6045,24.973],[-98.6067,24.9591],[-98.5616,24.9513],[-98.5603,24.9593],[-98.5505,24.9576],[-98.5574,24.9128],[-98.5528,24.9157],[-98.5451,24.9148],[-98.5475,24.9217],[-98.5391,24.9263],[-98.5401,24.9355],[-98.535,24.9348],[-98.5318,24.929],[-98.52,24.9259],[-98.516,24.9182],[-98.4997,24.9172],[-98.4959,24.9187],[-98.4964,24.9234],[-98.4874,24.9277],[-98.4776,24.9278],[-98.4704,24.9207],[-98.4707,24.9299],[-98.4555,24.9315],[-98.4539,24.9349],[-98.4509,24.9338],[-98.4496,24.927],[-98.4379,24.932],[-98.4292,24.9281],[-98.4273,24.9381],[-98.4198,24.9241],[-98.413,24.9189],[-98.4133,24.914],[-98.4188,24.9154],[-98.4304,24.9045],[-98.4269,24.8983],[-98.4331,24.8944],[-98.4385,24.8957],[-98.4405,24.8862],[-98.4464,24.8813],[-98.4485,24.8841],[-98.4563,24.8789],[-98.4621,24.8827],[-98.464,24.8761],[-98.4689,24.8794],[-98.4815,24.8759],[-98.4865,24.8658],[-98.4931,24.8606],[-98.4904,24.8588],[-98.4857,24.8645],[-98.4837,24.8632],[-98.483,24.8429],[-98.5295,24.8495],[-98.5329,24.8628],[-98.5609,24.8559],[-98.5672,24.8516],[-98.5616,24.8416],[-98.5739,24.8357],[-98.5784,24.8436],[-98.5952,24.8394],[-98.5966,24.8281],[-98.5922,24.8206],[-98.5952,24.8174],[-98.6049,24.811],[-98.6261,24.8066],[-98.685,24.7618],[-98.7114,24.7318],[-98.7074,24.7244],[-98.7565,24.7373],[-98.7678,24.7451],[-98.7873,24.7475],[-98.8027,24.7434],[-98.8425,24.7405],[-98.8385,24.7681],[-98.9019,24.7747],[-98.9247,24.7804],[-98.9247,24.7696],[-98.9549,24.7771],[-98.9553,24.8534],[-99.0001,24.8796],[-98.9991,24.8465],[-99.0208,24.8418],[-99.0241,24.8519],[-99.0295,24.8538],[-99.0719,24.8592],[-99.0762,24.8591],[-99.0719,24.849],[-99.081,24.8516],[-99.1136,24.8404],[-99.1582,24.8453],[-99.16,24.8522],[-99.2049,24.8642],[-99.1589,24.916],[-99.1809,25.0115],[-99.1783,25.0177],[-99.1717,25.0197],[-99.1711,25.0248],[-99.1649,25.0295],[-99.1599,25.0258],[-99.1565,25.0278],[-99.1636,25.0349],[-99.1629,25.0436],[-99.167,25.0465],[-99.1621,25.0472],[-99.1609,25.0548],[-99.1577,25.0565],[-99.1351,25.0504],[-99.1274,25.0559],[-99.1138,25.0561],[-99.1,25.0648],[-99.0976,25.0631],[-99.0958,25.067],[-99.1015,25.0694],[-99.0942,25.0745],[-99.0975,25.0782],[-99.0855,25.0772],[-99.0822,25.0736],[-99.0787,25.0792],[-99.0803,25.0834],[-99.075,25.0885],[-99.0788,25.0921],[-99.0714,25.0967],[-99.0782,25.1007],[-99.0702,25.1027],[-99.073,25.1082],[-99.0673,25.1107],[-99.0677,25.1161],[-99.06,25.1177],[-99.0525,25.1271],[-99.0479,25.1203],[-99.042,25.123],[-99.04,25.1197],[-99.036,25.1203]]]}},{"type":"Feature","properties":{"cve_ent":"28","cve_mun":"006","cvegeo":"28006","nombre":"Bustamante"},"geometry":{"type":"Polygon","coordinates":[[[-99.632,23.3981],[-99.6415,23.3573],[-99.6514,23.3566],[-99.6549,23.3036],[-99.6492,23.2773],[-99.6539,23.2828],[-99.6557,23.2731],[-99.6928,23.2773],[-99.7102,23.2121],[-99.7161,23.1609],[-99.7299,23.1777],[-99.7273,23.1975],[-99.7482,23.1984],[-99.7494,23.1706],[-99.8016,23.1797],[-99.8003,23.2257],[-99.8202,23.2148],[-99.8304,23.2198],[-99.8299,23.2241],[-99.8654,23.2172],[-99.8635,23.1928],[-99.857,23.167],[-99.8418,23.1568],[-99.8408,23.1479],[-99.8537,23.1408],[-99.8656,23.1587],[-99.897,23.1417],[-99.9082,23.1817],[-99.921,23.1968],[-99.9188,23.1996],[-99.9474,23.2414],[-99.9657,23.243],[-99.9652,23.2117],[-100.0204,23.2077],[-100.0184,23.1837],[-100.0023,23.1868],[-100.0036,23.1633],[-99.9886,23.1671],[-100.0048,23.1237],[-100.0165,23.1088],[-100.0694,23.0969],[-100.0687,23.1212],[-100.1156,23.126],[-100.1102,23.1511],[-100.119,23.1524],[-100.1183,23.2005],[-100.1097,23.1997],[-100.1038,23.2315],[-100.078,23.306],[-100.145,23.3395],[-100.1207,23.3578],[-100.0803,23.3957],[-99.9825,23.3924],[-99.9213,23.3792],[-99.9477,23.4972],[-99.9248,23.4921],[-99.9087,23.5302],[-99.871,23.551],[-99.8815,23.5089],[-99.8472,23.4961],[-99.817,23.5257],[-99.7954,23.4855],[-99.7689,23.4828],[-99.7672,23.511],[-99.7581,23.5102],[-99.7474,23.5169],[-99.7333,23.5203],[-99.7126,23.5374],[-99.6794,23.5085],[-99.6609,23.4793],[-99.6579,23.4593],[-99.6492,23.4375],[-99.6425,23.3977],[-99.6443,23.3916],[-99.632,23.3981]]]}},{"type":"Feature","properties":{"cve_ent":"28","cve_mun":"007","cvegeo":"28007","nombre":"Camargo"},"geometry":{"type":"Polygon","coordinates":[[[-98.6796,26.2484],[-98.6866,26.2604],[-98.6901,26.2539],[-98.6975,26.2539],[-98.6907,26.2425],[-98.692,26.2395],[-98.6954,26.2409],[-98.6935,26.2365],[-98.6991,26.2376],[-98.6962,26.2343],[-98.6985,26.231],[-98.7142,26.2287],[-98.7165,26.2165],[-98.7051,26.2158],[-98.6918,26.2038],[-98.6956,26.2002],[-98.7061,26.199],[-98.7099,26.2023],[-98.7185,26.1998],[-98.7209,26.1918],[-98.7319,26.1848],[-98.7322,26.1755],[-98.7423,26.1711],[-98.742,26.1606],[-98.7326,26.1501],[-98.7345,26.1353],[-98.7254,26.134],[-98.7254,26.109],[-98.7406,26.109],[-98.7409,26.1029],[-98.7516,26.1031],[-98.7528,26.0946],[-98.7633,26.0944],[-98.7635,26.0766],[-98.7534,26.0745],[-98.7534,26.0677],[-98.7411,26.0675],[-98.7383,26.0543],[-98.7265,26.0469],[-98.7324,26.0488],[-98.7388,26.0391],[-98.7364,26.0368],[-98.7412,26.0374],[-98.7405,26.0345],[-98.7467,26.0352],[-98.7463,26.038],[-98.8232,26.0476],[-98.9008,25.9683],[-99.0239,26.1041],[-99.0267,26.1107],[-99.0236,26.1149],[-99.0165,26.114],[-99.0144,26.1178],[-99.0169,26.1235],[-98.9919,26.1821],[-98.9943,26.1879],[-98.9897,26.1872],[-98.9418,26.2982],[-98.9466,26.3146],[-98.946,26.3381],[-98.9483,26.3381],[-98.9457,26.3424],[-98.9492,26.3435],[-98.9498,26.3567],[-98.9445,26.3666],[-98.9479,26.3707],[-98.9364,26.3711],[-98.9353,26.3856],[-98.9275,26.3945],[-98.9235,26.3919],[-98.9222,26.3788],[-98.914,26.3726],[-98.9013,26.3711],[-98.9009,26.3593],[-98.8961,26.3531],[-98.8608,26.3662],[-98.8512,26.3645],[-98.8448,26.3585],[-98.8326,26.3633],[-98.8242,26.3709],[-98.819,26.3708],[-98.8144,26.3659],[-98.8038,26.3671],[-98.7986,26.3609],[-98.7958,26.3476],[-98.788,26.3377],[-98.7885,26.3305],[-98.7686,26.325],[-98.7507,26.3312],[-98.7471,26.3185],[-98.738,26.3134],[-98.7361,26.3083],[-98.7421,26.3027],[-98.755,26.3076],[-98.7564,26.3036],[-98.7509,26.296],[-98.742,26.294],[-98.7281,26.299],[-98.7224,26.2959],[-98.7167,26.2861],[-98.7081,26.2892],[-98.7025,26.2871],[-98.6997,26.2804],[-98.7016,26.2775],[-98.717,26.2782],[-98.7197,26.2726],[-98.6811,26.2629],[-98.6778,26.2565],[-98.6796,26.2484]]]}},{"type":"Feature","properties":{"cve_ent":"28","cve_mun":"008","cvegeo":"28008","nombre":"Casas"},"geometry":{"type":"Polygon","coordinates":[[[-98.5256,23.9737],[-98.5166,23.9425],[-98.5049,23.9432],[-98.4978,23.9393],[-98.4924,23.9184],[-98.4856,23.914],[-98.4871,23.9065],[-98.5404,23.8776],[-98.5359,23.8298],[-98.5593,23.8191],[-98.5407,23.8216],[-98.5273,23.7935],[-98.4817,23.817],[-98.457,23.7734],[-98.4629,23.7211],[-98.4955,23.7247],[-98.5046,23.6468],[-98.4965,23.6496],[-98.4884,23.6358],[-98.4942,23.634],[-98.4956,23.6239],[-98.5131,23.6081],[-98.4727,23.5684],[-98.4603,23.5751],[-98.4624,23.5649],[-98.4636,23.5678],[-98.4689,23.5653],[-98.471,23.5575],[-98.4689,23.555],[-98.455,23.5659],[-98.4486,23.5598],[-98.4626,23.5473],[-98.4296,23.5181],[-98.4263,23.5125],[-98.4311,23.5094],[-98.4169,23.508],[-98.4233,23.498],[-98.4267,23.5015],[-98.4312,23.4907],[-98.4151,23.477],[-98.4295,23.4701],[-98.4221,23.4635],[-98.4275,23.4568],[-98.4302,23.4602],[-98.436,23.4545],[-98.4396,23.4564],[-98.4348,23.4463],[-98.4473,23.4137],[-98.4064,23.4082],[-98.4051,23.4151],[-98.3669,23.4101],[-98.3551,23.382],[-98.3648,23.3353],[-98.299,23.2808],[-98.2864,23.2868],[-98.282,23.2962],[-98.2623,23.2902],[-98.2602,23.295],[-98.2518,23.2973],[-98.2412,23.2921],[-98.2405,23.2833],[-98.2128,23.293],[-98.2098,23.2533],[-98.2306,23.2457],[-98.2323,23.2263],[-98.2611,23.2349],[-98.267,23.2156],[-98.2908,23.1789],[-98.304,23.1461],[-98.3285,23.1661],[-98.3396,23.145],[-98.3125,23.1247],[-98.3173,23.113],[-98.3309,23.1085],[-98.3377,23.1169],[-98.3576,23.1201],[-98.3667,23.0904],[-98.3893,23.0976],[-98.3833,23.1283],[-98.3712,23.149],[-98.369,23.1625],[-98.3866,23.1749],[-98.4039,23.1926],[-98.4168,23.1885],[-98.4142,23.1988],[-98.4079,23.2061],[-98.4646,23.2363],[-98.4692,23.2857],[-98.5157,23.2989],[-98.5047,23.3331],[-98.5623,23.3261],[-98.5685,23.3134],[-98.5798,23.31],[-98.5751,23.3013],[-98.6035,23.2875],[-98.609,23.2991],[-98.6567,23.2806],[-98.6716,23.208],[-98.703,23.1902],[-98.7049,23.181],[-98.7246,23.184],[-98.7259,23.2476],[-98.7459,23.2467],[-98.7474,23.2851],[-98.7273,23.2858],[-98.7312,23.3866],[-98.7515,23.3889],[-98.7518,23.3957],[-98.8228,23.3909],[-98.8461,23.3926],[-98.8407,23.4308],[-98.8606,23.4332],[-98.8563,23.4589],[-98.8371,23.4548],[-98.8296,23.5049],[-98.8708,23.5064],[-98.8668,23.5259],[-98.8712,23.5278],[-98.8811,23.5547],[-98.9087,23.5462],[-98.9115,23.5541],[-98.9187,23.5518],[-98.9251,23.5593],[-98.9335,23.575],[-98.9666,23.5584],[-98.9758,23.5742],[-99.0024,23.5509],[-99.0188,23.5575],[-99.0362,23.5424],[-99.0413,23.5646],[-99.033,23.5715],[-99.0314,23.5631],[-99.0239,23.5696],[-99.0288,23.5804],[-98.9989,23.6057],[-98.9963,23.6032],[-98.9432,23.6491],[-98.9533,23.6549],[-98.9445,23.6706],[-98.9454,23.6874],[-98.9321,23.6839],[-98.9277,23.6877],[-98.9241,23.6809],[-98.9118,23.6774],[-98.8906,23.6789],[-98.8893,23.6821],[-98.8823,23.6837],[-98.878,23.6919],[-98.8671,23.6929],[-98.8637,23.6983],[-98.8602,23.6951],[-98.8494,23.6965],[-98.8468,23.7015],[-98.8392,23.7043],[-98.8391,23.7113],[-98.8296,23.7069],[-98.8304,23.7135],[-98.8206,23.7125],[-98.8144,23.7223],[-98.8069,23.7208],[-98.8062,23.7276],[-98.7984,23.7352],[-98.7894,23.7344],[-98.7847,23.7407],[-98.7787,23.7411],[-98.7815,23.7428],[-98.7777,23.7473],[-98.7763,23.7437],[-98.7721,23.7433],[-98.7717,23.7457],[-98.7687,23.7437],[-98.761,23.7468],[-98.7598,23.7513],[-98.7423,23.7519],[-98.7347,23.7558],[-98.7365,23.7658],[-98.7127,23.762],[-98.7022,23.7712],[-98.697,23.7813],[-98.701,23.7896],[-98.7062,23.7867],[-98.7043,23.7905],[-98.7104,23.7937],[-98.7101,23.7973],[-98.719,23.7969],[-98.7247,23.8015],[-98.7232,23.804],[-98.731,23.8031],[-98.7308,23.8089],[-98.7254,23.8097],[-98.7292,23.8107],[-98.7354,23.8218],[-98.7278,23.8217],[-98.7307,23.833],[-98.7274,23.8324],[-98.7273,23.8348],[-98.7331,23.8351],[-98.7348,23.8386],[-98.7292,23.8402],[-98.7313,23.8435],[-98.7278,23.8437],[-98.7276,23.8472],[-98.7249,23.8448],[-98.7219,23.848],[-98.7185,23.8343],[-98.7084,23.8272],[-98.6968,23.8099],[-98.6966,23.8037],[-98.6904,23.8015],[-98.6954,23.7957],[-98.6917,23.7933],[-98.689,23.7997],[-98.695,23.8132],[-98.6894,23.8171],[-98.7021,23.8256],[-98.6994,23.8296],[-98.7038,23.8442],[-98.7157,23.8502],[-98.7076,23.8555],[-98.7113,23.8588],[-98.7077,23.8685],[-98.7108,23.8758],[-98.7094,23.8852],[-98.7041,23.875],[-98.6963,23.8759],[-98.7012,23.8797],[-98.6989,23.8869],[-98.7023,23.8888],[-98.6971,23.8886],[-98.6947,23.8907],[-98.6993,23.8917],[-98.6985,23.8955],[-98.7047,23.9016],[-98.6999,23.9114],[-98.7013,23.9178],[-98.691,23.9187],[-98.692,23.9253],[-98.6878,23.9247],[-98.6893,23.9498],[-98.6882,23.9507],[-98.6871,23.9498],[-98.686,23.9502],[-98.6896,23.9521],[-98.6873,23.9568],[-98.6899,23.9575],[-98.6875,23.9598],[-98.6899,23.9601],[-98.6896,23.9644],[-98.6865,23.9657],[-98.6766,23.9602],[-98.6782,23.956],[-98.6735,23.9537],[-98.6741,23.958],[-98.6196,23.9678],[-98.6155,23.9712],[-98.6183,23.9779],[-98.6144,23.9927],[-98.6064,23.9968],[-98.5998,23.9913],[-98.6022,23.9708],[-98.5878,23.9472],[-98.5819,23.9473],[-98.5753,23.9574],[-98.5692,23.9587],[-98.5595,23.9537],[-98.5521,23.9426],[-98.5437,23.9411],[-98.5402,23.9466],[-98.5399,23.9646],[-98.5357,23.9746],[-98.5314,23.9767],[-98.5256,23.9737]]]}},{"type":"Feature","properties":{"cve_ent":"28","cve_mun":"009","cvegeo":"28009","nombre":"Ciudad Madero"},"geometry":{"type":"Polygon","coordinates":[[[-97.8196,22.3258],[-97.8064,22.2972],[-97.7846,22.2663],[-97.773,22.2669],[-97.8116,22.2518],[-97.8321,22.2381],[-97.8364,22.2301],[-97.844,22.234],[-97.8455,22.2402],[-97.8575,22.2465],[-97.8556,22.2617],[-97.8594,22.2668],[-97.8563,22.2754],[-97.852,22.2739],[-97.8579,22.2821],[-97.8539,22.2813],[-97.8487,22.3063],[-97.8557,22.3219],[-97.8464,22.3264],[-97.8448,22.3225],[-97.8352,22.3231],[-97.8353,22.3261],[-97.8196,22.3258]]]}},{"type":"Feature","properties":{"cve_ent":"28","cve_mun":"010","cvegeo":"28010","nombre":"Cruillas"},"geometry":{"type":"Polygon","coordinates":[[[-98.1846,24.4626],[-98.2371,24.4231],[-98.2369,24.4112],[-98.3361,24.427],[-98.3333,24.4461],[-98.3485,24.4486],[-98.3514,24.4295],[-98.3646,24.4317],[-98.3669,24.4174],[-98.3739,24.4186],[-98.3666,24.432],[-98.4164,24.44],[-98.4132,24.4568],[-98.5139,24.4717],[-98.5167,24.456],[-98.5881,24.4674],[-98.6468,24.4645],[-98.657,24.5024],[-98.6564,24.5309],[-98.6526,24.5343],[-98.6478,24.5672],[-98.6919,24.5793],[-98.6938,24.6012],[-98.6918,24.6341],[-98.6614,24.6777],[-98.6594,24.7324],[-98.6698,24.7218],[-98.7028,24.7435],[-98.685,24.7618],[-98.6261,24.8066],[-98.6049,24.811],[-98.5952,24.8174],[-98.5922,24.8206],[-98.5966,24.8281],[-98.5952,24.8394],[-98.5784,24.8436],[-98.5739,24.8357],[-98.5616,24.8416],[-98.5672,24.8516],[-98.5609,24.8559],[-98.5329,24.8628],[-98.5295,24.8495],[-98.483,24.8429],[-98.4837,24.8632],[-98.4857,24.8645],[-98.4904,24.8588],[-98.4931,24.8606],[-98.4865,24.8658],[-98.4815,24.8759],[-98.4689,24.8794],[-98.464,24.8761],[-98.4621,24.8827],[-98.4563,24.8789],[-98.4485,24.8841],[-98.4464,24.8813],[-98.4405,24.8862],[-98.4385,24.8957],[-98.4331,24.8944],[-98.4269,24.8983],[-98.4089,24.8716],[-98.3889,24.8777],[-98.378,24.8582],[-98.363,24.8652],[-98.3673,24.84],[-98.3518,24.8357],[-98.3523,24.8109],[-98.3392,24.8163],[-98.3328,24.8153],[-98.3214,24.7739],[-98.3171,24.7704],[-98.3109,24.7536],[-98.3146,24.7508],[-98.3063,24.7248],[-98.3169,24.7248],[-98.3109,24.7039],[-98.2969,24.7064],[-98.2897,24.6783],[-98.3221,24.6329],[-98.3036,24.6226],[-98.3101,24.6123],[-98.2936,24.6053],[-98.288,24.5921],[-98.2808,24.5893],[-98.274,24.5923],[-98.2672,24.6014],[-98.251,24.5995],[-98.2485,24.6069],[-98.2389,24.6086],[-98.2346,24.6185],[-98.2206,24.6241],[-98.1794,24.5811],[-98.1714,24.5868],[-98.1498,24.5651],[-98.1386,24.5736],[-98.0998,24.5041],[-98.1448,24.4723],[-98.1848,24.4797],[-98.1846,24.4626]]]}},{"type":"Feature","properties":{"cve_ent":"28","cve_mun":"011","cvegeo":"28011","nombre":"Gómez Farías"},"geometry":{"type":"Polygon","coordinates":[[[-99.1477,23.1275],[-99.1448,23.1252],[-99.1481,23.1228],[-99.142,23.1139],[-99.1419,23.1059],[-99.1349,23.0989],[-99.1395,23.0946],[-99.1349,23.0905],[-99.1266,23.0898],[-99.13,23.0794],[-99.1225,23.0764],[-99.1242,23.0672],[-99.1169,23.064],[-99.1069,23.066],[-99.1085,23.0493],[-99.1049,23.0454],[-99.1101,23.0441],[-99.1097,23.0407],[-99.1008,23.0393],[-99.0954,23.0324],[-99.0883,23.0322],[-99.0876,23.0277],[-99.0688,23.0283],[-99.0709,23.0165],[-99.0718,23.0165],[-99.0748,23.0139],[-99.0708,23.0161],[-99.0698,23.0119],[-99.0662,23.0139],[-99.0627,23.0086],[-99.0543,23.0057],[-99.0476,23.0073],[-99.0485,23.0045],[-99.0343,23.0042],[-99.0348,23.0008],[-99.0308,22.9978],[-99.0125,23.0008],[-99.0031,22.9896],[-98.9949,22.9862],[-98.993,22.9722],[-98.9986,22.9506],[-98.9927,22.9334],[-99.004,22.927],[-99.0073,22.919],[-99.0064,22.9088],[-99.0123,22.8905],[-99.0114,22.8741],[-99.0177,22.8619],[-99.0216,22.8437],[-99.0162,22.8337],[-99.025,22.8431],[-99.0303,22.8368],[-99.0338,22.8424],[-99.0418,22.8363],[-99.0607,22.8379],[-99.0708,22.8339],[-99.0902,22.8536],[-99.1073,22.8602],[-99.1213,22.8538],[-99.1121,22.8379],[-99.1432,22.8424],[-99.1431,22.8536],[-99.139,22.8539],[-99.1291,22.8657],[-99.1366,22.8871],[-99.141,22.9128],[-99.1453,22.9128],[-99.1476,22.9224],[-99.1567,22.9222],[-99.1631,22.949],[-99.2056,22.9423],[-99.2897,22.9634],[-99.2829,22.9677],[-99.3299,22.9788],[-99.3581,23.0164],[-99.3585,23.0604],[-99.3464,23.1441],[-99.3083,23.1479],[-99.2688,23.1315],[-99.2672,23.1433],[-99.1859,23.1508],[-99.1854,23.127],[-99.1492,23.1341],[-99.1435,23.1309],[-99.1477,23.1275]]]}},{"type":"Feature","properties":{"cve_ent":"28","cve_mun":"012","cvegeo":"28012","nombre":"González"},"geometry":{"type":"Polygon","coordinates":[[[-98.3309,23.1085],[-98.3304,23.0858],[-98.3677,23.0622],[-98.3456,23.0463],[-98.3276,23.0232],[-98.3417,22.9176],[-98.3313,22.915],[-98.3322,22.9068],[-98.34,22.9074],[-98.3456,22.8896],[-98.3273,22.887],[-98.3525,22.8545],[-98.3221,22.851],[-98.3234,22.8406],[-98.3386,22.8427],[-98.3414,22.8245],[-98.3445,22.8249],[-98.3452,22.8203],[-98.3361,22.8191],[-98.3362,22.7984],[-98.3302,22.7973],[-98.3286,22.8072],[-98.3196,22.8053],[-98.3205,22.7996],[-98.3007,22.7973],[-98.3026,22.7834],[-98.2892,22.7709],[-98.2921,22.7501],[-98.3009,22.7512],[-98.3048,22.7222],[-98.2994,22.7184],[-98.3054,22.718],[-98.3088,22.6925],[-98.304,22.6918],[-98.3093,22.6516],[-98.3321,22.6539],[-98.3435,22.5619],[-98.3221,22.5597],[-98.329,22.5128],[-98.3078,22.51],[-98.3113,22.5003],[-98.3065,22.4992],[-98.3102,22.4986],[-98.3045,22.4786],[-98.294,22.4751],[-98.2917,22.4678],[-98.301,22.4612],[-98.3111,22.4691],[-98.3193,22.4652],[-98.3136,22.4562],[-98.3122,22.4452],[-98.3209,22.44],[-98.3274,22.4265],[-98.3153,22.4193],[-98.3127,22.4143],[-98.3176,22.391],[-98.3277,22.3987],[-98.3429,22.3897],[-98.3523,22.3887],[-98.3565,22.3951],[-98.351,22.4024],[-98.3552,22.4074],[-98.3746,22.3896],[-98.3878,22.3893],[-98.3913,22.3942],[-98.3846,22.4033],[-98.3825,22.4159],[-98.3847,22.4223],[-98.3921,22.4232],[-98.3993,22.4088],[-98.4095,22.3999],[-98.419,22.4127],[-98.4331,22.4136],[-98.4316,22.43],[-98.4372,22.4336],[-98.4437,22.4313],[-98.4525,22.4164],[-98.4633,22.4122],[-98.4666,22.4143],[-98.464,22.4255],[-98.4668,22.4288],[-98.4852,22.4256],[-98.4906,22.4275],[-98.4918,22.4359],[-98.4822,22.452],[-98.4886,22.4586],[-98.5023,22.4583],[-98.5135,22.4469],[-98.5355,22.4596],[-98.5377,22.4667],[-98.5259,22.4703],[-98.5367,22.4781],[-98.5451,22.4963],[-98.5465,22.5148],[-98.5385,22.5209],[-98.5279,22.5158],[-98.5237,22.5167],[-98.5233,22.5205],[-98.5308,22.5253],[-98.5277,22.5436],[-98.5377,22.5506],[-98.5428,22.5498],[-98.5463,22.5424],[-98.5483,22.5448],[-98.5458,22.5511],[-98.5528,22.5479],[-98.5563,22.5558],[-98.5504,22.5657],[-98.5344,22.5647],[-98.5315,22.5683],[-98.541,22.5806],[-98.5606,22.5812],[-98.5593,22.5844],[-98.5628,22.5895],[-98.5655,22.5875],[-98.5752,22.592],[-98.5918,22.5916],[-98.5966,22.5965],[-98.6066,22.5942],[-98.6141,22.6003],[-98.6244,22.5954],[-98.6347,22.6045],[-98.6392,22.6031],[-98.6577,22.6083],[-98.6684,22.6169],[-98.6773,22.6189],[-98.682,22.6259],[-98.6865,22.5992],[-98.7621,22.6023],[-98.7632,22.6069],[-98.7769,22.6122],[-98.7825,22.6104],[-98.7886,22.6],[-98.8028,22.5996],[-98.8142,22.5849],[-98.8283,22.5826],[-98.8358,22.5847],[-98.8516,22.6064],[-98.8641,22.6143],[-98.8737,22.6111],[-98.8657,22.6667],[-98.8624,22.6668],[-98.8564,22.7157],[-98.8439,22.7097],[-98.8423,22.7134],[-98.8463,22.7139],[-98.8417,22.7362],[-98.8422,22.7392],[-98.8467,22.7374],[-98.8477,22.7427],[-98.8343,22.7435],[-98.8365,22.7575],[-98.8503,22.7567],[-98.852,22.7669],[-98.8469,22.7829],[-98.8515,22.7917],[-98.8599,22.7917],[-98.8635,22.7993],[-98.8697,22.7979],[-98.8719,22.7938],[-98.8674,22.7863],[-98.8795,22.7807],[-98.8929,22.7826],[-98.9067,22.7927],[-98.9045,22.8048],[-98.8897,22.8031],[-98.8881,22.8129],[-98.8743,22.8129],[-98.8692,22.8443],[-98.8839,22.8431],[-98.8823,22.8524],[-98.8894,22.8534],[-98.8926,22.8332],[-98.8986,22.8341],[-98.8915,22.8774],[-98.8958,22.878],[-98.8956,22.8813],[-98.8891,22.8806],[-98.8881,22.8869],[-98.8793,22.8859],[-98.8779,22.8957],[-98.8489,22.8951],[-98.8449,22.9191],[-98.7889,22.9105],[-98.7854,22.9335],[-98.7817,22.933],[-98.7631,23.0376],[-98.7797,23.0373],[-98.7816,23.0298],[-98.7986,23.0309],[-98.7968,23.0417],[-98.7789,23.0427],[-98.7742,23.0795],[-98.7662,23.0785],[-98.7639,23.0943],[-98.7552,23.0588],[-98.7266,23.0565],[-98.7282,23.0654],[-98.6897,23.0638],[-98.6941,23.0383],[-98.6652,23.0347],[-98.6666,23.0253],[-98.6269,23.0202],[-98.6227,23.0472],[-98.5546,23.0483],[-98.5478,23.0951],[-98.5373,23.0935],[-98.4976,23.0981],[-98.4573,23.0869],[-98.4432,23.1163],[-98.4457,23.1216],[-98.4284,23.1419],[-98.4148,23.1707],[-98.4168,23.1885],[-98.4039,23.1926],[-98.3866,23.1749],[-98.369,23.1625],[-98.3712,23.149],[-98.3833,23.1283],[-98.3893,23.0976],[-98.3667,23.0904],[-98.3576,23.1201],[-98.3377,23.1169],[-98.3309,23.1085]]]}},{"type":"Feature","properties":{"cve_ent":"28","cve_mun":"013","cvegeo":"28013","nombre":"Güémez"},"geometry":{"type":"Polygon","coordinates":[[[-99.1525,24.0904],[-99.1302,24.0793],[-99.1189,24.0802],[-99.1145,24.0777],[-99.1092,24.0825],[-99.1012,24.0759],[-99.0939,24.0745],[-99.0942,24.0691],[-99.0863,24.0715],[-99.0887,24.0257],[-99.0759,24.0193],[-99.0745,24.0582],[-99.0628,24.0539],[-99.0652,24.0135],[-99.0089,23.9841],[-99.0077,23.9794],[-98.9822,23.9752],[-98.9855,23.9571],[-98.9453,23.9508],[-98.9467,23.9432],[-98.9288,23.953],[-98.9321,23.9467],[-98.9186,23.9488],[-98.9193,23.937],[-98.8301,23.828],[-98.838,23.8288],[-98.8386,23.8242],[-98.8014,23.7844],[-98.7954,23.7799],[-98.7831,23.7897],[-98.7389,23.7784],[-98.7405,23.7721],[-98.7347,23.7619],[-98.7347,23.7558],[-98.7465,23.7509],[-98.7598,23.7513],[-98.761,23.7468],[-98.7687,23.7437],[-98.7717,23.7457],[-98.7721,23.7433],[-98.7763,23.7437],[-98.7777,23.7473],[-98.7815,23.7428],[-98.7787,23.7411],[-98.7847,23.7407],[-98.7894,23.7344],[-98.7984,23.7352],[-98.8062,23.7276],[-98.8069,23.7208],[-98.8144,23.7223],[-98.8206,23.7125],[-98.8304,23.7135],[-98.8296,23.7069],[-98.8391,23.7113],[-98.8392,23.7043],[-98.8468,23.7015],[-98.8494,23.6965],[-98.8602,23.6951],[-98.8637,23.6983],[-98.8671,23.6929],[-98.878,23.6919],[-98.8823,23.6837],[-98.8893,23.6821],[-98.8906,23.6789],[-98.9118,23.6774],[-98.9241,23.6809],[-98.9277,23.6877],[-98.9332,23.684],[-98.945,23.6914],[-98.9458,23.6876],[-98.9503,23.6858],[-98.9578,23.7017],[-98.9701,23.702],[-98.9699,23.7172],[-99.0973,23.8488],[-99.1359,23.8999],[-99.1387,23.9026],[-99.1479,23.9017],[-99.1517,23.908],[-99.1447,23.9115],[-99.156,23.9152],[-99.1546,23.9128],[-99.1715,23.9042],[-99.1742,23.9086],[-99.161,23.9154],[-99.1773,23.9385],[-99.1675,23.9415],[-99.1937,23.978],[-99.1997,23.98],[-99.2049,23.9777],[-99.2164,23.9831],[-99.2373,23.9744],[-99.252,23.9575],[-99.2606,23.9607],[-99.2694,23.9576],[-99.2701,23.9509],[-99.2852,23.9301],[-99.3092,23.916],[-99.3042,23.9109],[-99.3022,23.9128],[-99.2923,23.9086],[-99.3155,23.898],[-99.3546,23.8923],[-99.3688,23.8937],[-99.379,23.8835],[-99.373,23.8816],[-99.3586,23.8592],[-99.3527,23.8261],[-99.3668,23.8253],[-99.3675,23.8324],[-99.3792,23.8312],[-99.3764,23.8153],[-99.4065,23.8148],[-99.4148,23.8201],[-99.45,23.8164],[-99.4545,23.8413],[-99.4674,23.8605],[-99.4674,23.8695],[-99.4569,23.8661],[-99.4869,23.9605],[-99.4458,23.9443],[-99.4371,23.9266],[-99.4281,23.9196],[-99.4303,23.9241],[-99.4241,23.9489],[-99.4266,23.9515],[-99.4225,23.9582],[-99.418,23.959],[-99.4207,23.9668],[-99.4096,23.9642],[-99.4035,23.9657],[-99.3999,23.9725],[-99.3908,23.9716],[-99.3877,23.9747],[-99.3898,23.9772],[-99.3831,23.982],[-99.3665,23.9875],[-99.3607,23.9988],[-99.3448,23.9987],[-99.3428,24.0064],[-99.3134,24.0088],[-99.3008,24.0055],[-99.2826,24.009],[-99.2799,24.0167],[-99.2649,24.021],[-99.2415,24.0178],[-99.2309,24.0222],[-99.2175,24.0212],[-99.2136,24.0206],[-99.2096,24.0129],[-99.1819,24.0123],[-99.1794,24.0473],[-99.1975,24.0498],[-99.1954,24.0777],[-99.183,24.0786],[-99.1795,24.0969],[-99.1692,24.0938],[-99.1656,24.0894],[-99.1525,24.0904]]]}},{"type":"Feature","properties":{"cve_ent":"28","cve_mun":"014","cvegeo":"28014","nombre":"Guerrero"},"geometry":{"type":"Polygon","coordinates":[[[-99.4965,27.2713],[-99.4919,27.2636],[-99.4847,27.2594],[-99.4645,27.2683],[-99.453,27.2645],[-99.4416,27.25],[-99.445,27.2219],[-99.4326,27.2099],[-99.4262,27.1761],[-99.4301,27.1592],[-99.4401,27.1501],[-99.431,27.137],[-99.4311,27.1241],[-99.4425,27.1068],[-99.4286,27.0922],[-99.4356,27.079],[-99.4527,27.0641],[-99.4447,27.0412],[-99.4451,27.0203],[-99.4298,27.0105],[-99.4195,27.0178],[-99.4154,27.0174],[-99.3871,26.982],[-99.3765,26.9769],[-99.3938,26.9602],[-99.385,26.9396],[-99.3727,26.9314],[-99.337,26.9234],[-99.3242,26.9159],[-99.3212,26.9066],[-99.328,26.8778],[-99.3171,26.8655],[-99.2946,26.865],[-99.2805,26.8581],[-99.268,26.8426],[-99.262,26.8149],[-99.2425,26.7873],[-99.2396,26.7453],[-99.2086,26.7244],[-99.2096,26.6936],[-99.2,26.6558],[-99.1782,26.6209],[-99.1674,26.5597],[-99.185,26.5645],[-99.207,26.5605],[-99.2001,26.5557],[-99.2395,26.556],[-99.2521,26.5609],[-99.2462,26.5609],[-99.2451,26.5649],[-99.2477,26.581],[-99.2516,26.5752],[-99.3389,26.5597],[-99.3413,26.5484],[-99.4004,26.5501],[-99.3968,26.5966],[-99.5383,26.6646],[-99.6592,26.6704],[-99.6632,26.6829],[-99.6572,26.6951],[-99.6186,26.7265],[-99.6161,26.7544],[-99.6229,26.7692],[-99.6112,26.7825],[-99.6129,26.7916],[-99.6046,26.8001],[-99.6038,26.8079],[-99.5971,26.8096],[-99.5989,26.8146],[-99.5892,26.8146],[-99.5868,26.8248],[-99.5809,26.8293],[-99.5835,26.832],[-99.5843,26.848],[-99.5934,26.8545],[-99.5899,26.8612],[-99.6112,26.8735],[-99.6211,26.8684],[-99.6272,26.8706],[-99.6252,26.883],[-99.6293,26.8816],[-99.6313,26.8848],[-99.6287,26.8887],[-99.632,26.8912],[-99.6443,26.8856],[-99.6473,26.8944],[-99.662,26.9009],[-99.667,26.8944],[-99.6874,26.8946],[-99.6855,26.899],[-99.6938,26.9093],[-99.6971,26.9067],[-99.6981,26.8985],[-99.7035,26.9055],[-99.711,26.9055],[-99.7137,26.9015],[-99.71,26.8988],[-99.7129,26.8958],[-99.7266,26.8985],[-99.7279,26.9035],[-99.7235,26.9041],[-99.7253,26.9069],[-99.7391,26.9073],[-99.7449,26.912],[-99.7477,26.9002],[-99.7646,26.894],[-99.7667,26.8898],[-99.7701,26.9284],[-99.7342,26.9206],[-99.6501,27.0659],[-99.6589,27.0882],[-99.6789,27.1024],[-99.7477,27.2772],[-99.7488,27.289],[-99.7324,27.2877],[-99.7317,27.2944],[-99.6383,27.2879],[-99.6382,27.2918],[-99.6048,27.2892],[-99.6123,27.2783],[-99.4965,27.2713]]]}},{"type":"Feature","properties":{"cve_ent":"28","cve_mun":"015","cvegeo":"28015","nombre":"Gustavo Díaz Ordaz"},"geometry":{"type":"Polygon","coordinates":[[[-98.6866,26.2604],[-98.6721,26.2379],[-98.6565,26.2357],[-98.6339,26.2428],[-98.6327,26.2514],[-98.6244,26.2597],[-98.6215,26.2589],[-98.6163,26.2465],[-98.6123,26.253],[-98.5977,26.2581],[-98.5871,26.2578],[-98.5794,26.2532],[-98.5851,26.2449],[-98.5801,26.2354],[-98.5773,26.2336],[-98.5731,26.2395],[-98.5663,26.2416],[-98.5627,26.2244],[-98.5552,26.2323],[-98.5457,26.2365],[-98.547,26.2417],[-98.5583,26.2445],[-98.5565,26.2481],[-98.5442,26.2442],[-98.5354,26.2257],[-98.5214,26.2347],[-98.527,26.2253],[-98.5229,26.2186],[-98.5308,26.2165],[-98.5379,26.2092],[-98.5524,26.1171],[-98.5618,26.1109],[-98.5704,26.1098],[-98.5697,26.1011],[-98.5638,26.1006],[-98.562,26.0389],[-98.5855,26.0389],[-98.5851,26.0179],[-98.7364,26.0368],[-98.7388,26.0391],[-98.7324,26.0488],[-98.726,26.0488],[-98.7383,26.0543],[-98.7411,26.0675],[-98.7534,26.0677],[-98.7534,26.0745],[-98.7635,26.0766],[-98.7633,26.0944],[-98.7528,26.0946],[-98.7516,26.1031],[-98.7409,26.1029],[-98.7406,26.109],[-98.7254,26.109],[-98.7254,26.134],[-98.7345,26.1353],[-98.7326,26.1501],[-98.742,26.1606],[-98.7423,26.1711],[-98.7322,26.1755],[-98.7319,26.1848],[-98.7209,26.1918],[-98.7185,26.1998],[-98.7099,26.2023],[-98.7061,26.199],[-98.6956,26.2002],[-98.6915,26.2046],[-98.7051,26.2158],[-98.7165,26.2165],[-98.7142,26.2287],[-98.6985,26.231],[-98.6962,26.2343],[-98.6991,26.2376],[-98.6935,26.2365],[-98.6954,26.2409],[-98.692,26.2395],[-98.6907,26.2425],[-98.6975,26.2539],[-98.6901,26.2539],[-98.6866,26.2604]]]}},{"type":"Feature","properties":{"cve_ent":"28","cve_mun":"016","cvegeo":"28016","nombre":"Hidalgo"},"geometry":{"type":"Polygon","coordinates":[[[-99.2454,24.4084],[-99.2231,24.4057],[-99.2114,24.3972],[-99.2096,24.3889],[-99.1987,24.3846],[-99.1915,24.3708],[-99.1936,24.368],[-99.1906,24.3588],[-99.1802,24.3536],[-99.1806,24.3493],[-99.1786,24.3503],[-99.1762,24.3445],[-99.167,24.3439],[-99.1601,24.3359],[-99.1515,24.3336],[-99.151,24.3288],[-99.1451,24.3262],[-99.1389,24.3066],[-99.1287,24.3042],[-99.1289,24.3009],[-99.1214,24.2965],[-99.1135,24.2958],[-99.1044,24.2827],[-99.0959,24.2815],[-99.096,24.2762],[-99.082,24.2685],[-99.0871,24.2555],[-99.0443,24.2138],[-99.1274,24.2159],[-99.1345,24.1842],[-99.1205,24.1791],[-99.1268,24.1392],[-99.1398,24.1413],[-99.1449,24.1186],[-99.1457,24.1134],[-99.137,24.111],[-99.1406,24.0861],[-99.1525,24.0904],[-99.1656,24.0894],[-99.1692,24.0938],[-99.1795,24.0969],[-99.183,24.0786],[-99.1954,24.0777],[-99.1975,24.0498],[-99.1794,24.0473],[-99.1819,24.0123],[-99.2096,24.0129],[-99.2136,24.0206],[-99.2175,24.0212],[-99.2309,24.0222],[-99.2415,24.0178],[-99.2649,24.021],[-99.2799,24.0167],[-99.2826,24.009],[-99.3008,24.0055],[-99.3134,24.0088],[-99.3428,24.0064],[-99.3448,23.9987],[-99.3607,23.9988],[-99.3665,23.9875],[-99.3831,23.982],[-99.3898,23.9772],[-99.3877,23.9747],[-99.3908,23.9716],[-99.3999,23.9725],[-99.4035,23.9657],[-99.4096,23.9642],[-99.4207,23.9668],[-99.418,23.959],[-99.4225,23.9582],[-99.4266,23.9515],[-99.4241,23.9489],[-99.4303,23.9241],[-99.4281,23.9196],[-99.4371,23.9266],[-99.4458,23.9443],[-99.4869,23.9605],[-99.52,23.9906],[-99.5409,23.9973],[-99.5419,24.0336],[-99.5709,24.0394],[-99.6571,24.118],[-99.6478,24.2181],[-99.5943,24.3309],[-99.5893,24.3508],[-99.5899,24.3961],[-99.5776,24.3976],[-99.5774,24.3925],[-99.5279,24.3853],[-99.5145,24.3882],[-99.5023,24.3834],[-99.4929,24.3846],[-99.4864,24.383],[-99.487,24.3775],[-99.4807,24.3779],[-99.4803,24.3747],[-99.4589,24.3765],[-99.4525,24.3813],[-99.4493,24.379],[-99.4271,24.3799],[-99.4188,24.3729],[-99.416,24.3738],[-99.4082,24.4055],[-99.3656,24.3997],[-99.3648,24.4046],[-99.3351,24.4004],[-99.2454,24.4084]]]}},{"type":"Feature","properties":{"cve_ent":"28","cve_mun":"017","cvegeo":"28017","nombre":"Jaumave"},"geometry":{"type":"Polygon","coordinates":[[[-99.4674,23.8695],[-99.4674,23.8605],[-99.4545,23.8413],[-99.45,23.8164],[-99.4148,23.8201],[-99.4065,23.8148],[-99.3764,23.8153],[-99.3792,23.8312],[-99.3675,23.8324],[-99.3668,23.8253],[-99.3527,23.8261],[-99.3503,23.8214],[-99.3057,23.822],[-99.2838,23.7879],[-99.2867,23.7832],[-99.3037,23.7742],[-99.3243,23.7695],[-99.326,23.7661],[-99.3064,23.7266],[-99.3068,23.6829],[-99.2802,23.6788],[-99.2709,23.6728],[-99.2872,23.6569],[-99.2874,23.6347],[-99.2585,23.6454],[-99.2544,23.6313],[-99.2612,23.6135],[-99.2873,23.6171],[-99.2788,23.5351],[-99.2537,23.4779],[-99.2554,23.4661],[-99.2492,23.4273],[-99.2491,23.4313],[-99.2406,23.4352],[-99.2345,23.4319],[-99.2172,23.4345],[-99.206,23.4278],[-99.1999,23.4322],[-99.1867,23.4259],[-99.183,23.4305],[-99.1783,23.4264],[-99.1803,23.4191],[-99.1563,23.3976],[-99.1923,23.3994],[-99.193,23.3698],[-99.1937,23.375],[-99.1957,23.3724],[-99.187,23.3124],[-99.1755,23.3114],[-99.1778,23.3027],[-99.1446,23.2661],[-99.1574,23.2625],[-99.1834,23.269],[-99.1856,23.238],[-99.1816,23.2196],[-99.198,23.2159],[-99.1973,23.2066],[-99.2168,23.2023],[-99.2096,23.1664],[-99.2672,23.1434],[-99.2688,23.1315],[-99.3083,23.1479],[-99.3464,23.1441],[-99.3585,23.0604],[-99.4109,23.0607],[-99.4218,23.0918],[-99.4426,23.0897],[-99.4417,23.0997],[-99.4601,23.0985],[-99.4619,23.0727],[-99.4727,23.0782],[-99.4736,23.0987],[-99.4777,23.0984],[-99.478,23.1044],[-99.4924,23.1183],[-99.5006,23.2488],[-99.5348,23.2487],[-99.5359,23.2732],[-99.4967,23.2607],[-99.4918,23.2676],[-99.5165,23.3499],[-99.5138,23.359],[-99.5002,23.3567],[-99.5041,23.3797],[-99.5003,23.3829],[-99.4965,23.381],[-99.4976,23.3897],[-99.5015,23.3901],[-99.5015,23.4159],[-99.4749,23.4211],[-99.5275,23.4282],[-99.5426,23.4559],[-99.5531,23.4559],[-99.5516,23.4238],[-99.5814,23.4239],[-99.6422,23.5981],[-99.6717,23.6524],[-99.6803,23.675],[-99.6746,23.6792],[-99.6655,23.6778],[-99.6639,23.6744],[-99.6576,23.6776],[-99.6453,23.6997],[-99.6661,23.7496],[-99.6599,23.7707],[-99.6195,23.7597],[-99.6022,23.7629],[-99.5767,23.7755],[-99.4938,23.8787],[-99.4674,23.8695]]]}},{"type":"Feature","properties":{"cve_ent":"28","cve_mun":"018","cvegeo":"28018","nombre":"Jiménez"},"geometry":{"type":"Polygon","coordinates":[[[-98.278,24.4176],[-98.29,24.3438],[-98.2952,24.3446],[-98.2847,24.3331],[-98.3182,24.2313],[-98.3497,24.1617],[-98.3522,24.1652],[-98.3775,24.1673],[-98.3811,24.1573],[-98.3888,24.1546],[-98.3965,24.1629],[-98.4053,24.1618],[-98.4037,24.1538],[-98.4216,24.1508],[-98.4237,24.1534],[-98.4431,24.1428],[-98.4402,24.1383],[-98.4465,24.1248],[-98.455,24.1247],[-98.4613,24.1179],[-98.4693,24.1176],[-98.4711,24.1009],[-98.4638,24.097],[-98.4775,24.0863],[-98.4918,24.0895],[-98.4961,24.0827],[-98.4892,24.0782],[-98.5029,24.0681],[-98.5204,23.9557],[-98.5256,23.9737],[-98.5314,23.9767],[-98.5357,23.9746],[-98.5399,23.9646],[-98.5402,23.9466],[-98.5437,23.9411],[-98.5521,23.9426],[-98.5595,23.9537],[-98.5692,23.9587],[-98.5753,23.9574],[-98.5819,23.9473],[-98.5878,23.9472],[-98.6022,23.9708],[-98.5998,23.9913],[-98.604,23.9961],[-98.6101,23.9957],[-98.6144,23.9927],[-98.6177,23.9795],[-98.6338,24.0415],[-98.6614,24.0673],[-98.6436,24.0765],[-98.64,24.0838],[-98.6146,24.1],[-98.601,24.1128],[-98.6561,24.0983],[-98.6897,24.1589],[-98.7263,24.3492],[-98.7189,24.4146],[-98.6785,24.4091],[-98.6468,24.4645],[-98.5881,24.4674],[-98.5167,24.456],[-98.5139,24.4717],[-98.4132,24.4568],[-98.4164,24.44],[-98.3666,24.432],[-98.3739,24.4186],[-98.3669,24.4174],[-98.3646,24.4317],[-98.3514,24.4295],[-98.3485,24.4486],[-98.3333,24.4461],[-98.3361,24.427],[-98.278,24.4176]]]}},{"type":"Feature","properties":{"cve_ent":"28","cve_mun":"019","cvegeo":"28019","nombre":"Llera"},"geometry":{"type":"Polygon","coordinates":[[[-98.4168,23.1885],[-98.4148,23.1707],[-98.4284,23.1419],[-98.4457,23.1216],[-98.4432,23.1163],[-98.4573,23.0869],[-98.4976,23.0981],[-98.5373,23.0935],[-98.5478,23.0951],[-98.5546,23.0483],[-98.6227,23.0472],[-98.6269,23.0202],[-98.6666,23.0253],[-98.6652,23.0347],[-98.6941,23.0383],[-98.6897,23.0638],[-98.7282,23.0654],[-98.7266,23.0565],[-98.7552,23.0588],[-98.7645,23.1074],[-98.9153,23.1313],[-98.9167,23.1343],[-98.9221,23.1347],[-98.9224,23.1295],[-98.9283,23.1298],[-98.9261,23.1413],[-98.9522,23.1429],[-98.9507,23.1483],[-98.9757,23.1543],[-98.967,23.1731],[-98.99,23.1743],[-98.9945,23.152],[-98.999,23.1526],[-99.0022,23.1395],[-99.0378,23.1401],[-99.04,23.1177],[-99.0652,23.1204],[-99.0695,23.1282],[-99.0814,23.1258],[-99.085,23.1258],[-99.0853,23.1291],[-99.1477,23.1275],[-99.1435,23.1309],[-99.1492,23.1341],[-99.1854,23.127],[-99.1859,23.1508],[-99.2672,23.1433],[-99.2096,23.1664],[-99.2168,23.2023],[-99.1973,23.2066],[-99.198,23.2159],[-99.1816,23.2196],[-99.1856,23.238],[-99.1834,23.269],[-99.1574,23.2625],[-99.1446,23.2661],[-99.1778,23.3027],[-99.1755,23.3114],[-99.187,23.3124],[-99.1957,23.3724],[-99.1937,23.375],[-99.193,23.3698],[-99.1923,23.3994],[-99.1268,23.3961],[-99.1307,23.4065],[-99.1488,23.4091],[-99.1489,23.4286],[-99.1418,23.4232],[-99.1378,23.4437],[-99.122,23.4465],[-99.1146,23.4651],[-99.1133,23.4861],[-99.0927,23.4857],[-99.095,23.5177],[-99.0632,23.5189],[-99.0188,23.5575],[-99.0024,23.5509],[-98.9758,23.5742],[-98.9666,23.5584],[-98.9335,23.575],[-98.9251,23.5593],[-98.9187,23.5518],[-98.9115,23.5541],[-98.9087,23.5462],[-98.8811,23.5547],[-98.8712,23.5278],[-98.8668,23.5259],[-98.8708,23.5064],[-98.8296,23.5049],[-98.8371,23.4548],[-98.8563,23.4589],[-98.8606,23.4332],[-98.8407,23.4308],[-98.8461,23.3926],[-98.8228,23.3909],[-98.7518,23.3957],[-98.7515,23.3889],[-98.7312,23.3866],[-98.7273,23.2858],[-98.7474,23.2851],[-98.7459,23.2467],[-98.7259,23.2476],[-98.7246,23.184],[-98.7049,23.181],[-98.703,23.1902],[-98.6716,23.208],[-98.6567,23.2806],[-98.609,23.2991],[-98.6035,23.2875],[-98.5751,23.3013],[-98.5798,23.31],[-98.5685,23.3134],[-98.5623,23.3261],[-98.5047,23.3331],[-98.5157,23.2989],[-98.4692,23.2857],[-98.4646,23.2363],[-98.4079,23.2061],[-98.4142,23.1988],[-98.4168,23.1885]]]}},{"type":"Feature","properties":{"cve_ent":"28","cve_mun":"020","cvegeo":"28020","nombre":"Mainero"},"geometry":{"type":"Polygon","coordinates":[[[-99.4049,24.7351],[-99.4442,24.6165],[-99.451,24.6211],[-99.4623,24.5961],[-99.4515,24.5927],[-99.4553,24.5799],[-99.4557,24.536],[-99.4584,24.5317],[-99.47,24.5278],[-99.4771,24.531],[-99.4992,24.554],[-99.5077,24.549],[-99.5126,24.5485],[-99.5155,24.5522],[-99.5285,24.5495],[-99.5361,24.5393],[-99.5404,24.5381],[-99.5483,24.5443],[-99.5673,24.5433],[-99.5737,24.5482],[-99.5772,24.5473],[-99.5657,24.5337],[-99.5769,24.5311],[-99.5814,24.5234],[-99.5982,24.5127],[-99.608,24.5144],[-99.6093,24.5054],[-99.606,24.5022],[-99.61,24.5022],[-99.6134,24.4822],[-99.6097,24.4839],[-99.6085,24.4758],[-99.6141,24.4758],[-99.6173,24.464],[-99.6364,24.5067],[-99.7198,24.4837],[-99.733,24.554],[-99.7047,24.5759],[-99.6094,24.6225],[-99.597,24.6227],[-99.5926,24.6194],[-99.5858,24.6244],[-99.5761,24.6236],[-99.5574,24.6124],[-99.5572,24.6087],[-99.5462,24.6131],[-99.5478,24.6243],[-99.5451,24.6265],[-99.5398,24.6268],[-99.5379,24.6224],[-99.5282,24.6316],[-99.5128,24.6345],[-99.4995,24.6413],[-99.496,24.651],[-99.5006,24.666],[-99.5007,24.6792],[-99.4941,24.688],[-99.4919,24.6977],[-99.4777,24.7126],[-99.4481,24.7322],[-99.4367,24.7252],[-99.4269,24.7277],[-99.4229,24.7368],[-99.4049,24.7351]]]}},{"type":"Feature","properties":{"cve_ent":"28","cve_mun":"021","cvegeo":"28021","nombre":"El Mante"},"geometry":{"type":"Polygon","coordinates":[[[-99.0162,22.8337],[-98.9967,22.8258],[-98.9882,22.8315],[-98.9711,22.8209],[-98.9557,22.8224],[-98.9503,22.8156],[-98.9477,22.8045],[-98.9336,22.8067],[-98.9225,22.7987],[-98.9155,22.8034],[-98.9049,22.8044],[-98.9067,22.7927],[-98.8899,22.7812],[-98.8795,22.7807],[-98.8694,22.7844],[-98.8673,22.7889],[-98.8719,22.7952],[-98.8655,22.7995],[-98.8599,22.7917],[-98.8515,22.7917],[-98.8474,22.7872],[-98.8477,22.7762],[-98.852,22.7669],[-98.8503,22.7567],[-98.8365,22.7575],[-98.8343,22.7435],[-98.8477,22.7427],[-98.8467,22.7374],[-98.8422,22.7392],[-98.8417,22.7362],[-98.8463,22.7139],[-98.8423,22.7134],[-98.8439,22.7097],[-98.8564,22.7157],[-98.8624,22.6668],[-98.8657,22.6667],[-98.8737,22.6111],[-98.8641,22.6143],[-98.8516,22.6064],[-98.8358,22.5847],[-98.8283,22.5826],[-98.8142,22.5849],[-98.8028,22.5996],[-98.7886,22.6],[-98.7825,22.6104],[-98.7769,22.6122],[-98.7632,22.6069],[-98.7621,22.6023],[-98.6865,22.5992],[-98.682,22.6259],[-98.6773,22.6189],[-98.6684,22.6169],[-98.6577,22.6083],[-98.6392,22.6031],[-98.6347,22.6045],[-98.6244,22.5954],[-98.6141,22.6003],[-98.6066,22.5942],[-98.5966,22.5965],[-98.5918,22.5916],[-98.5752,22.592],[-98.5655,22.5875],[-98.5628,22.5895],[-98.5593,22.5844],[-98.5606,22.5812],[-98.5393,22.5794],[-98.5318,22.5697],[-98.5322,22.5659],[-98.5504,22.5657],[-98.5563,22.5558],[-98.5528,22.5479],[-98.5458,22.5511],[-98.5483,22.5448],[-98.5463,22.5424],[-98.5402,22.5503],[-98.5293,22.5457],[-98.527,22.5366],[-98.5308,22.5253],[-98.5229,22.5194],[-98.5264,22.5155],[-98.5385,22.5209],[-98.5465,22.5148],[-98.5451,22.4963],[-98.5367,22.4781],[-98.5259,22.4703],[-98.5367,22.4676],[-98.5383,22.4643],[-98.5355,22.4596],[-98.5146,22.4471],[-98.5023,22.4583],[-98.4886,22.4586],[-98.483,22.4546],[-98.4918,22.4359],[-98.4885,22.4243],[-98.4916,22.4195],[-98.4968,22.424],[-98.4943,22.4272],[-98.5064,22.4293],[-98.5122,22.4212],[-98.5096,22.4164],[-98.5254,22.4068],[-98.5413,22.4057],[-98.5461,22.4002],[-98.5685,22.4016],[-98.5749,22.3939],[-98.5835,22.3973],[-98.5923,22.3953],[-98.5945,22.3987],[-98.603,22.3996],[-98.608,22.4072],[-98.6138,22.4089],[-98.6212,22.4023],[-98.6269,22.4022],[-98.6263,22.4045],[-98.6296,22.404],[-98.6382,22.4145],[-98.6402,22.4114],[-98.6549,22.4092],[-98.6658,22.4037],[-98.6771,22.4089],[-98.6903,22.4027],[-98.7008,22.4026],[-98.7183,22.3908],[-98.7264,22.3898],[-98.7315,22.3813],[-98.7459,22.3809],[-98.7517,22.369],[-98.7564,22.3669],[-98.7756,22.3642],[-98.7864,22.366],[-98.7919,22.3619],[-98.8112,22.3615],[-98.8215,22.3563],[-98.8527,22.3684],[-98.8591,22.3647],[-98.8723,22.3674],[-98.8806,22.3583],[-98.89,22.3551],[-98.897,22.3591],[-98.899,22.3659],[-98.9127,22.3742],[-98.9253,22.3729],[-98.9388,22.4558],[-98.9591,22.4567],[-98.9687,22.5029],[-99.0184,22.585],[-99.014,22.5863],[-99.0273,22.5996],[-99.0119,22.6042],[-99.0144,22.6101],[-99.0245,22.6185],[-99.0363,22.6361],[-99.0516,22.6362],[-99.0639,22.6286],[-99.0813,22.7172],[-99.0755,22.7174],[-99.0865,22.7469],[-99.1165,22.7515],[-99.1191,22.7581],[-99.117,22.7578],[-99.1164,22.765],[-99.1255,22.7662],[-99.1235,22.7815],[-99.0924,22.7734],[-99.0936,22.7833],[-99.1053,22.7861],[-99.0966,22.793],[-99.0984,22.7984],[-99.1029,22.7981],[-99.1083,22.8108],[-99.1182,22.8388],[-99.1121,22.8379],[-99.1211,22.8526],[-99.1189,22.8556],[-99.1088,22.8602],[-99.0951,22.8567],[-99.0697,22.8336],[-99.0607,22.8379],[-99.0418,22.8363],[-99.0338,22.8424],[-99.0303,22.8368],[-99.025,22.8431],[-99.0162,22.8337]]]}},{"type":"Feature","properties":{"cve_ent":"28","cve_mun":"022","cvegeo":"28022","nombre":"Matamoros"},"geometry":{"type":"Polygon","coordinates":[[[-97.517,25.0409],[-97.5188,25.0501],[-97.6702,25.2245],[-97.7186,25.2719],[-97.7186,25.2616],[-97.8077,25.3415],[-97.8033,25.3468],[-97.8488,25.3673],[-97.8517,25.3703],[-97.8472,25.3745],[-97.8593,25.3858],[-97.8629,25.3805],[-97.878,25.3963],[-97.8998,25.3758],[-97.8998,25.3809],[-97.9411,25.3809],[-97.9426,25.3853],[-97.8899,25.435],[-97.8898,25.453],[-97.87,25.4531],[-97.87,25.4621],[-97.86,25.4621],[-97.86,25.4801],[-97.8502,25.4801],[-97.85,25.4951],[-97.8532,25.4952],[-97.8534,25.4981],[-97.8691,25.4982],[-97.869,25.5042],[-97.7366,25.504],[-97.7358,25.8127],[-97.8045,25.8921],[-97.8056,25.9024],[-97.8232,25.8932],[-97.861,25.9174],[-97.9164,25.934],[-97.9167,25.9638],[-97.9066,25.9639],[-97.9081,26.0267],[-97.9026,26.0288],[-97.906,26.0457],[-97.9006,26.0455],[-97.9022,26.0609],[-97.8901,26.0606],[-97.8877,26.0665],[-97.8768,26.0646],[-97.869,26.0568],[-97.8614,26.07],[-97.861,26.053],[-97.8392,26.0531],[-97.8337,26.0456],[-97.8258,26.0558],[-97.8182,26.0565],[-97.8149,26.0538],[-97.8166,26.0458],[-97.814,26.0438],[-97.811,26.0454],[-97.8113,26.0553],[-97.8011,26.0602],[-97.7989,26.0528],[-97.7928,26.0532],[-97.7888,26.0494],[-97.7975,26.0436],[-97.7937,26.0351],[-97.7818,26.0338],[-97.7766,26.0293],[-97.7693,26.0359],[-97.7757,26.0395],[-97.7768,26.0443],[-97.7688,26.0475],[-97.7627,26.0416],[-97.7642,26.0284],[-97.7615,26.0256],[-97.7522,26.0315],[-97.748,26.0261],[-97.7428,26.0297],[-97.7353,26.0284],[-97.7347,26.032],[-97.7214,26.0313],[-97.7182,26.0289],[-97.7205,26.023],[-97.7095,26.0262],[-97.7071,26.0377],[-97.7022,26.0308],[-97.697,26.0306],[-97.6976,26.0239],[-97.6916,26.0188],[-97.69,26.0224],[-97.6933,26.0324],[-97.6876,26.0273],[-97.6757,26.0258],[-97.6732,26.028],[-97.676,26.0298],[-97.6748,26.0328],[-97.6709,26.034],[-97.6672,26.0289],[-97.6626,26.0381],[-97.6606,26.0314],[-97.6674,26.0245],[-97.6681,26.0194],[-97.6577,26.02],[-97.6516,26.0159],[-97.6504,26.0237],[-97.6464,26.0274],[-97.6399,26.024],[-97.6378,26.0138],[-97.6493,26.0104],[-97.6357,26.0001],[-97.6271,26.0061],[-97.6273,25.9965],[-97.6184,26.0023],[-97.6205,25.9922],[-97.631,25.9965],[-97.6344,25.99],[-97.6216,25.9891],[-97.6167,25.9791],[-97.6079,25.9768],[-97.6106,25.966],[-97.6021,25.9574],[-97.5985,25.9567],[-97.5938,25.9616],[-97.5821,25.9624],[-97.5831,25.955],[-97.5781,25.9421],[-97.5729,25.9462],[-97.5745,25.9539],[-97.5679,25.9525],[-97.5664,25.9447],[-97.5822,25.9386],[-97.5833,25.9332],[-97.567,25.9337],[-97.568,25.9278],[-97.5617,25.9257],[-97.5577,25.9354],[-97.5523,25.9372],[-97.5462,25.9342],[-97.5437,25.9234],[-97.5373,25.9308],[-97.5431,25.9201],[-97.53,25.9199],[-97.5333,25.9084],[-97.5285,25.9068],[-97.5237,25.899],[-97.5213,25.8863],[-97.5109,25.8875],[-97.4982,25.8992],[-97.4972,25.8799],[-97.4879,25.8855],[-97.4878,25.8792],[-97.4845,25.8788],[-97.469,25.8889],[-97.4684,25.884],[-97.4747,25.8797],[-97.4706,25.8754],[-97.464,25.8821],[-97.4555,25.8841],[-97.4567,25.8686],[-97.4535,25.8674],[-97.449,25.8723],[-97.4446,25.8678],[-97.4541,25.8543],[-97.4451,25.8564],[-97.444,25.8486],[-97.4361,25.85],[-97.4235,25.8402],[-97.4124,25.8411],[-97.414,25.856],[-97.4095,25.8623],[-97.4079,25.8546],[-97.4106,25.8496],[-97.4079,25.8452],[-97.402,25.8522],[-97.3987,25.8503],[-97.4005,25.8414],[-97.4069,25.84],[-97.4062,25.8379],[-97.3934,25.8373],[-97.387,25.8439],[-97.3819,25.8396],[-97.3726,25.8401],[-97.371,25.8496],[-97.3642,25.8509],[-97.3762,25.8556],[-97.3694,25.8578],[-97.3615,25.8695],[-97.359,25.8658],[-97.3567,25.8674],[-97.3594,25.8798],[-97.3642,25.8778],[-97.3742,25.8803],[-97.3564,25.8878],[-97.3665,25.8905],[-97.366,25.9024],[-97.375,25.9083],[-97.3681,25.9098],[-97.3691,25.9151],[-97.3548,25.9198],[-97.3479,25.9313],[-97.3368,25.9297],[-97.3379,25.9204],[-97.3342,25.9203],[-97.333,25.9262],[-97.3309,25.9179],[-97.3261,25.9175],[-97.3246,25.9249],[-97.3183,25.9311],[-97.3136,25.931],[-97.3095,25.9263],[-97.3048,25.928],[-97.3032,25.937],[-97.2956,25.9333],[-97.2917,25.9364],[-97.2768,25.9352],[-97.281,25.9443],[-97.2781,25.947],[-97.2893,25.954],[-97.284,25.9593],[-97.2764,25.9522],[-97.2475,25.948],[-97.2388,25.9557],[-97.2266,25.9593],[-97.2199,25.9573],[-97.2086,25.9639],[-97.205,25.958],[-97.1886,25.9537],[-97.1868,25.9584],[-97.1775,25.9618],[-97.1762,25.9656],[-97.167,25.9603],[-97.1585,25.9618],[-97.1588,25.9488],[-97.1464,25.9549],[-97.1443,25.9172],[-97.1465,25.8658],[-97.1643,25.7456],[-97.1798,25.6862],[-97.201,25.6283],[-97.2075,25.6218],[-97.3905,25.3058],[-97.4191,25.2488],[-97.4205,25.2364],[-97.412,25.2341],[-97.425,25.2372],[-97.4278,25.2344],[-97.413,25.2306],[-97.4253,25.2335],[-97.4384,25.2166],[-97.517,25.0409]]]}},{"type":"Feature","properties":{"cve_ent":"28","cve_mun":"023","cvegeo":"28023","nombre":"Méndez"},"geometry":{"type":"Polygon","coordinates":[[[-98.2242,25.446],[-98.0587,25.4464],[-98.0587,25.3447],[-98.0786,25.3446],[-98.0787,25.3034],[-98.1085,25.3086],[-98.1085,25.2544],[-98.1746,25.2597],[-98.1784,25.2205],[-98.208,25.2229],[-98.2089,25.2139],[-98.2187,25.2147],[-98.2207,25.1935],[-98.2257,25.1936],[-98.2258,25.1876],[-98.2407,25.1876],[-98.2408,25.1804],[-98.2506,25.1804],[-98.2506,25.1567],[-98.3157,25.1579],[-98.3239,25.1043],[-98.3436,25.1068],[-98.3477,25.0805],[-98.3832,25.0736],[-98.3878,25.0396],[-98.3923,25.0375],[-98.3996,25.0222],[-98.4049,25.0187],[-98.4167,25.0177],[-98.414,25.0098],[-98.4094,25.0115],[-98.3997,25.0075],[-98.3786,24.9891],[-98.3842,24.9814],[-98.3885,24.9838],[-98.3926,24.9786],[-98.4081,24.9772],[-98.4041,24.9658],[-98.4116,24.9608],[-98.4211,24.9623],[-98.4242,24.9576],[-98.421,24.9473],[-98.4291,24.9391],[-98.4292,24.9281],[-98.4379,24.932],[-98.4496,24.927],[-98.4509,24.9338],[-98.4539,24.9349],[-98.4555,24.9315],[-98.4707,24.9299],[-98.4704,24.9207],[-98.4776,24.9278],[-98.4874,24.9277],[-98.4964,24.9234],[-98.4972,24.9178],[-98.5148,24.9179],[-98.52,24.9259],[-98.5318,24.929],[-98.535,24.9348],[-98.5401,24.9355],[-98.5391,24.9263],[-98.5475,24.9217],[-98.5451,24.9148],[-98.5528,24.9157],[-98.5574,24.9128],[-98.5505,24.9576],[-98.5603,24.9593],[-98.5616,24.9513],[-98.6067,24.9591],[-98.6045,24.973],[-98.597,24.9718],[-98.5907,25.0318],[-98.6814,25.0467],[-98.6846,25.0366],[-98.6884,25.0373],[-98.6925,25.0305],[-98.7013,25.0324],[-98.7014,25.0225],[-98.7064,25.0193],[-98.711,25.0203],[-98.7179,25.0146],[-98.7613,25.0274],[-98.7531,25.057],[-98.7406,25.0504],[-98.7387,25.0795],[-98.7923,25.0876],[-98.7907,25.0973],[-98.8007,25.0902],[-98.8142,25.0861],[-98.8177,25.0811],[-98.8231,25.0812],[-98.8231,25.0986],[-98.8329,25.0962],[-98.833,25.0885],[-98.8408,25.0855],[-98.843,25.0989],[-98.8634,25.0996],[-98.8638,25.1271],[-98.5853,25.3323],[-98.4231,25.4475],[-98.4216,25.4894],[-98.4333,25.4894],[-98.4322,25.4968],[-98.3776,25.4898],[-98.3746,25.4585],[-98.3467,25.4594],[-98.328,25.4603],[-98.3278,25.4696],[-98.2978,25.4665],[-98.2958,25.4793],[-98.2626,25.5044],[-98.2384,25.4754],[-98.2395,25.446],[-98.2244,25.4481],[-98.2242,25.446]]]}},{"type":"Feature","properties":{"cve_ent":"28","cve_mun":"024","cvegeo":"28024","nombre":"Mier"},"geometry":{"type":"Polygon","coordinates":[[[-99.1674,26.5597],[-99.1718,26.5454],[-99.1679,26.537],[-99.1534,26.5306],[-99.1278,26.5253],[-99.1062,26.5021],[-99.0916,26.4761],[-99.1001,26.4596],[-99.1029,26.4416],[-99.1137,26.4342],[-99.111,26.4265],[-99.0964,26.4123],[-99.1105,26.4074],[-99.1071,26.4063],[-99.1115,26.3996],[-99.101,26.3921],[-99.1037,26.3926],[-99.1012,26.3822],[-99.1042,26.3787],[-99.1179,26.3767],[-99.1175,26.3461],[-99.1113,26.3276],[-99.1171,26.3246],[-99.1169,26.3036],[-99.1013,26.299],[-99.1001,26.2945],[-99.1085,26.2934],[-99.1116,26.2896],[-99.1128,26.2945],[-99.1168,26.2952],[-99.1164,26.2631],[-99.1828,26.2649],[-99.1801,26.2573],[-99.1837,26.2561],[-99.1897,26.259],[-99.26,26.2528],[-99.3642,26.3293],[-99.3721,26.3219],[-99.3858,26.3171],[-99.3947,26.3062],[-99.4012,26.3048],[-99.4309,26.3513],[-99.4142,26.4448],[-99.4098,26.4428],[-99.4004,26.5501],[-99.3413,26.5484],[-99.3389,26.5597],[-99.2516,26.5752],[-99.2477,26.581],[-99.2451,26.5649],[-99.2462,26.5609],[-99.2521,26.5609],[-99.2395,26.556],[-99.2001,26.5557],[-99.207,26.5605],[-99.185,26.5645],[-99.1674,26.5597]]]}},{"type":"Feature","properties":{"cve_ent":"28","cve_mun":"025","cvegeo":"28025","nombre":"Miguel Alemán"},"geometry":{"type":"Polygon","coordinates":[[[-98.9561,26.3771],[-98.9445,26.3666],[-98.9498,26.3567],[-98.9492,26.3435],[-98.9457,26.3424],[-98.9483,26.3381],[-98.946,26.3381],[-98.9466,26.3146],[-98.9418,26.2982],[-98.9897,26.1872],[-98.9943,26.1879],[-98.9919,26.1821],[-99.0169,26.1235],[-99.0144,26.1178],[-99.0165,26.114],[-99.0236,26.1149],[-99.0267,26.1118],[-99.0217,26.0988],[-99.0244,26.0938],[-99.0373,26.0935],[-99.0461,26.0985],[-99.0628,26.0905],[-99.0625,26.0801],[-99.0745,26.0788],[-99.0769,26.0718],[-99.0916,26.0699],[-99.0963,26.0724],[-99.0932,26.0773],[-99.095,26.0806],[-99.1093,26.0787],[-99.1155,26.0754],[-99.1199,26.0665],[-99.1319,26.068],[-99.1321,26.0643],[-99.124,26.0567],[-99.1277,26.0536],[-99.1409,26.053],[-99.1434,26.0611],[-99.1603,26.0614],[-99.1619,26.0703],[-99.167,26.0755],[-99.171,26.0945],[-99.1978,26.2585],[-99.1801,26.2573],[-99.1828,26.2649],[-99.1164,26.2631],[-99.1168,26.2952],[-99.1128,26.2945],[-99.1116,26.2896],[-99.1085,26.2934],[-99.1001,26.2945],[-99.1013,26.299],[-99.1169,26.3036],[-99.1171,26.3246],[-99.1113,26.3276],[-99.1175,26.3461],[-99.1179,26.3767],[-99.1042,26.3787],[-99.1012,26.3822],[-99.1037,26.3926],[-99.101,26.3921],[-99.1115,26.3996],[-99.1071,26.4063],[-99.1105,26.4074],[-99.0964,26.4123],[-99.089,26.4079],[-99.084,26.3976],[-99.0633,26.3973],[-99.036,26.4135],[-99.0209,26.4066],[-99.0108,26.3923],[-99.0,26.3941],[-98.9878,26.3917],[-98.9768,26.4011],[-98.9635,26.3989],[-98.9539,26.3936],[-98.9561,26.3771]]]}},{"type":"Feature","properties":{"cve_ent":"28","cve_mun":"026","cvegeo":"28026","nombre":"Miquihuana"},"geometry":{"type":"Polygon","coordinates":[[[-99.6599,23.7707],[-99.6661,23.7496],[-99.6453,23.6997],[-99.6576,23.6776],[-99.6639,23.6744],[-99.6655,23.6778],[-99.6746,23.6792],[-99.6803,23.675],[-99.6717,23.6524],[-99.6422,23.5981],[-99.5814,23.4239],[-99.6192,23.4272],[-99.6258,23.4036],[-99.6443,23.3916],[-99.6425,23.3977],[-99.6492,23.4375],[-99.6579,23.4593],[-99.6609,23.4793],[-99.6794,23.5085],[-99.7126,23.5374],[-99.7333,23.5203],[-99.7474,23.5169],[-99.7581,23.5102],[-99.7672,23.511],[-99.7689,23.4828],[-99.7954,23.4855],[-99.817,23.5257],[-99.8472,23.4961],[-99.8815,23.5089],[-99.871,23.551],[-99.9087,23.5302],[-99.9248,23.4921],[-99.9477,23.4972],[-99.9612,23.5569],[-99.9158,23.6651],[-99.8911,23.7038],[-99.8607,23.7745],[-99.8055,23.7843],[-99.769,23.7845],[-99.6834,23.7766],[-99.6599,23.7707]]]}},{"type":"Feature","properties":{"cve_ent":"28","cve_mun":"027","cvegeo":"28027","nombre":"Nuevo Laredo"},"geometry":{"type":"Polygon","coordinates":[[[-99.4965,27.2713],[-99.6123,27.2783],[-99.6048,27.2892],[-99.6382,27.2918],[-99.6383,27.2879],[-99.7317,27.2944],[-99.7324,27.2877],[-99.7488,27.289],[-99.7604,27.437],[-99.9192,27.4915],[-99.9264,27.5492],[-99.7281,27.6791],[-99.7226,27.6674],[-99.7055,27.6553],[-99.6988,27.6558],[-99.6969,27.663],[-99.6905,27.6691],[-99.6865,27.6615],[-99.6638,27.6574],[-99.6581,27.6478],[-99.6663,27.6364],[-99.6564,27.6295],[-99.6374,27.6268],[-99.6237,27.6326],[-99.6274,27.6393],[-99.6252,27.6439],[-99.6206,27.6437],[-99.6159,27.6374],[-99.6032,27.642],[-99.5945,27.6387],[-99.5915,27.6277],[-99.5773,27.6189],[-99.5768,27.611],[-99.5843,27.606],[-99.5838,27.6031],[-99.5613,27.6071],[-99.554,27.6139],[-99.5403,27.6044],[-99.529,27.5792],[-99.5151,27.5714],[-99.5115,27.5661],[-99.5133,27.5578],[-99.5187,27.5531],[-99.522,27.5443],[-99.5282,27.4982],[-99.5231,27.4965],[-99.5021,27.5002],[-99.4934,27.4976],[-99.4813,27.4891],[-99.4788,27.4795],[-99.4953,27.4466],[-99.4955,27.438],[-99.4876,27.411],[-99.4928,27.392],[-99.4923,27.3806],[-99.503,27.3665],[-99.5079,27.3535],[-99.5045,27.3388],[-99.5178,27.3271],[-99.532,27.3238],[-99.5381,27.317],[-99.5279,27.3048],[-99.5034,27.3062],[-99.4946,27.3038],[-99.4875,27.2908],[-99.4965,27.2713]]]}},{"type":"Feature","properties":{"cve_ent":"28","cve_mun":"028","cvegeo":"28028","nombre":"Nuevo Morelos"},"geometry":{"type":"Polygon","coordinates":[[[-99.1146,22.4067],[-99.2368,22.4129],[-99.2434,22.4334],[-99.2631,22.4698],[-99.2724,22.5133],[-99.2887,22.5558],[-99.3055,22.5886],[-99.2093,22.6242],[-99.2105,22.6142],[-99.201,22.6109],[-99.1884,22.6211],[-99.179,22.5872],[-99.1617,22.5539],[-99.1478,22.5423],[-99.1271,22.4991],[-99.1226,22.4721],[-99.1099,22.442],[-99.1146,22.4067]]]}},{"type":"Feature","properties":{"cve_ent":"28","cve_mun":"029","cvegeo":"28029","nombre":"Ocampo"},"geometry":{"type":"Polygon","coordinates":[[[-99.3585,23.0604],[-99.3581,23.0164],[-99.3299,22.9788],[-99.2829,22.9677],[-99.2897,22.9634],[-99.2056,22.9423],[-99.1631,22.949],[-99.1567,22.9222],[-99.1476,22.9224],[-99.1453,22.9128],[-99.141,22.9128],[-99.1366,22.8871],[-99.1291,22.8657],[-99.139,22.8539],[-99.1431,22.8536],[-99.1432,22.8424],[-99.1189,22.8402],[-99.1045,22.8013],[-99.1029,22.7981],[-99.0984,22.7984],[-99.0966,22.793],[-99.1053,22.7861],[-99.0936,22.7833],[-99.0924,22.7734],[-99.1235,22.7815],[-99.1255,22.7662],[-99.1392,22.7671],[-99.1411,22.7536],[-99.1446,22.7465],[-99.1501,22.7459],[-99.1511,22.7385],[-99.1607,22.7412],[-99.1628,22.7209],[-99.1662,22.7214],[-99.1671,22.7142],[-99.1807,22.716],[-99.1818,22.7087],[-99.1971,22.7108],[-99.1979,22.7029],[-99.1904,22.7022],[-99.1886,22.6925],[-99.199,22.6934],[-99.2002,22.6878],[-99.1939,22.6873],[-99.1962,22.6733],[-99.2052,22.6742],[-99.2009,22.6646],[-99.2014,22.6473],[-99.203,22.6419],[-99.2072,22.6424],[-99.2093,22.6242],[-99.3055,22.5886],[-99.314,22.6099],[-99.3286,22.6087],[-99.3301,22.6148],[-99.3214,22.6167],[-99.3296,22.6349],[-99.3732,22.6291],[-99.3856,22.6703],[-99.3965,22.6708],[-99.4199,22.662],[-99.4421,22.6636],[-99.4792,22.7421],[-99.4924,22.7419],[-99.4968,22.7485],[-99.5443,22.7441],[-99.5392,22.7291],[-99.5641,22.746],[-99.5341,22.7682],[-99.5395,22.8057],[-99.5197,22.8095],[-99.4996,22.8206],[-99.5173,22.838],[-99.5123,22.892],[-99.5316,22.9199],[-99.5422,22.9259],[-99.5097,22.9288],[-99.5151,22.9401],[-99.4928,22.9523],[-99.4742,22.9702],[-99.4863,23.0012],[-99.4794,23.0118],[-99.4637,23.0061],[-99.4609,23.0179],[-99.4598,23.025],[-99.4713,23.0242],[-99.4734,23.0345],[-99.4781,23.0296],[-99.4878,23.0342],[-99.4908,23.06],[-99.5067,23.0599],[-99.4994,23.0855],[-99.4828,23.0749],[-99.4724,23.0757],[-99.4727,23.0782],[-99.4619,23.0727],[-99.4601,23.0985],[-99.4417,23.0997],[-99.4426,23.0897],[-99.4218,23.0918],[-99.4109,23.0607],[-99.3585,23.0604]]]}},{"type":"Feature","properties":{"cve_ent":"28","cve_mun":"030","cvegeo":"28030","nombre":"Padilla"},"geometry":{"type":"Polygon","coordinates":[[[-98.6897,24.1589],[-98.6561,24.0983],[-98.601,24.1128],[-98.6146,24.1],[-98.64,24.0838],[-98.6436,24.0765],[-98.6614,24.0673],[-98.6338,24.0415],[-98.6153,23.9728],[-98.6215,23.9671],[-98.6741,23.958],[-98.6735,23.9537],[-98.6782,23.956],[-98.6766,23.9602],[-98.6865,23.9657],[-98.6897,23.9643],[-98.6899,23.9601],[-98.6875,23.9598],[-98.6899,23.9575],[-98.6873,23.9568],[-98.6896,23.9521],[-98.686,23.9502],[-98.6893,23.9498],[-98.6878,23.9247],[-98.692,23.9253],[-98.691,23.9187],[-98.7013,23.9178],[-98.6999,23.9114],[-98.7047,23.9016],[-98.6985,23.8955],[-98.6993,23.8917],[-98.6947,23.8907],[-98.7023,23.8888],[-98.6989,23.8869],[-98.7012,23.8797],[-98.6963,23.8759],[-98.7041,23.875],[-98.7094,23.8852],[-98.7108,23.8758],[-98.7077,23.8685],[-98.7113,23.8588],[-98.7076,23.8555],[-98.7157,23.8502],[-98.7038,23.8442],[-98.6994,23.8296],[-98.7021,23.8256],[-98.6894,23.8171],[-98.695,23.8132],[-98.689,23.7997],[-98.6917,23.7933],[-98.6954,23.7957],[-98.6904,23.8015],[-98.6966,23.8037],[-98.6968,23.8099],[-98.7084,23.8272],[-98.7185,23.8343],[-98.7219,23.848],[-98.7249,23.8448],[-98.7276,23.8472],[-98.7278,23.8437],[-98.7313,23.8435],[-98.7292,23.8402],[-98.7348,23.8386],[-98.7331,23.8351],[-98.7273,23.8348],[-98.7274,23.8324],[-98.7307,23.833],[-98.7278,23.8217],[-98.7354,23.8218],[-98.7292,23.8107],[-98.7254,23.8097],[-98.7308,23.8089],[-98.731,23.8031],[-98.7232,23.804],[-98.7247,23.8015],[-98.719,23.7969],[-98.7101,23.7973],[-98.7104,23.7937],[-98.7043,23.7905],[-98.7062,23.7867],[-98.7013,23.7899],[-98.697,23.7813],[-98.7022,23.7712],[-98.7127,23.762],[-98.7368,23.7658],[-98.7405,23.7721],[-98.7389,23.7784],[-98.7831,23.7897],[-98.7954,23.7799],[-98.8386,23.8242],[-98.838,23.8288],[-98.8301,23.828],[-98.9193,23.937],[-98.9186,23.9488],[-98.9321,23.9467],[-98.9288,23.953],[-98.9467,23.9432],[-98.9453,23.9508],[-98.9855,23.9571],[-98.9822,23.9752],[-99.0077,23.9794],[-99.0089,23.9841],[-99.0652,24.0135],[-99.0628,24.0539],[-99.0745,24.0582],[-99.0759,24.0193],[-99.0887,24.0257],[-99.0863,24.0715],[-99.0942,24.0691],[-99.0939,24.0745],[-99.1012,24.0759],[-99.1092,24.0825],[-99.1152,24.0776],[-99.1185,24.0802],[-99.1302,24.0793],[-99.1472,24.0867],[-99.1406,24.0861],[-99.137,24.1108],[-99.1457,24.1134],[-99.1398,24.1413],[-99.1268,24.1392],[-99.1205,24.1791],[-98.9505,24.1159],[-98.9432,24.1612],[-98.9591,24.169],[-98.9577,24.1766],[-98.9625,24.1822],[-98.9104,24.1769],[-98.9176,24.1958],[-98.7923,24.1759],[-98.7931,24.179],[-98.7622,24.174],[-98.7614,24.1708],[-98.6897,24.1589]]]}},{"type":"Feature","properties":{"cve_ent":"28","cve_mun":"031","cvegeo":"28031","nombre":"Palmillas"},"geometry":{"type":"Polygon","coordinates":[[[-99.4736,23.0987],[-99.4724,23.0757],[-99.4828,23.0749],[-99.5417,23.1147],[-99.596,23.1123],[-99.5946,23.1454],[-99.5988,23.1706],[-99.6326,23.1691],[-99.6382,23.2011],[-99.6469,23.2202],[-99.6127,23.2185],[-99.6168,23.2272],[-99.6363,23.2258],[-99.6363,23.2287],[-99.6222,23.2295],[-99.6456,23.2488],[-99.6206,23.2429],[-99.6492,23.2773],[-99.6547,23.2976],[-99.6514,23.3566],[-99.6415,23.3573],[-99.632,23.3981],[-99.6258,23.4036],[-99.6192,23.4272],[-99.5516,23.4238],[-99.5531,23.4559],[-99.5426,23.4559],[-99.5275,23.4282],[-99.4749,23.4211],[-99.5015,23.4159],[-99.5015,23.3901],[-99.4976,23.3897],[-99.4965,23.381],[-99.5003,23.3829],[-99.5041,23.3797],[-99.5002,23.3567],[-99.5138,23.359],[-99.5165,23.3499],[-99.4918,23.2676],[-99.4967,23.2607],[-99.5359,23.2732],[-99.5348,23.2487],[-99.5006,23.2488],[-99.4924,23.1183],[-99.478,23.1044],[-99.4777,23.0984],[-99.4736,23.0987]]]}},{"type":"Feature","properties":{"cve_ent":"28","cve_mun":"032","cvegeo":"28032","nombre":"Reynosa"},"geometry":{"type":"Polygon","coordinates":[[[-98.1557,26.0562],[-98.1583,26.0342],[-98.1416,26.0293],[-98.1502,26.0008],[-98.1502,25.9879],[-98.1559,25.986],[-98.1547,25.9769],[-98.1587,25.9768],[-98.1585,25.7086],[-98.1655,25.7018],[-98.151,25.6888],[-98.1502,25.6113],[-98.1541,25.6113],[-98.154,25.591],[-98.1732,25.5911],[-98.1381,25.5428],[-98.1492,25.543],[-98.1517,25.4461],[-98.2242,25.446],[-98.2244,25.4481],[-98.2395,25.446],[-98.2384,25.4754],[-98.2626,25.5044],[-98.2958,25.4793],[-98.2978,25.4665],[-98.3278,25.4696],[-98.328,25.4603],[-98.3746,25.4585],[-98.3776,25.4898],[-98.4322,25.4968],[-98.4333,25.4894],[-98.5818,25.4894],[-98.5804,25.6373],[-98.5855,26.0389],[-98.562,26.0389],[-98.5638,26.1006],[-98.5697,26.1011],[-98.5704,26.1098],[-98.5618,26.1109],[-98.5524,26.1171],[-98.5379,26.2092],[-98.5308,26.2165],[-98.5229,26.2186],[-98.5186,26.2248],[-98.5116,26.227],[-98.5002,26.222],[-98.5065,26.2088],[-98.4849,26.2125],[-98.4813,26.2068],[-98.4835,26.2016],[-98.4807,26.2006],[-98.4775,26.2038],[-98.483,26.2151],[-98.4809,26.2199],[-98.4718,26.2204],[-98.4595,26.226],[-98.4545,26.2167],[-98.4498,26.2229],[-98.4432,26.2238],[-98.4386,26.212],[-98.4439,26.2005],[-98.4266,26.1924],[-98.4171,26.1841],[-98.4028,26.1815],[-98.4017,26.171],[-98.3931,26.1675],[-98.3862,26.1577],[-98.3664,26.1577],[-98.3642,26.1621],[-98.3672,26.1685],[-98.3598,26.1725],[-98.3573,26.1687],[-98.3582,26.1587],[-98.3521,26.1511],[-98.3487,26.1536],[-98.3455,26.1663],[-98.335,26.1653],[-98.3331,26.1594],[-98.3379,26.1494],[-98.3265,26.1429],[-98.3345,26.1412],[-98.3356,26.1383],[-98.3219,26.1189],[-98.3098,26.114],[-98.3053,26.1029],[-98.2977,26.1034],[-98.3036,26.11],[-98.2969,26.1203],[-98.2745,26.1159],[-98.2663,26.1209],[-98.2658,26.1171],[-98.272,26.1134],[-98.2705,26.1066],[-98.2824,26.1079],[-98.2886,26.105],[-98.2676,26.0925],[-98.2647,26.0855],[-98.2517,26.0788],[-98.2495,26.0722],[-98.2304,26.0772],[-98.2202,26.0763],[-98.213,26.0692],[-98.2047,26.0664],[-98.1987,26.0555],[-98.1932,26.0531],[-98.1871,26.0644],[-98.1769,26.0607],[-98.1806,26.0662],[-98.1797,26.0735],[-98.1766,26.0753],[-98.1679,26.0631],[-98.158,26.0636],[-98.1617,26.054],[-98.1557,26.0562]]]}},{"type":"Feature","properties":{"cve_ent":"28","cve_mun":"033","cvegeo":"28033","nombre":"Río Bravo"},"geometry":{"type":"Polygon","coordinates":[[[-97.9083,26.0575],[-97.9076,26.0522],[-97.9129,26.0533],[-97.9082,26.0311],[-97.9142,26.0299],[-97.9126,25.9911],[-97.9169,25.9911],[-97.9168,25.9676],[-97.9226,25.9677],[-97.9224,25.9336],[-97.9282,25.9353],[-97.9295,25.9315],[-97.9294,25.8958],[-97.9196,25.8957],[-97.9195,25.8847],[-97.9293,25.8848],[-97.9293,25.8796],[-97.9359,25.8796],[-97.9375,25.868],[-97.9375,25.8611],[-97.9191,25.8611],[-97.9195,25.8055],[-97.9336,25.8054],[-97.934,25.7574],[-97.9494,25.7575],[-97.949,25.7214],[-97.962,25.7186],[-97.9619,25.6868],[-97.9793,25.6868],[-97.9793,25.6844],[-97.9621,25.6844],[-97.9593,25.6157],[-97.9395,25.6157],[-97.9395,25.5075],[-97.8858,25.5073],[-97.8858,25.5042],[-97.869,25.5042],[-97.8691,25.4982],[-97.8534,25.4981],[-97.8532,25.4952],[-97.85,25.4951],[-97.8501,25.4802],[-97.86,25.4801],[-97.86,25.4621],[-97.87,25.4621],[-97.87,25.4531],[-97.8898,25.453],[-97.8899,25.435],[-97.9426,25.3853],[-97.9411,25.3813],[-97.9494,25.3813],[-97.9495,25.426],[-97.9793,25.426],[-97.9793,25.4441],[-98.029,25.444],[-98.0289,25.4259],[-98.0587,25.4259],[-98.0587,25.4464],[-98.1517,25.4461],[-98.1492,25.543],[-98.1381,25.5428],[-98.1732,25.5911],[-98.154,25.591],[-98.1541,25.6113],[-98.1502,25.6113],[-98.151,25.6888],[-98.1655,25.7018],[-98.1585,25.7086],[-98.1587,25.9768],[-98.1547,25.9769],[-98.1559,25.986],[-98.1502,25.9879],[-98.1502,26.0008],[-98.1416,26.0293],[-98.1583,26.0342],[-98.1583,26.0442],[-98.1532,26.0582],[-98.1496,26.0566],[-98.1481,26.0498],[-98.1434,26.0506],[-98.1369,26.0623],[-98.1364,26.0709],[-98.131,26.0745],[-98.1282,26.0726],[-98.1297,26.0632],[-98.1246,26.062],[-98.1046,26.0677],[-98.0936,26.0586],[-98.0811,26.0647],[-98.085,26.0707],[-98.0783,26.0702],[-98.07,26.0502],[-98.0726,26.0438],[-98.0802,26.0416],[-98.0768,26.0363],[-98.0709,26.037],[-98.0622,26.0463],[-98.0387,26.0414],[-98.0331,26.0617],[-98.0279,26.067],[-98.0211,26.0586],[-98.012,26.0661],[-98.0119,26.0561],[-98.0026,26.0649],[-97.9973,26.0647],[-97.9919,26.0582],[-97.9875,26.0661],[-97.9802,26.0672],[-97.9786,26.0589],[-97.9665,26.0517],[-97.9511,26.0622],[-97.9336,26.053],[-97.9314,26.0575],[-97.9373,26.0621],[-97.9336,26.0656],[-97.9306,26.0645],[-97.9271,26.0548],[-97.9196,26.058],[-97.9083,26.0575]]]}},{"type":"Feature","properties":{"cve_ent":"28","cve_mun":"034","cvegeo":"28034","nombre":"San Carlos"},"geometry":{"type":"Polygon","coordinates":[[[-98.9247,24.7696],[-98.903,24.769],[-98.9136,24.7171],[-98.8751,24.6669],[-98.8859,24.6625],[-98.8491,24.6163],[-98.8306,24.5696],[-98.8182,24.4969],[-98.7253,24.521],[-98.7224,24.4893],[-98.727,24.4886],[-98.7203,24.4735],[-98.7039,24.4803],[-98.6597,24.4643],[-98.6468,24.4645],[-98.6785,24.4091],[-98.7189,24.4146],[-98.7208,24.4097],[-98.7184,24.4045],[-98.7261,24.3674],[-98.7235,24.3669],[-98.7263,24.3492],[-98.6897,24.1589],[-98.7614,24.1708],[-98.7622,24.174],[-98.7931,24.179],[-98.7923,24.1759],[-98.9176,24.1958],[-98.9104,24.1769],[-98.9625,24.1822],[-98.9577,24.1766],[-98.9591,24.169],[-98.9432,24.1612],[-98.9505,24.1159],[-99.1345,24.1842],[-99.1274,24.2159],[-99.0443,24.2138],[-99.0871,24.2555],[-99.082,24.2685],[-99.096,24.2762],[-99.0959,24.2815],[-99.1044,24.2827],[-99.1135,24.2958],[-99.1214,24.2965],[-99.1289,24.3009],[-99.1287,24.3042],[-99.1389,24.3066],[-99.1451,24.3262],[-99.151,24.3288],[-99.1515,24.3336],[-99.1601,24.3359],[-99.167,24.3439],[-99.1762,24.3445],[-99.1786,24.3503],[-99.1806,24.3493],[-99.1802,24.3536],[-99.1906,24.3588],[-99.1936,24.368],[-99.1915,24.3708],[-99.1987,24.3846],[-99.2096,24.3889],[-99.2114,24.3972],[-99.2231,24.4057],[-99.2454,24.4084],[-99.2056,24.468],[-99.1969,24.4684],[-99.1973,24.5351],[-99.1929,24.5424],[-99.1927,24.5502],[-99.178,24.5548],[-99.1758,24.5596],[-99.1764,24.5692],[-99.173,24.5732],[-99.1796,24.5843],[-99.1558,24.5921],[-99.1474,24.5995],[-99.1975,24.6009],[-99.1951,24.6257],[-99.1874,24.628],[-99.1899,24.6295],[-99.1823,24.7374],[-99.1977,24.7316],[-99.2129,24.7717],[-99.1887,24.7807],[-99.182,24.776],[-99.2074,24.8614],[-99.2049,24.8642],[-99.16,24.8522],[-99.1582,24.8453],[-99.1136,24.8404],[-99.081,24.8516],[-99.0719,24.849],[-99.0762,24.8591],[-99.0719,24.8592],[-99.0295,24.8538],[-99.0241,24.8519],[-99.0208,24.8418],[-98.9991,24.8465],[-99.0001,24.8796],[-98.9553,24.8534],[-98.9549,24.7771],[-98.9247,24.7696]]]}},{"type":"Feature","properties":{"cve_ent":"28","cve_mun":"035","cvegeo":"28035","nombre":"San Fernando"},"geometry":{"type":"Polygon","coordinates":[[[-97.9494,25.3813],[-97.8998,25.3809],[-97.8998,25.3758],[-97.878,25.3963],[-97.8629,25.3805],[-97.8593,25.3858],[-97.8472,25.3745],[-97.8517,25.3703],[-97.8488,25.3673],[-97.8033,25.3468],[-97.8077,25.3415],[-97.7186,25.2616],[-97.7186,25.2719],[-97.6702,25.2245],[-97.5188,25.0501],[-97.517,25.0409],[-97.5721,24.8877],[-97.5823,24.8508],[-97.5806,24.844],[-97.5863,24.8433],[-97.5812,24.842],[-97.5861,24.8391],[-97.5912,24.8246],[-97.6538,24.6005],[-97.6753,24.5093],[-97.6791,24.4874],[-97.6775,24.48],[-97.6886,24.4775],[-97.7431,24.4784],[-97.7479,24.4511],[-97.7685,24.4421],[-97.7745,24.4246],[-97.7995,24.4142],[-97.8313,24.4165],[-97.8439,24.434],[-98.0537,24.3005],[-98.0686,24.3246],[-98.0328,24.3468],[-98.0117,24.3647],[-98.0192,24.4042],[-98.111,24.4025],[-98.1115,24.4183],[-98.1446,24.4231],[-98.1845,24.4228],[-98.1848,24.4797],[-98.1448,24.4723],[-98.0998,24.5041],[-98.1386,24.5736],[-98.1498,24.5651],[-98.1714,24.5868],[-98.1794,24.5811],[-98.2206,24.6241],[-98.2346,24.6185],[-98.2389,24.6086],[-98.2485,24.6069],[-98.251,24.5995],[-98.2672,24.6014],[-98.274,24.5923],[-98.2808,24.5893],[-98.288,24.5921],[-98.2936,24.6053],[-98.3101,24.6123],[-98.3036,24.6226],[-98.3221,24.6329],[-98.2897,24.6783],[-98.2969,24.7064],[-98.3109,24.7039],[-98.3169,24.7248],[-98.3063,24.7248],[-98.3146,24.7508],[-98.3109,24.7536],[-98.3171,24.7704],[-98.3214,24.7739],[-98.3328,24.8153],[-98.3392,24.8163],[-98.3523,24.8109],[-98.3518,24.8357],[-98.3673,24.84],[-98.363,24.8652],[-98.378,24.8582],[-98.3889,24.8777],[-98.4089,24.8716],[-98.4304,24.9045],[-98.4188,24.9154],[-98.4133,24.914],[-98.413,24.9189],[-98.4198,24.9241],[-98.4291,24.9391],[-98.421,24.9473],[-98.4242,24.9576],[-98.4211,24.9623],[-98.4127,24.9604],[-98.4041,24.9658],[-98.4088,24.9767],[-98.4025,24.9795],[-98.3926,24.9786],[-98.3885,24.9838],[-98.3842,24.9814],[-98.3786,24.9887],[-98.3791,24.9921],[-98.3841,24.9925],[-98.3997,25.0075],[-98.4094,25.0115],[-98.414,25.0098],[-98.4167,25.0177],[-98.4049,25.0187],[-98.3996,25.0222],[-98.3923,25.0375],[-98.3878,25.0396],[-98.3832,25.0736],[-98.3477,25.0805],[-98.3436,25.1068],[-98.3239,25.1043],[-98.3157,25.1579],[-98.2506,25.1567],[-98.2506,25.1804],[-98.2408,25.1804],[-98.2407,25.1876],[-98.2258,25.1876],[-98.2257,25.1936],[-98.2207,25.1935],[-98.2187,25.2147],[-98.2089,25.2139],[-98.208,25.2229],[-98.1784,25.2205],[-98.1746,25.2597],[-98.1085,25.2544],[-98.1085,25.3086],[-98.0787,25.3034],[-98.0786,25.3446],[-98.0587,25.3447],[-98.0587,25.4259],[-98.0289,25.4259],[-98.029,25.444],[-97.9793,25.4441],[-97.9793,25.426],[-97.9495,25.426],[-97.9494,25.3813]]]}},{"type":"Feature","properties":{"cve_ent":"28","cve_mun":"036","cvegeo":"28036","nombre":"San Nicolás"},"geometry":{"type":"Polygon","coordinates":[[[-98.7028,24.7435],[-98.6698,24.7218],[-98.6594,24.7324],[-98.6614,24.6777],[-98.6918,24.6341],[-98.6938,24.6012],[-98.6919,24.5793],[-98.6478,24.5672],[-98.6526,24.5343],[-98.6564,24.5309],[-98.657,24.5024],[-98.6468,24.4645],[-98.6597,24.4643],[-98.7039,24.4803],[-98.7203,24.4735],[-98.727,24.4886],[-98.7224,24.4893],[-98.7253,24.521],[-98.8182,24.4969],[-98.8306,24.5696],[-98.8491,24.6163],[-98.8859,24.6625],[-98.8751,24.6669],[-98.9136,24.7171],[-98.903,24.769],[-98.9247,24.7696],[-98.9247,24.7804],[-98.9019,24.7747],[-98.8385,24.7681],[-98.8425,24.7405],[-98.8027,24.7434],[-98.7873,24.7475],[-98.7678,24.7451],[-98.7565,24.7373],[-98.7074,24.7244],[-98.7114,24.7318],[-98.7028,24.7435]]]}},{"type":"Feature","properties":{"cve_ent":"28","cve_mun":"037","cvegeo":"28037","nombre":"Soto la Marina"},"geometry":{"type":"Polygon","coordinates":[[[-97.7431,24.4784],[-97.6764,24.4779],[-97.6797,24.4771],[-97.6869,24.4506],[-97.712,24.2687],[-97.7358,23.9784],[-97.7359,23.7962],[-97.7345,23.7735],[-97.7318,23.7717],[-97.7379,23.7584],[-97.7424,23.6621],[-97.7657,23.4178],[-97.7695,23.3469],[-97.769,23.2723],[-97.7841,23.2763],[-97.7919,23.2736],[-97.7895,23.2888],[-97.8059,23.2921],[-97.8021,23.3098],[-97.8117,23.3113],[-97.8083,23.3314],[-97.8171,23.3382],[-97.8363,23.3337],[-97.8376,23.3263],[-97.8558,23.328],[-97.8509,23.3136],[-97.8597,23.3148],[-97.8626,23.2977],[-97.8902,23.3],[-97.8876,23.3164],[-97.9019,23.3085],[-97.9086,23.3088],[-97.9126,23.315],[-97.9302,23.3082],[-97.9336,23.3007],[-97.9487,23.2934],[-97.9456,23.2931],[-97.9459,23.2885],[-97.9614,23.2896],[-97.9647,23.2993],[-97.987,23.3024],[-98.0064,23.3421],[-98.0238,23.3424],[-98.0338,23.333],[-98.0486,23.3335],[-98.0612,23.3435],[-98.0798,23.3453],[-98.0892,23.3525],[-98.0902,23.3629],[-98.097,23.361],[-98.0995,23.3624],[-98.0983,23.366],[-98.1204,23.3701],[-98.1265,23.3668],[-98.1297,23.3495],[-98.1827,23.3578],[-98.1989,23.3491],[-98.2109,23.3474],[-98.2059,23.3228],[-98.2128,23.293],[-98.2405,23.2833],[-98.2412,23.2921],[-98.2518,23.2973],[-98.2602,23.295],[-98.2623,23.2902],[-98.282,23.2962],[-98.2864,23.2868],[-98.299,23.2808],[-98.3648,23.3353],[-98.3551,23.382],[-98.3669,23.4101],[-98.4051,23.4151],[-98.4064,23.4082],[-98.4473,23.4137],[-98.4348,23.4463],[-98.4396,23.4564],[-98.436,23.4545],[-98.4302,23.4602],[-98.4275,23.4568],[-98.4221,23.4635],[-98.4295,23.4701],[-98.4151,23.477],[-98.4312,23.4907],[-98.4267,23.5015],[-98.4233,23.498],[-98.4169,23.508],[-98.4311,23.5094],[-98.4263,23.5125],[-98.4296,23.5181],[-98.4626,23.5473],[-98.4486,23.5598],[-98.455,23.5659],[-98.4689,23.555],[-98.471,23.5575],[-98.4689,23.5653],[-98.4636,23.5678],[-98.4624,23.5649],[-98.4603,23.5751],[-98.4727,23.5684],[-98.5131,23.6081],[-98.4956,23.6239],[-98.4942,23.634],[-98.4884,23.6358],[-98.4965,23.6496],[-98.5046,23.6468],[-98.4955,23.7247],[-98.4629,23.7211],[-98.457,23.7734],[-98.4817,23.817],[-98.2634,23.9256],[-98.2514,23.9252],[-98.2488,23.9298],[-98.2414,23.9325],[-98.2378,23.952],[-98.2228,23.95],[-98.2063,23.9614],[-98.1883,23.962],[-98.1905,23.9709],[-98.1978,23.9746],[-98.2168,23.9657],[-98.2337,23.9652],[-98.2342,23.9712],[-98.2377,23.9737],[-98.2371,23.9814],[-98.2334,23.9836],[-98.2354,23.9867],[-98.2304,23.9907],[-98.2295,23.9958],[-98.2109,24.0076],[-98.2013,24.0083],[-98.1945,24.0029],[-98.1882,24.0366],[-98.1976,24.0479],[-98.2004,24.0565],[-98.14,24.0569],[-98.1418,24.0768],[-98.1355,24.0861],[-98.1329,24.1151],[-98.049,24.1147],[-98.0489,24.1229],[-98.001,24.1225],[-98.0747,24.1701],[-98.0599,24.1847],[-98.0599,24.1975],[-98.0371,24.1976],[-98.0356,24.2335],[-98.0019,24.2337],[-98.0149,24.2615],[-98.0194,24.263],[-98.0196,24.3222],[-97.8439,24.434],[-97.8313,24.4165],[-97.7995,24.4142],[-97.7745,24.4246],[-97.7685,24.4421],[-97.7479,24.4511],[-97.7431,24.4784]]]}},{"type":"Feature","properties":{"cve_ent":"28","cve_mun":"038","cvegeo":"28038","nombre":"Tampico"},"geometry":{"type":"Polygon","coordinates":[[[-97.8557,22.3219],[-97.8487,22.3063],[-97.8539,22.2813],[-97.8579,22.2821],[-97.852,22.2739],[-97.8563,22.2754],[-97.8594,22.2668],[-97.8556,22.2617],[-97.8575,22.2465],[-97.8455,22.2402],[-97.844,22.234],[-97.8364,22.2301],[-97.8377,22.2124],[-97.8449,22.207],[-97.895,22.2224],[-97.9024,22.2333],[-97.9173,22.2391],[-97.9203,22.246],[-97.9168,22.2526],[-97.9257,22.2507],[-97.9342,22.2542],[-97.9317,22.271],[-97.9539,22.287],[-97.9567,22.2939],[-97.9715,22.2962],[-97.9827,22.3026],[-97.9831,22.2989],[-97.9869,22.3016],[-97.9927,22.2928],[-98.0003,22.2974],[-97.9976,22.3027],[-97.9989,22.3143],[-97.984,22.3047],[-97.97,22.333],[-97.9626,22.3258],[-97.95,22.3233],[-97.9022,22.3265],[-97.8557,22.3219]]]}},{"type":"Feature","properties":{"cve_ent":"28","cve_mun":"039","cvegeo":"28039","nombre":"Tula"},"geometry":{"type":"Polygon","coordinates":[[[-99.6539,23.2828],[-99.6206,23.2429],[-99.6456,23.2488],[-99.6222,23.2295],[-99.6363,23.2287],[-99.6363,23.2258],[-99.6168,23.2272],[-99.6127,23.2185],[-99.6469,23.2202],[-99.6382,23.2011],[-99.6326,23.1691],[-99.5988,23.1706],[-99.5946,23.1454],[-99.5973,23.1137],[-99.5417,23.1147],[-99.5114,23.096],[-99.4994,23.0855],[-99.5067,23.0599],[-99.4908,23.06],[-99.4878,23.0342],[-99.4781,23.0296],[-99.4734,23.0345],[-99.4713,23.0242],[-99.4598,23.025],[-99.4637,23.0061],[-99.4794,23.0118],[-99.4863,23.0012],[-99.4742,22.9702],[-99.4928,22.9523],[-99.5151,22.9401],[-99.5097,22.9288],[-99.5422,22.9259],[-99.5316,22.9199],[-99.5123,22.892],[-99.5173,22.838],[-99.4996,22.8206],[-99.5197,22.8095],[-99.5395,22.8057],[-99.5341,22.7682],[-99.5643,22.7481],[-99.5392,22.7291],[-99.5168,22.6644],[-99.4945,22.6209],[-99.5347,22.6128],[-99.5606,22.6412],[-99.6825,22.6811],[-99.7241,22.6596],[-99.7548,22.6566],[-99.785,22.6685],[-99.798,22.6667],[-99.8055,22.6578],[-99.8479,22.6784],[-99.8428,22.7306],[-99.8824,22.7499],[-99.957,22.7517],[-100.0223,22.7259],[-100.0941,22.7513],[-100.1019,22.7628],[-100.0294,22.8244],[-100.0442,22.9179],[-100.1104,22.9167],[-100.1108,22.9757],[-100.0894,22.9688],[-100.0995,23.0079],[-100.0975,23.0131],[-100.0863,23.0111],[-100.0805,23.002],[-100.0717,22.9974],[-100.0662,23.0018],[-100.0663,23.0104],[-100.0618,23.012],[-100.0669,23.0314],[-100.0621,23.0398],[-100.0542,23.042],[-100.0475,23.0506],[-100.0317,23.0534],[-100.0237,23.0605],[-100.0124,23.0594],[-100.0116,23.0656],[-100.0694,23.0969],[-100.0165,23.1088],[-100.0048,23.1237],[-99.9886,23.1671],[-100.0036,23.1633],[-100.0023,23.1868],[-100.0184,23.1837],[-100.0204,23.2077],[-99.9652,23.2117],[-99.9657,23.243],[-99.9474,23.2414],[-99.9188,23.1996],[-99.921,23.1968],[-99.9082,23.1817],[-99.897,23.1417],[-99.8656,23.1587],[-99.8537,23.1408],[-99.8408,23.1479],[-99.8418,23.1568],[-99.857,23.167],[-99.8635,23.1928],[-99.8654,23.2172],[-99.8299,23.2241],[-99.8304,23.2198],[-99.8202,23.2148],[-99.8003,23.2257],[-99.8016,23.1797],[-99.7494,23.1706],[-99.7482,23.1984],[-99.7273,23.1975],[-99.7299,23.1777],[-99.7161,23.1609],[-99.7102,23.2121],[-99.6928,23.2773],[-99.6557,23.2731],[-99.6539,23.2828]]]}},{"type":"Feature","properties":{"cve_ent":"28","cve_mun":"040","cvegeo":"28040","nombre":"Valle Hermoso"},"geometry":{"type":"Polygon","coordinates":[[[-97.7366,25.504],[-97.8858,25.5042],[-97.8858,25.5073],[-97.9395,25.5075],[-97.9395,25.6157],[-97.9593,25.6157],[-97.9621,25.6844],[-97.9793,25.6844],[-97.9793,25.6868],[-97.9619,25.6868],[-97.962,25.7186],[-97.949,25.7214],[-97.9494,25.7575],[-97.934,25.7574],[-97.9336,25.8054],[-97.9195,25.8055],[-97.9191,25.8611],[-97.9375,25.8611],[-97.9375,25.868],[-97.9359,25.8796],[-97.9293,25.8796],[-97.9293,25.8848],[-97.9195,25.8847],[-97.9196,25.8957],[-97.9294,25.8958],[-97.9295,25.9315],[-97.9282,25.9353],[-97.9224,25.9336],[-97.9226,25.9677],[-97.9168,25.9676],[-97.9169,25.9911],[-97.9125,25.9915],[-97.9142,26.0299],[-97.9082,26.0311],[-97.9129,26.0533],[-97.9076,26.0522],[-97.9083,26.0575],[-97.9022,26.0609],[-97.9006,26.0455],[-97.906,26.0457],[-97.9061,26.0401],[-97.9026,26.0288],[-97.9081,26.0267],[-97.9066,25.9639],[-97.9167,25.9638],[-97.9164,25.934],[-97.861,25.9174],[-97.8232,25.8932],[-97.8056,25.9024],[-97.8045,25.8921],[-97.7358,25.8127],[-97.7366,25.504]]]}},{"type":"Feature","properties":{"cve_ent":"28","cve_mun":"041","cvegeo":"28041","nombre":"Victoria"},"geometry":{"type":"Polygon","coordinates":[[[-98.9409,23.6872],[-98.9454,23.6874],[-98.9445,23.6706],[-98.9533,23.6549],[-98.9432,23.6491],[-98.9963,23.6032],[-98.9989,23.6057],[-99.0288,23.5804],[-99.0239,23.5696],[-99.0314,23.5631],[-99.033,23.5715],[-99.0413,23.5646],[-99.0362,23.5424],[-99.0632,23.5189],[-99.095,23.5177],[-99.0927,23.4857],[-99.1133,23.4861],[-99.1146,23.4651],[-99.122,23.4465],[-99.1378,23.4437],[-99.1418,23.4232],[-99.1489,23.4286],[-99.1488,23.4091],[-99.1307,23.4065],[-99.1268,23.3961],[-99.1563,23.3976],[-99.1803,23.4191],[-99.1787,23.4278],[-99.1838,23.4307],[-99.1867,23.4259],[-99.1999,23.4322],[-99.206,23.4278],[-99.2172,23.4345],[-99.2345,23.4319],[-99.2406,23.4352],[-99.2491,23.4313],[-99.2492,23.4273],[-99.2554,23.4661],[-99.2537,23.4779],[-99.2788,23.5351],[-99.2873,23.6171],[-99.2612,23.6135],[-99.2544,23.6313],[-99.2585,23.6454],[-99.2874,23.6347],[-99.2872,23.6569],[-99.2709,23.6728],[-99.2802,23.6788],[-99.3068,23.6829],[-99.3064,23.7266],[-99.326,23.7661],[-99.3243,23.7695],[-99.3037,23.7742],[-99.2867,23.7832],[-99.2838,23.7879],[-99.3057,23.822],[-99.3503,23.8214],[-99.3586,23.8592],[-99.373,23.8816],[-99.379,23.8835],[-99.3688,23.8937],[-99.3546,23.8923],[-99.3155,23.898],[-99.2923,23.9086],[-99.3022,23.9128],[-99.3042,23.9109],[-99.3092,23.916],[-99.2852,23.9301],[-99.2701,23.9509],[-99.2689,23.958],[-99.2606,23.9607],[-99.252,23.9575],[-99.2373,23.9744],[-99.2255,23.9775],[-99.2187,23.9832],[-99.2049,23.9777],[-99.1963,23.9796],[-99.1675,23.9415],[-99.1773,23.9385],[-99.161,23.9154],[-99.1742,23.9086],[-99.1715,23.9042],[-99.1546,23.9128],[-99.156,23.9152],[-99.1447,23.9115],[-99.1517,23.908],[-99.1479,23.9017],[-99.1387,23.9026],[-99.1359,23.8999],[-99.0973,23.8488],[-98.9699,23.7172],[-98.9701,23.702],[-98.9578,23.7017],[-98.9503,23.6858],[-98.9458,23.6876],[-98.945,23.6914],[-98.9409,23.6872]]]}},{"type":"Feature","properties":{"cve_ent":"28","cve_mun":"042","cvegeo":"28042","nombre":"Villagrán"},"geometry":{"type":"Polygon","coordinates":[[[-99.2129,24.7717],[-99.1977,24.7316],[-99.1823,24.7374],[-99.1899,24.6295],[-99.1874,24.628],[-99.1951,24.6257],[-99.1975,24.6009],[-99.1474,24.5995],[-99.1558,24.5921],[-99.1796,24.5843],[-99.173,24.5732],[-99.1764,24.5692],[-99.1758,24.5596],[-99.178,24.5548],[-99.1927,24.5502],[-99.1929,24.5424],[-99.1973,24.5351],[-99.1969,24.4684],[-99.2056,24.468],[-99.2447,24.4097],[-99.3351,24.4004],[-99.3648,24.4046],[-99.3656,24.3997],[-99.4082,24.4055],[-99.416,24.3738],[-99.4188,24.3729],[-99.4271,24.3799],[-99.4493,24.379],[-99.4525,24.3813],[-99.4589,24.3765],[-99.4803,24.3747],[-99.4807,24.3779],[-99.487,24.3775],[-99.4864,24.383],[-99.4929,24.3846],[-99.5023,24.3834],[-99.5145,24.3882],[-99.5279,24.3853],[-99.5774,24.3925],[-99.5776,24.3976],[-99.5899,24.3961],[-99.6173,24.464],[-99.6141,24.4758],[-99.6085,24.4758],[-99.6097,24.4839],[-99.6134,24.4822],[-99.61,24.5022],[-99.606,24.5022],[-99.6093,24.5054],[-99.608,24.5144],[-99.5982,24.5127],[-99.5814,24.5234],[-99.5769,24.5311],[-99.5657,24.5337],[-99.5782,24.5466],[-99.5737,24.5482],[-99.5673,24.5433],[-99.5483,24.5443],[-99.5404,24.5381],[-99.5361,24.5393],[-99.5285,24.5495],[-99.5155,24.5522],[-99.5126,24.5485],[-99.5077,24.549],[-99.4992,24.554],[-99.4771,24.531],[-99.47,24.5278],[-99.4568,24.5331],[-99.4553,24.5799],[-99.4515,24.5927],[-99.4623,24.5961],[-99.451,24.6211],[-99.4442,24.6165],[-99.4033,24.737],[-99.3891,24.7399],[-99.3818,24.747],[-99.3764,24.7614],[-99.3679,24.7656],[-99.3644,24.7718],[-99.3317,24.7762],[-99.3179,24.7898],[-99.3107,24.7873],[-99.3068,24.792],[-99.2972,24.7941],[-99.2949,24.8041],[-99.2129,24.7717]]]}},{"type":"Feature","properties":{"cve_ent":"28","cve_mun":"043","cvegeo":"28043","nombre":"Xicoténcatl"},"geometry":{"type":"Polygon","coordinates":[[[-98.7645,23.1074],[-98.7662,23.0785],[-98.7742,23.0795],[-98.7789,23.0427],[-98.7968,23.0417],[-98.7986,23.0309],[-98.7816,23.0298],[-98.7797,23.0373],[-98.7631,23.0376],[-98.7817,22.933],[-98.7854,22.9335],[-98.7889,22.9105],[-98.8449,22.9191],[-98.8489,22.8951],[-98.8779,22.8957],[-98.8793,22.8859],[-98.8881,22.8869],[-98.8891,22.8806],[-98.8956,22.8813],[-98.8958,22.878],[-98.8915,22.8774],[-98.8986,22.8341],[-98.8926,22.8332],[-98.8894,22.8534],[-98.8823,22.8524],[-98.8839,22.8431],[-98.8692,22.8443],[-98.8743,22.8129],[-98.8881,22.8129],[-98.8897,22.8031],[-98.9093,22.8046],[-98.9225,22.7987],[-98.9336,22.8067],[-98.9483,22.8049],[-98.9499,22.8145],[-98.9557,22.8224],[-98.9711,22.8209],[-98.989,22.8317],[-98.9948,22.8261],[-99.0,22.8264],[-99.018,22.8348],[-99.0216,22.8437],[-99.0177,22.8619],[-99.0114,22.8741],[-99.0123,22.8905],[-99.0064,22.9088],[-99.0073,22.919],[-99.004,22.927],[-98.9927,22.9334],[-98.9986,22.9506],[-98.993,22.9722],[-98.9949,22.9862],[-99.0031,22.9896],[-99.0125,23.0008],[-99.0308,22.9978],[-99.0348,23.0008],[-99.0343,23.0042],[-99.0485,23.0045],[-99.0476,23.0073],[-99.0543,23.0057],[-99.0627,23.0086],[-99.0662,23.0139],[-99.0698,23.0119],[-99.0708,23.0161],[-99.0748,23.0139],[-99.0709,23.0165],[-99.0688,23.0283],[-99.0876,23.0277],[-99.0883,23.0322],[-99.0954,23.0324],[-99.1008,23.0393],[-99.1097,23.0407],[-99.1101,23.0441],[-99.1049,23.0454],[-99.1085,23.0493],[-99.1069,23.066],[-99.1169,23.064],[-99.1242,23.0672],[-99.1225,23.0764],[-99.13,23.0794],[-99.127,23.0908],[-99.1349,23.0905],[-99.1395,23.0946],[-99.1349,23.0989],[-99.1419,23.1059],[-99.142,23.1139],[-99.1481,23.1233],[-99.1448,23.1252],[-99.1477,23.1275],[-99.0853,23.1291],[-99.085,23.1258],[-99.0695,23.1282],[-99.0652,23.1204],[-99.04,23.1177],[-99.0378,23.1401],[-99.0022,23.1395],[-98.999,23.1526],[-98.9945,23.152],[-98.99,23.1743],[-98.967,23.1731],[-98.9757,23.1543],[-98.9507,23.1483],[-98.9522,23.1429],[-98.9261,23.1413],[-98.9283,23.1298],[-98.9224,23.1295],[-98.9221,23.1347],[-98.9167,23.1343],[-98.9153,23.1313],[-98.7645,23.1074]]]}}]}