{"type":"FeatureCollection","features":[{"type":"Feature","properties":{"cve_ent":"HN01","cve_mun":"001","cvegeo":"HN0101","nombre":"La Ceiba"},"geometry":{"type":"Polygon","coordinates":[[[-86.89,15.76],[-86.832,15.767],[-86.815,15.778],[-86.805,15.78],[-86.792,15.793],[-86.782,15.797],[-86.759,15.798],[-86.716,15.788],[-86.666,15.788],[-86.639,15.797],[-86.599,15.798],[-86.598,15.789],[-86.602,15.787],[-86.6,15.754],[-86.612,15.737],[-86.626,15.726],[-86.608,15.699],[-86.618,15.689],[-86.617,15.662],[-86.611,15.646],[-86.616,15.614],[-86.696,15.583],[-86.732,15.558],[-86.765,15.549],[-86.764,15.545],[-86.803,15.548],[-86.808,15.556],[-86.819,15.553],[-86.828,15.543],[-86.837,15.543],[-86.84,15.549],[-86.85,15.547],[-86.851,15.565],[-86.859,15.567],[-86.865,15.5627],[-86.864,15.575],[-86.871,15.581],[-86.871,15.586],[-86.877,15.588],[-86.875,15.595],[-86.879,15.596],[-86.879,15.605],[-86.884,15.609],[-86.864,15.616],[-86.878,15.64],[-86.849,15.658],[-86.847,15.687],[-86.859,15.702],[-86.869,15.745],[-86.89,15.76]]]}},{"type":"Feature","properties":{"cve_ent":"HN01","cve_mun":"002","cvegeo":"HN0102","nombre":"El Porvenir"},"geometry":{"type":"MultiPolygon","coordinates":[[[[-87.016,15.776],[-87.014,15.777],[-87.014,15.776],[-87.016,15.776]]],[[[-87.014,15.776],[-86.974,15.763],[-86.927,15.756],[-86.9,15.756],[-86.891,15.762],[-86.883,15.758],[-86.877,15.748],[-86.869,15.745],[-86.859,15.702],[-86.847,15.687],[-86.849,15.658],[-86.878,15.64],[-86.864,15.616],[-86.884,15.609],[-86.879,15.605],[-86.879,15.596],[-86.875,15.595],[-86.877,15.588],[-86.871,15.586],[-86.871,15.581],[-86.864,15.575],[-86.866,15.561],[-86.898,15.554],[-86.907,15.561],[-86.927,15.546],[-86.944,15.55],[-86.971,15.547],[-86.983,15.552],[-86.954,15.578],[-86.954,15.591],[-86.961,15.595],[-86.961,15.599],[-86.966,15.599],[-86.96,15.614],[-86.966,15.617],[-86.964,15.626],[-86.968,15.629],[-86.963,15.639],[-86.969,15.64],[-86.961,15.648],[-86.964,15.654],[-86.958,15.655],[-86.961,15.662],[-86.968,15.664],[-86.96,15.668],[-86.961,15.681],[-86.957,15.684],[-86.956,15.694],[-86.967,15.699],[-86.973,15.693],[-86.985,15.694],[-86.99,15.69],[-87.004,15.695],[-87.003,15.703],[-87.01,15.702],[-87.007,15.713],[-87.013,15.711],[-87.015,15.722],[-87.01,15.723],[-87.014,15.725],[-87.01,15.733],[-87.014,15.734],[-87.02,15.748],[-87.01,15.755],[-87.011,15.759],[-86.999,15.765],[-87.004,15.772],[-87.014,15.776]]]]}},{"type":"Feature","properties":{"cve_ent":"HN01","cve_mun":"003","cvegeo":"HN0103","nombre":"Esparta"},"geometry":{"type":"MultiPolygon","coordinates":[[[[-87.322,15.64],[-87.325,15.657],[-87.313,15.654],[-87.318,15.661],[-87.31,15.664],[-87.304,15.688],[-87.297,15.689],[-87.299,15.708],[-87.294,15.714],[-87.3,15.716],[-87.296,15.72],[-87.29,15.717],[-87.291,15.724],[-87.281,15.728],[-87.275,15.74],[-87.28,15.745],[-87.275,15.749],[-87.28,15.755],[-87.272,15.755],[-87.279,15.765],[-87.282,15.764],[-87.281,15.771],[-87.287,15.766],[-87.285,15.773],[-87.293,15.773],[-87.294,15.779],[-87.299,15.778],[-87.3,15.793],[-87.305,15.796],[-87.307,15.792],[-87.308,15.796],[-87.309,15.792],[-87.314,15.796],[-87.311,15.798],[-87.316,15.798],[-87.314,15.806],[-87.317,15.809],[-87.315,15.813],[-87.32,15.814],[-87.318,15.823],[-87.321,15.825],[-87.317,15.826],[-87.32,15.832],[-87.233,15.806],[-87.152,15.792],[-87.127,15.783],[-87.131,15.758],[-87.134,15.758],[-87.13,15.756],[-87.134,15.749],[-87.134,15.737],[-87.13,15.732],[-87.133,15.73],[-87.131,15.718],[-87.137,15.709],[-87.137,15.699],[-87.144,15.697],[-87.15,15.682],[-87.154,15.683],[-87.154,15.679],[-87.163,15.676],[-87.159,15.669],[-87.175,15.668],[-87.18,15.665],[-87.18,15.66],[-87.183,15.662],[-87.184,15.657],[-87.188,15.657],[-87.188,15.663],[-87.19,15.66],[-87.198,15.662],[-87.2,15.652],[-87.208,15.653],[-87.209,15.647],[-87.213,15.651],[-87.22,15.65],[-87.223,15.643],[-87.218,15.635],[-87.221,15.63],[-87.217,15.63],[-87.214,15.624],[-87.217,15.619],[-87.212,15.617],[-87.217,15.597],[-87.21,15.591],[-87.209,15.582],[-87.209,15.576],[-87.219,15.567],[-87.217,15.56],[-87.221,15.557],[-87.218,15.547],[-87.214,15.547],[-87.216,15.538],[-87.211,15.511],[-87.217,15.509],[-87.22,15.502],[-87.218,15.49],[-87.226,15.485],[-87.225,15.474],[-87.229,15.472],[-87.225,15.464],[-87.229,15.462],[-87.232,15.445],[-87.222,15.428],[-87.246,15.438],[-87.259,15.435],[-87.262,15.439],[-87.275,15.439],[-87.28,15.447],[-87.286,15.448],[-87.287,15.61],[-87.285,15.614],[-87.281,15.611],[-87.277,15.62],[-87.266,15.625],[-87.287,15.633],[-87.289,15.639],[-87.313,15.635],[-87.315,15.639],[-87.322,15.64]],[[-87.165,15.669],[-87.164,15.67],[-87.165,15.67],[-87.165,15.669]]],[[[-87.178,15.664],[-87.179,15.665],[-87.178,15.665],[-87.178,15.664]]],[[[-87.168,15.667],[-87.167,15.667],[-87.168,15.666],[-87.168,15.667]]],[[[-87.13,15.734],[-87.131,15.735],[-87.13,15.735],[-87.13,15.734]]]]}},{"type":"Feature","properties":{"cve_ent":"HN01","cve_mun":"004","cvegeo":"HN0104","nombre":"Jutiapa"},"geometry":{"type":"Polygon","coordinates":[[[-86.599,15.798],[-86.526,15.807],[-86.497,15.816],[-86.482,15.812],[-86.434,15.781],[-86.45,15.782],[-86.443,15.758],[-86.449,15.751],[-86.449,15.737],[-86.444,15.735],[-86.445,15.728],[-86.438,15.721],[-86.416,15.719],[-86.403,15.722],[-86.405,15.714],[-86.397,15.708],[-86.394,15.699],[-86.399,15.695],[-86.396,15.693],[-86.396,15.679],[-86.386,15.683],[-86.383,15.676],[-86.376,15.679],[-86.362,15.676],[-86.364,15.604],[-86.382,15.596],[-86.408,15.593],[-86.401,15.574],[-86.471,15.598],[-86.482,15.597],[-86.484,15.592],[-86.502,15.591],[-86.51,15.585],[-86.518,15.587],[-86.519,15.582],[-86.525,15.582],[-86.535,15.592],[-86.557,15.592],[-86.574,15.586],[-86.637,15.604],[-86.63,15.611],[-86.616,15.614],[-86.611,15.646],[-86.617,15.662],[-86.618,15.689],[-86.608,15.699],[-86.626,15.726],[-86.612,15.737],[-86.6,15.754],[-86.602,15.787],[-86.598,15.789],[-86.599,15.798]],[[-86.449,15.778],[-86.45,15.778],[-86.45,15.777],[-86.449,15.778]]]}},{"type":"Feature","properties":{"cve_ent":"HN01","cve_mun":"005","cvegeo":"HN0105","nombre":"La Masica"},"geometry":{"type":"MultiPolygon","coordinates":[[[[-87.232,15.445],[-87.229,15.462],[-87.225,15.464],[-87.229,15.472],[-87.225,15.474],[-87.226,15.485],[-87.218,15.49],[-87.22,15.502],[-87.217,15.509],[-87.211,15.511],[-87.216,15.538],[-87.214,15.547],[-87.218,15.547],[-87.221,15.557],[-87.217,15.56],[-87.219,15.567],[-87.209,15.576],[-87.209,15.582],[-87.21,15.591],[-87.217,15.597],[-87.212,15.617],[-87.217,15.619],[-87.214,15.622],[-87.216,15.629],[-87.221,15.63],[-87.218,15.633],[-87.223,15.641],[-87.221,15.648],[-87.213,15.651],[-87.209,15.647],[-87.208,15.653],[-87.2,15.652],[-87.198,15.662],[-87.19,15.66],[-87.188,15.663],[-87.188,15.657],[-87.184,15.657],[-87.175,15.668],[-87.159,15.669],[-87.163,15.676],[-87.154,15.679],[-87.154,15.683],[-87.15,15.682],[-87.144,15.697],[-87.137,15.699],[-87.137,15.709],[-87.131,15.718],[-87.133,15.73],[-87.13,15.732],[-87.134,15.737],[-87.13,15.756],[-87.134,15.758],[-87.131,15.758],[-87.127,15.783],[-87.147,15.79],[-87.095,15.788],[-87.083,15.778],[-87.07,15.774],[-87.079,15.77],[-87.078,15.765],[-87.098,15.743],[-87.096,15.736],[-87.1,15.734],[-87.102,15.715],[-87.109,15.711],[-87.103,15.707],[-87.107,15.69],[-87.095,15.69],[-87.092,15.686],[-87.093,15.681],[-87.104,15.679],[-87.093,15.676],[-87.084,15.684],[-87.081,15.682],[-87.084,15.677],[-87.079,15.67],[-87.076,15.671],[-87.078,15.664],[-87.071,15.65],[-87.074,15.645],[-87.07,15.645],[-87.07,15.637],[-87.061,15.619],[-87.062,15.607],[-87.068,15.598],[-87.065,15.594],[-87.067,15.585],[-87.058,15.581],[-87.063,15.573],[-87.055,15.576],[-87.061,15.561],[-87.053,15.557],[-87.052,15.551],[-87.05,15.553],[-87.049,15.548],[-87.054,15.544],[-87.051,15.533],[-87.042,15.533],[-87.042,15.504],[-87.05,15.499],[-87.049,15.488],[-87.073,15.474],[-87.091,15.473],[-87.108,15.456],[-87.151,15.46],[-87.169,15.441],[-87.172,15.429],[-87.179,15.421],[-87.186,15.421],[-87.191,15.428],[-87.201,15.424],[-87.215,15.424],[-87.222,15.428],[-87.232,15.445]],[[-87.168,15.667],[-87.168,15.666],[-87.167,15.667],[-87.168,15.667]],[[-87.131,15.735],[-87.13,15.734],[-87.13,15.735],[-87.131,15.735]]],[[[-87.164,15.67],[-87.165,15.669],[-87.165,15.67],[-87.164,15.67]]],[[[-87.178,15.666],[-87.179,15.665],[-87.179,15.666],[-87.178,15.666]]],[[[-87.179,15.665],[-87.18,15.664],[-87.18,15.665],[-87.179,15.665]]]]}},{"type":"Feature","properties":{"cve_ent":"HN01","cve_mun":"006","cvegeo":"HN0106","nombre":"San Francisco"},"geometry":{"type":"Polygon","coordinates":[[[-87.109,15.71],[-87.102,15.715],[-87.102,15.724],[-87.099,15.724],[-87.098,15.743],[-87.078,15.765],[-87.079,15.77],[-87.07,15.774],[-87.083,15.778],[-87.094,15.787],[-87.05,15.776],[-87.019,15.778],[-87.004,15.772],[-86.999,15.765],[-87.011,15.759],[-87.01,15.755],[-87.02,15.748],[-87.014,15.734],[-87.01,15.733],[-87.014,15.726],[-87.01,15.723],[-87.015,15.723],[-87.013,15.711],[-87.007,15.713],[-87.01,15.702],[-87.003,15.703],[-87.004,15.695],[-86.99,15.69],[-86.985,15.694],[-86.973,15.693],[-86.967,15.699],[-86.956,15.694],[-86.957,15.684],[-86.961,15.681],[-86.96,15.668],[-86.968,15.664],[-86.961,15.662],[-86.958,15.655],[-86.964,15.654],[-86.961,15.648],[-86.969,15.64],[-86.963,15.639],[-86.968,15.629],[-86.964,15.626],[-86.966,15.617],[-86.96,15.614],[-86.966,15.599],[-86.961,15.599],[-86.961,15.595],[-86.954,15.591],[-86.955,15.575],[-86.964,15.572],[-86.979,15.553],[-86.983,15.552],[-86.984,15.556],[-86.993,15.551],[-87.006,15.532],[-87.026,15.519],[-87.029,15.513],[-87.041,15.512],[-87.042,15.533],[-87.046,15.531],[-87.053,15.536],[-87.05,15.553],[-87.052,15.551],[-87.053,15.557],[-87.061,15.561],[-87.055,15.576],[-87.063,15.573],[-87.058,15.581],[-87.067,15.585],[-87.065,15.594],[-87.068,15.598],[-87.061,15.612],[-87.065,15.623],[-87.063,15.628],[-87.068,15.632],[-87.07,15.645],[-87.074,15.645],[-87.071,15.65],[-87.078,15.664],[-87.076,15.671],[-87.079,15.67],[-87.084,15.677],[-87.081,15.682],[-87.086,15.684],[-87.086,15.68],[-87.093,15.676],[-87.104,15.679],[-87.093,15.681],[-87.092,15.686],[-87.095,15.69],[-87.102,15.689],[-87.107,15.69],[-87.103,15.702],[-87.103,15.707],[-87.109,15.71]]]}},{"type":"Feature","properties":{"cve_ent":"HN01","cve_mun":"007","cvegeo":"HN0107","nombre":"Tela"},"geometry":{"type":"MultiPolygon","coordinates":[[[[-87.742,15.694],[-87.754,15.703],[-87.773,15.706],[-87.776,15.712],[-87.772,15.72],[-87.777,15.731],[-87.774,15.734],[-87.759,15.731],[-87.755,15.734],[-87.767,15.75],[-87.764,15.76],[-87.773,15.774],[-87.777,15.775],[-87.785,15.758],[-87.787,15.763],[-87.781,15.776],[-87.791,15.79],[-87.8,15.787],[-87.802,15.793],[-87.794,15.796],[-87.797,15.812],[-87.786,15.806],[-87.78,15.808],[-87.779,15.814],[-87.786,15.823],[-87.784,15.828],[-87.774,15.819],[-87.769,15.821],[-87.774,15.826],[-87.772,15.841],[-87.765,15.844],[-87.774,15.85],[-87.771,15.858],[-87.754,15.871],[-87.751,15.879],[-87.745,15.88],[-87.749,15.878],[-87.747,15.874],[-87.729,15.879],[-87.729,15.908],[-87.719,15.919],[-87.677,15.897],[-87.656,15.891],[-87.644,15.899],[-87.643,15.907],[-87.638,15.909],[-87.633,15.905],[-87.63,15.907],[-87.632,15.912],[-87.629,15.915],[-87.624,15.913],[-87.621,15.921],[-87.615,15.92],[-87.601,15.928],[-87.619,15.91],[-87.629,15.907],[-87.618,15.877],[-87.585,15.84],[-87.553,15.813],[-87.534,15.8],[-87.502,15.786],[-87.477,15.781],[-87.457,15.782],[-87.446,15.788],[-87.431,15.805],[-87.431,15.814],[-87.399,15.816],[-87.384,15.83],[-87.375,15.821],[-87.37,15.786],[-87.379,15.782],[-87.384,15.769],[-87.397,15.764],[-87.396,15.759],[-87.399,15.76],[-87.404,15.746],[-87.423,15.733],[-87.415,15.695],[-87.405,15.698],[-87.397,15.712],[-87.387,15.669],[-87.409,15.617],[-87.401,15.597],[-87.397,15.596],[-87.401,15.589],[-87.41,15.59],[-87.41,15.585],[-87.421,15.579],[-87.422,15.571],[-87.43,15.568],[-87.432,15.561],[-87.444,15.557],[-87.469,15.539],[-87.479,15.538],[-87.479,15.534],[-87.501,15.518],[-87.517,15.514],[-87.522,15.522],[-87.528,15.523],[-87.543,15.514],[-87.554,15.515],[-87.57,15.508],[-87.621,15.507],[-87.598,15.553],[-87.621,15.555],[-87.626,15.567],[-87.639,15.57],[-87.643,15.575],[-87.662,15.576],[-87.676,15.582],[-87.68,15.593],[-87.677,15.605],[-87.683,15.615],[-87.683,15.644],[-87.689,15.653],[-87.692,15.652],[-87.692,15.66],[-87.699,15.667],[-87.705,15.666],[-87.706,15.671],[-87.715,15.67],[-87.729,15.683],[-87.737,15.684],[-87.742,15.694]]],[[[-87.626,15.915],[-87.627,15.916],[-87.626,15.916],[-87.626,15.915]]],[[[-87.637,15.909],[-87.638,15.91],[-87.637,15.91],[-87.637,15.909]]],[[[-87.598,15.928],[-87.599,15.929],[-87.598,15.929],[-87.598,15.928]]]]}},{"type":"Feature","properties":{"cve_ent":"HN01","cve_mun":"008","cvegeo":"HN0108","nombre":"Arizona"},"geometry":{"type":"MultiPolygon","coordinates":[[[[-87.431,15.49],[-87.441,15.498],[-87.438,15.503],[-87.441,15.51],[-87.435,15.513],[-87.438,15.518],[-87.434,15.517],[-87.437,15.522],[-87.434,15.533],[-87.439,15.529],[-87.45,15.531],[-87.46,15.544],[-87.444,15.557],[-87.432,15.561],[-87.43,15.568],[-87.422,15.571],[-87.421,15.579],[-87.41,15.585],[-87.41,15.59],[-87.401,15.589],[-87.397,15.596],[-87.401,15.597],[-87.409,15.617],[-87.387,15.669],[-87.397,15.712],[-87.405,15.698],[-87.415,15.695],[-87.423,15.733],[-87.404,15.746],[-87.399,15.76],[-87.396,15.759],[-87.397,15.764],[-87.384,15.769],[-87.379,15.782],[-87.37,15.786],[-87.375,15.821],[-87.383,15.826],[-87.382,15.83],[-87.386,15.829],[-87.375,15.839],[-87.376,15.848],[-87.372,15.848],[-87.321,15.833],[-87.317,15.828],[-87.321,15.824],[-87.318,15.823],[-87.32,15.814],[-87.315,15.813],[-87.316,15.798],[-87.311,15.798],[-87.314,15.796],[-87.309,15.792],[-87.308,15.796],[-87.307,15.792],[-87.305,15.796],[-87.3,15.793],[-87.299,15.778],[-87.294,15.779],[-87.293,15.773],[-87.285,15.773],[-87.287,15.766],[-87.281,15.771],[-87.282,15.764],[-87.279,15.765],[-87.277,15.758],[-87.272,15.756],[-87.275,15.753],[-87.28,15.755],[-87.275,15.75],[-87.28,15.745],[-87.275,15.74],[-87.281,15.728],[-87.291,15.724],[-87.29,15.717],[-87.296,15.72],[-87.3,15.716],[-87.294,15.714],[-87.299,15.708],[-87.297,15.689],[-87.304,15.688],[-87.31,15.664],[-87.318,15.661],[-87.313,15.654],[-87.325,15.657],[-87.322,15.639],[-87.315,15.639],[-87.313,15.635],[-87.289,15.639],[-87.287,15.633],[-87.266,15.625],[-87.277,15.62],[-87.281,15.611],[-87.285,15.614],[-87.287,15.61],[-87.286,15.448],[-87.293,15.449],[-87.312,15.442],[-87.323,15.455],[-87.334,15.453],[-87.345,15.458],[-87.362,15.443],[-87.37,15.443],[-87.38,15.437],[-87.379,15.44],[-87.385,15.44],[-87.386,15.447],[-87.392,15.444],[-87.39,15.452],[-87.399,15.448],[-87.398,15.452],[-87.402,15.45],[-87.399,15.456],[-87.406,15.458],[-87.41,15.455],[-87.41,15.46],[-87.418,15.459],[-87.419,15.466],[-87.423,15.463],[-87.426,15.481],[-87.438,15.484],[-87.431,15.49]]],[[[-87.386,15.829],[-87.387,15.828],[-87.387,15.829],[-87.386,15.829]]],[[[-87.388,15.828],[-87.387,15.827],[-87.388,15.827],[-87.388,15.828]]]]}}]}