{"type":"FeatureCollection","features":[{"type":"Feature","properties":{"cve_ent":"HN02","cve_mun":"001","cvegeo":"HN0201","nombre":"Trujillo"},"geometry":{"type":"Polygon","coordinates":[[[-86.052,15.675],[-86.047,15.662],[-86.056,15.652],[-86.069,15.65],[-86.063,15.642],[-86.068,15.64],[-86.07,15.646],[-86.076,15.647],[-86.075,15.641],[-86.079,15.639],[-86.081,15.643],[-86.089,15.644],[-86.091,15.639],[-86.087,15.633],[-86.097,15.634],[-86.099,15.624],[-86.209,15.733],[-86.162,15.75],[-86.121,15.784],[-86.105,15.802],[-86.054,15.834],[-86.036,15.853],[-85.998,15.868],[-85.993,15.881],[-85.998,15.904],[-85.939,15.927],[-85.923,15.944],[-85.911,15.976],[-85.912,15.994],[-85.922,16.008],[-85.941,16.012],[-85.982,16.005],[-85.997,16.018],[-86.009,16.02],[-86.013,16.024],[-86.011,16.027],[-85.992,16.028],[-85.929,16.015],[-85.865,16.009],[-85.73,15.971],[-85.735,15.957],[-85.745,15.945],[-85.743,15.941],[-85.749,15.937],[-85.749,15.892],[-85.71,15.846],[-85.704,15.846],[-85.704,15.841],[-85.699,15.839],[-85.701,15.834],[-85.705,15.833],[-85.711,15.839],[-85.713,15.833],[-85.709,15.829],[-85.716,15.821],[-85.721,15.833],[-85.72,15.826],[-85.724,15.82],[-85.723,15.83],[-85.726,15.833],[-85.73,15.831],[-85.731,15.821],[-85.74,15.827],[-85.767,15.822],[-85.771,15.83],[-85.773,15.822],[-85.783,15.819],[-85.775,15.813],[-85.777,15.809],[-85.799,15.821],[-85.8,15.816],[-85.789,15.811],[-85.788,15.806],[-85.797,15.81],[-85.808,15.8],[-85.82,15.809],[-85.818,15.798],[-85.827,15.795],[-85.831,15.789],[-85.826,15.784],[-85.827,15.78],[-85.837,15.777],[-85.834,15.768],[-85.84,15.766],[-85.844,15.771],[-85.852,15.767],[-85.857,15.771],[-85.863,15.761],[-85.874,15.759],[-85.874,15.748],[-85.887,15.746],[-85.893,15.751],[-85.894,15.758],[-85.905,15.748],[-85.911,15.751],[-85.917,15.741],[-85.927,15.749],[-85.931,15.74],[-85.937,15.738],[-85.949,15.753],[-85.956,15.752],[-85.965,15.743],[-85.957,15.742],[-85.958,15.734],[-85.967,15.732],[-85.981,15.736],[-85.985,15.727],[-85.982,15.72],[-85.972,15.718],[-85.97,15.713],[-85.991,15.712],[-85.998,15.706],[-86.007,15.71],[-86.012,15.706],[-86.005,15.695],[-86.014,15.694],[-86.018,15.685],[-86.022,15.691],[-86.027,15.691],[-86.031,15.685],[-86.027,15.677],[-86.033,15.675],[-86.032,15.668],[-86.04,15.671],[-86.042,15.678],[-86.052,15.675]]]}},{"type":"Feature","properties":{"cve_ent":"HN02","cve_mun":"002","cvegeo":"HN0202","nombre":"Balfate"},"geometry":{"type":"MultiPolygon","coordinates":[[[[-86.456,15.794],[-86.412,15.778],[-86.403,15.779],[-86.395,15.787],[-86.37,15.78],[-86.356,15.782],[-86.346,15.794],[-86.335,15.797],[-86.332,15.802],[-86.291,15.81],[-86.26,15.834],[-86.251,15.834],[-86.251,15.845],[-86.244,15.847],[-86.242,15.853],[-86.222,15.871],[-86.207,15.877],[-86.204,15.848],[-86.196,15.84],[-86.2,15.829],[-86.196,15.826],[-86.199,15.816],[-86.162,15.75],[-86.209,15.733],[-86.253,15.728],[-86.282,15.706],[-86.363,15.661],[-86.362,15.676],[-86.375,15.679],[-86.383,15.676],[-86.386,15.683],[-86.397,15.68],[-86.396,15.693],[-86.399,15.695],[-86.394,15.699],[-86.397,15.708],[-86.405,15.714],[-86.403,15.722],[-86.423,15.719],[-86.443,15.724],[-86.444,15.735],[-86.449,15.737],[-86.449,15.751],[-86.443,15.758],[-86.45,15.782],[-86.445,15.783],[-86.437,15.78],[-86.434,15.781],[-86.456,15.794]]],[[[-86.449,15.778],[-86.45,15.777],[-86.45,15.778],[-86.449,15.778]]]]}},{"type":"Feature","properties":{"cve_ent":"HN02","cve_mun":"003","cvegeo":"HN0203","nombre":"Iriona"},"geometry":{"type":"Polygon","coordinates":[[[-85.635,15.672],[-85.561,15.672],[-85.294,15.834],[-85.284,15.841],[-85.284,15.856],[-85.29,15.86],[-85.298,15.879],[-85.251,15.885],[-85.195,15.901],[-85.167,15.916],[-85.114,15.961],[-85.07,15.983],[-85.028,15.987],[-85.0,15.982],[-85.0,15.071],[-85.098,15.181],[-85.237,15.215],[-85.378,15.403],[-85.458,15.432],[-85.544,15.471],[-85.673,15.596],[-85.631,15.645],[-85.635,15.672]]]}},{"type":"Feature","properties":{"cve_ent":"HN02","cve_mun":"004","cvegeo":"HN0204","nombre":"Limón"},"geometry":{"type":"Polygon","coordinates":[[[-85.665,15.761],[-85.676,15.761],[-85.675,15.77],[-85.679,15.774],[-85.67,15.788],[-85.674,15.809],[-85.665,15.814],[-85.659,15.826],[-85.66,15.832],[-85.65,15.831],[-85.65,15.835],[-85.64,15.838],[-85.639,15.843],[-85.637,15.839],[-85.626,15.841],[-85.635,15.859],[-85.641,15.86],[-85.636,15.863],[-85.641,15.867],[-85.633,15.874],[-85.624,15.869],[-85.631,15.882],[-85.625,15.88],[-85.61,15.907],[-85.562,15.885],[-85.484,15.861],[-85.449,15.861],[-85.436,15.864],[-85.43,15.868],[-85.43,15.873],[-85.392,15.88],[-85.298,15.879],[-85.29,15.86],[-85.284,15.856],[-85.284,15.841],[-85.294,15.834],[-85.561,15.672],[-85.635,15.672],[-85.635,15.685],[-85.639,15.686],[-85.64,15.696],[-85.65,15.701],[-85.654,15.72],[-85.66,15.72],[-85.644,15.729],[-85.649,15.736],[-85.64,15.741],[-85.647,15.74],[-85.647,15.746],[-85.653,15.748],[-85.663,15.746],[-85.665,15.761]]]}},{"type":"Feature","properties":{"cve_ent":"HN02","cve_mun":"005","cvegeo":"HN0205","nombre":"Santa Fé"},"geometry":{"type":"Polygon","coordinates":[[[-86.207,15.877],[-86.177,15.889],[-86.16,15.888],[-86.143,15.897],[-86.131,15.898],[-86.126,15.905],[-86.113,15.9],[-86.075,15.898],[-85.998,15.904],[-85.993,15.887],[-85.998,15.868],[-86.036,15.853],[-86.054,15.834],[-86.105,15.802],[-86.121,15.784],[-86.162,15.75],[-86.199,15.816],[-86.196,15.826],[-86.2,15.829],[-86.196,15.84],[-86.204,15.848],[-86.207,15.877]]]}},{"type":"Feature","properties":{"cve_ent":"HN02","cve_mun":"006","cvegeo":"HN0206","nombre":"Santa Rosa de Aguán"},"geometry":{"type":"Polygon","coordinates":[[[-85.73,15.971],[-85.691,15.957],[-85.61,15.907],[-85.625,15.88],[-85.631,15.882],[-85.624,15.869],[-85.633,15.874],[-85.641,15.867],[-85.636,15.865],[-85.641,15.861],[-85.635,15.859],[-85.636,15.852],[-85.64,15.855],[-85.649,15.852],[-85.649,15.859],[-85.654,15.853],[-85.662,15.855],[-85.665,15.849],[-85.659,15.84],[-85.667,15.843],[-85.67,15.835],[-85.674,15.836],[-85.673,15.841],[-85.68,15.838],[-85.69,15.847],[-85.71,15.848],[-85.749,15.892],[-85.749,15.937],[-85.743,15.941],[-85.745,15.945],[-85.735,15.957],[-85.73,15.971]]]}},{"type":"Feature","properties":{"cve_ent":"HN02","cve_mun":"007","cvegeo":"HN0207","nombre":"Sonaguera"},"geometry":{"type":"Polygon","coordinates":[[[-86.357,15.535],[-86.377,15.536],[-86.379,15.547],[-86.389,15.555],[-86.401,15.574],[-86.408,15.593],[-86.382,15.596],[-86.364,15.604],[-86.363,15.661],[-86.282,15.706],[-86.253,15.728],[-86.209,15.733],[-86.099,15.624],[-86.104,15.623],[-86.103,15.611],[-86.114,15.605],[-86.117,15.599],[-86.124,15.599],[-86.127,15.59],[-86.138,15.594],[-86.144,15.588],[-86.154,15.587],[-86.159,15.593],[-86.165,15.586],[-86.18,15.586],[-86.185,15.592],[-86.197,15.595],[-86.211,15.59],[-86.212,15.583],[-86.227,15.572],[-86.23,15.565],[-86.255,15.576],[-86.265,15.576],[-86.268,15.572],[-86.278,15.575],[-86.286,15.57],[-86.292,15.574],[-86.293,15.57],[-86.289,15.569],[-86.289,15.531],[-86.299,15.534],[-86.299,15.537],[-86.314,15.536],[-86.315,15.541],[-86.32,15.538],[-86.321,15.542],[-86.328,15.539],[-86.351,15.54],[-86.357,15.535]],[[-86.286,15.572],[-86.285,15.572],[-86.285,15.573],[-86.286,15.572]]]}},{"type":"Feature","properties":{"cve_ent":"HN02","cve_mun":"008","cvegeo":"HN0208","nombre":"Sabá"},"geometry":{"type":"MultiPolygon","coordinates":[[[[-86.292,15.573],[-86.286,15.57],[-86.278,15.575],[-86.268,15.572],[-86.265,15.576],[-86.255,15.576],[-86.23,15.565],[-86.227,15.572],[-86.212,15.583],[-86.211,15.59],[-86.197,15.595],[-86.185,15.592],[-86.18,15.586],[-86.165,15.586],[-86.159,15.593],[-86.154,15.587],[-86.137,15.589],[-86.135,15.586],[-86.142,15.581],[-86.139,15.574],[-86.129,15.567],[-86.132,15.554],[-86.122,15.528],[-86.121,15.505],[-86.074,15.461],[-86.058,15.441],[-86.055,15.435],[-86.057,15.427],[-86.051,15.415],[-86.03,15.386],[-86.045,15.384],[-86.053,15.395],[-86.068,15.397],[-86.07,15.393],[-86.09,15.398],[-86.093,15.385],[-86.105,15.391],[-86.117,15.378],[-86.129,15.372],[-86.14,15.375],[-86.151,15.367],[-86.158,15.371],[-86.165,15.369],[-86.232,15.408],[-86.232,15.437],[-86.243,15.45],[-86.239,15.456],[-86.23,15.459],[-86.235,15.471],[-86.229,15.476],[-86.232,15.482],[-86.229,15.5],[-86.239,15.519],[-86.238,15.524],[-86.253,15.523],[-86.254,15.515],[-86.259,15.513],[-86.268,15.519],[-86.268,15.508],[-86.277,15.509],[-86.284,15.505],[-86.307,15.512],[-86.302,15.524],[-86.305,15.535],[-86.299,15.537],[-86.299,15.534],[-86.289,15.531],[-86.289,15.569],[-86.293,15.57],[-86.292,15.573]]],[[[-86.285,15.572],[-86.286,15.572],[-86.285,15.573],[-86.285,15.572]]]]}},{"type":"Feature","properties":{"cve_ent":"HN02","cve_mun":"009","cvegeo":"HN0209","nombre":"Tocoa"},"geometry":{"type":"MultiPolygon","coordinates":[[[[-86.141,15.59],[-86.138,15.594],[-86.125,15.591],[-86.124,15.599],[-86.117,15.599],[-86.114,15.605],[-86.103,15.611],[-86.104,15.623],[-86.098,15.624],[-86.098,15.633],[-86.087,15.633],[-86.091,15.639],[-86.089,15.644],[-86.081,15.643],[-86.079,15.639],[-86.075,15.641],[-86.076,15.647],[-86.07,15.646],[-86.068,15.64],[-86.063,15.642],[-86.069,15.65],[-86.056,15.652],[-86.047,15.662],[-86.053,15.67],[-86.052,15.675],[-86.042,15.678],[-86.04,15.671],[-86.032,15.668],[-86.033,15.675],[-86.027,15.677],[-86.031,15.684],[-86.027,15.691],[-86.022,15.691],[-86.018,15.685],[-86.014,15.694],[-86.005,15.695],[-86.012,15.707],[-86.005,15.71],[-85.998,15.706],[-85.991,15.712],[-85.97,15.713],[-85.972,15.718],[-85.982,15.72],[-85.985,15.727],[-85.981,15.736],[-85.967,15.732],[-85.958,15.734],[-85.957,15.742],[-85.965,15.743],[-85.956,15.752],[-85.949,15.753],[-85.937,15.738],[-85.933,15.738],[-85.927,15.749],[-85.917,15.741],[-85.911,15.751],[-85.905,15.748],[-85.894,15.758],[-85.893,15.751],[-85.887,15.746],[-85.874,15.748],[-85.874,15.759],[-85.863,15.761],[-85.857,15.771],[-85.852,15.767],[-85.845,15.77],[-85.854,15.723],[-85.849,15.719],[-85.845,15.721],[-85.841,15.716],[-85.839,15.705],[-85.844,15.694],[-85.808,15.634],[-85.785,15.577],[-85.789,15.572],[-85.785,15.556],[-85.79,15.55],[-85.814,15.544],[-85.835,15.516],[-85.865,15.523],[-85.866,15.529],[-85.887,15.528],[-85.896,15.517],[-85.892,15.512],[-85.894,15.505],[-85.889,15.501],[-85.892,15.497],[-85.935,15.459],[-85.948,15.46],[-85.959,15.449],[-85.961,15.442],[-85.968,15.437],[-85.968,15.421],[-85.978,15.42],[-85.982,15.412],[-85.994,15.412],[-86.0,15.403],[-86.007,15.405],[-86.013,15.396],[-86.021,15.4],[-86.029,15.397],[-86.031,15.387],[-86.052,15.417],[-86.058,15.441],[-86.074,15.461],[-86.121,15.505],[-86.122,15.528],[-86.132,15.554],[-86.129,15.567],[-86.139,15.574],[-86.142,15.583],[-86.135,15.587],[-86.141,15.59]]],[[[-85.845,15.77],[-85.844,15.771],[-85.844,15.77],[-85.845,15.77]]]]}},{"type":"Feature","properties":{"cve_ent":"HN02","cve_mun":"010","cvegeo":"HN0210","nombre":"Bonito Oriental"},"geometry":{"type":"Polygon","coordinates":[[[-85.839,15.705],[-85.845,15.721],[-85.849,15.719],[-85.854,15.723],[-85.849,15.737],[-85.848,15.765],[-85.844,15.771],[-85.84,15.766],[-85.834,15.768],[-85.837,15.777],[-85.827,15.78],[-85.826,15.784],[-85.831,15.789],[-85.827,15.795],[-85.818,15.798],[-85.82,15.809],[-85.808,15.8],[-85.797,15.81],[-85.788,15.806],[-85.789,15.811],[-85.8,15.816],[-85.799,15.821],[-85.777,15.809],[-85.775,15.813],[-85.783,15.819],[-85.773,15.822],[-85.771,15.83],[-85.767,15.822],[-85.74,15.827],[-85.731,15.821],[-85.73,15.831],[-85.726,15.833],[-85.723,15.83],[-85.726,15.823],[-85.724,15.82],[-85.72,15.826],[-85.721,15.833],[-85.716,15.821],[-85.709,15.829],[-85.713,15.833],[-85.711,15.839],[-85.705,15.833],[-85.699,15.836],[-85.704,15.846],[-85.71,15.846],[-85.708,15.85],[-85.687,15.846],[-85.68,15.838],[-85.673,15.841],[-85.674,15.836],[-85.67,15.835],[-85.667,15.843],[-85.659,15.84],[-85.665,15.849],[-85.662,15.855],[-85.654,15.853],[-85.649,15.859],[-85.649,15.852],[-85.642,15.855],[-85.636,15.852],[-85.635,15.856],[-85.626,15.842],[-85.63,15.838],[-85.637,15.839],[-85.639,15.843],[-85.64,15.838],[-85.65,15.835],[-85.65,15.831],[-85.66,15.832],[-85.659,15.826],[-85.665,15.814],[-85.674,15.809],[-85.67,15.788],[-85.679,15.777],[-85.675,15.77],[-85.676,15.761],[-85.67,15.758],[-85.665,15.761],[-85.663,15.746],[-85.653,15.748],[-85.647,15.746],[-85.647,15.74],[-85.64,15.741],[-85.649,15.736],[-85.644,15.729],[-85.66,15.72],[-85.654,15.72],[-85.65,15.701],[-85.64,15.696],[-85.639,15.686],[-85.635,15.685],[-85.637,15.679],[-85.631,15.645],[-85.673,15.596],[-85.683,15.591],[-85.701,15.572],[-85.736,15.567],[-85.749,15.571],[-85.762,15.586],[-85.767,15.586],[-85.773,15.578],[-85.785,15.577],[-85.81,15.638],[-85.844,15.694],[-85.839,15.705]]]}}]}