{"type":"FeatureCollection","features":[{"type":"Feature","properties":{"cve_ent":"HN03","cve_mun":"001","cvegeo":"HN0301","nombre":"Comayagua"},"geometry":{"type":"MultiPolygon","coordinates":[[[[-87.874,14.5],[-87.833,14.503],[-87.822,14.498],[-87.801,14.499],[-87.788,14.492],[-87.767,14.496],[-87.763,14.5],[-87.768,14.505],[-87.769,14.515],[-87.776,14.514],[-87.773,14.517],[-87.78,14.518],[-87.79,14.53],[-87.8,14.531],[-87.794,14.549],[-87.781,14.556],[-87.767,14.554],[-87.763,14.558],[-87.716,14.553],[-87.705,14.557],[-87.697,14.568],[-87.691,14.568],[-87.694,14.579],[-87.687,14.572],[-87.672,14.575],[-87.669,14.585],[-87.662,14.591],[-87.652,14.588],[-87.632,14.596],[-87.627,14.591],[-87.63,14.578],[-87.615,14.576],[-87.615,14.573],[-87.595,14.574],[-87.578,14.585],[-87.566,14.567],[-87.55,14.572],[-87.51,14.566],[-87.504,14.568],[-87.469,14.524],[-87.455,14.476],[-87.44,14.473],[-87.414,14.447],[-87.402,14.45],[-87.403,14.431],[-87.407,14.425],[-87.42,14.423],[-87.396,14.416],[-87.395,14.407],[-87.385,14.394],[-87.391,14.376],[-87.433,14.378],[-87.434,14.371],[-87.437,14.373],[-87.448,14.362],[-87.449,14.363],[-87.45,14.362],[-87.451,14.362],[-87.452,14.362],[-87.456,14.362],[-87.456,14.363],[-87.462,14.357],[-87.48,14.368],[-87.49,14.364],[-87.494,14.371],[-87.491,14.385],[-87.524,14.39],[-87.53,14.384],[-87.537,14.385],[-87.541,14.379],[-87.545,14.383],[-87.543,14.385],[-87.558,14.384],[-87.583,14.375],[-87.608,14.377],[-87.615,14.374],[-87.615,14.368],[-87.625,14.371],[-87.647,14.362],[-87.645,14.371],[-87.648,14.372],[-87.648,14.368],[-87.656,14.371],[-87.649,14.38],[-87.652,14.382],[-87.65,14.391],[-87.658,14.405],[-87.691,14.433],[-87.71,14.428],[-87.715,14.421],[-87.725,14.419],[-87.735,14.411],[-87.748,14.408],[-87.759,14.412],[-87.771,14.411],[-87.789,14.392],[-87.836,14.395],[-87.848,14.421],[-87.855,14.427],[-87.848,14.433],[-87.852,14.448],[-87.881,14.478],[-87.887,14.492],[-87.897,14.498],[-87.878,14.496],[-87.874,14.5]],[[-87.792,14.493],[-87.793,14.494],[-87.793,14.493],[-87.792,14.493]],[[-87.452,14.362],[-87.451,14.363],[-87.452,14.363],[-87.452,14.362]]],[[[-87.631,14.596],[-87.632,14.597],[-87.631,14.597],[-87.631,14.596]]],[[[-87.801,14.531],[-87.8,14.53],[-87.801,14.53],[-87.801,14.531]]],[[[-87.777,14.517],[-87.776,14.516],[-87.777,14.516],[-87.777,14.517]]]]}},{"type":"Feature","properties":{"cve_ent":"HN03","cve_mun":"002","cvegeo":"HN0302","nombre":"Ajuterique"},"geometry":{"type":"Polygon","coordinates":[[[-87.745,14.409],[-87.729,14.413],[-87.71,14.428],[-87.691,14.433],[-87.658,14.405],[-87.65,14.39],[-87.662,14.385],[-87.688,14.388],[-87.705,14.374],[-87.732,14.373],[-87.742,14.364],[-87.754,14.372],[-87.783,14.374],[-87.789,14.392],[-87.781,14.404],[-87.766,14.412],[-87.745,14.409]]]}},{"type":"Feature","properties":{"cve_ent":"HN03","cve_mun":"003","cvegeo":"HN0303","nombre":"El Rosario"},"geometry":{"type":"MultiPolygon","coordinates":[[[[-87.833,14.503],[-87.874,14.5],[-87.878,14.496],[-87.897,14.498],[-87.868,14.516],[-87.868,14.529],[-87.872,14.532],[-87.852,14.543],[-87.832,14.541],[-87.836,14.557],[-87.834,14.576],[-87.804,14.572],[-87.801,14.568],[-87.794,14.571],[-87.786,14.567],[-87.782,14.568],[-87.781,14.572],[-87.788,14.581],[-87.787,14.588],[-87.783,14.59],[-87.802,14.629],[-87.793,14.649],[-87.797,14.673],[-87.788,14.675],[-87.788,14.683],[-87.781,14.689],[-87.778,14.71],[-87.745,14.707],[-87.716,14.693],[-87.698,14.691],[-87.675,14.668],[-87.658,14.664],[-87.654,14.665],[-87.652,14.672],[-87.629,14.674],[-87.625,14.671],[-87.624,14.667],[-87.632,14.664],[-87.632,14.651],[-87.627,14.647],[-87.635,14.645],[-87.636,14.639],[-87.621,14.626],[-87.627,14.621],[-87.627,14.601],[-87.634,14.593],[-87.646,14.593],[-87.652,14.588],[-87.665,14.59],[-87.669,14.577],[-87.675,14.574],[-87.687,14.572],[-87.694,14.579],[-87.691,14.568],[-87.697,14.568],[-87.705,14.557],[-87.716,14.553],[-87.763,14.558],[-87.767,14.554],[-87.781,14.556],[-87.794,14.549],[-87.8,14.531],[-87.79,14.53],[-87.78,14.518],[-87.773,14.517],[-87.776,14.514],[-87.769,14.515],[-87.768,14.505],[-87.763,14.5],[-87.767,14.496],[-87.788,14.492],[-87.801,14.499],[-87.822,14.498],[-87.833,14.503]],[[-87.801,14.567],[-87.802,14.568],[-87.802,14.567],[-87.801,14.567]],[[-87.8,14.53],[-87.801,14.531],[-87.801,14.53],[-87.8,14.53]],[[-87.776,14.516],[-87.777,14.517],[-87.777,14.516],[-87.776,14.516]]],[[[-87.789,14.57],[-87.79,14.572],[-87.789,14.572],[-87.789,14.57]]],[[[-87.793,14.494],[-87.792,14.493],[-87.793,14.493],[-87.793,14.494]]]]}},{"type":"Feature","properties":{"cve_ent":"HN03","cve_mun":"004","cvegeo":"HN0304","nombre":"Esquias"},"geometry":{"type":"Polygon","coordinates":[[[-87.517,14.701],[-87.533,14.719],[-87.532,14.726],[-87.544,14.728],[-87.515,14.749],[-87.516,14.757],[-87.497,14.731],[-87.445,14.726],[-87.433,14.719],[-87.424,14.726],[-87.418,14.724],[-87.389,14.744],[-87.39,14.75],[-87.366,14.782],[-87.354,14.778],[-87.317,14.751],[-87.268,14.735],[-87.257,14.736],[-87.254,14.732],[-87.256,14.725],[-87.268,14.725],[-87.265,14.711],[-87.271,14.703],[-87.267,14.703],[-87.266,14.698],[-87.272,14.699],[-87.277,14.691],[-87.284,14.69],[-87.284,14.686],[-87.294,14.687],[-87.297,14.68],[-87.306,14.675],[-87.315,14.678],[-87.318,14.668],[-87.313,14.667],[-87.315,14.662],[-87.321,14.662],[-87.324,14.669],[-87.33,14.666],[-87.324,14.646],[-87.331,14.641],[-87.326,14.632],[-87.332,14.632],[-87.332,14.616],[-87.336,14.607],[-87.359,14.607],[-87.361,14.611],[-87.366,14.61],[-87.366,14.617],[-87.377,14.615],[-87.392,14.619],[-87.397,14.624],[-87.404,14.623],[-87.404,14.6],[-87.411,14.587],[-87.408,14.575],[-87.469,14.524],[-87.504,14.568],[-87.473,14.604],[-87.472,14.619],[-87.482,14.625],[-87.487,14.637],[-87.491,14.638],[-87.482,14.645],[-87.482,14.658],[-87.517,14.673],[-87.521,14.685],[-87.517,14.701]],[[-87.412,14.574],[-87.412,14.575],[-87.413,14.575],[-87.412,14.574]]]}},{"type":"Feature","properties":{"cve_ent":"HN03","cve_mun":"005","cvegeo":"HN0305","nombre":"Humuya"},"geometry":{"type":"MultiPolygon","coordinates":[[[[-87.755,14.24],[-87.74,14.237],[-87.736,14.246],[-87.724,14.247],[-87.722,14.251],[-87.694,14.253],[-87.694,14.257],[-87.683,14.261],[-87.681,14.266],[-87.678,14.266],[-87.678,14.258],[-87.67,14.263],[-87.668,14.257],[-87.663,14.267],[-87.657,14.263],[-87.654,14.269],[-87.649,14.262],[-87.653,14.259],[-87.647,14.253],[-87.658,14.25],[-87.657,14.245],[-87.665,14.248],[-87.662,14.252],[-87.666,14.253],[-87.676,14.234],[-87.682,14.234],[-87.68,14.229],[-87.687,14.227],[-87.68,14.195],[-87.701,14.184],[-87.708,14.184],[-87.71,14.18],[-87.739,14.186],[-87.736,14.197],[-87.739,14.207],[-87.729,14.214],[-87.74,14.223],[-87.75,14.222],[-87.763,14.229],[-87.764,14.235],[-87.755,14.24]],[[-87.671,14.244],[-87.672,14.245],[-87.672,14.244],[-87.671,14.244]]],[[[-87.71,14.18],[-87.709,14.18],[-87.71,14.179],[-87.71,14.18]]]]}},{"type":"Feature","properties":{"cve_ent":"HN03","cve_mun":"006","cvegeo":"HN0306","nombre":"La Libertad"},"geometry":{"type":"Polygon","coordinates":[[[-87.689,15.013],[-87.67,15.024],[-87.664,15.018],[-87.654,15.02],[-87.65,15.017],[-87.647,15.021],[-87.637,15.022],[-87.621,15.007],[-87.611,15.016],[-87.611,15.021],[-87.598,15.022],[-87.592,14.989],[-87.582,14.975],[-87.578,14.961],[-87.56,14.949],[-87.56,14.941],[-87.554,14.936],[-87.557,14.917],[-87.508,14.879],[-87.495,14.833],[-87.507,14.829],[-87.517,14.772],[-87.515,14.749],[-87.544,14.728],[-87.556,14.729],[-87.561,14.724],[-87.584,14.722],[-87.601,14.724],[-87.612,14.731],[-87.621,14.728],[-87.635,14.732],[-87.638,14.742],[-87.633,14.749],[-87.634,14.754],[-87.628,14.755],[-87.629,14.774],[-87.602,14.799],[-87.602,14.823],[-87.563,14.821],[-87.555,14.829],[-87.558,14.842],[-87.57,14.851],[-87.557,14.872],[-87.558,14.887],[-87.607,14.941],[-87.633,14.929],[-87.644,14.928],[-87.646,14.919],[-87.652,14.916],[-87.659,14.921],[-87.688,14.925],[-87.699,14.96],[-87.695,14.968],[-87.701,14.968],[-87.704,14.975],[-87.716,14.976],[-87.724,14.982],[-87.727,14.982],[-87.726,14.977],[-87.734,14.976],[-87.738,14.986],[-87.743,14.986],[-87.74,15.014],[-87.735,15.01],[-87.712,15.014],[-87.702,15.011],[-87.695,15.018],[-87.689,15.013]]]}},{"type":"Feature","properties":{"cve_ent":"HN03","cve_mun":"007","cvegeo":"HN0307","nombre":"Lamani"},"geometry":{"type":"Polygon","coordinates":[[[-87.766,14.169],[-87.755,14.171],[-87.752,14.179],[-87.743,14.18],[-87.738,14.186],[-87.71,14.18],[-87.708,14.184],[-87.701,14.184],[-87.68,14.195],[-87.661,14.214],[-87.589,14.228],[-87.588,14.237],[-87.593,14.24],[-87.593,14.246],[-87.568,14.247],[-87.559,14.223],[-87.543,14.212],[-87.531,14.21],[-87.525,14.213],[-87.521,14.207],[-87.502,14.211],[-87.491,14.202],[-87.478,14.203],[-87.486,14.199],[-87.496,14.185],[-87.498,14.174],[-87.491,14.17],[-87.5,14.161],[-87.542,14.134],[-87.58,14.144],[-87.586,14.141],[-87.617,14.108],[-87.615,14.088],[-87.643,14.089],[-87.654,14.085],[-87.661,14.071],[-87.687,14.048],[-87.691,14.052],[-87.687,14.054],[-87.692,14.066],[-87.689,14.067],[-87.691,14.076],[-87.687,14.084],[-87.697,14.104],[-87.714,14.095],[-87.738,14.131],[-87.786,14.138],[-87.785,14.153],[-87.769,14.162],[-87.766,14.169]],[[-87.71,14.18],[-87.71,14.179],[-87.709,14.18],[-87.71,14.18]]]}},{"type":"Feature","properties":{"cve_ent":"HN03","cve_mun":"008","cvegeo":"HN0308","nombre":"La Trinidad"},"geometry":{"type":"Polygon","coordinates":[[[-87.698,14.691],[-87.716,14.693],[-87.745,14.707],[-87.754,14.706],[-87.751,14.728],[-87.666,14.741],[-87.654,14.737],[-87.649,14.727],[-87.635,14.734],[-87.621,14.728],[-87.612,14.731],[-87.6,14.723],[-87.603,14.714],[-87.6,14.7],[-87.62,14.693],[-87.621,14.682],[-87.632,14.672],[-87.652,14.672],[-87.654,14.665],[-87.675,14.668],[-87.698,14.691]]]}},{"type":"Feature","properties":{"cve_ent":"HN03","cve_mun":"009","cvegeo":"HN0309","nombre":"Lejamani"},"geometry":{"type":"Polygon","coordinates":[[[-87.705,14.374],[-87.688,14.388],[-87.662,14.385],[-87.652,14.389],[-87.649,14.38],[-87.65,14.375],[-87.654,14.376],[-87.665,14.366],[-87.7,14.347],[-87.713,14.356],[-87.742,14.364],[-87.732,14.373],[-87.705,14.374]]]}},{"type":"Feature","properties":{"cve_ent":"HN03","cve_mun":"010","cvegeo":"HN0310","nombre":"Meámbar"},"geometry":{"type":"Polygon","coordinates":[[[-87.852,14.897],[-87.851,14.903],[-87.836,14.904],[-87.835,14.907],[-87.829,14.904],[-87.825,14.907],[-87.827,14.91],[-87.817,14.911],[-87.815,14.917],[-87.811,14.913],[-87.803,14.917],[-87.798,14.925],[-87.799,14.931],[-87.783,14.927],[-87.783,14.939],[-87.779,14.944],[-87.76,14.946],[-87.758,14.95],[-87.749,14.952],[-87.737,14.966],[-87.735,14.975],[-87.726,14.977],[-87.727,14.982],[-87.716,14.976],[-87.704,14.975],[-87.701,14.968],[-87.695,14.968],[-87.699,14.96],[-87.688,14.927],[-87.692,14.919],[-87.69,14.907],[-87.693,14.902],[-87.708,14.897],[-87.704,14.879],[-87.72,14.853],[-87.708,14.846],[-87.705,14.838],[-87.7,14.845],[-87.691,14.845],[-87.692,14.841],[-87.687,14.84],[-87.691,14.835],[-87.685,14.831],[-87.687,14.815],[-87.682,14.808],[-87.687,14.794],[-87.71,14.791],[-87.715,14.782],[-87.714,14.774],[-87.728,14.755],[-87.756,14.745],[-87.75,14.725],[-87.754,14.7062],[-87.781,14.711],[-87.782,14.718],[-87.817,14.732],[-87.869,14.771],[-87.881,14.799],[-87.881,14.838],[-87.898,14.852],[-87.902,14.851],[-87.884,14.86],[-87.876,14.876],[-87.856,14.887],[-87.857,14.895],[-87.852,14.897]]]}},{"type":"Feature","properties":{"cve_ent":"HN03","cve_mun":"011","cvegeo":"HN0311","nombre":"Minas de Oro"},"geometry":{"type":"Polygon","coordinates":[[[-87.557,14.921],[-87.554,14.936],[-87.56,14.941],[-87.56,14.949],[-87.578,14.961],[-87.582,14.975],[-87.592,14.989],[-87.598,15.022],[-87.583,15.026],[-87.591,15.034],[-87.59,15.038],[-87.573,15.038],[-87.563,15.052],[-87.555,15.051],[-87.541,15.057],[-87.533,15.046],[-87.527,15.047],[-87.52,15.042],[-87.507,15.025],[-87.503,15.017],[-87.507,15.013],[-87.505,14.995],[-87.496,14.99],[-87.497,14.983],[-87.486,14.977],[-87.475,14.979],[-87.478,14.97],[-87.462,14.971],[-87.465,14.964],[-87.46,14.954],[-87.465,14.946],[-87.46,14.939],[-87.452,14.937],[-87.459,14.93],[-87.453,14.926],[-87.456,14.915],[-87.45,14.909],[-87.439,14.911],[-87.436,14.908],[-87.433,14.911],[-87.425,14.904],[-87.411,14.912],[-87.389,14.912],[-87.383,14.903],[-87.386,14.896],[-87.38,14.882],[-87.367,14.875],[-87.364,14.866],[-87.31,14.804],[-87.289,14.759],[-87.27,14.751],[-87.262,14.752],[-87.264,14.757],[-87.249,14.756],[-87.252,14.739],[-87.256,14.735],[-87.268,14.735],[-87.317,14.751],[-87.354,14.778],[-87.44,14.802],[-87.495,14.833],[-87.508,14.879],[-87.549,14.908],[-87.557,14.921]]]}},{"type":"Feature","properties":{"cve_ent":"HN03","cve_mun":"012","cvegeo":"HN0312","nombre":"Ojos de Agua"},"geometry":{"type":"Polygon","coordinates":[[[-87.751,14.728],[-87.756,14.745],[-87.738,14.749],[-87.725,14.758],[-87.714,14.774],[-87.715,14.782],[-87.708,14.793],[-87.687,14.794],[-87.684,14.801],[-87.682,14.81],[-87.687,14.815],[-87.685,14.831],[-87.691,14.835],[-87.687,14.84],[-87.695,14.846],[-87.705,14.838],[-87.708,14.846],[-87.72,14.853],[-87.706,14.876],[-87.687,14.858],[-87.645,14.869],[-87.562,14.864],[-87.57,14.851],[-87.558,14.842],[-87.555,14.829],[-87.563,14.821],[-87.602,14.823],[-87.602,14.799],[-87.628,14.776],[-87.628,14.755],[-87.634,14.754],[-87.637,14.732],[-87.649,14.727],[-87.654,14.737],[-87.666,14.741],[-87.751,14.728]]]}},{"type":"Feature","properties":{"cve_ent":"HN03","cve_mun":"013","cvegeo":"HN0313","nombre":"San Jerónimo"},"geometry":{"type":"Polygon","coordinates":[[[-87.632,14.651],[-87.632,14.664],[-87.624,14.667],[-87.63,14.676],[-87.621,14.682],[-87.621,14.692],[-87.6,14.7],[-87.601,14.724],[-87.561,14.724],[-87.556,14.729],[-87.532,14.726],[-87.533,14.719],[-87.525,14.714],[-87.525,14.708],[-87.517,14.701],[-87.521,14.687],[-87.517,14.673],[-87.482,14.658],[-87.482,14.645],[-87.491,14.638],[-87.487,14.637],[-87.482,14.625],[-87.472,14.619],[-87.474,14.6],[-87.506,14.566],[-87.548,14.572],[-87.566,14.567],[-87.578,14.585],[-87.595,14.574],[-87.626,14.576],[-87.63,14.578],[-87.627,14.591],[-87.632,14.596],[-87.627,14.601],[-87.627,14.621],[-87.621,14.628],[-87.628,14.63],[-87.636,14.639],[-87.635,14.645],[-87.627,14.647],[-87.632,14.651]]]}},{"type":"Feature","properties":{"cve_ent":"HN03","cve_mun":"014","cvegeo":"HN0314","nombre":"San José de Comayagua"},"geometry":{"type":"Polygon","coordinates":[[[-88.061,14.637],[-88.076,14.665],[-88.057,14.682],[-88.073,14.708],[-88.087,14.712],[-88.087,14.716],[-88.051,14.758],[-88.031,14.766],[-88.012,14.764],[-88.001,14.749],[-88.003,14.736],[-87.997,14.725],[-87.996,14.712],[-88.021,14.711],[-88.032,14.702],[-88.027,14.695],[-88.029,14.683],[-88.022,14.678],[-88.022,14.635],[-88.041,14.641],[-88.055,14.641],[-88.061,14.637]]]}},{"type":"Feature","properties":{"cve_ent":"HN03","cve_mun":"015","cvegeo":"HN0315","nombre":"San José del Potrero"},"geometry":{"type":"Polygon","coordinates":[[[-87.391,14.911],[-87.398,14.912],[-87.399,14.917],[-87.39,14.922],[-87.377,14.939],[-87.357,14.941],[-87.343,14.93],[-87.324,14.931],[-87.318,14.927],[-87.313,14.932],[-87.299,14.913],[-87.294,14.914],[-87.29,14.925],[-87.278,14.927],[-87.275,14.919],[-87.268,14.915],[-87.268,14.909],[-87.257,14.904],[-87.254,14.898],[-87.217,14.883],[-87.224,14.87],[-87.217,14.87],[-87.211,14.862],[-87.211,14.847],[-87.218,14.843],[-87.246,14.846],[-87.258,14.83],[-87.263,14.829],[-87.266,14.811],[-87.26,14.809],[-87.26,14.799],[-87.251,14.788],[-87.254,14.769],[-87.25,14.766],[-87.251,14.755],[-87.264,14.757],[-87.262,14.752],[-87.27,14.751],[-87.289,14.759],[-87.31,14.804],[-87.364,14.866],[-87.367,14.875],[-87.38,14.882],[-87.386,14.896],[-87.383,14.903],[-87.391,14.911]]]}},{"type":"Feature","properties":{"cve_ent":"HN03","cve_mun":"016","cvegeo":"HN0316","nombre":"San Luis"},"geometry":{"type":"Polygon","coordinates":[[[-87.39,14.75],[-87.389,14.744],[-87.418,14.724],[-87.424,14.726],[-87.433,14.719],[-87.445,14.726],[-87.497,14.731],[-87.516,14.757],[-87.517,14.772],[-87.506,14.831],[-87.495,14.833],[-87.44,14.802],[-87.366,14.782],[-87.39,14.75]]]}},{"type":"Feature","properties":{"cve_ent":"HN03","cve_mun":"017","cvegeo":"HN0317","nombre":"San Sebastian"},"geometry":{"type":"MultiPolygon","coordinates":[[[[-87.68,14.195],[-87.687,14.227],[-87.68,14.229],[-87.682,14.234],[-87.676,14.234],[-87.666,14.253],[-87.662,14.252],[-87.665,14.248],[-87.657,14.245],[-87.658,14.25],[-87.647,14.252],[-87.653,14.262],[-87.649,14.261],[-87.638,14.269],[-87.615,14.268],[-87.596,14.258],[-87.593,14.24],[-87.588,14.237],[-87.589,14.228],[-87.661,14.214],[-87.68,14.195]]],[[[-87.672,14.245],[-87.671,14.244],[-87.672,14.244],[-87.672,14.245]]],[[[-87.781,14.244],[-87.776,14.235],[-87.765,14.236],[-87.763,14.229],[-87.75,14.222],[-87.74,14.223],[-87.729,14.214],[-87.739,14.207],[-87.737,14.184],[-87.752,14.179],[-87.755,14.171],[-87.767,14.169],[-87.769,14.163],[-87.788,14.19],[-87.825,14.2],[-87.826,14.213],[-87.833,14.223],[-87.818,14.235],[-87.816,14.229],[-87.781,14.244]]]]}},{"type":"Feature","properties":{"cve_ent":"HN03","cve_mun":"018","cvegeo":"HN0318","nombre":"Siguatepeque"},"geometry":{"type":"MultiPolygon","coordinates":[[[[-87.984,14.617],[-87.99,14.614],[-88.0,14.627],[-88.022,14.635],[-88.022,14.653],[-87.919,14.651],[-87.899,14.672],[-87.901,14.729],[-87.924,14.743],[-87.929,14.755],[-87.881,14.809],[-87.881,14.799],[-87.869,14.771],[-87.817,14.732],[-87.782,14.718],[-87.777,14.708],[-87.782,14.699],[-87.781,14.689],[-87.79,14.678],[-87.788,14.675],[-87.797,14.673],[-87.793,14.649],[-87.802,14.629],[-87.783,14.59],[-87.787,14.588],[-87.788,14.581],[-87.781,14.572],[-87.782,14.568],[-87.786,14.567],[-87.786,14.569],[-87.79,14.569],[-87.791,14.571],[-87.801,14.568],[-87.804,14.572],[-87.834,14.576],[-87.836,14.557],[-87.832,14.541],[-87.852,14.543],[-87.872,14.532],[-87.868,14.529],[-87.868,14.516],[-87.897,14.498],[-87.903,14.501],[-87.904,14.508],[-87.901,14.528],[-87.91,14.536],[-87.943,14.543],[-87.953,14.569],[-87.951,14.582],[-87.966,14.6],[-87.964,14.612],[-87.984,14.617]],[[-87.79,14.572],[-87.789,14.57],[-87.789,14.572],[-87.79,14.572]]],[[[-87.802,14.568],[-87.801,14.567],[-87.802,14.567],[-87.802,14.568]]]]}},{"type":"Feature","properties":{"cve_ent":"HN03","cve_mun":"019","cvegeo":"HN0319","nombre":"Villa de San Antonio"},"geometry":{"type":"MultiPolygon","coordinates":[[[[-87.644,14.362],[-87.625,14.371],[-87.615,14.368],[-87.615,14.374],[-87.608,14.377],[-87.583,14.375],[-87.558,14.384],[-87.543,14.385],[-87.545,14.383],[-87.541,14.379],[-87.537,14.385],[-87.53,14.384],[-87.524,14.39],[-87.491,14.385],[-87.494,14.373],[-87.491,14.365],[-87.485,14.364],[-87.48,14.368],[-87.465,14.357],[-87.456,14.363],[-87.456,14.362],[-87.455,14.362],[-87.454,14.362],[-87.453,14.362],[-87.452,14.362],[-87.45,14.362],[-87.449,14.363],[-87.448,14.362],[-87.437,14.373],[-87.434,14.371],[-87.433,14.378],[-87.391,14.376],[-87.402,14.345],[-87.429,14.34],[-87.437,14.335],[-87.451,14.339],[-87.464,14.335],[-87.468,14.327],[-87.461,14.264],[-87.443,14.249],[-87.43,14.245],[-87.425,14.224],[-87.433,14.215],[-87.472,14.211],[-87.478,14.203],[-87.491,14.202],[-87.502,14.211],[-87.513,14.211],[-87.519,14.207],[-87.525,14.213],[-87.537,14.21],[-87.559,14.223],[-87.568,14.247],[-87.593,14.246],[-87.596,14.258],[-87.611,14.266],[-87.638,14.269],[-87.636,14.272],[-87.641,14.279],[-87.632,14.277],[-87.629,14.287],[-87.626,14.284],[-87.624,14.287],[-87.629,14.291],[-87.63,14.303],[-87.635,14.304],[-87.628,14.308],[-87.626,14.314],[-87.637,14.317],[-87.635,14.324],[-87.638,14.324],[-87.64,14.333],[-87.635,14.341],[-87.641,14.346],[-87.637,14.354],[-87.644,14.358],[-87.644,14.362]]],[[[-87.452,14.362],[-87.452,14.363],[-87.451,14.363],[-87.452,14.362]]]]}},{"type":"Feature","properties":{"cve_ent":"HN03","cve_mun":"020","cvegeo":"HN0320","nombre":"Las Lajas"},"geometry":{"type":"Polygon","coordinates":[[[-87.687,14.858],[-87.706,14.876],[-87.703,14.885],[-87.708,14.889],[-87.708,14.897],[-87.691,14.904],[-87.692,14.919],[-87.687,14.926],[-87.674,14.921],[-87.659,14.921],[-87.652,14.916],[-87.646,14.919],[-87.644,14.928],[-87.633,14.929],[-87.607,14.941],[-87.558,14.887],[-87.557,14.872],[-87.562,14.864],[-87.645,14.869],[-87.687,14.858]]]}},{"type":"Feature","properties":{"cve_ent":"HN03","cve_mun":"021","cvegeo":"HN0321","nombre":"Taulabé"},"geometry":{"type":"Polygon","coordinates":[[[-88.028,14.696],[-88.032,14.702],[-88.027,14.707],[-88.021,14.711],[-87.996,14.712],[-87.996,14.721],[-88.003,14.736],[-88.001,14.749],[-88.009,14.761],[-88.031,14.766],[-87.996,14.794],[-87.985,14.793],[-87.976,14.802],[-87.967,14.8],[-87.958,14.814],[-87.9,14.852],[-87.881,14.838],[-87.881,14.809],[-87.929,14.755],[-87.924,14.743],[-87.901,14.729],[-87.899,14.672],[-87.919,14.651],[-88.022,14.653],[-88.022,14.678],[-88.029,14.683],[-88.028,14.696]]]}}]}