{"type":"FeatureCollection","features":[{"type":"Feature","properties":{"cve_ent":"HN04","cve_mun":"001","cvegeo":"HN0401","nombre":"Santa Rosa de Copán"},"geometry":{"type":"MultiPolygon","coordinates":[[[[-88.861,14.808],[-88.85,14.801],[-88.85,14.795],[-88.838,14.805],[-88.825,14.802],[-88.823,14.807],[-88.824,14.81],[-88.801,14.827],[-88.801,14.834],[-88.806,14.838],[-88.802,14.841],[-88.802,14.853],[-88.779,14.852],[-88.76,14.863],[-88.756,14.889],[-88.75,14.89],[-88.759,14.892],[-88.747,14.911],[-88.732,14.896],[-88.698,14.896],[-88.665,14.891],[-88.641,14.897],[-88.649,14.886],[-88.649,14.875],[-88.643,14.869],[-88.654,14.869],[-88.657,14.854],[-88.669,14.856],[-88.679,14.853],[-88.685,14.858],[-88.701,14.853],[-88.71,14.856],[-88.714,14.855],[-88.719,14.844],[-88.746,14.831],[-88.762,14.842],[-88.774,14.835],[-88.751,14.814],[-88.743,14.79],[-88.727,14.77],[-88.711,14.771],[-88.695,14.767],[-88.693,14.762],[-88.666,14.763],[-88.664,14.755],[-88.659,14.753],[-88.664,14.744],[-88.658,14.741],[-88.658,14.732],[-88.653,14.731],[-88.653,14.718],[-88.656,14.716],[-88.659,14.722],[-88.666,14.717],[-88.668,14.722],[-88.673,14.719],[-88.681,14.724],[-88.69,14.712],[-88.705,14.714],[-88.728,14.707],[-88.746,14.709],[-88.757,14.716],[-88.762,14.712],[-88.774,14.712],[-88.803,14.727],[-88.819,14.727],[-88.82,14.731],[-88.825,14.728],[-88.83,14.732],[-88.827,14.736],[-88.836,14.735],[-88.838,14.75],[-88.841,14.747],[-88.85,14.753],[-88.855,14.75],[-88.854,14.755],[-88.86,14.754],[-88.86,14.758],[-88.862,14.755],[-88.871,14.759],[-88.886,14.757],[-88.892,14.751],[-88.9,14.781],[-88.899,14.807],[-88.908,14.838],[-88.906,14.842],[-88.918,14.872],[-88.939,14.872],[-88.906,14.881],[-88.861,14.833],[-88.864,14.822],[-88.861,14.808]]],[[[-88.824,14.808],[-88.825,14.807],[-88.825,14.808],[-88.824,14.808]]]]}},{"type":"Feature","properties":{"cve_ent":"HN04","cve_mun":"002","cvegeo":"HN0402","nombre":"Cabañas"},"geometry":{"type":"Polygon","coordinates":[[[-89.082,14.727],[-89.098,14.724],[-89.101,14.736],[-89.118,14.753],[-89.118,14.764],[-89.131,14.774],[-89.128,14.797],[-89.11,14.835],[-89.088,14.853],[-89.072,14.853],[-89.053,14.806],[-89.037,14.805],[-89.036,14.796],[-89.021,14.789],[-89.01,14.777],[-89.026,14.756],[-89.013,14.75],[-89.014,14.716],[-89.022,14.714],[-89.029,14.719],[-89.04,14.72],[-89.05,14.716],[-89.069,14.717],[-89.082,14.727]]]}},{"type":"Feature","properties":{"cve_ent":"HN04","cve_mun":"003","cvegeo":"HN0403","nombre":"Concepción"},"geometry":{"type":"MultiPolygon","coordinates":[[[[-88.947,14.929],[-88.937,14.927],[-88.93,14.933],[-88.93,14.935],[-88.916,14.932],[-88.912,14.928],[-88.914,14.918],[-88.909,14.911],[-88.887,14.906],[-88.873,14.907],[-88.876,14.897],[-88.86,14.887],[-88.863,14.866],[-88.846,14.841],[-88.816,14.84],[-88.817,14.836],[-88.809,14.827],[-88.81,14.821],[-88.824,14.81],[-88.823,14.807],[-88.825,14.802],[-88.838,14.805],[-88.85,14.795],[-88.85,14.801],[-88.864,14.813],[-88.861,14.833],[-88.906,14.881],[-88.939,14.872],[-88.94,14.888],[-88.96,14.915],[-88.947,14.929]],[[-88.825,14.807],[-88.824,14.808],[-88.825,14.808],[-88.825,14.807]]],[[[-88.932,14.933],[-88.933,14.932],[-88.933,14.933],[-88.932,14.933]]]]}},{"type":"Feature","properties":{"cve_ent":"HN04","cve_mun":"004","cvegeo":"HN0404","nombre":"Copan Ruinas"},"geometry":{"type":"Polygon","coordinates":[[[-89.224,14.834],[-89.226,14.886],[-89.212,14.892],[-89.206,14.901],[-89.187,14.904],[-89.18,14.922],[-89.173,14.928],[-89.176,14.938],[-89.167,14.944],[-89.163,14.96],[-89.165,14.97],[-89.157,14.981],[-89.179,14.993],[-89.18,15.0],[-89.185,15.003],[-89.18,15.008],[-89.179,15.018],[-89.17,15.028],[-89.176,15.037],[-89.164,15.044],[-89.152,15.059],[-89.155,15.068],[-89.084,15.095],[-89.085,15.091],[-89.081,15.093],[-89.08,15.088],[-89.082,15.084],[-89.057,15.076],[-89.048,15.044],[-89.031,15.023],[-89.043,15.016],[-89.054,15.016],[-89.059,15.009],[-89.058,14.999],[-89.053,14.996],[-89.055,14.989],[-89.048,14.982],[-89.045,14.969],[-89.056,14.962],[-89.091,14.963],[-89.112,14.944],[-89.126,14.947],[-89.133,14.93],[-89.142,14.924],[-89.145,14.902],[-89.14,14.866],[-89.13,14.862],[-89.127,14.856],[-89.13,14.848],[-89.123,14.848],[-89.11,14.835],[-89.128,14.797],[-89.131,14.774],[-89.118,14.764],[-89.118,14.753],[-89.101,14.736],[-89.098,14.723],[-89.131,14.713],[-89.166,14.731],[-89.169,14.774],[-89.195,14.797],[-89.224,14.834]],[[-89.082,15.083],[-89.085,15.084],[-89.085,15.083],[-89.082,15.083]],[[-89.058,15.013],[-89.057,15.014],[-89.058,15.014],[-89.058,15.013]]]}},{"type":"Feature","properties":{"cve_ent":"HN04","cve_mun":"005","cvegeo":"HN0405","nombre":"Corquín"},"geometry":{"type":"Polygon","coordinates":[[[-88.842,14.604],[-88.835,14.591],[-88.834,14.58],[-88.825,14.591],[-88.816,14.593],[-88.814,14.607],[-88.813,14.592],[-88.81,14.59],[-88.802,14.596],[-88.793,14.587],[-88.786,14.604],[-88.734,14.611],[-88.753,14.595],[-88.759,14.594],[-88.777,14.55],[-88.798,14.544],[-88.812,14.533],[-88.826,14.537],[-88.832,14.534],[-88.832,14.527],[-88.826,14.52],[-88.83,14.512],[-88.825,14.5],[-88.846,14.497],[-88.853,14.512],[-88.894,14.519],[-88.915,14.542],[-88.911,14.558],[-88.924,14.557],[-88.93,14.562],[-88.93,14.578],[-88.923,14.596],[-88.916,14.596],[-88.904,14.609],[-88.879,14.61],[-88.867,14.599],[-88.842,14.604]]]}},{"type":"Feature","properties":{"cve_ent":"HN04","cve_mun":"006","cvegeo":"HN0406","nombre":"Cucuyagua"},"geometry":{"type":"Polygon","coordinates":[[[-88.886,14.757],[-88.862,14.755],[-88.86,14.758],[-88.86,14.754],[-88.854,14.755],[-88.855,14.75],[-88.85,14.753],[-88.845,14.747],[-88.838,14.75],[-88.836,14.735],[-88.827,14.736],[-88.83,14.732],[-88.825,14.728],[-88.82,14.731],[-88.819,14.727],[-88.803,14.727],[-88.795,14.721],[-88.787,14.721],[-88.786,14.718],[-88.795,14.712],[-88.796,14.686],[-88.793,14.686],[-88.775,14.651],[-88.771,14.65],[-88.793,14.633],[-88.863,14.631],[-88.887,14.64],[-88.886,14.647],[-88.876,14.648],[-88.878,14.653],[-88.884,14.654],[-88.879,14.665],[-88.883,14.677],[-88.881,14.683],[-88.893,14.695],[-88.89,14.706],[-88.896,14.71],[-88.903,14.709],[-88.897,14.716],[-88.899,14.722],[-88.907,14.724],[-88.904,14.73],[-88.898,14.725],[-88.901,14.735],[-88.915,14.74],[-88.915,14.745],[-88.895,14.757],[-88.892,14.751],[-88.886,14.757]]]}},{"type":"Feature","properties":{"cve_ent":"HN04","cve_mun":"007","cvegeo":"HN0407","nombre":"Dolores"},"geometry":{"type":"Polygon","coordinates":[[[-88.898,14.909],[-88.893,14.928],[-88.884,14.934],[-88.882,14.945],[-88.869,14.954],[-88.865,14.95],[-88.857,14.95],[-88.851,14.956],[-88.85,14.951],[-88.841,14.949],[-88.838,14.94],[-88.842,14.937],[-88.819,14.911],[-88.802,14.874],[-88.798,14.853],[-88.802,14.85],[-88.827,14.857],[-88.836,14.871],[-88.842,14.907],[-88.887,14.906],[-88.898,14.909]]]}},{"type":"Feature","properties":{"cve_ent":"HN04","cve_mun":"008","cvegeo":"HN0408","nombre":"Dulce Nombre"},"geometry":{"type":"Polygon","coordinates":[[[-88.842,14.907],[-88.836,14.871],[-88.827,14.857],[-88.802,14.85],[-88.802,14.841],[-88.806,14.841],[-88.801,14.834],[-88.802,14.826],[-88.81,14.825],[-88.816,14.84],[-88.846,14.841],[-88.862,14.863],[-88.863,14.882],[-88.86,14.887],[-88.876,14.897],[-88.873,14.907],[-88.842,14.907]]]}},{"type":"Feature","properties":{"cve_ent":"HN04","cve_mun":"009","cvegeo":"HN0409","nombre":"El Paraiso"},"geometry":{"type":"MultiPolygon","coordinates":[[[[-89.082,15.084],[-89.08,15.088],[-89.081,15.093],[-89.085,15.091],[-89.084,15.095],[-88.973,15.137],[-88.942,15.163],[-88.936,15.161],[-88.928,15.156],[-88.917,15.14],[-88.918,15.127],[-88.913,15.121],[-88.926,15.085],[-88.927,14.998],[-88.932,14.996],[-88.963,14.955],[-88.989,14.964],[-89.0,14.961],[-89.045,14.971],[-89.049,14.984],[-89.055,14.989],[-89.053,14.996],[-89.058,14.999],[-89.059,15.009],[-89.054,15.016],[-89.043,15.016],[-89.031,15.023],[-89.048,15.044],[-89.057,15.076],[-89.082,15.084]]],[[[-89.085,15.084],[-89.082,15.083],[-89.085,15.083],[-89.085,15.084]]],[[[-89.057,15.014],[-89.058,15.013],[-89.058,15.014],[-89.057,15.014]]]]}},{"type":"Feature","properties":{"cve_ent":"HN04","cve_mun":"010","cvegeo":"HN0410","nombre":"Florida"},"geometry":{"type":"Polygon","coordinates":[[[-88.868,15.126],[-88.866,15.141],[-88.875,15.141],[-88.903,15.127],[-88.918,15.109],[-88.913,15.121],[-88.918,15.127],[-88.917,15.14],[-88.928,15.156],[-88.942,15.163],[-88.848,15.241],[-88.758,15.295],[-88.71,15.246],[-88.721,15.221],[-88.709,15.215],[-88.698,15.201],[-88.702,15.201],[-88.712,15.189],[-88.707,15.168],[-88.714,15.166],[-88.745,15.182],[-88.752,15.197],[-88.768,15.196],[-88.762,15.19],[-88.769,15.184],[-88.772,15.163],[-88.784,15.145],[-88.784,15.135],[-88.797,15.104],[-88.79,15.086],[-88.794,15.088],[-88.795,15.082],[-88.802,15.078],[-88.805,15.081],[-88.813,15.067],[-88.82,15.068],[-88.824,15.064],[-88.822,15.055],[-88.825,15.053],[-88.821,15.044],[-88.828,15.043],[-88.826,15.024],[-88.806,15.015],[-88.797,15.001],[-88.798,14.985],[-88.847,14.99],[-88.848,15.023],[-88.86,15.045],[-88.85,15.06],[-88.854,15.062],[-88.863,15.088],[-88.862,15.101],[-88.868,15.126]]]}},{"type":"Feature","properties":{"cve_ent":"HN04","cve_mun":"011","cvegeo":"HN0411","nombre":"La Jigua"},"geometry":{"type":"Polygon","coordinates":[[[-88.827,15.045],[-88.821,15.044],[-88.825,15.053],[-88.822,15.055],[-88.824,15.064],[-88.82,15.068],[-88.813,15.067],[-88.805,15.081],[-88.802,15.078],[-88.795,15.082],[-88.794,15.088],[-88.79,15.086],[-88.797,15.104],[-88.784,15.135],[-88.784,15.145],[-88.772,15.163],[-88.769,15.184],[-88.762,15.19],[-88.768,15.196],[-88.752,15.197],[-88.745,15.182],[-88.72,15.168],[-88.707,15.168],[-88.704,15.131],[-88.712,15.126],[-88.714,15.113],[-88.721,15.113],[-88.72,15.107],[-88.725,15.108],[-88.723,15.104],[-88.727,15.106],[-88.732,15.1],[-88.735,15.102],[-88.737,15.096],[-88.751,15.095],[-88.756,15.091],[-88.754,15.086],[-88.757,15.082],[-88.763,15.083],[-88.761,15.078],[-88.771,15.068],[-88.781,15.027],[-88.813,15.018],[-88.82,15.02],[-88.828,15.031],[-88.827,15.045]]]}},{"type":"Feature","properties":{"cve_ent":"HN04","cve_mun":"012","cvegeo":"HN0412","nombre":"La Unión"},"geometry":{"type":"Polygon","coordinates":[[[-89.01,14.692],[-89.008,14.697],[-89.014,14.716],[-89.013,14.75],[-89.026,14.756],[-89.01,14.775],[-88.994,14.773],[-88.992,14.788],[-88.981,14.8],[-88.968,14.789],[-88.959,14.789],[-88.954,14.796],[-88.945,14.797],[-88.938,14.793],[-88.934,14.783],[-88.935,14.772],[-88.911,14.749],[-88.915,14.74],[-88.901,14.735],[-88.898,14.725],[-88.904,14.73],[-88.907,14.724],[-88.899,14.722],[-88.897,14.716],[-88.903,14.709],[-88.896,14.71],[-88.89,14.706],[-88.893,14.695],[-88.881,14.683],[-88.883,14.677],[-88.879,14.665],[-88.884,14.654],[-88.878,14.653],[-88.876,14.648],[-88.886,14.647],[-88.888,14.642],[-88.881,14.638],[-88.885,14.628],[-88.88,14.627],[-88.879,14.61],[-88.904,14.609],[-88.916,14.596],[-88.922,14.596],[-88.959,14.632],[-88.967,14.633],[-88.991,14.651],[-89.005,14.668],[-89.004,14.683],[-89.01,14.692]],[[-88.926,14.762],[-88.927,14.763],[-88.927,14.762],[-88.926,14.762]]]}},{"type":"Feature","properties":{"cve_ent":"HN04","cve_mun":"013","cvegeo":"HN0413","nombre":"Nueva Arcadia"},"geometry":{"type":"Polygon","coordinates":[[[-88.757,15.082],[-88.756,15.091],[-88.751,15.095],[-88.737,15.096],[-88.735,15.102],[-88.732,15.1],[-88.727,15.106],[-88.723,15.104],[-88.725,15.108],[-88.72,15.107],[-88.721,15.113],[-88.714,15.113],[-88.712,15.126],[-88.704,15.131],[-88.703,15.145],[-88.707,15.149],[-88.707,15.168],[-88.713,15.184],[-88.702,15.201],[-88.689,15.196],[-88.686,15.181],[-88.679,15.172],[-88.673,15.17],[-88.669,15.173],[-88.647,15.157],[-88.659,15.151],[-88.664,15.138],[-88.665,15.118],[-88.644,15.1],[-88.643,15.089],[-88.637,15.082],[-88.638,15.075],[-88.646,15.069],[-88.656,15.069],[-88.676,15.047],[-88.677,15.036],[-88.709,15.037],[-88.714,15.023],[-88.739,15.024],[-88.75,15.014],[-88.766,15.022],[-88.775,15.016],[-88.781,15.027],[-88.771,15.068],[-88.761,15.078],[-88.763,15.083],[-88.757,15.082]]]}},{"type":"Feature","properties":{"cve_ent":"HN04","cve_mun":"014","cvegeo":"HN0414","nombre":"San Agustín"},"geometry":{"type":"MultiPolygon","coordinates":[[[[-88.935,14.772],[-88.938,14.793],[-88.945,14.797],[-88.954,14.796],[-88.959,14.789],[-88.968,14.789],[-88.981,14.8],[-88.96,14.824],[-88.958,14.867],[-88.939,14.872],[-88.918,14.872],[-88.906,14.842],[-88.908,14.838],[-88.899,14.807],[-88.896,14.755],[-88.914,14.749],[-88.919,14.758],[-88.935,14.772]]],[[[-88.927,14.763],[-88.926,14.762],[-88.927,14.762],[-88.927,14.763]]]]}},{"type":"Feature","properties":{"cve_ent":"HN04","cve_mun":"015","cvegeo":"HN0415","nombre":"San Antonio"},"geometry":{"type":"Polygon","coordinates":[[[-88.882,14.984],[-88.926,15.001],[-88.929,15.028],[-88.926,15.085],[-88.918,15.109],[-88.903,15.127],[-88.875,15.141],[-88.866,15.141],[-88.868,15.126],[-88.862,15.101],[-88.863,15.088],[-88.854,15.062],[-88.85,15.06],[-88.86,15.045],[-88.848,15.023],[-88.847,14.99],[-88.829,14.987],[-88.832,14.981],[-88.849,14.98],[-88.868,14.985],[-88.882,14.984]]]}},{"type":"Feature","properties":{"cve_ent":"HN04","cve_mun":"016","cvegeo":"HN0416","nombre":"San Jerónimo"},"geometry":{"type":"Polygon","coordinates":[[[-88.943,14.931],[-88.945,14.948],[-88.963,14.955],[-88.927,15.001],[-88.882,14.983],[-88.868,14.985],[-88.849,14.98],[-88.832,14.981],[-88.829,14.985],[-88.818,14.977],[-88.82,14.971],[-88.829,14.969],[-88.832,14.96],[-88.843,14.962],[-88.843,14.957],[-88.85,14.959],[-88.857,14.95],[-88.865,14.95],[-88.869,14.954],[-88.882,14.945],[-88.884,14.934],[-88.893,14.928],[-88.898,14.909],[-88.909,14.911],[-88.914,14.918],[-88.912,14.928],[-88.916,14.932],[-88.93,14.935],[-88.931,14.932],[-88.938,14.927],[-88.943,14.931]],[[-88.933,14.932],[-88.932,14.933],[-88.933,14.933],[-88.933,14.932]]]}},{"type":"Feature","properties":{"cve_ent":"HN04","cve_mun":"017","cvegeo":"HN0417","nombre":"San José"},"geometry":{"type":"Polygon","coordinates":[[[-88.776,14.925],[-88.769,14.936],[-88.74,14.932],[-88.736,14.935],[-88.731,14.933],[-88.728,14.938],[-88.695,14.938],[-88.688,14.92],[-88.683,14.922],[-88.67,14.913],[-88.645,14.923],[-88.639,14.9],[-88.665,14.891],[-88.698,14.896],[-88.732,14.896],[-88.747,14.911],[-88.762,14.892],[-88.767,14.905],[-88.788,14.911],[-88.781,14.925],[-88.776,14.925]]]}},{"type":"Feature","properties":{"cve_ent":"HN04","cve_mun":"018","cvegeo":"HN0418","nombre":"San Juan de Opoa"},"geometry":{"type":"Polygon","coordinates":[[[-88.764,14.842],[-88.746,14.831],[-88.719,14.844],[-88.714,14.855],[-88.703,14.856],[-88.701,14.853],[-88.69,14.858],[-88.679,14.853],[-88.654,14.856],[-88.654,14.845],[-88.67,14.837],[-88.68,14.817],[-88.676,14.807],[-88.68,14.801],[-88.681,14.785],[-88.667,14.779],[-88.669,14.773],[-88.664,14.769],[-88.665,14.764],[-88.693,14.762],[-88.695,14.767],[-88.731,14.773],[-88.743,14.79],[-88.751,14.814],[-88.774,14.834],[-88.764,14.842]]]}},{"type":"Feature","properties":{"cve_ent":"HN04","cve_mun":"019","cvegeo":"HN0419","nombre":"San Nicolás"},"geometry":{"type":"Polygon","coordinates":[[[-88.819,14.978],[-88.83,14.987],[-88.798,14.985],[-88.797,15.001],[-88.806,15.015],[-88.813,15.018],[-88.781,15.027],[-88.775,15.016],[-88.766,15.022],[-88.75,15.014],[-88.739,15.024],[-88.714,15.023],[-88.709,15.037],[-88.677,15.036],[-88.681,15.003],[-88.697,14.972],[-88.738,14.976],[-88.792,14.97],[-88.819,14.978]]]}},{"type":"Feature","properties":{"cve_ent":"HN04","cve_mun":"020","cvegeo":"HN0420","nombre":"San Pedro"},"geometry":{"type":"Polygon","coordinates":[[[-88.879,14.608],[-88.88,14.627],[-88.885,14.628],[-88.881,14.638],[-88.863,14.631],[-88.793,14.633],[-88.771,14.65],[-88.761,14.649],[-88.753,14.643],[-88.734,14.611],[-88.786,14.604],[-88.793,14.587],[-88.802,14.596],[-88.81,14.59],[-88.813,14.592],[-88.814,14.607],[-88.816,14.593],[-88.825,14.591],[-88.835,14.58],[-88.835,14.591],[-88.842,14.604],[-88.867,14.599],[-88.879,14.608]]]}},{"type":"Feature","properties":{"cve_ent":"HN04","cve_mun":"021","cvegeo":"HN0421","nombre":"Santa Rita"},"geometry":{"type":"Polygon","coordinates":[[[-89.143,14.877],[-89.141,14.889],[-89.145,14.902],[-89.142,14.924],[-89.133,14.93],[-89.126,14.947],[-89.112,14.944],[-89.091,14.963],[-89.056,14.962],[-89.045,14.971],[-89.0,14.961],[-88.989,14.964],[-88.945,14.948],[-88.941,14.941],[-88.943,14.931],[-88.96,14.915],[-88.94,14.888],[-88.939,14.872],[-88.958,14.867],[-88.96,14.824],[-88.992,14.788],[-88.994,14.773],[-89.01,14.775],[-89.021,14.789],[-89.036,14.796],[-89.037,14.805],[-89.053,14.806],[-89.072,14.853],[-89.088,14.853],[-89.11,14.835],[-89.123,14.848],[-89.13,14.848],[-89.127,14.856],[-89.13,14.862],[-89.14,14.866],[-89.143,14.877]]]}},{"type":"Feature","properties":{"cve_ent":"HN04","cve_mun":"022","cvegeo":"HN0422","nombre":"Trinidad"},"geometry":{"type":"Polygon","coordinates":[[[-88.852,14.956],[-88.843,14.957],[-88.843,14.962],[-88.832,14.96],[-88.829,14.969],[-88.82,14.971],[-88.817,14.979],[-88.792,14.97],[-88.738,14.976],[-88.697,14.972],[-88.704,14.954],[-88.695,14.938],[-88.728,14.938],[-88.731,14.933],[-88.736,14.935],[-88.74,14.932],[-88.769,14.936],[-88.776,14.925],[-88.781,14.925],[-88.788,14.911],[-88.836,14.928],[-88.837,14.935],[-88.842,14.937],[-88.838,14.94],[-88.84,14.947],[-88.85,14.951],[-88.852,14.956]]]}},{"type":"Feature","properties":{"cve_ent":"HN04","cve_mun":"023","cvegeo":"HN0423","nombre":"Veracruz"},"geometry":{"type":"Polygon","coordinates":[[[-88.762,14.892],[-88.75,14.891],[-88.756,14.889],[-88.76,14.863],[-88.779,14.852],[-88.798,14.853],[-88.802,14.874],[-88.819,14.911],[-88.836,14.928],[-88.767,14.905],[-88.762,14.892]]]}}]}