{"type":"FeatureCollection","features":[{"type":"Feature","properties":{"cve_ent":"HN05","cve_mun":"001","cvegeo":"HN0501","nombre":"San Pedro Sula"},"geometry":{"type":"Polygon","coordinates":[[[-88.238,15.482],[-88.247,15.501],[-88.411,15.547],[-88.163,15.629],[-88.091,15.624],[-88.064,15.613],[-88.013,15.619],[-88.0,15.617],[-87.983,15.56],[-87.946,15.542],[-87.899,15.539],[-87.874,15.539],[-87.869,15.544],[-87.85,15.542],[-87.854,15.525],[-87.873,15.52],[-87.876,15.514],[-87.883,15.515],[-87.883,15.507],[-87.89,15.495],[-87.908,15.484],[-87.902,15.473],[-87.908,15.465],[-87.908,15.454],[-87.916,15.456],[-87.932,15.441],[-87.94,15.441],[-87.942,15.445],[-87.938,15.447],[-87.945,15.452],[-87.939,15.456],[-87.948,15.461],[-87.948,15.466],[-87.952,15.467],[-87.954,15.463],[-87.955,15.467],[-87.958,15.465],[-87.955,15.459],[-87.96,15.462],[-87.965,15.458],[-87.959,15.454],[-87.959,15.43],[-87.965,15.434],[-87.965,15.429],[-87.978,15.431],[-87.978,15.426],[-87.985,15.425],[-87.991,15.433],[-88.002,15.418],[-88.014,15.418],[-88.024,15.429],[-88.026,15.423],[-88.031,15.423],[-88.035,15.429],[-88.041,15.421],[-88.049,15.425],[-88.061,15.409],[-88.069,15.416],[-88.076,15.409],[-88.083,15.414],[-88.098,15.41],[-88.112,15.4],[-88.132,15.404],[-88.133,15.399],[-88.128,15.399],[-88.131,15.387],[-88.158,15.372],[-88.165,15.373],[-88.177,15.387],[-88.186,15.387],[-88.192,15.402],[-88.196,15.401],[-88.197,15.405],[-88.206,15.406],[-88.216,15.413],[-88.23,15.414],[-88.238,15.434],[-88.242,15.434],[-88.24,15.441],[-88.243,15.446],[-88.236,15.46],[-88.242,15.469],[-88.238,15.482]]]}},{"type":"Feature","properties":{"cve_ent":"HN05","cve_mun":"002","cvegeo":"HN0502","nombre":"Choloma"},"geometry":{"type":"Polygon","coordinates":[[[-87.942,15.759],[-87.941,15.751],[-87.861,15.752],[-87.859,15.747],[-87.866,15.732],[-87.863,15.724],[-87.87,15.723],[-87.871,15.727],[-87.875,15.725],[-87.874,15.712],[-87.879,15.708],[-87.869,15.705],[-87.867,15.697],[-87.861,15.694],[-87.864,15.692],[-87.859,15.688],[-87.862,15.682],[-87.857,15.679],[-87.854,15.667],[-87.859,15.66],[-87.854,15.651],[-87.858,15.649],[-87.844,15.635],[-87.834,15.636],[-87.786,15.622],[-87.784,15.589],[-87.777,15.577],[-87.771,15.574],[-87.773,15.568],[-87.779,15.567],[-87.784,15.576],[-87.805,15.585],[-87.815,15.597],[-87.825,15.561],[-87.841,15.561],[-87.841,15.547],[-87.85,15.542],[-87.869,15.544],[-87.874,15.539],[-87.946,15.542],[-87.983,15.56],[-88.0,15.617],[-88.013,15.619],[-88.064,15.613],[-88.091,15.624],[-88.078,15.652],[-88.071,15.684],[-88.043,15.698],[-88.018,15.717],[-87.996,15.717],[-87.993,15.734],[-87.985,15.74],[-87.981,15.75],[-87.968,15.756],[-87.952,15.755],[-87.942,15.759]],[[-87.869,15.726],[-87.868,15.724],[-87.868,15.726],[-87.869,15.726]]]}},{"type":"Feature","properties":{"cve_ent":"HN05","cve_mun":"003","cvegeo":"HN0503","nombre":"Omoa"},"geometry":{"type":"MultiPolygon","coordinates":[[[[-88.347,15.616],[-88.322,15.658],[-88.326,15.669],[-88.317,15.671],[-88.313,15.682],[-88.308,15.679],[-88.307,15.672],[-88.302,15.671],[-88.301,15.674],[-88.28,15.676],[-88.281,15.684],[-88.287,15.688],[-88.286,15.694],[-88.281,15.694],[-88.275,15.684],[-88.267,15.693],[-88.265,15.687],[-88.268,15.682],[-88.265,15.681],[-88.258,15.684],[-88.258,15.692],[-88.254,15.686],[-88.247,15.688],[-88.251,15.698],[-88.243,15.698],[-88.246,15.705],[-88.242,15.711],[-88.248,15.711],[-88.252,15.724],[-88.227,15.724],[-88.171,15.688],[-88.142,15.681],[-88.114,15.691],[-88.111,15.7],[-88.102,15.707],[-88.103,15.716],[-88.107,15.71],[-88.11,15.71],[-88.107,15.722],[-88.097,15.732],[-88.084,15.733],[-88.076,15.749],[-88.07,15.749],[-88.066,15.755],[-88.059,15.755],[-88.047,15.764],[-88.045,15.776],[-88.049,15.781],[-88.046,15.784],[-88.042,15.78],[-88.039,15.785],[-88.0,15.786],[-87.979,15.796],[-87.976,15.802],[-87.966,15.802],[-87.962,15.79],[-87.956,15.787],[-87.958,15.773],[-87.969,15.772],[-87.967,15.756],[-87.981,15.75],[-87.985,15.74],[-87.993,15.734],[-87.996,15.717],[-88.018,15.717],[-88.043,15.698],[-88.071,15.684],[-88.078,15.652],[-88.091,15.624],[-88.163,15.629],[-88.411,15.547],[-88.473,15.514],[-88.347,15.616]],[[-88.108,15.712],[-88.109,15.711],[-88.108,15.711],[-88.108,15.712]]],[[[-87.965,15.761],[-87.965,15.764],[-87.963,15.764],[-87.965,15.761]]]]}},{"type":"Feature","properties":{"cve_ent":"HN05","cve_mun":"004","cvegeo":"HN0504","nombre":"Pimienta"},"geometry":{"type":"Polygon","coordinates":[[[-87.928,15.294],[-87.91,15.288],[-87.91,15.274],[-87.922,15.275],[-87.932,15.269],[-87.939,15.25],[-87.97,15.254],[-88.007,15.236],[-88.016,15.24],[-88.017,15.258],[-88.01,15.272],[-88.02,15.286],[-88.002,15.301],[-87.983,15.293],[-87.93,15.308],[-87.924,15.303],[-87.928,15.294]]]}},{"type":"Feature","properties":{"cve_ent":"HN05","cve_mun":"005","cvegeo":"HN0505","nombre":"Potrerillos"},"geometry":{"type":"MultiPolygon","coordinates":[[[[-88.015,15.222],[-88.023,15.226],[-88.02,15.236],[-88.012,15.231],[-87.97,15.254],[-87.936,15.252],[-87.937,15.235],[-87.932,15.236],[-87.925,15.246],[-87.921,15.245],[-87.926,15.231],[-87.918,15.228],[-87.918,15.221],[-87.925,15.213],[-87.916,15.209],[-87.926,15.208],[-87.926,15.2],[-87.911,15.199],[-87.905,15.193],[-87.938,15.176],[-87.932,15.169],[-87.926,15.17],[-87.924,15.164],[-87.93,15.157],[-87.924,15.154],[-87.925,15.15],[-87.922,15.152],[-87.923,15.146],[-87.92,15.149],[-87.92,15.142],[-87.927,15.14],[-87.922,15.131],[-87.929,15.131],[-87.929,15.122],[-87.935,15.122],[-87.934,15.113],[-87.963,15.14],[-87.972,15.168],[-87.983,15.18],[-88.015,15.194],[-88.009,15.203],[-88.011,15.215],[-88.016,15.216],[-88.015,15.222]]],[[[-87.926,15.157],[-87.927,15.158],[-87.926,15.158],[-87.926,15.157]]],[[[-87.934,15.176],[-87.935,15.177],[-87.934,15.177],[-87.934,15.176]]]]}},{"type":"Feature","properties":{"cve_ent":"HN05","cve_mun":"006","cvegeo":"HN0506","nombre":"Puerto Cortés"},"geometry":{"type":"MultiPolygon","coordinates":[[[[-87.966,15.763],[-87.969,15.772],[-87.958,15.773],[-87.956,15.783],[-87.966,15.802],[-87.94,15.814],[-87.933,15.829],[-87.93,15.828],[-87.935,15.84],[-87.964,15.845],[-87.955,15.863],[-87.906,15.863],[-87.871,15.889],[-87.846,15.89],[-87.833,15.899],[-87.808,15.902],[-87.79,15.896],[-87.756,15.894],[-87.733,15.919],[-87.719,15.919],[-87.729,15.908],[-87.729,15.879],[-87.743,15.874],[-87.749,15.877],[-87.745,15.88],[-87.751,15.879],[-87.754,15.871],[-87.771,15.858],[-87.774,15.85],[-87.765,15.844],[-87.772,15.841],[-87.774,15.826],[-87.769,15.821],[-87.774,15.819],[-87.784,15.828],[-87.786,15.823],[-87.779,15.814],[-87.78,15.808],[-87.786,15.806],[-87.797,15.812],[-87.794,15.796],[-87.802,15.793],[-87.8,15.787],[-87.791,15.79],[-87.781,15.776],[-87.787,15.763],[-87.785,15.758],[-87.777,15.775],[-87.773,15.774],[-87.764,15.76],[-87.767,15.75],[-87.756,15.732],[-87.774,15.734],[-87.777,15.728],[-87.772,15.718],[-87.78,15.71],[-87.787,15.713],[-87.792,15.723],[-87.801,15.724],[-87.804,15.719],[-87.802,15.71],[-87.806,15.705],[-87.829,15.698],[-87.839,15.687],[-87.832,15.69],[-87.819,15.685],[-87.811,15.692],[-87.806,15.691],[-87.805,15.682],[-87.816,15.684],[-87.823,15.68],[-87.83,15.661],[-87.819,15.653],[-87.809,15.666],[-87.804,15.659],[-87.81,15.655],[-87.811,15.647],[-87.805,15.64],[-87.773,15.64],[-87.769,15.632],[-87.774,15.619],[-87.763,15.611],[-87.765,15.593],[-87.775,15.598],[-87.783,15.595],[-87.786,15.622],[-87.834,15.636],[-87.844,15.635],[-87.858,15.649],[-87.854,15.651],[-87.859,15.658],[-87.854,15.667],[-87.857,15.679],[-87.862,15.682],[-87.859,15.688],[-87.864,15.692],[-87.861,15.694],[-87.867,15.697],[-87.869,15.705],[-87.879,15.708],[-87.874,15.712],[-87.875,15.725],[-87.871,15.727],[-87.87,15.723],[-87.863,15.724],[-87.866,15.732],[-87.859,15.747],[-87.861,15.752],[-87.941,15.751],[-87.94,15.759],[-87.952,15.755],[-87.968,15.756],[-87.969,15.762],[-87.966,15.763]],[[-87.965,15.763],[-87.965,15.761],[-87.963,15.764],[-87.965,15.764],[-87.965,15.763]]],[[[-87.868,15.724],[-87.869,15.726],[-87.868,15.726],[-87.868,15.724]]]]}},{"type":"Feature","properties":{"cve_ent":"HN05","cve_mun":"007","cvegeo":"HN0507","nombre":"San Antonio de Cortés"},"geometry":{"type":"MultiPolygon","coordinates":[[[[-88.021,15.225],[-88.015,15.223],[-88.016,15.216],[-88.013,15.217],[-88.009,15.21],[-88.015,15.194],[-87.983,15.18],[-87.972,15.168],[-87.963,15.14],[-87.934,15.113],[-87.937,15.103],[-87.939,15.104],[-87.938,15.096],[-87.94,15.096],[-87.936,15.092],[-87.939,15.086],[-87.936,15.08],[-87.943,15.069],[-87.959,15.075],[-87.962,15.081],[-87.969,15.08],[-87.971,15.084],[-87.983,15.081],[-87.989,15.086],[-88.001,15.081],[-88.001,15.084],[-88.012,15.083],[-88.011,15.067],[-87.989,15.069],[-87.982,15.064],[-88.017,15.047],[-88.044,15.053],[-88.052,15.062],[-88.054,15.072],[-88.065,15.072],[-88.07,15.085],[-88.076,15.09],[-88.088,15.091],[-88.121,15.135],[-88.107,15.153],[-88.096,15.158],[-88.09,15.171],[-88.082,15.174],[-88.084,15.181],[-88.081,15.186],[-88.066,15.193],[-88.066,15.204],[-88.059,15.212],[-88.043,15.214],[-88.029,15.222],[-88.024,15.233],[-88.021,15.225]],[[-87.938,15.107],[-87.937,15.108],[-87.938,15.108],[-87.938,15.107]],[[-87.938,15.08],[-87.937,15.081],[-87.938,15.081],[-87.938,15.08]]],[[[-87.96,15.075],[-87.959,15.073],[-87.96,15.073],[-87.96,15.075]]]]}},{"type":"Feature","properties":{"cve_ent":"HN05","cve_mun":"008","cvegeo":"HN0508","nombre":"San Fco. de Yojoa"},"geometry":{"type":"Polygon","coordinates":[[[-88.033,15.043],[-88.026,15.0488],[-88.017,15.047],[-87.982,15.064],[-87.989,15.069],[-88.011,15.067],[-88.012,15.083],[-88.001,15.084],[-88.001,15.081],[-87.989,15.086],[-87.984,15.085],[-87.984,15.081],[-87.981,15.084],[-87.962,15.081],[-87.937,15.037],[-87.927,15.004],[-87.979,14.979],[-87.997,14.982],[-88.028,14.979],[-88.05,14.994],[-88.041,15.001],[-88.033,15.043]]]}},{"type":"Feature","properties":{"cve_ent":"HN05","cve_mun":"009","cvegeo":"HN0509","nombre":"San Manuel"},"geometry":{"type":"Polygon","coordinates":[[[-87.949,15.411],[-87.922,15.423],[-87.916,15.436],[-87.907,15.434],[-87.905,15.424],[-87.891,15.431],[-87.886,15.43],[-87.885,15.424],[-87.88,15.425],[-87.881,15.432],[-87.863,15.449],[-87.827,15.434],[-87.818,15.408],[-87.823,15.401],[-87.838,15.404],[-87.848,15.375],[-87.88,15.353],[-87.877,15.345],[-87.866,15.347],[-87.863,15.344],[-87.867,15.335],[-87.874,15.335],[-87.886,15.346],[-87.887,15.334],[-87.893,15.324],[-87.91,15.326],[-87.918,15.323],[-87.916,15.315],[-87.909,15.314],[-87.905,15.306],[-87.924,15.303],[-87.93,15.308],[-87.946,15.304],[-87.966,15.33],[-87.956,15.361],[-87.947,15.367],[-87.948,15.385],[-87.956,15.403],[-87.957,15.424],[-87.954,15.423],[-87.95,15.429],[-87.949,15.411]]]}},{"type":"Feature","properties":{"cve_ent":"HN05","cve_mun":"010","cvegeo":"HN0510","nombre":"Santa Cruz de Yojoa"},"geometry":{"type":"MultiPolygon","coordinates":[[[[-88.029,14.933],[-88.061,14.929],[-88.05,14.994],[-88.028,14.979],[-88.014,14.982],[-87.979,14.979],[-87.927,15.004],[-87.937,15.037],[-87.959,15.074],[-87.946,15.069],[-87.94,15.073],[-87.936,15.08],[-87.939,15.085],[-87.936,15.092],[-87.94,15.096],[-87.934,15.111],[-87.935,15.122],[-87.929,15.122],[-87.929,15.131],[-87.922,15.131],[-87.927,15.14],[-87.92,15.142],[-87.92,15.149],[-87.923,15.146],[-87.922,15.152],[-87.925,15.15],[-87.924,15.154],[-87.93,15.157],[-87.924,15.167],[-87.932,15.169],[-87.938,15.176],[-87.905,15.193],[-87.867,15.193],[-87.857,15.178],[-87.848,15.175],[-87.851,15.163],[-87.844,15.158],[-87.819,15.161],[-87.814,15.15],[-87.802,15.156],[-87.795,15.151],[-87.796,15.139],[-87.782,15.134],[-87.773,15.139],[-87.757,15.135],[-87.744,15.116],[-87.732,15.11],[-87.739,15.099],[-87.735,15.097],[-87.738,15.089],[-87.731,15.084],[-87.736,15.077],[-87.745,15.074],[-87.744,15.06],[-87.75,15.048],[-87.745,15.027],[-87.735,15.017],[-87.743,15.006],[-87.743,14.986],[-87.738,14.986],[-87.734,14.977],[-87.742,14.958],[-87.76,14.946],[-87.779,14.944],[-87.783,14.939],[-87.783,14.927],[-87.799,14.931],[-87.801,14.919],[-87.81,14.913],[-87.815,14.917],[-87.817,14.911],[-87.827,14.91],[-87.825,14.907],[-87.829,14.904],[-87.835,14.907],[-87.836,14.904],[-87.851,14.903],[-87.852,14.896],[-87.857,14.895],[-87.856,14.887],[-87.876,14.876],[-87.884,14.86],[-87.958,14.814],[-87.967,14.8],[-87.975,14.802],[-87.972,14.814],[-87.966,14.818],[-87.971,14.822],[-87.97,14.828],[-87.965,14.828],[-87.969,14.835],[-87.968,14.844],[-87.958,14.849],[-87.953,14.859],[-87.953,14.871],[-87.944,14.884],[-87.941,14.883],[-87.94,14.89],[-87.946,14.89],[-87.948,14.895],[-87.948,14.891],[-87.953,14.893],[-87.951,14.898],[-87.955,14.898],[-87.954,14.903],[-87.961,14.911],[-87.967,14.908],[-87.971,14.912],[-87.976,14.91],[-87.976,14.923],[-87.983,14.924],[-87.996,14.936],[-88.002,14.933],[-88.02,14.939],[-88.027,14.938],[-88.029,14.933]],[[-87.927,15.158],[-87.926,15.157],[-87.926,15.158],[-87.927,15.158]],[[-87.935,15.177],[-87.934,15.176],[-87.934,15.177],[-87.935,15.177]],[[-87.951,14.899],[-87.95,14.898],[-87.95,14.899],[-87.951,14.899]]],[[[-87.937,15.081],[-87.938,15.08],[-87.938,15.081],[-87.937,15.081]]],[[[-87.937,15.108],[-87.938,15.107],[-87.938,15.108],[-87.937,15.108]]],[[[-87.943,14.887],[-87.942,14.886],[-87.943,14.886],[-87.943,14.887]]],[[[-88.027,14.937],[-88.026,14.936],[-88.027,14.936],[-88.027,14.937]]],[[[-87.972,14.902],[-87.975,14.904],[-87.974,14.907],[-87.972,14.907],[-87.972,14.902]]]]}},{"type":"Feature","properties":{"cve_ent":"HN05","cve_mun":"011","cvegeo":"HN0511","nombre":"Villanueva"},"geometry":{"type":"Polygon","coordinates":[[[-87.965,15.434],[-87.956,15.429],[-87.961,15.424],[-87.957,15.424],[-87.956,15.403],[-87.948,15.385],[-87.947,15.367],[-87.956,15.361],[-87.966,15.33],[-87.946,15.304],[-87.983,15.293],[-88.002,15.301],[-88.02,15.286],[-88.01,15.272],[-88.017,15.258],[-88.016,15.24],[-88.007,15.234],[-88.014,15.231],[-88.016,15.236],[-88.02,15.236],[-88.029,15.222],[-88.043,15.214],[-88.06,15.211],[-88.104,15.219],[-88.113,15.25],[-88.126,15.267],[-88.131,15.37],[-88.146,15.377],[-88.145,15.381],[-88.13,15.389],[-88.128,15.399],[-88.133,15.399],[-88.133,15.403],[-88.112,15.4],[-88.098,15.41],[-88.083,15.414],[-88.076,15.409],[-88.069,15.416],[-88.061,15.409],[-88.049,15.425],[-88.041,15.421],[-88.035,15.429],[-88.031,15.423],[-88.026,15.423],[-88.024,15.429],[-88.014,15.418],[-88.002,15.418],[-87.991,15.433],[-87.985,15.425],[-87.978,15.426],[-87.978,15.431],[-87.965,15.429],[-87.965,15.434]]]}},{"type":"Feature","properties":{"cve_ent":"HN05","cve_mun":"012","cvegeo":"HN0512","nombre":"La Lima"},"geometry":{"type":"Polygon","coordinates":[[[-87.955,15.459],[-87.958,15.465],[-87.955,15.467],[-87.954,15.463],[-87.952,15.467],[-87.948,15.466],[-87.948,15.461],[-87.941,15.459],[-87.939,15.454],[-87.945,15.452],[-87.938,15.447],[-87.942,15.445],[-87.94,15.441],[-87.932,15.441],[-87.916,15.456],[-87.908,15.454],[-87.908,15.465],[-87.902,15.47],[-87.908,15.484],[-87.89,15.495],[-87.883,15.507],[-87.883,15.515],[-87.876,15.514],[-87.873,15.52],[-87.854,15.525],[-87.85,15.542],[-87.841,15.547],[-87.841,15.561],[-87.825,15.561],[-87.815,15.597],[-87.8,15.583],[-87.806,15.579],[-87.798,15.563],[-87.8,15.557],[-87.816,15.552],[-87.815,15.535],[-87.805,15.527],[-87.805,15.521],[-87.814,15.52],[-87.822,15.53],[-87.831,15.53],[-87.833,15.527],[-87.826,15.515],[-87.838,15.503],[-87.836,15.498],[-87.822,15.49],[-87.828,15.476],[-87.813,15.471],[-87.807,15.463],[-87.821,15.44],[-87.83,15.44],[-87.83,15.454],[-87.834,15.459],[-87.86,15.459],[-87.865,15.455],[-87.863,15.449],[-87.881,15.432],[-87.88,15.425],[-87.885,15.424],[-87.886,15.43],[-87.891,15.431],[-87.905,15.424],[-87.907,15.434],[-87.916,15.436],[-87.922,15.423],[-87.93,15.421],[-87.937,15.413],[-87.949,15.411],[-87.95,15.429],[-87.954,15.423],[-87.961,15.424],[-87.956,15.429],[-87.959,15.43],[-87.959,15.454],[-87.965,15.458],[-87.96,15.462],[-87.955,15.459]]]}}]}