{"type":"FeatureCollection","features":[{"type":"Feature","properties":{"cve_ent":"HN06","cve_mun":"001","cvegeo":"HN0601","nombre":"Choluteca"},"geometry":{"type":"MultiPolygon","coordinates":[[[[-87.364,13.389],[-87.375,13.401],[-87.367,13.4],[-87.361,13.406],[-87.355,13.406],[-87.349,13.428],[-87.343,13.43],[-87.345,13.442],[-87.339,13.444],[-87.367,13.487],[-87.36,13.523],[-87.351,13.512],[-87.298,13.489],[-87.247,13.51],[-87.187,13.502],[-87.16,13.47],[-87.131,13.465],[-87.134,13.457],[-87.141,13.455],[-87.135,13.434],[-87.136,13.41],[-87.112,13.41],[-87.106,13.395],[-87.122,13.387],[-87.126,13.376],[-87.119,13.382],[-87.102,13.387],[-87.093,13.394],[-87.095,13.398],[-87.087,13.401],[-87.057,13.398],[-87.051,13.405],[-87.042,13.395],[-87.039,13.396],[-87.044,13.374],[-87.05,13.375],[-87.057,13.369],[-87.06,13.371],[-87.057,13.377],[-87.068,13.372],[-87.073,13.374],[-87.085,13.357],[-87.091,13.359],[-87.114,13.349],[-87.111,13.34],[-87.121,13.338],[-87.136,13.323],[-87.142,13.306],[-87.134,13.305],[-87.131,13.277],[-87.128,13.271],[-87.11,13.263],[-87.148,13.249],[-87.156,13.238],[-87.179,13.221],[-87.195,13.22],[-87.197,13.202],[-87.189,13.197],[-87.187,13.191],[-87.195,13.178],[-87.201,13.18],[-87.218,13.156],[-87.208,13.135],[-87.189,13.138],[-87.177,13.122],[-87.159,13.115],[-87.155,13.105],[-87.171,13.096],[-87.165,13.095],[-87.156,13.08],[-87.137,13.069],[-87.134,13.062],[-87.137,13.05],[-87.126,13.027],[-87.129,13.023],[-87.106,13.0],[-87.308,12.988],[-87.301,13.011],[-87.31,13.023],[-87.331,13.033],[-87.344,13.044],[-87.368,13.082],[-87.339,13.092],[-87.332,13.099],[-87.329,13.11],[-87.32,13.112],[-87.316,13.12],[-87.312,13.117],[-87.307,13.119],[-87.314,13.126],[-87.314,13.134],[-87.322,13.135],[-87.326,13.13],[-87.326,13.145],[-87.316,13.149],[-87.317,13.153],[-87.325,13.154],[-87.326,13.159],[-87.317,13.157],[-87.314,13.163],[-87.327,13.166],[-87.327,13.176],[-87.323,13.178],[-87.332,13.184],[-87.334,13.199],[-87.341,13.201],[-87.324,13.22],[-87.306,13.223],[-87.3,13.246],[-87.286,13.249],[-87.285,13.254],[-87.295,13.256],[-87.294,13.265],[-87.268,13.275],[-87.28,13.298],[-87.27,13.305],[-87.264,13.319],[-87.259,13.319],[-87.257,13.331],[-87.261,13.344],[-87.27,13.341],[-87.277,13.344],[-87.287,13.366],[-87.318,13.364],[-87.325,13.371],[-87.331,13.37],[-87.335,13.38],[-87.344,13.379],[-87.351,13.387],[-87.356,13.385],[-87.359,13.39],[-87.364,13.389]],[[-87.114,13.38],[-87.115,13.38],[-87.115,13.379],[-87.114,13.38]],[[-87.366,13.396],[-87.366,13.394],[-87.365,13.395],[-87.366,13.396]]],[[[-87.091,13.358],[-87.09,13.357],[-87.091,13.357],[-87.091,13.358]]]]}},{"type":"Feature","properties":{"cve_ent":"HN06","cve_mun":"002","cvegeo":"HN0602","nombre":"Apacilagua"},"geometry":{"type":"MultiPolygon","coordinates":[[[[-87.115,13.381],[-87.119,13.382],[-87.126,13.376],[-87.122,13.387],[-87.106,13.395],[-87.112,13.412],[-87.1,13.438],[-87.093,13.442],[-87.093,13.464],[-87.069,13.494],[-87.081,13.502],[-87.08,13.511],[-87.063,13.502],[-87.057,13.507],[-87.052,13.521],[-87.027,13.524],[-87.026,13.539],[-87.021,13.54],[-86.93,13.492],[-86.92,13.469],[-86.929,13.438],[-86.963,13.398],[-86.97,13.404],[-86.975,13.397],[-87.007,13.397],[-87.01,13.39],[-87.018,13.39],[-87.02,13.393],[-87.042,13.395],[-87.052,13.405],[-87.057,13.398],[-87.065,13.401],[-87.095,13.398],[-87.093,13.394],[-87.115,13.381]]],[[[-87.115,13.38],[-87.114,13.38],[-87.115,13.379],[-87.115,13.38]]]]}},{"type":"Feature","properties":{"cve_ent":"HN06","cve_mun":"003","cvegeo":"HN0603","nombre":"Concepción de María"},"geometry":{"type":"Polygon","coordinates":[[[-86.971,13.164],[-86.986,13.167],[-87.003,13.158],[-87.02,13.155],[-87.023,13.169],[-87.037,13.18],[-87.038,13.193],[-87.021,13.215],[-87.019,13.244],[-86.989,13.263],[-86.969,13.27],[-86.948,13.301],[-86.941,13.3],[-86.938,13.31],[-86.916,13.317],[-86.906,13.289],[-86.893,13.275],[-86.894,13.271],[-86.909,13.269],[-86.915,13.262],[-86.906,13.254],[-86.914,13.234],[-86.909,13.224],[-86.922,13.225],[-86.915,13.213],[-86.917,13.208],[-86.921,13.208],[-86.92,13.199],[-86.925,13.19],[-86.933,13.188],[-86.933,13.176],[-86.923,13.171],[-86.921,13.163],[-86.914,13.158],[-86.914,13.151],[-86.924,13.149],[-86.923,13.134],[-86.934,13.127],[-86.931,13.135],[-86.945,13.145],[-86.941,13.15],[-86.945,13.15],[-86.947,13.155],[-86.955,13.152],[-86.958,13.159],[-86.966,13.161],[-86.969,13.157],[-86.972,13.158],[-86.971,13.164]]]}},{"type":"Feature","properties":{"cve_ent":"HN06","cve_mun":"004","cvegeo":"HN0604","nombre":"Duyure"},"geometry":{"type":"Polygon","coordinates":[[[-86.888,13.628],[-86.885,13.633],[-86.887,13.646],[-86.867,13.654],[-86.863,13.66],[-86.85,13.663],[-86.839,13.68],[-86.821,13.684],[-86.808,13.671],[-86.804,13.674],[-86.802,13.688],[-86.79,13.703],[-86.784,13.695],[-86.778,13.701],[-86.77,13.7],[-86.786,13.662],[-86.768,13.651],[-86.755,13.652],[-86.749,13.64],[-86.77,13.582],[-86.768,13.573],[-86.757,13.571],[-86.751,13.565],[-86.785,13.561],[-86.805,13.604],[-86.821,13.62],[-86.831,13.624],[-86.855,13.623],[-86.865,13.608],[-86.868,13.607],[-86.867,13.61],[-86.876,13.618],[-86.875,13.624],[-86.888,13.628]]]}},{"type":"Feature","properties":{"cve_ent":"HN06","cve_mun":"005","cvegeo":"HN0605","nombre":"El Corpus"},"geometry":{"type":"Polygon","coordinates":[[[-87.098,13.213],[-87.098,13.233],[-87.073,13.241],[-87.065,13.254],[-87.069,13.256],[-87.068,13.266],[-87.073,13.277],[-87.083,13.282],[-87.082,13.29],[-87.073,13.303],[-87.078,13.308],[-87.079,13.317],[-87.075,13.325],[-87.08,13.332],[-87.074,13.343],[-87.057,13.356],[-87.055,13.37],[-87.05,13.375],[-87.044,13.374],[-87.039,13.396],[-87.01,13.39],[-87.007,13.397],[-86.975,13.397],[-86.969,13.404],[-86.963,13.397],[-86.948,13.391],[-86.952,13.385],[-86.962,13.383],[-86.964,13.373],[-86.943,13.365],[-86.938,13.353],[-86.928,13.345],[-86.929,13.324],[-86.916,13.317],[-86.938,13.31],[-86.941,13.3],[-86.948,13.301],[-86.969,13.27],[-86.989,13.263],[-87.019,13.244],[-87.021,13.215],[-87.038,13.193],[-87.073,13.174],[-87.08,13.212],[-87.098,13.213]],[[-87.076,13.318],[-87.077,13.317],[-87.076,13.317],[-87.076,13.318]]]}},{"type":"Feature","properties":{"cve_ent":"HN06","cve_mun":"006","cvegeo":"HN0606","nombre":"El Triunfo"},"geometry":{"type":"MultiPolygon","coordinates":[[[[-87.101,13.07],[-87.098,13.067],[-87.091,13.073],[-87.088,13.089],[-87.091,13.097],[-87.08,13.11],[-87.081,13.147],[-87.094,13.15],[-87.095,13.154],[-87.075,13.173],[-87.038,13.193],[-87.037,13.18],[-87.023,13.169],[-87.02,13.155],[-87.003,13.158],[-86.986,13.167],[-86.971,13.164],[-86.972,13.158],[-86.969,13.157],[-86.966,13.161],[-86.958,13.159],[-86.955,13.152],[-86.947,13.155],[-86.945,13.15],[-86.941,13.15],[-86.945,13.145],[-86.931,13.135],[-86.935,13.125],[-86.927,13.12],[-86.928,13.102],[-86.919,13.104],[-86.916,13.101],[-86.925,13.083],[-86.934,13.08],[-86.943,13.068],[-86.954,13.064],[-86.954,13.055],[-86.959,13.053],[-86.955,13.038],[-86.968,13.033],[-86.966,13.026],[-86.972,13.024],[-86.972,13.019],[-86.99,13.024],[-87.007,13.012],[-87.01,13.003],[-87.02,12.999],[-87.017,13.006],[-87.023,13.009],[-87.027,13.004],[-87.023,12.999],[-87.024,12.99],[-87.029,12.986],[-87.049,12.989],[-87.052,12.984],[-87.049,12.993],[-87.06,12.993],[-87.064,13.002],[-87.106,13.0],[-87.124,13.015],[-87.129,13.023],[-87.126,13.027],[-87.129,13.039],[-87.118,13.061],[-87.107,13.061],[-87.107,13.066],[-87.101,13.07]]],[[[-87.051,12.982],[-87.049,12.983],[-87.05,12.981],[-87.051,12.982]]]]}},{"type":"Feature","properties":{"cve_ent":"HN06","cve_mun":"007","cvegeo":"HN0607","nombre":"Marcovia"},"geometry":{"type":"MultiPolygon","coordinates":[[[[-87.514,13.266],[-87.508,13.292],[-87.5,13.3],[-87.491,13.298],[-87.47,13.313],[-87.464,13.328],[-87.467,13.342],[-87.46,13.339],[-87.456,13.342],[-87.457,13.356],[-87.438,13.357],[-87.424,13.352],[-87.411,13.37],[-87.39,13.369],[-87.386,13.375],[-87.387,13.386],[-87.379,13.392],[-87.378,13.401],[-87.368,13.395],[-87.37,13.392],[-87.367,13.394],[-87.364,13.389],[-87.359,13.39],[-87.356,13.385],[-87.351,13.387],[-87.344,13.379],[-87.335,13.38],[-87.331,13.37],[-87.325,13.371],[-87.318,13.364],[-87.287,13.366],[-87.277,13.344],[-87.27,13.341],[-87.26,13.343],[-87.259,13.319],[-87.264,13.319],[-87.27,13.305],[-87.28,13.298],[-87.268,13.275],[-87.294,13.265],[-87.295,13.256],[-87.285,13.254],[-87.286,13.249],[-87.3,13.246],[-87.306,13.223],[-87.324,13.22],[-87.341,13.201],[-87.334,13.199],[-87.332,13.184],[-87.323,13.178],[-87.327,13.176],[-87.327,13.166],[-87.314,13.163],[-87.317,13.157],[-87.326,13.159],[-87.324,13.153],[-87.316,13.151],[-87.326,13.145],[-87.326,13.13],[-87.322,13.135],[-87.316,13.135],[-87.314,13.126],[-87.307,13.122],[-87.308,13.117],[-87.316,13.12],[-87.32,13.112],[-87.329,13.11],[-87.332,13.099],[-87.34,13.094],[-87.389,13.116],[-87.393,13.111],[-87.401,13.111],[-87.4,13.115],[-87.404,13.112],[-87.407,13.113],[-87.403,13.116],[-87.425,13.116],[-87.428,13.109],[-87.431,13.163],[-87.44,13.19],[-87.458,13.219],[-87.454,13.231],[-87.488,13.265],[-87.504,13.272],[-87.514,13.266]]],[[[-87.366,13.394],[-87.368,13.396],[-87.365,13.395],[-87.366,13.394]]],[[[-87.429,13.109],[-87.428,13.108],[-87.429,13.107],[-87.429,13.109]]],[[[-87.43,13.102],[-87.428,13.107],[-87.429,13.101],[-87.43,13.102]]]]}},{"type":"Feature","properties":{"cve_ent":"HN06","cve_mun":"008","cvegeo":"HN0608","nombre":"Morolica"},"geometry":{"type":"Polygon","coordinates":[[[-86.925,13.652],[-86.905,13.65],[-86.887,13.656],[-86.888,13.638],[-86.885,13.633],[-86.889,13.629],[-86.875,13.624],[-86.876,13.618],[-86.867,13.61],[-86.868,13.607],[-86.855,13.623],[-86.831,13.624],[-86.821,13.62],[-86.805,13.604],[-86.785,13.561],[-86.793,13.56],[-86.801,13.55],[-86.823,13.545],[-86.826,13.537],[-86.822,13.524],[-86.841,13.529],[-86.863,13.506],[-86.862,13.489],[-86.902,13.487],[-86.92,13.469],[-86.93,13.492],[-87.021,13.54],[-87.01,13.547],[-87.005,13.56],[-87.011,13.57],[-86.991,13.586],[-86.975,13.586],[-86.967,13.592],[-86.94,13.619],[-86.932,13.637],[-86.931,13.661],[-86.925,13.652]]]}},{"type":"Feature","properties":{"cve_ent":"HN06","cve_mun":"009","cvegeo":"HN0609","nombre":"Namasigue"},"geometry":{"type":"Polygon","coordinates":[[[-87.218,13.155],[-87.201,13.18],[-87.195,13.178],[-87.187,13.191],[-87.189,13.197],[-87.197,13.202],[-87.195,13.22],[-87.179,13.221],[-87.156,13.238],[-87.148,13.249],[-87.11,13.263],[-87.086,13.238],[-87.099,13.232],[-87.101,13.223],[-87.098,13.213],[-87.08,13.212],[-87.073,13.174],[-87.095,13.154],[-87.094,13.15],[-87.081,13.147],[-87.08,13.11],[-87.091,13.097],[-87.088,13.09],[-87.091,13.073],[-87.098,13.067],[-87.104,13.069],[-87.107,13.061],[-87.117,13.062],[-87.129,13.039],[-87.137,13.05],[-87.134,13.062],[-87.137,13.069],[-87.156,13.08],[-87.165,13.095],[-87.171,13.096],[-87.155,13.105],[-87.159,13.115],[-87.177,13.122],[-87.189,13.138],[-87.208,13.135],[-87.218,13.155]]]}},{"type":"Feature","properties":{"cve_ent":"HN06","cve_mun":"010","cvegeo":"HN0610","nombre":"Orocuina"},"geometry":{"type":"Polygon","coordinates":[[[-87.196,13.562],[-87.184,13.563],[-87.17,13.549],[-87.154,13.553],[-87.149,13.548],[-87.141,13.548],[-87.111,13.554],[-87.114,13.533],[-87.106,13.527],[-87.108,13.518],[-87.104,13.512],[-87.069,13.494],[-87.085,13.472],[-87.09,13.471],[-87.093,13.442],[-87.1,13.438],[-87.112,13.41],[-87.136,13.41],[-87.135,13.434],[-87.141,13.455],[-87.131,13.46],[-87.132,13.466],[-87.16,13.47],[-87.187,13.502],[-87.217,13.505],[-87.197,13.52],[-87.213,13.554],[-87.196,13.562]]]}},{"type":"Feature","properties":{"cve_ent":"HN06","cve_mun":"011","cvegeo":"HN0611","nombre":"Pespire"},"geometry":{"type":"Polygon","coordinates":[[[-87.428,13.592],[-87.41,13.637],[-87.45,13.656],[-87.46,13.671],[-87.422,13.685],[-87.363,13.692],[-87.359,13.681],[-87.365,13.681],[-87.368,13.676],[-87.364,13.667],[-87.366,13.653],[-87.376,13.644],[-87.37,13.634],[-87.376,13.626],[-87.371,13.616],[-87.359,13.619],[-87.359,13.613],[-87.346,13.61],[-87.31,13.628],[-87.276,13.61],[-87.258,13.606],[-87.226,13.61],[-87.225,13.616],[-87.201,13.614],[-87.196,13.602],[-87.184,13.592],[-87.188,13.584],[-87.184,13.578],[-87.184,13.567],[-87.185,13.563],[-87.19,13.565],[-87.213,13.554],[-87.197,13.52],[-87.217,13.505],[-87.247,13.51],[-87.298,13.489],[-87.351,13.512],[-87.37,13.53],[-87.379,13.529],[-87.385,13.535],[-87.392,13.535],[-87.416,13.577],[-87.411,13.583],[-87.415,13.589],[-87.428,13.592]]]}},{"type":"Feature","properties":{"cve_ent":"HN06","cve_mun":"012","cvegeo":"HN0612","nombre":"San Antonio de Flores"},"geometry":{"type":"Polygon","coordinates":[[[-87.376,13.624],[-87.37,13.632],[-87.376,13.644],[-87.367,13.651],[-87.364,13.664],[-87.368,13.676],[-87.365,13.681],[-87.359,13.681],[-87.359,13.686],[-87.325,13.686],[-87.312,13.691],[-87.298,13.684],[-87.298,13.678],[-87.304,13.676],[-87.301,13.651],[-87.308,13.64],[-87.308,13.629],[-87.346,13.61],[-87.359,13.613],[-87.359,13.619],[-87.371,13.616],[-87.376,13.624]]]}},{"type":"Feature","properties":{"cve_ent":"HN06","cve_mun":"013","cvegeo":"HN0613","nombre":"San Isidro"},"geometry":{"type":"Polygon","coordinates":[[[-87.304,13.676],[-87.291,13.682],[-87.289,13.678],[-87.28,13.68],[-87.275,13.686],[-87.268,13.678],[-87.263,13.681],[-87.265,13.687],[-87.253,13.688],[-87.212,13.668],[-87.226,13.61],[-87.258,13.606],[-87.276,13.61],[-87.31,13.628],[-87.308,13.64],[-87.301,13.651],[-87.304,13.676]]]}},{"type":"Feature","properties":{"cve_ent":"HN06","cve_mun":"014","cvegeo":"HN0614","nombre":"San José"},"geometry":{"type":"Polygon","coordinates":[[[-87.438,13.759],[-87.419,13.758],[-87.403,13.749],[-87.381,13.755],[-87.389,13.745],[-87.389,13.737],[-87.395,13.733],[-87.395,13.719],[-87.386,13.718],[-87.386,13.712],[-87.379,13.704],[-87.363,13.7],[-87.363,13.692],[-87.422,13.685],[-87.46,13.671],[-87.465,13.683],[-87.46,13.694],[-87.459,13.713],[-87.451,13.728],[-87.455,13.735],[-87.456,13.754],[-87.438,13.759]]]}},{"type":"Feature","properties":{"cve_ent":"HN06","cve_mun":"015","cvegeo":"HN0615","nombre":"San Marcos de Colón"},"geometry":{"type":"Polygon","coordinates":[[[-86.875,13.28],[-86.893,13.273],[-86.906,13.289],[-86.913,13.315],[-86.929,13.324],[-86.928,13.345],[-86.938,13.353],[-86.943,13.365],[-86.964,13.373],[-86.962,13.383],[-86.952,13.385],[-86.948,13.39],[-86.963,13.398],[-86.929,13.438],[-86.92,13.469],[-86.902,13.487],[-86.862,13.489],[-86.863,13.506],[-86.841,13.529],[-86.822,13.524],[-86.826,13.537],[-86.823,13.545],[-86.801,13.55],[-86.793,13.56],[-86.751,13.565],[-86.743,13.528],[-86.742,13.487],[-86.723,13.45],[-86.725,13.441],[-86.721,13.436],[-86.73,13.421],[-86.744,13.408],[-86.744,13.4],[-86.737,13.381],[-86.719,13.381],[-86.707,13.366],[-86.711,13.359],[-86.704,13.314],[-86.706,13.302],[-86.712,13.295],[-86.726,13.291],[-86.754,13.267],[-86.792,13.294],[-86.793,13.299],[-86.798,13.298],[-86.8,13.303],[-86.824,13.313],[-86.834,13.312],[-86.836,13.305],[-86.85,13.3],[-86.868,13.304],[-86.877,13.287],[-86.875,13.28]]]}},{"type":"Feature","properties":{"cve_ent":"HN06","cve_mun":"016","cvegeo":"HN0616","nombre":"Santa Ana de Yusguare"},"geometry":{"type":"MultiPolygon","coordinates":[[[[-87.142,13.306],[-87.136,13.323],[-87.126,13.334],[-87.111,13.34],[-87.114,13.349],[-87.101,13.356],[-87.085,13.357],[-87.073,13.374],[-87.068,13.372],[-87.056,13.376],[-87.06,13.371],[-87.055,13.37],[-87.057,13.356],[-87.074,13.343],[-87.08,13.332],[-87.075,13.325],[-87.079,13.317],[-87.078,13.308],[-87.073,13.303],[-87.082,13.29],[-87.083,13.282],[-87.073,13.277],[-87.068,13.266],[-87.069,13.256],[-87.065,13.254],[-87.073,13.241],[-87.086,13.238],[-87.11,13.263],[-87.128,13.271],[-87.134,13.288],[-87.134,13.305],[-87.142,13.306]]],[[[-87.077,13.317],[-87.076,13.318],[-87.076,13.317],[-87.077,13.317]]],[[[-87.09,13.359],[-87.091,13.358],[-87.091,13.359],[-87.09,13.359]]]]}}]}