{"type":"FeatureCollection","features":[{"type":"Feature","properties":{"cve_ent":"HN07","cve_mun":"001","cvegeo":"HN0701","nombre":"Yuscarán"},"geometry":{"type":"Polygon","coordinates":[[[-86.884,13.878],[-86.88,13.922],[-86.918,13.955],[-86.94,13.961],[-86.914,13.989],[-86.919,14.001],[-86.911,14.002],[-86.91,14.053],[-86.888,14.066],[-86.876,14.064],[-86.862,14.073],[-86.857,14.06],[-86.847,14.059],[-86.841,14.048],[-86.836,14.046],[-86.831,14.022],[-86.823,14.025],[-86.819,14.02],[-86.818,14.026],[-86.812,14.022],[-86.805,14.024],[-86.787,14.012],[-86.784,14.005],[-86.778,14.005],[-86.768,13.991],[-86.769,13.985],[-86.755,13.992],[-86.751,13.985],[-86.753,13.979],[-86.74,13.977],[-86.741,13.968],[-86.736,13.969],[-86.735,13.962],[-86.73,13.96],[-86.735,13.947],[-86.721,13.948],[-86.724,13.936],[-86.712,13.933],[-86.715,13.921],[-86.708,13.912],[-86.718,13.899],[-86.723,13.898],[-86.717,13.891],[-86.718,13.886],[-86.725,13.882],[-86.72,13.873],[-86.731,13.874],[-86.732,13.868],[-86.738,13.87],[-86.74,13.877],[-86.755,13.878],[-86.764,13.869],[-86.772,13.87],[-86.7818,13.8828],[-86.86,13.864],[-86.884,13.878]]]}},{"type":"Feature","properties":{"cve_ent":"HN07","cve_mun":"002","cvegeo":"HN0702","nombre":"Alauca"},"geometry":{"type":"Polygon","coordinates":[[[-86.708,13.939],[-86.705,13.931],[-86.693,13.925],[-86.694,13.92],[-86.683,13.917],[-86.682,13.912],[-86.674,13.909],[-86.67,13.897],[-86.663,13.892],[-86.663,13.879],[-86.654,13.874],[-86.632,13.832],[-86.606,13.834],[-86.598,13.827],[-86.596,13.818],[-86.579,13.806],[-86.575,13.791],[-86.585,13.784],[-86.595,13.788],[-86.609,13.781],[-86.612,13.785],[-86.628,13.788],[-86.644,13.776],[-86.652,13.779],[-86.659,13.774],[-86.665,13.776],[-86.667,13.784],[-86.723,13.787],[-86.764,13.768],[-86.759,13.777],[-86.76,13.784],[-86.766,13.785],[-86.77,13.793],[-86.764,13.795],[-86.764,13.808],[-86.757,13.811],[-86.763,13.818],[-86.763,13.831],[-86.771,13.835],[-86.77,13.865],[-86.756,13.878],[-86.74,13.877],[-86.735,13.868],[-86.731,13.874],[-86.72,13.873],[-86.725,13.882],[-86.718,13.886],[-86.717,13.891],[-86.723,13.898],[-86.718,13.899],[-86.708,13.912],[-86.715,13.921],[-86.712,13.939],[-86.708,13.939]]]}},{"type":"Feature","properties":{"cve_ent":"HN07","cve_mun":"003","cvegeo":"HN0703","nombre":"Danlí"},"geometry":{"type":"Polygon","coordinates":[[[-86.683,14.167],[-86.674,14.188],[-86.638,14.212],[-86.621,14.229],[-86.615,14.249],[-86.604,14.246],[-86.598,14.252],[-86.576,14.256],[-86.577,14.26],[-86.57,14.26],[-86.571,14.265],[-86.566,14.265],[-86.563,14.278],[-86.553,14.28],[-86.55,14.277],[-86.551,14.28],[-86.55,14.283],[-86.541,14.281],[-86.538,14.289],[-86.53,14.288],[-86.524,14.294],[-86.514,14.292],[-86.509,14.304],[-86.461,14.297],[-86.448,14.302],[-86.444,14.301],[-86.441,14.289],[-86.367,14.282],[-86.353,14.282],[-86.35,14.288],[-86.338,14.283],[-86.295,14.319],[-86.287,14.319],[-86.268,14.332],[-86.258,14.334],[-86.249,14.345],[-86.186,14.361],[-86.148,14.266],[-86.078,14.247],[-86.071,14.19],[-86.149,14.123],[-86.152,14.036],[-86.157,14.024],[-86.155,14.018],[-86.145,14.014],[-86.145,14.008],[-86.141,14.008],[-86.142,13.998],[-86.149,13.999],[-86.163,13.982],[-86.17,13.979],[-86.187,13.986],[-86.193,13.98],[-86.187,13.973],[-86.189,13.966],[-86.185,13.955],[-86.196,13.955],[-86.196,13.944],[-86.201,13.935],[-86.216,13.937],[-86.228,13.92],[-86.221,13.915],[-86.228,13.906],[-86.242,13.905],[-86.249,13.892],[-86.247,13.888],[-86.258,13.886],[-86.256,13.88],[-86.259,13.882],[-86.278,13.876],[-86.276,13.869],[-86.282,13.855],[-86.298,13.853],[-86.299,13.84],[-86.303,13.839],[-86.294,13.825],[-86.298,13.815],[-86.304,13.815],[-86.305,13.806],[-86.316,13.804],[-86.318,13.798],[-86.315,13.793],[-86.335,13.769],[-86.347,13.768],[-86.35,13.763],[-86.357,13.767],[-86.365,13.763],[-86.378,13.771],[-86.41,13.841],[-86.519,13.925],[-86.575,13.94],[-86.574,13.944],[-86.568,13.944],[-86.556,13.961],[-86.577,13.97],[-86.611,13.995],[-86.615,14.006],[-86.645,14.044],[-86.686,14.083],[-86.684,14.147],[-86.674,14.164],[-86.683,14.167]]]}},{"type":"Feature","properties":{"cve_ent":"HN07","cve_mun":"004","cvegeo":"HN0704","nombre":"El Paraiso"},"geometry":{"type":"Polygon","coordinates":[[[-86.674,13.909],[-86.683,13.918],[-86.678,13.917],[-86.675,13.92],[-86.677,13.924],[-86.654,13.921],[-86.648,13.924],[-86.645,13.915],[-86.643,13.918],[-86.623,13.91],[-86.621,13.914],[-86.624,13.917],[-86.61,13.925],[-86.611,13.93],[-86.595,13.927],[-86.592,13.93],[-86.594,13.934],[-86.582,13.941],[-86.519,13.925],[-86.41,13.841],[-86.378,13.771],[-86.385,13.762],[-86.4,13.763],[-86.402,13.758],[-86.417,13.758],[-86.427,13.766],[-86.438,13.763],[-86.456,13.79],[-86.472,13.772],[-86.479,13.771],[-86.482,13.777],[-86.483,13.771],[-86.492,13.769],[-86.495,13.774],[-86.514,13.775],[-86.523,13.78],[-86.523,13.789],[-86.538,13.805],[-86.548,13.797],[-86.561,13.802],[-86.575,13.791],[-86.579,13.806],[-86.596,13.818],[-86.598,13.827],[-86.606,13.834],[-86.632,13.832],[-86.654,13.874],[-86.663,13.879],[-86.663,13.892],[-86.67,13.897],[-86.674,13.909]]]}},{"type":"Feature","properties":{"cve_ent":"HN07","cve_mun":"005","cvegeo":"HN0705","nombre":"Guinope"},"geometry":{"type":"Polygon","coordinates":[[[-86.997,13.909],[-86.989,13.926],[-86.985,13.927],[-86.987,13.929],[-86.981,13.932],[-86.991,13.958],[-86.985,13.968],[-86.978,13.959],[-86.969,13.96],[-86.951,13.95],[-86.94,13.961],[-86.938,13.958],[-86.924,13.958],[-86.88,13.922],[-86.882,13.899],[-86.886,13.897],[-86.884,13.878],[-86.86,13.864],[-86.876,13.861],[-86.89,13.849],[-86.91,13.848],[-86.937,13.84],[-86.931,13.835],[-86.93,13.825],[-86.922,13.814],[-86.883,13.792],[-86.884,13.782],[-86.892,13.778],[-86.905,13.78],[-86.915,13.782],[-86.92,13.789],[-86.954,13.785],[-86.956,13.782],[-86.975,13.787],[-86.983,13.782],[-86.998,13.786],[-87.01,13.799],[-86.997,13.819],[-86.99,13.845],[-86.996,13.859],[-86.986,13.887],[-86.989,13.888],[-86.99,13.902],[-86.997,13.909]],[[-86.983,13.962],[-86.984,13.963],[-86.984,13.962],[-86.983,13.962]],[[-86.99,13.847],[-86.989,13.847],[-86.99,13.848],[-86.99,13.847]]]}},{"type":"Feature","properties":{"cve_ent":"HN07","cve_mun":"006","cvegeo":"HN0706","nombre":"Jacaleapa"},"geometry":{"type":"Polygon","coordinates":[[[-86.742,13.97],[-86.736,13.991],[-86.726,13.992],[-86.725,14.002],[-86.707,14.032],[-86.713,14.089],[-86.722,14.104],[-86.725,14.142],[-86.712,14.143],[-86.683,14.167],[-86.674,14.164],[-86.684,14.147],[-86.686,14.083],[-86.645,14.044],[-86.615,14.006],[-86.611,13.995],[-86.696,13.993],[-86.7,13.982],[-86.711,13.982],[-86.722,13.966],[-86.731,13.96],[-86.735,13.962],[-86.736,13.969],[-86.742,13.97]]]}},{"type":"Feature","properties":{"cve_ent":"HN07","cve_mun":"007","cvegeo":"HN0707","nombre":"Liure"},"geometry":{"type":"Polygon","coordinates":[[[-87.027,13.524],[-87.052,13.521],[-87.057,13.507],[-87.066,13.501],[-87.08,13.511],[-87.081,13.502],[-87.104,13.512],[-87.108,13.518],[-87.106,13.527],[-87.114,13.533],[-87.114,13.549],[-87.107,13.555],[-87.108,13.575],[-87.054,13.598],[-87.051,13.598],[-87.053,13.594],[-87.048,13.581],[-87.039,13.586],[-87.031,13.599],[-87.0,13.598],[-87.002,13.577],[-87.011,13.57],[-87.005,13.561],[-87.01,13.547],[-87.026,13.539],[-87.027,13.524]]]}},{"type":"Feature","properties":{"cve_ent":"HN07","cve_mun":"008","cvegeo":"HN0708","nombre":"Morocelí"},"geometry":{"type":"Polygon","coordinates":[[[-86.972,14.142],[-86.949,14.141],[-86.94,14.134],[-86.929,14.131],[-86.916,14.133],[-86.914,14.13],[-86.913,14.138],[-86.897,14.161],[-86.92,14.172],[-86.926,14.167],[-86.928,14.173],[-86.924,14.175],[-86.93,14.183],[-86.902,14.194],[-86.898,14.199],[-86.903,14.21],[-86.897,14.212],[-86.897,14.232],[-86.889,14.234],[-86.869,14.253],[-86.842,14.292],[-86.83,14.292],[-86.805,14.29],[-86.808,14.268],[-86.82,14.244],[-86.818,14.236],[-86.823,14.233],[-86.819,14.219],[-86.772,14.205],[-86.774,14.198],[-86.783,14.193],[-86.789,14.179],[-86.765,14.17],[-86.763,14.158],[-86.725,14.142],[-86.723,14.134],[-86.725,14.131],[-86.746,14.133],[-86.751,14.138],[-86.766,14.132],[-86.77,14.127],[-86.767,14.118],[-86.773,14.113],[-86.771,14.106],[-86.763,14.104],[-86.767,14.096],[-86.766,14.087],[-86.782,14.08],[-86.814,14.052],[-86.84,14.047],[-86.847,14.059],[-86.857,14.06],[-86.862,14.073],[-86.876,14.064],[-86.888,14.066],[-86.909,14.053],[-86.945,14.064],[-86.947,14.085],[-86.971,14.101],[-86.988,14.125],[-86.972,14.142]],[[-86.918,14.186],[-86.919,14.185],[-86.918,14.185],[-86.918,14.186]]]}},{"type":"Feature","properties":{"cve_ent":"HN07","cve_mun":"009","cvegeo":"HN0709","nombre":"Oropolí"},"geometry":{"type":"Polygon","coordinates":[[[-86.905,13.802],[-86.927,13.819],[-86.931,13.835],[-86.937,13.84],[-86.91,13.848],[-86.89,13.849],[-86.876,13.861],[-86.7818,13.8828],[-86.772,13.87],[-86.764,13.869],[-86.77,13.865],[-86.773,13.849],[-86.771,13.835],[-86.763,13.831],[-86.763,13.818],[-86.757,13.811],[-86.764,13.808],[-86.764,13.795],[-86.77,13.793],[-86.766,13.785],[-86.76,13.784],[-86.759,13.777],[-86.764,13.768],[-86.768,13.771],[-86.78,13.769],[-86.786,13.774],[-86.803,13.771],[-86.828,13.765],[-86.849,13.748],[-86.861,13.765],[-86.849,13.78],[-86.856,13.78],[-86.866,13.772],[-86.876,13.774],[-86.876,13.778],[-86.884,13.781],[-86.882,13.79],[-86.886,13.795],[-86.905,13.802]]]}},{"type":"Feature","properties":{"cve_ent":"HN07","cve_mun":"010","cvegeo":"HN0710","nombre":"Potrerillos"},"geometry":{"type":"Polygon","coordinates":[[[-86.787,14.012],[-86.817,14.026],[-86.819,14.02],[-86.823,14.025],[-86.831,14.022],[-86.837,14.047],[-86.814,14.052],[-86.782,14.08],[-86.766,14.087],[-86.767,14.096],[-86.763,14.104],[-86.771,14.106],[-86.773,14.112],[-86.767,14.118],[-86.77,14.127],[-86.766,14.132],[-86.751,14.138],[-86.746,14.133],[-86.725,14.131],[-86.722,14.104],[-86.713,14.089],[-86.707,14.032],[-86.725,14.002],[-86.726,13.992],[-86.736,13.991],[-86.739,13.977],[-86.752,13.978],[-86.755,13.992],[-86.769,13.985],[-86.768,13.991],[-86.778,14.005],[-86.784,14.005],[-86.787,14.012]]]}},{"type":"Feature","properties":{"cve_ent":"HN07","cve_mun":"011","cvegeo":"HN0711","nombre":"San Antonio de Flores"},"geometry":{"type":"Polygon","coordinates":[[[-86.873,13.744],[-86.86,13.761],[-86.846,13.748],[-86.828,13.765],[-86.789,13.774],[-86.78,13.772],[-86.78,13.769],[-86.768,13.771],[-86.764,13.767],[-86.772,13.752],[-86.766,13.745],[-86.761,13.723],[-86.765,13.722],[-86.77,13.7],[-86.778,13.701],[-86.784,13.695],[-86.79,13.703],[-86.799,13.693],[-86.806,13.672],[-86.813,13.673],[-86.821,13.684],[-86.839,13.68],[-86.85,13.663],[-86.863,13.66],[-86.867,13.654],[-86.885,13.647],[-86.889,13.65],[-86.887,13.656],[-86.903,13.662],[-86.905,13.685],[-86.924,13.697],[-86.908,13.717],[-86.925,13.735],[-86.902,13.74],[-86.893,13.731],[-86.873,13.744]]]}},{"type":"Feature","properties":{"cve_ent":"HN07","cve_mun":"012","cvegeo":"HN0712","nombre":"San Lucas"},"geometry":{"type":"Polygon","coordinates":[[[-86.996,13.785],[-86.979,13.782],[-86.973,13.787],[-86.956,13.782],[-86.954,13.785],[-86.92,13.789],[-86.915,13.782],[-86.905,13.78],[-86.892,13.778],[-86.884,13.782],[-86.871,13.772],[-86.849,13.78],[-86.873,13.744],[-86.893,13.731],[-86.902,13.74],[-86.925,13.735],[-86.908,13.717],[-86.914,13.706],[-86.932,13.691],[-86.951,13.697],[-86.973,13.691],[-86.98,13.71],[-87.0,13.711],[-87.006,13.723],[-86.998,13.744],[-87.031,13.747],[-87.031,13.763],[-87.016,13.776],[-87.01,13.799],[-86.996,13.785]]]}},{"type":"Feature","properties":{"cve_ent":"HN07","cve_mun":"013","cvegeo":"HN0713","nombre":"San Matías"},"geometry":{"type":"Polygon","coordinates":[[[-86.731,13.962],[-86.722,13.966],[-86.711,13.982],[-86.7,13.982],[-86.696,13.993],[-86.608,13.995],[-86.577,13.97],[-86.556,13.961],[-86.569,13.943],[-86.574,13.944],[-86.575,13.939],[-86.588,13.939],[-86.594,13.934],[-86.592,13.93],[-86.595,13.927],[-86.611,13.93],[-86.61,13.925],[-86.624,13.917],[-86.621,13.914],[-86.624,13.91],[-86.643,13.918],[-86.645,13.915],[-86.648,13.924],[-86.652,13.921],[-86.677,13.924],[-86.675,13.92],[-86.683,13.916],[-86.694,13.92],[-86.693,13.925],[-86.705,13.931],[-86.707,13.939],[-86.712,13.939],[-86.713,13.934],[-86.724,13.936],[-86.722,13.949],[-86.735,13.947],[-86.735,13.952],[-86.73,13.955],[-86.731,13.962]]]}},{"type":"Feature","properties":{"cve_ent":"HN07","cve_mun":"014","cvegeo":"HN0714","nombre":"Soledad"},"geometry":{"type":"Polygon","coordinates":[[[-87.185,13.563],[-87.188,13.583],[-87.184,13.592],[-87.196,13.602],[-87.201,13.614],[-87.225,13.616],[-87.212,13.668],[-87.184,13.686],[-87.144,13.661],[-87.139,13.662],[-87.128,13.653],[-87.112,13.65],[-87.084,13.636],[-87.08,13.628],[-87.074,13.627],[-87.064,13.602],[-87.054,13.599],[-87.108,13.575],[-87.108,13.553],[-87.141,13.548],[-87.149,13.548],[-87.154,13.553],[-87.17,13.549],[-87.185,13.563]]]}},{"type":"Feature","properties":{"cve_ent":"HN07","cve_mun":"015","cvegeo":"HN0715","nombre":"Teupasenti"},"geometry":{"type":"Polygon","coordinates":[[[-86.788,14.181],[-86.772,14.205],[-86.819,14.219],[-86.823,14.233],[-86.818,14.236],[-86.82,14.244],[-86.808,14.268],[-86.805,14.29],[-86.83,14.292],[-86.827,14.295],[-86.831,14.333],[-86.713,14.423],[-86.71,14.416],[-86.695,14.418],[-86.679,14.409],[-86.669,14.409],[-86.67,14.404],[-86.656,14.397],[-86.649,14.409],[-86.639,14.405],[-86.628,14.407],[-86.627,14.398],[-86.615,14.394],[-86.612,14.375],[-86.607,14.373],[-86.598,14.382],[-86.522,14.364],[-86.515,14.353],[-86.508,14.353],[-86.503,14.337],[-86.464,14.333],[-86.448,14.314],[-86.444,14.301],[-86.461,14.297],[-86.509,14.304],[-86.514,14.292],[-86.524,14.294],[-86.53,14.288],[-86.538,14.289],[-86.541,14.281],[-86.55,14.283],[-86.55,14.277],[-86.553,14.28],[-86.563,14.278],[-86.566,14.265],[-86.571,14.265],[-86.569,14.263],[-86.57,14.26],[-86.577,14.26],[-86.576,14.256],[-86.598,14.252],[-86.604,14.246],[-86.615,14.249],[-86.621,14.229],[-86.638,14.212],[-86.674,14.188],[-86.68,14.169],[-86.712,14.143],[-86.725,14.142],[-86.763,14.158],[-86.765,14.17],[-86.778,14.173],[-86.788,14.181]]]}},{"type":"Feature","properties":{"cve_ent":"HN07","cve_mun":"016","cvegeo":"HN0716","nombre":"Texiguat"},"geometry":{"type":"Polygon","coordinates":[[[-87.064,13.604],[-87.074,13.627],[-87.08,13.628],[-87.084,13.636],[-87.093,13.638],[-87.098,13.644],[-87.121,13.651],[-87.132,13.671],[-87.116,13.698],[-87.1,13.71],[-87.097,13.705],[-87.092,13.705],[-87.086,13.711],[-87.078,13.712],[-87.072,13.721],[-87.045,13.725],[-87.03,13.734],[-87.031,13.747],[-86.998,13.744],[-87.006,13.723],[-87.0,13.711],[-86.98,13.71],[-86.973,13.691],[-86.958,13.697],[-86.932,13.691],[-86.939,13.682],[-86.95,13.679],[-86.955,13.671],[-86.976,13.67],[-86.963,13.662],[-86.992,13.647],[-86.995,13.634],[-86.991,13.627],[-86.997,13.624],[-87.004,13.611],[-87.0,13.598],[-87.031,13.599],[-87.039,13.586],[-87.048,13.581],[-87.053,13.594],[-87.051,13.598],[-87.064,13.604]]]}},{"type":"Feature","properties":{"cve_ent":"HN07","cve_mun":"017","cvegeo":"HN0717","nombre":"Vado Ancho"},"geometry":{"type":"Polygon","coordinates":[[[-87.004,13.611],[-86.991,13.627],[-86.995,13.634],[-86.992,13.647],[-86.963,13.662],[-86.976,13.67],[-86.955,13.671],[-86.95,13.679],[-86.939,13.682],[-86.924,13.697],[-86.905,13.685],[-86.903,13.662],[-86.887,13.656],[-86.905,13.65],[-86.923,13.65],[-86.931,13.661],[-86.932,13.637],[-86.94,13.619],[-86.975,13.586],[-86.991,13.586],[-87.002,13.577],[-87.0,13.598],[-87.004,13.611]]]}},{"type":"Feature","properties":{"cve_ent":"HN07","cve_mun":"018","cvegeo":"HN0718","nombre":"Yauyupe"},"geometry":{"type":"Polygon","coordinates":[[[-87.123,13.776],[-87.107,13.802],[-87.113,13.809],[-87.087,13.79],[-87.08,13.775],[-87.031,13.772],[-87.03,13.734],[-87.045,13.725],[-87.072,13.721],[-87.081,13.71],[-87.097,13.705],[-87.118,13.732],[-87.12,13.742],[-87.117,13.746],[-87.12,13.749],[-87.112,13.762],[-87.115,13.766],[-87.112,13.77],[-87.119,13.773],[-87.118,13.777],[-87.123,13.776]]]}},{"type":"Feature","properties":{"cve_ent":"HN07","cve_mun":"019","cvegeo":"HN0719","nombre":"Trojes"},"geometry":{"type":"Polygon","coordinates":[[[-86.122,14.043],[-86.135,14.049],[-86.134,14.043],[-86.152,14.036],[-86.149,14.123],[-86.071,14.19],[-86.078,14.247],[-86.069,14.247],[-86.071,14.265],[-86.062,14.272],[-86.044,14.268],[-86.038,14.263],[-86.028,14.266],[-86.017,14.261],[-86.013,14.248],[-85.999,14.228],[-85.994,14.187],[-85.981,14.178],[-85.94,14.17],[-85.952,14.135],[-85.948,14.131],[-85.949,14.123],[-85.936,14.129],[-85.926,14.143],[-85.906,14.126],[-85.894,14.125],[-85.885,14.133],[-85.877,14.133],[-85.872,14.147],[-85.876,14.158],[-85.872,14.164],[-85.858,14.173],[-85.851,14.172],[-85.846,14.181],[-85.829,14.188],[-85.808,14.163],[-85.782,14.161],[-85.765,14.199],[-85.759,14.2],[-85.748,14.189],[-85.731,14.186],[-85.712,14.19],[-85.667,14.173],[-85.653,14.192],[-85.614,14.152],[-85.609,14.136],[-85.604,14.133],[-85.61,14.096],[-85.599,14.092],[-85.586,14.08],[-85.578,14.083],[-85.569,14.071],[-85.569,14.066],[-85.575,14.065],[-85.579,14.059],[-85.577,14.044],[-85.588,14.041],[-85.591,14.045],[-85.612,14.021],[-85.624,14.022],[-85.624,14.009],[-85.665,14.013],[-85.668,13.986],[-85.677,13.98],[-85.682,13.98],[-85.689,13.99],[-85.709,13.993],[-85.724,13.982],[-85.724,13.976],[-85.732,13.97],[-85.754,13.967],[-85.752,13.957],[-85.758,13.951],[-85.752,13.928],[-85.758,13.911],[-85.756,13.903],[-85.764,13.885],[-85.755,13.883],[-85.74,13.872],[-85.733,13.861],[-85.742,13.853],[-85.738,13.843],[-85.748,13.839],[-85.752,13.832],[-85.755,13.834],[-85.755,13.846],[-85.76,13.843],[-85.766,13.849],[-85.775,13.849],[-85.785,13.842],[-85.8,13.842],[-85.812,13.849],[-85.819,13.848],[-85.821,13.858],[-85.827,13.858],[-85.827,13.87],[-85.838,13.878],[-85.839,13.885],[-85.842,13.884],[-85.837,13.888],[-85.841,13.889],[-85.838,13.894],[-85.842,13.896],[-85.838,13.897],[-85.84,13.902],[-85.836,13.905],[-85.842,13.906],[-85.843,13.911],[-85.839,13.911],[-85.845,13.917],[-85.87,13.922],[-85.882,13.929],[-85.892,13.916],[-85.889,13.911],[-85.893,13.903],[-85.914,13.908],[-85.913,13.929],[-85.918,13.937],[-85.922,13.931],[-85.935,13.937],[-85.936,13.941],[-85.948,13.944],[-85.953,13.95],[-85.964,13.95],[-85.966,13.959],[-85.977,13.961],[-85.98,13.967],[-85.988,13.969],[-85.988,13.965],[-85.996,13.963],[-85.995,13.969],[-86.001,13.971],[-86.002,13.977],[-86.011,13.986],[-86.017,13.986],[-86.017,13.991],[-86.023,13.99],[-86.027,13.998],[-86.038,13.993],[-86.043,13.995],[-86.009,14.056],[-86.011,14.061],[-86.004,14.07],[-86.012,14.079],[-86.039,14.076],[-86.042,14.069],[-86.076,14.069],[-86.077,14.063],[-86.087,14.065],[-86.108,14.057],[-86.122,14.043]]]}}]}