{"type":"FeatureCollection","features":[{"type":"Feature","properties":{"cve_ent":"HN08","cve_mun":"001","cvegeo":"HN0801","nombre":"Distrito Central"},"geometry":{"type":"Polygon","coordinates":[[[-87.444,14.175],[-87.461,14.203],[-87.472,14.211],[-87.433,14.215],[-87.425,14.224],[-87.43,14.245],[-87.443,14.249],[-87.461,14.264],[-87.468,14.327],[-87.464,14.335],[-87.451,14.339],[-87.437,14.335],[-87.429,14.34],[-87.402,14.345],[-87.395,14.366],[-87.387,14.362],[-87.368,14.365],[-87.354,14.356],[-87.327,14.347],[-87.318,14.358],[-87.308,14.353],[-87.261,14.356],[-87.238,14.372],[-87.155,14.365],[-87.138,14.372],[-87.118,14.363],[-87.13,14.314],[-87.14,14.302],[-87.104,14.297],[-87.116,14.282],[-87.115,14.27],[-87.027,14.219],[-87.016,14.24],[-87.007,14.239],[-87.005,14.23],[-87.014,14.22],[-87.028,14.213],[-87.035,14.195],[-87.076,14.175],[-87.099,14.158],[-87.123,14.155],[-87.13,14.148],[-87.135,14.129],[-87.131,14.101],[-87.118,14.096],[-87.108,14.081],[-87.096,14.083],[-87.079,14.1],[-87.057,14.109],[-87.051,14.106],[-87.049,14.097],[-87.056,14.094],[-87.057,14.089],[-87.042,14.074],[-87.053,14.057],[-87.074,14.05],[-87.092,14.049],[-87.112,14.032],[-87.114,14.022],[-87.122,14.018],[-87.113,14.0],[-87.116,13.988],[-87.127,13.972],[-87.086,13.951],[-87.124,13.895],[-87.139,13.913],[-87.128,13.924],[-87.127,13.931],[-87.131,13.937],[-87.182,13.965],[-87.195,13.965],[-87.216,13.974],[-87.326,13.985],[-87.318,13.997],[-87.308,14.0],[-87.313,14.003],[-87.313,14.006],[-87.344,14.02],[-87.343,14.027],[-87.372,14.012],[-87.379,14.048],[-87.373,14.068],[-87.354,14.076],[-87.371,14.097],[-87.366,14.107],[-87.378,14.11],[-87.38,14.104],[-87.384,14.104],[-87.39,14.111],[-87.404,14.109],[-87.41,14.112],[-87.409,14.115],[-87.419,14.117],[-87.446,14.169],[-87.444,14.175]],[[-87.312,14.004],[-87.311,14.003],[-87.311,14.004],[-87.312,14.004]]]}},{"type":"Feature","properties":{"cve_ent":"HN08","cve_mun":"002","cvegeo":"HN0802","nombre":"Alubarén"},"geometry":{"type":"Polygon","coordinates":[[[-87.525,13.795],[-87.514,13.821],[-87.494,13.821],[-87.485,13.812],[-87.468,13.808],[-87.445,13.789],[-87.413,13.781],[-87.414,13.755],[-87.444,13.759],[-87.456,13.754],[-87.525,13.795]]]}},{"type":"Feature","properties":{"cve_ent":"HN08","cve_mun":"003","cvegeo":"HN0803","nombre":"Cedros"},"geometry":{"type":"MultiPolygon","coordinates":[[[[-87.404,14.447],[-87.392,14.454],[-87.368,14.445],[-87.353,14.456],[-87.353,14.464],[-87.348,14.468],[-87.339,14.466],[-87.327,14.474],[-87.32,14.473],[-87.314,14.48],[-87.314,14.487],[-87.306,14.49],[-87.303,14.498],[-87.297,14.498],[-87.295,14.502],[-87.301,14.508],[-87.299,14.512],[-87.306,14.518],[-87.309,14.516],[-87.314,14.523],[-87.314,14.533],[-87.33,14.538],[-87.321,14.546],[-87.326,14.563],[-87.308,14.566],[-87.295,14.561],[-87.276,14.563],[-87.237,14.559],[-87.238,14.579],[-87.229,14.585],[-87.228,14.606],[-87.221,14.615],[-87.227,14.624],[-87.218,14.632],[-87.219,14.635],[-87.213,14.637],[-87.212,14.646],[-87.208,14.647],[-87.208,14.653],[-87.214,14.659],[-87.213,14.671],[-87.195,14.682],[-87.195,14.687],[-87.188,14.692],[-87.18,14.686],[-87.169,14.7],[-87.162,14.7],[-87.153,14.693],[-87.149,14.683],[-87.142,14.679],[-87.138,14.681],[-87.14,14.674],[-87.135,14.673],[-87.131,14.666],[-87.112,14.668],[-87.105,14.666],[-87.099,14.658],[-87.09,14.662],[-87.089,14.658],[-87.077,14.654],[-87.072,14.648],[-87.057,14.651],[-87.054,14.643],[-87.043,14.638],[-87.041,14.626],[-87.033,14.622],[-87.034,14.613],[-87.029,14.608],[-87.028,14.595],[-87.038,14.57],[-87.023,14.55],[-87.022,14.482],[-87.041,14.479],[-87.048,14.474],[-87.074,14.473],[-87.085,14.477],[-87.094,14.469],[-87.111,14.469],[-87.124,14.475],[-87.15,14.474],[-87.151,14.477],[-87.171,14.472],[-87.212,14.436],[-87.213,14.43],[-87.219,14.429],[-87.221,14.418],[-87.23,14.411],[-87.229,14.397],[-87.237,14.387],[-87.238,14.371],[-87.261,14.356],[-87.308,14.353],[-87.318,14.358],[-87.327,14.347],[-87.354,14.356],[-87.368,14.365],[-87.387,14.362],[-87.395,14.366],[-87.385,14.398],[-87.395,14.407],[-87.396,14.416],[-87.42,14.423],[-87.407,14.425],[-87.403,14.431],[-87.404,14.447]]],[[[-87.342,14.469],[-87.343,14.468],[-87.343,14.469],[-87.342,14.469]]]]}},{"type":"Feature","properties":{"cve_ent":"HN08","cve_mun":"004","cvegeo":"HN0804","nombre":"Curarén"},"geometry":{"type":"Polygon","coordinates":[[[-87.648,13.771],[-87.642,13.787],[-87.645,13.83],[-87.639,13.844],[-87.626,13.852],[-87.615,13.873],[-87.615,13.891],[-87.602,13.897],[-87.604,13.911],[-87.598,13.928],[-87.6,13.945],[-87.595,13.956],[-87.554,13.92],[-87.485,13.926],[-87.486,13.913],[-87.491,13.908],[-87.488,13.899],[-87.493,13.897],[-87.493,13.888],[-87.491,13.881],[-87.481,13.875],[-87.481,13.864],[-87.496,13.849],[-87.494,13.821],[-87.514,13.821],[-87.521,13.813],[-87.528,13.75],[-87.521,13.742],[-87.533,13.738],[-87.551,13.717],[-87.584,13.713],[-87.63,13.741],[-87.649,13.744],[-87.648,13.771]]]}},{"type":"Feature","properties":{"cve_ent":"HN08","cve_mun":"005","cvegeo":"HN0805","nombre":"El Porvenir"},"geometry":{"type":"Polygon","coordinates":[[[-87.329,14.666],[-87.324,14.669],[-87.321,14.662],[-87.313,14.663],[-87.313,14.667],[-87.318,14.666],[-87.315,14.678],[-87.306,14.675],[-87.297,14.68],[-87.294,14.687],[-87.284,14.686],[-87.284,14.69],[-87.277,14.691],[-87.275,14.697],[-87.265,14.699],[-87.271,14.703],[-87.265,14.711],[-87.268,14.725],[-87.256,14.725],[-87.256,14.737],[-87.25,14.743],[-87.249,14.756],[-87.25,14.766],[-87.254,14.767],[-87.251,14.788],[-87.259,14.797],[-87.26,14.809],[-87.266,14.811],[-87.266,14.815],[-87.263,14.829],[-87.258,14.83],[-87.246,14.846],[-87.218,14.843],[-87.211,14.847],[-87.21,14.859],[-87.197,14.861],[-87.194,14.858],[-87.192,14.861],[-87.188,14.855],[-87.178,14.854],[-87.176,14.849],[-87.166,14.849],[-87.165,14.845],[-87.159,14.847],[-87.156,14.841],[-87.148,14.843],[-87.141,14.839],[-87.142,14.832],[-87.134,14.822],[-87.134,14.813],[-87.139,14.81],[-87.139,14.802],[-87.144,14.799],[-87.15,14.78],[-87.143,14.76],[-87.118,14.742],[-87.097,14.706],[-87.105,14.666],[-87.131,14.666],[-87.135,14.673],[-87.14,14.674],[-87.138,14.681],[-87.142,14.679],[-87.149,14.683],[-87.153,14.693],[-87.165,14.701],[-87.18,14.686],[-87.186,14.692],[-87.194,14.688],[-87.195,14.682],[-87.213,14.671],[-87.214,14.659],[-87.208,14.653],[-87.208,14.647],[-87.212,14.646],[-87.213,14.637],[-87.219,14.635],[-87.218,14.632],[-87.227,14.624],[-87.221,14.615],[-87.228,14.606],[-87.229,14.585],[-87.238,14.579],[-87.237,14.559],[-87.276,14.563],[-87.295,14.561],[-87.308,14.566],[-87.325,14.562],[-87.333,14.567],[-87.331,14.573],[-87.34,14.579],[-87.34,14.583],[-87.337,14.587],[-87.339,14.592],[-87.332,14.602],[-87.338,14.606],[-87.332,14.616],[-87.334,14.625],[-87.331,14.634],[-87.326,14.632],[-87.331,14.641],[-87.324,14.646],[-87.329,14.666]]]}},{"type":"Feature","properties":{"cve_ent":"HN08","cve_mun":"006","cvegeo":"HN0806","nombre":"Guaimaca"},"geometry":{"type":"Polygon","coordinates":[[[-87.038,14.57],[-87.028,14.604],[-87.033,14.612],[-87.027,14.612],[-87.016,14.604],[-87.009,14.606],[-86.983,14.648],[-86.983,14.661],[-86.947,14.656],[-86.937,14.646],[-86.923,14.645],[-86.915,14.64],[-86.897,14.646],[-86.878,14.647],[-86.869,14.638],[-86.853,14.639],[-86.847,14.643],[-86.806,14.64],[-86.796,14.63],[-86.797,14.623],[-86.762,14.599],[-86.76,14.586],[-86.74,14.577],[-86.751,14.532],[-86.743,14.51],[-86.729,14.506],[-86.734,14.479],[-86.711,14.433],[-86.713,14.423],[-86.831,14.332],[-86.83,14.319],[-86.836,14.318],[-86.844,14.328],[-86.85,14.326],[-86.85,14.336],[-86.857,14.348],[-86.875,14.36],[-86.875,14.366],[-86.881,14.368],[-86.884,14.375],[-86.897,14.373],[-86.903,14.364],[-86.908,14.37],[-86.905,14.375],[-86.91,14.378],[-86.91,14.383],[-86.905,14.394],[-86.898,14.4],[-86.89,14.4],[-86.881,14.414],[-86.8791,14.439],[-86.896,14.435],[-86.898,14.439],[-86.907,14.44],[-86.909,14.447],[-86.914,14.443],[-86.936,14.465],[-86.949,14.463],[-86.951,14.466],[-86.964,14.462],[-86.981,14.475],[-87.022,14.482],[-87.023,14.55],[-87.038,14.57]]]}},{"type":"Feature","properties":{"cve_ent":"HN08","cve_mun":"007","cvegeo":"HN0807","nombre":"La Libertad"},"geometry":{"type":"Polygon","coordinates":[[[-87.459,13.67],[-87.518,13.691],[-87.52,13.697],[-87.542,13.71],[-87.544,13.717],[-87.55,13.718],[-87.542,13.73],[-87.536,13.731],[-87.533,13.738],[-87.524,13.74],[-87.524,13.743],[-87.515,13.741],[-87.516,13.731],[-87.509,13.727],[-87.489,13.725],[-87.46,13.708],[-87.46,13.694],[-87.465,13.683],[-87.459,13.67]]]}},{"type":"Feature","properties":{"cve_ent":"HN08","cve_mun":"008","cvegeo":"HN0808","nombre":"La Venta"},"geometry":{"type":"Polygon","coordinates":[[[-87.387,13.769],[-87.382,13.772],[-87.384,13.777],[-87.378,13.779],[-87.38,13.789],[-87.354,13.793],[-87.347,13.781],[-87.331,13.783],[-87.326,13.778],[-87.283,13.767],[-87.278,13.76],[-87.281,13.748],[-87.277,13.741],[-87.268,13.74],[-87.273,13.733],[-87.261,13.718],[-87.264,13.717],[-87.262,13.707],[-87.265,13.698],[-87.259,13.694],[-87.261,13.686],[-87.265,13.687],[-87.263,13.681],[-87.269,13.678],[-87.277,13.686],[-87.28,13.68],[-87.29,13.678],[-87.291,13.682],[-87.299,13.681],[-87.299,13.685],[-87.312,13.691],[-87.325,13.686],[-87.343,13.688],[-87.36,13.684],[-87.363,13.7],[-87.379,13.704],[-87.386,13.712],[-87.386,13.718],[-87.395,13.719],[-87.395,13.733],[-87.389,13.737],[-87.389,13.745],[-87.376,13.761],[-87.387,13.769]]]}},{"type":"Feature","properties":{"cve_ent":"HN08","cve_mun":"009","cvegeo":"HN0809","nombre":"Lepaterique"},"geometry":{"type":"Polygon","coordinates":[[[-87.599,13.972],[-87.592,13.981],[-87.605,14.001],[-87.604,14.034],[-87.617,14.108],[-87.581,14.144],[-87.542,14.134],[-87.5,14.161],[-87.491,14.17],[-87.498,14.174],[-87.496,14.185],[-87.472,14.211],[-87.461,14.203],[-87.445,14.178],[-87.446,14.169],[-87.419,14.117],[-87.409,14.115],[-87.41,14.112],[-87.404,14.109],[-87.39,14.111],[-87.384,14.104],[-87.38,14.104],[-87.378,14.11],[-87.366,14.107],[-87.371,14.097],[-87.354,14.076],[-87.373,14.068],[-87.379,14.048],[-87.372,14.012],[-87.403,13.99],[-87.401,13.975],[-87.408,13.965],[-87.412,13.965],[-87.412,13.957],[-87.423,13.953],[-87.435,13.956],[-87.442,13.947],[-87.451,13.948],[-87.444,13.939],[-87.443,13.931],[-87.554,13.92],[-87.595,13.956],[-87.591,13.966],[-87.599,13.972]],[[-87.442,13.949],[-87.441,13.95],[-87.442,13.95],[-87.442,13.949]]]}},{"type":"Feature","properties":{"cve_ent":"HN08","cve_mun":"010","cvegeo":"HN0810","nombre":"Maraita"},"geometry":{"type":"MultiPolygon","coordinates":[[[[-87.055,13.771],[-87.082,13.776],[-87.087,13.79],[-87.113,13.809],[-87.127,13.833],[-87.125,13.835],[-87.134,13.838],[-87.141,13.847],[-87.155,13.847],[-87.148,13.872],[-87.14,13.872],[-87.13,13.884],[-87.086,13.951],[-87.058,13.95],[-87.051,13.938],[-87.039,13.947],[-87.016,13.956],[-87.017,13.973],[-87.013,13.985],[-87.003,13.979],[-87.004,13.967],[-86.988,13.956],[-86.985,13.937],[-86.981,13.934],[-86.997,13.913],[-86.986,13.887],[-86.996,13.859],[-86.99,13.847],[-86.995,13.825],[-87.023,13.767],[-87.031,13.763],[-87.031,13.772],[-87.055,13.771]]],[[[-86.99,13.847],[-86.99,13.848],[-86.989,13.847],[-86.99,13.847]]]]}},{"type":"Feature","properties":{"cve_ent":"HN08","cve_mun":"011","cvegeo":"HN0811","nombre":"Marale"},"geometry":{"type":"MultiPolygon","coordinates":[[[[-87.217,14.881],[-87.212,14.882],[-87.208,14.875],[-87.199,14.876],[-87.199,14.883],[-87.193,14.889],[-87.199,14.896],[-87.197,14.907],[-87.217,14.912],[-87.208,14.925],[-87.214,14.937],[-87.214,14.949],[-87.209,14.95],[-87.2,14.962],[-87.191,14.964],[-87.185,14.97],[-87.187,14.993],[-87.184,15.002],[-87.187,15.011],[-87.174,15.024],[-87.174,15.029],[-87.162,15.025],[-87.154,15.029],[-87.148,15.026],[-87.137,15.028],[-87.135,15.033],[-87.127,15.029],[-87.107,15.032],[-87.082,15.017],[-87.075,15.016],[-87.054,15.024],[-87.031,15.025],[-86.991,15.015],[-86.988,15.001],[-87.002,14.988],[-86.995,14.974],[-87.0,14.969],[-86.997,14.964],[-87.003,14.937],[-87.001,14.92],[-87.008,14.906],[-87.004,14.89],[-87.007,14.879],[-87.031,14.861],[-87.034,14.854],[-87.165,14.845],[-87.166,14.849],[-87.176,14.849],[-87.182,14.856],[-87.188,14.855],[-87.192,14.861],[-87.194,14.858],[-87.197,14.861],[-87.211,14.859],[-87.217,14.87],[-87.224,14.87],[-87.217,14.881]]],[[[-87.19,14.966],[-87.191,14.966],[-87.19,14.967],[-87.19,14.966]]]]}},{"type":"Feature","properties":{"cve_ent":"HN08","cve_mun":"012","cvegeo":"HN0812","nombre":"Nueva Armenia"},"geometry":{"type":"MultiPolygon","coordinates":[[[[-87.245,13.684],[-87.247,13.685],[-87.245,13.685],[-87.245,13.684]]],[[[-87.2449,13.684],[-87.227,13.691],[-87.234,13.706],[-87.222,13.715],[-87.216,13.713],[-87.212,13.722],[-87.205,13.716],[-87.194,13.729],[-87.19,13.773],[-87.202,13.791],[-87.195,13.827],[-87.198,13.84],[-87.177,13.848],[-87.141,13.847],[-87.134,13.838],[-87.125,13.835],[-87.127,13.833],[-87.113,13.807],[-87.107,13.802],[-87.123,13.776],[-87.118,13.777],[-87.119,13.773],[-87.112,13.77],[-87.115,13.767],[-87.112,13.762],[-87.12,13.749],[-87.117,13.746],[-87.12,13.742],[-87.118,13.732],[-87.1013,13.709],[-87.116,13.698],[-87.132,13.672],[-87.124,13.653],[-87.139,13.662],[-87.144,13.661],[-87.184,13.686],[-87.212,13.668],[-87.2449,13.684]]],[[[-87.101,13.7092],[-87.101,13.71],[-87.1,13.71],[-87.101,13.7092]]]]}},{"type":"Feature","properties":{"cve_ent":"HN08","cve_mun":"013","cvegeo":"HN0813","nombre":"Ojojona"},"geometry":{"type":"MultiPolygon","coordinates":[[[[-87.451,13.947],[-87.442,13.947],[-87.435,13.956],[-87.423,13.953],[-87.412,13.957],[-87.412,13.965],[-87.408,13.965],[-87.401,13.975],[-87.403,13.99],[-87.343,14.027],[-87.344,14.02],[-87.313,14.006],[-87.313,14.003],[-87.308,14.0],[-87.318,13.997],[-87.326,13.985],[-87.26,13.979],[-87.251,13.965],[-87.276,13.947],[-87.291,13.91],[-87.286,13.9],[-87.275,13.899],[-87.274,13.892],[-87.265,13.891],[-87.278,13.872],[-87.281,13.852],[-87.284,13.849],[-87.301,13.849],[-87.312,13.834],[-87.319,13.829],[-87.327,13.829],[-87.334,13.821],[-87.343,13.825],[-87.348,13.835],[-87.349,13.841],[-87.343,13.85],[-87.367,13.835],[-87.396,13.928],[-87.443,13.931],[-87.444,13.939],[-87.451,13.947]]],[[[-87.441,13.95],[-87.442,13.949],[-87.442,13.95],[-87.441,13.95]]],[[[-87.311,14.003],[-87.312,14.004],[-87.311,14.004],[-87.311,14.003]]]]}},{"type":"Feature","properties":{"cve_ent":"HN08","cve_mun":"014","cvegeo":"HN0814","nombre":"Orica"},"geometry":{"type":"MultiPolygon","coordinates":[[[[-87.029,14.835],[-87.033,14.837],[-87.033,14.845],[-87.038,14.851],[-87.031,14.861],[-87.007,14.879],[-87.004,14.89],[-87.008,14.906],[-87.001,14.92],[-87.003,14.937],[-86.997,14.964],[-87.0,14.969],[-86.995,14.974],[-87.002,14.988],[-86.988,15.001],[-86.983,15.0],[-86.973,14.988],[-86.97,14.976],[-86.961,14.969],[-86.956,14.971],[-86.949,14.965],[-86.933,14.962],[-86.931,14.952],[-86.903,14.939],[-86.914,14.934],[-86.925,14.918],[-86.923,14.907],[-86.936,14.898],[-86.93,14.888],[-86.929,14.868],[-86.919,14.864],[-86.904,14.826],[-86.911,14.823],[-86.909,14.807],[-86.904,14.808],[-86.891,14.799],[-86.894,14.796],[-86.901,14.771],[-86.879,14.746],[-86.851,14.664],[-86.834,14.652],[-86.829,14.642],[-86.847,14.643],[-86.853,14.639],[-86.869,14.638],[-86.878,14.647],[-86.897,14.646],[-86.915,14.64],[-86.923,14.645],[-86.937,14.646],[-86.947,14.656],[-86.987,14.664],[-86.989,14.669],[-86.978,14.677],[-86.977,14.684],[-86.981,14.69],[-86.974,14.702],[-86.975,14.713],[-86.985,14.732],[-86.983,14.77],[-87.0,14.785],[-87.007,14.81],[-87.025,14.822],[-87.029,14.835]],[[-87.029,14.835],[-87.027,14.835],[-87.027,14.836],[-87.029,14.836],[-87.029,14.835]]],[[[-86.894,14.793],[-86.893,14.794],[-86.893,14.793],[-86.894,14.793]]]]}},{"type":"Feature","properties":{"cve_ent":"HN08","cve_mun":"015","cvegeo":"HN0815","nombre":"Reitoca"},"geometry":{"type":"Polygon","coordinates":[[[-87.493,13.896],[-87.488,13.899],[-87.491,13.908],[-87.486,13.913],[-87.487,13.928],[-87.443,13.931],[-87.396,13.928],[-87.367,13.835],[-87.372,13.799],[-87.381,13.796],[-87.378,13.779],[-87.384,13.777],[-87.382,13.772],[-87.387,13.77],[-87.376,13.762],[-87.381,13.755],[-87.395,13.753],[-87.399,13.749],[-87.411,13.753],[-87.414,13.755],[-87.413,13.781],[-87.445,13.789],[-87.468,13.808],[-87.485,13.812],[-87.494,13.821],[-87.496,13.849],[-87.481,13.864],[-87.481,13.875],[-87.491,13.881],[-87.493,13.896]]]}},{"type":"Feature","properties":{"cve_ent":"HN08","cve_mun":"016","cvegeo":"HN0816","nombre":"Sabanagrande"},"geometry":{"type":"Polygon","coordinates":[[[-87.354,13.793],[-87.381,13.791],[-87.381,13.796],[-87.372,13.799],[-87.367,13.835],[-87.343,13.85],[-87.349,13.841],[-87.343,13.825],[-87.334,13.821],[-87.327,13.829],[-87.319,13.829],[-87.301,13.849],[-87.284,13.849],[-87.281,13.852],[-87.278,13.872],[-87.27,13.886],[-87.265,13.887],[-87.266,13.892],[-87.23,13.898],[-87.212,13.881],[-87.202,13.862],[-87.193,13.861],[-87.19,13.843],[-87.198,13.84],[-87.195,13.827],[-87.202,13.795],[-87.19,13.773],[-87.194,13.729],[-87.205,13.716],[-87.212,13.722],[-87.216,13.713],[-87.222,13.715],[-87.234,13.706],[-87.227,13.691],[-87.235,13.686],[-87.261,13.686],[-87.259,13.696],[-87.265,13.698],[-87.262,13.707],[-87.264,13.717],[-87.261,13.718],[-87.273,13.733],[-87.268,13.74],[-87.277,13.741],[-87.281,13.748],[-87.278,13.76],[-87.283,13.767],[-87.326,13.778],[-87.331,13.783],[-87.347,13.781],[-87.354,13.793]]]}},{"type":"Feature","properties":{"cve_ent":"HN08","cve_mun":"017","cvegeo":"HN0817","nombre":"San Antonio de Oriente"},"geometry":{"type":"MultiPolygon","coordinates":[[[[-87.103,14.039],[-87.092,14.049],[-87.074,14.05],[-87.053,14.057],[-87.042,14.074],[-87.057,14.089],[-87.056,14.094],[-87.049,14.096],[-87.05,14.106],[-87.041,14.106],[-87.033,14.098],[-87.016,14.098],[-86.988,14.125],[-86.971,14.101],[-86.947,14.085],[-86.945,14.064],[-86.91,14.053],[-86.911,14.002],[-86.919,14.001],[-86.914,13.989],[-86.951,13.95],[-86.96,13.957],[-86.978,13.959],[-86.983,13.968],[-86.988,13.966],[-86.992,13.957],[-87.004,13.967],[-87.003,13.979],[-87.013,13.985],[-87.017,13.993],[-87.028,13.992],[-87.037,13.997],[-87.039,14.005],[-87.051,14.009],[-87.061,14.019],[-87.074,14.026],[-87.088,14.026],[-87.102,14.034],[-87.103,14.039]]],[[[-86.984,13.963],[-86.983,13.962],[-86.984,13.962],[-86.984,13.963]]]]}},{"type":"Feature","properties":{"cve_ent":"HN08","cve_mun":"018","cvegeo":"HN0818","nombre":"San Buenaventura"},"geometry":{"type":"Polygon","coordinates":[[[-87.167,13.915],[-87.156,13.902],[-87.156,13.887],[-87.148,13.872],[-87.155,13.847],[-87.177,13.848],[-87.19,13.843],[-87.193,13.861],[-87.202,13.862],[-87.22,13.889],[-87.208,13.906],[-87.214,13.913],[-87.213,13.923],[-87.195,13.965],[-87.182,13.965],[-87.18,13.956],[-87.174,13.951],[-87.167,13.915]]]}},{"type":"Feature","properties":{"cve_ent":"HN08","cve_mun":"019","cvegeo":"HN0819","nombre":"San Ignacio"},"geometry":{"type":"MultiPolygon","coordinates":[[[[-87.15,14.78],[-87.139,14.81],[-87.135,14.81],[-87.134,14.822],[-87.142,14.832],[-87.142,14.84],[-87.148,14.843],[-87.156,14.841],[-87.159,14.846],[-87.036,14.854],[-87.038,14.848],[-87.033,14.845],[-87.033,14.837],[-87.026,14.832],[-87.029,14.829],[-87.025,14.822],[-87.007,14.81],[-87.0,14.785],[-86.983,14.77],[-86.985,14.732],[-86.975,14.713],[-86.974,14.702],[-86.981,14.69],[-86.977,14.684],[-86.978,14.677],[-86.989,14.669],[-86.983,14.661],[-86.983,14.648],[-87.009,14.606],[-87.016,14.604],[-87.034,14.613],[-87.033,14.622],[-87.041,14.626],[-87.043,14.638],[-87.054,14.643],[-87.057,14.651],[-87.072,14.648],[-87.077,14.654],[-87.089,14.658],[-87.09,14.662],[-87.096,14.658],[-87.103,14.66],[-87.105,14.666],[-87.097,14.706],[-87.118,14.742],[-87.143,14.76],[-87.15,14.78]]],[[[-87.027,14.835],[-87.029,14.836],[-87.027,14.836],[-87.027,14.835]]]]}},{"type":"Feature","properties":{"cve_ent":"HN08","cve_mun":"020","cvegeo":"HN0820","nombre":"San Juan de Flores"},"geometry":{"type":"Polygon","coordinates":[[[-87.114,14.285],[-87.104,14.297],[-87.095,14.296],[-87.092,14.306],[-87.081,14.306],[-87.054,14.347],[-86.995,14.369],[-86.986,14.39],[-86.981,14.397],[-86.975,14.396],[-86.974,14.401],[-86.922,14.374],[-86.915,14.373],[-86.908,14.378],[-86.905,14.364],[-86.898,14.367],[-86.897,14.373],[-86.884,14.375],[-86.881,14.368],[-86.875,14.366],[-86.875,14.36],[-86.857,14.348],[-86.85,14.336],[-86.85,14.326],[-86.844,14.328],[-86.841,14.321],[-86.83,14.319],[-86.827,14.295],[-86.842,14.292],[-86.869,14.253],[-86.889,14.234],[-86.953,14.226],[-86.959,14.232],[-86.965,14.229],[-87.016,14.24],[-87.027,14.219],[-87.115,14.27],[-87.114,14.285]]]}},{"type":"Feature","properties":{"cve_ent":"HN08","cve_mun":"021","cvegeo":"HN0821","nombre":"San Miguelito"},"geometry":{"type":"Polygon","coordinates":[[[-87.525,13.795],[-87.456,13.754],[-87.455,13.735],[-87.451,13.728],[-87.46,13.708],[-87.489,13.725],[-87.505,13.725],[-87.516,13.731],[-87.515,13.741],[-87.521,13.742],[-87.528,13.75],[-87.524,13.764],[-87.525,13.795]]]}},{"type":"Feature","properties":{"cve_ent":"HN08","cve_mun":"022","cvegeo":"HN0822","nombre":"Santa Ana"},"geometry":{"type":"MultiPolygon","coordinates":[[[[-87.128,13.924],[-87.139,13.913],[-87.124,13.895],[-87.14,13.872],[-87.148,13.872],[-87.156,13.887],[-87.156,13.902],[-87.166,13.912],[-87.174,13.951],[-87.18,13.956],[-87.182,13.965],[-87.131,13.937],[-87.127,13.931],[-87.128,13.924]]],[[[-87.251,13.965],[-87.26,13.979],[-87.216,13.974],[-87.195,13.965],[-87.213,13.923],[-87.214,13.913],[-87.208,13.906],[-87.22,13.889],[-87.23,13.898],[-87.274,13.892],[-87.275,13.899],[-87.288,13.902],[-87.291,13.91],[-87.276,13.947],[-87.251,13.965]]]]}},{"type":"Feature","properties":{"cve_ent":"HN08","cve_mun":"023","cvegeo":"HN0823","nombre":"Santa Lucía"},"geometry":{"type":"Polygon","coordinates":[[[-87.124,14.099],[-87.131,14.101],[-87.135,14.129],[-87.13,14.148],[-87.123,14.155],[-87.099,14.158],[-87.068,14.179],[-87.064,14.135],[-87.058,14.134],[-87.061,14.125],[-87.053,14.107],[-87.058,14.109],[-87.061,14.105],[-87.073,14.104],[-87.102,14.081],[-87.108,14.081],[-87.124,14.099]]]}},{"type":"Feature","properties":{"cve_ent":"HN08","cve_mun":"024","cvegeo":"HN0824","nombre":"Talanga"},"geometry":{"type":"Polygon","coordinates":[[[-87.23,14.392],[-87.23,14.411],[-87.221,14.418],[-87.219,14.429],[-87.213,14.43],[-87.212,14.436],[-87.171,14.472],[-87.152,14.477],[-87.15,14.474],[-87.124,14.475],[-87.111,14.469],[-87.094,14.469],[-87.085,14.477],[-87.074,14.473],[-87.048,14.474],[-87.041,14.479],[-87.019,14.482],[-86.981,14.475],[-86.964,14.462],[-86.951,14.466],[-86.949,14.463],[-86.936,14.465],[-86.914,14.443],[-86.909,14.447],[-86.907,14.44],[-86.898,14.439],[-86.896,14.435],[-86.8791,14.439],[-86.884,14.408],[-86.89,14.4],[-86.898,14.4],[-86.905,14.394],[-86.913,14.374],[-86.922,14.374],[-86.974,14.401],[-86.975,14.396],[-86.981,14.397],[-86.986,14.39],[-86.995,14.369],[-87.054,14.347],[-87.081,14.306],[-87.092,14.306],[-87.095,14.296],[-87.14,14.302],[-87.13,14.314],[-87.118,14.363],[-87.138,14.372],[-87.155,14.365],[-87.238,14.372],[-87.237,14.387],[-87.23,14.392]]]}},{"type":"Feature","properties":{"cve_ent":"HN08","cve_mun":"025","cvegeo":"HN0825","nombre":"Tatumbla"},"geometry":{"type":"Polygon","coordinates":[[[-87.122,14.014],[-87.105,14.037],[-87.088,14.026],[-87.074,14.026],[-87.061,14.019],[-87.051,14.009],[-87.039,14.005],[-87.037,13.997],[-87.028,13.992],[-87.017,13.993],[-87.013,13.985],[-87.017,13.973],[-87.016,13.956],[-87.052,13.938],[-87.051,13.942],[-87.058,13.95],[-87.086,13.951],[-87.127,13.972],[-87.116,13.988],[-87.113,14.0],[-87.122,14.014]]]}},{"type":"Feature","properties":{"cve_ent":"HN08","cve_mun":"026","cvegeo":"HN0826","nombre":"Valle de Angeles"},"geometry":{"type":"Polygon","coordinates":[[[-87.053,14.106],[-87.061,14.125],[-87.058,14.134],[-87.064,14.135],[-87.068,14.179],[-87.035,14.195],[-87.028,14.213],[-87.014,14.22],[-87.005,14.23],[-86.993,14.168],[-86.979,14.164],[-86.974,14.167],[-86.955,14.166],[-86.943,14.158],[-86.913,14.152],[-86.907,14.146],[-86.914,14.13],[-86.916,14.133],[-86.929,14.131],[-86.94,14.134],[-86.949,14.141],[-86.973,14.143],[-87.016,14.098],[-87.033,14.098],[-87.041,14.106],[-87.053,14.106]]]}},{"type":"Feature","properties":{"cve_ent":"HN08","cve_mun":"027","cvegeo":"HN0827","nombre":"Villa de San Francisco"},"geometry":{"type":"MultiPolygon","coordinates":[[[[-86.965,14.229],[-86.959,14.232],[-86.952,14.226],[-86.897,14.232],[-86.897,14.212],[-86.903,14.21],[-86.898,14.199],[-86.905,14.191],[-86.911,14.192],[-86.931,14.181],[-86.924,14.175],[-86.928,14.173],[-86.926,14.167],[-86.92,14.172],[-86.897,14.161],[-86.907,14.145],[-86.913,14.152],[-86.943,14.158],[-86.955,14.166],[-86.974,14.167],[-86.979,14.164],[-86.993,14.168],[-87.007,14.239],[-86.965,14.229]]],[[[-86.919,14.185],[-86.918,14.186],[-86.918,14.185],[-86.919,14.185]]]]}},{"type":"Feature","properties":{"cve_ent":"HN08","cve_mun":"028","cvegeo":"HN0828","nombre":"Vallecillos"},"geometry":{"type":"MultiPolygon","coordinates":[[[[-87.411,14.447],[-87.44,14.473],[-87.455,14.476],[-87.469,14.524],[-87.408,14.575],[-87.411,14.587],[-87.404,14.6],[-87.404,14.623],[-87.397,14.624],[-87.392,14.619],[-87.377,14.615],[-87.366,14.617],[-87.366,14.61],[-87.361,14.611],[-87.359,14.607],[-87.332,14.604],[-87.334,14.595],[-87.339,14.592],[-87.34,14.579],[-87.331,14.573],[-87.333,14.567],[-87.321,14.554],[-87.322,14.542],[-87.33,14.538],[-87.314,14.533],[-87.313,14.521],[-87.299,14.512],[-87.301,14.508],[-87.295,14.501],[-87.303,14.498],[-87.307,14.489],[-87.314,14.487],[-87.314,14.48],[-87.32,14.473],[-87.327,14.474],[-87.339,14.466],[-87.348,14.468],[-87.353,14.464],[-87.353,14.456],[-87.368,14.445],[-87.392,14.454],[-87.411,14.447]],[[-87.343,14.468],[-87.342,14.469],[-87.343,14.469],[-87.343,14.468]]],[[[-87.412,14.574],[-87.413,14.575],[-87.412,14.575],[-87.412,14.574]]]]}}]}