{"type":"FeatureCollection","features":[{"type":"Feature","properties":{"cve_ent":"HN09","cve_mun":"001","cvegeo":"HN0901","nombre":"Puerto Lempira"},"geometry":{"type":"MultiPolygon","coordinates":[[[[-84.75,14.729],[-84.742,14.743],[-84.744,14.748],[-84.749,14.749],[-84.753,14.743],[-84.762,14.741],[-84.773,14.749],[-84.769,14.761],[-84.753,14.753],[-84.751,14.769],[-84.787,14.794],[-84.791,14.812],[-84.782,14.82],[-84.777,14.818],[-84.777,14.822],[-84.77,14.825],[-84.757,14.841],[-84.749,14.839],[-84.726,14.852],[-84.688,14.858],[-84.717,14.885],[-84.702,14.902],[-84.703,14.915],[-84.7,14.919],[-84.691,14.922],[-84.691,14.926],[-84.684,14.925],[-84.674,14.94],[-84.671,14.955],[-84.674,14.961],[-84.669,14.971],[-84.682,14.977],[-84.682,14.987],[-84.693,14.988],[-84.697,14.994],[-84.681,15.003],[-84.68,15.007],[-84.665,15.013],[-84.661,15.011],[-84.663,15.015],[-84.655,15.018],[-84.654,15.053],[-84.659,15.055],[-84.66,15.062],[-84.652,15.067],[-84.639,15.062],[-84.633,15.067],[-84.625,15.067],[-84.623,15.071],[-84.619,15.065],[-84.611,15.065],[-84.61,15.069],[-84.602,15.072],[-84.591,15.06],[-84.589,15.064],[-84.571,15.068],[-84.566,15.08],[-84.554,15.078],[-84.547,15.082],[-84.542,15.079],[-84.543,15.083],[-84.534,15.088],[-84.531,15.084],[-84.526,15.094],[-84.519,15.094],[-84.515,15.102],[-84.503,15.109],[-84.507,15.111],[-84.499,15.116],[-84.503,15.118],[-84.498,15.124],[-84.491,15.121],[-84.488,15.127],[-84.482,15.125],[-84.479,15.137],[-84.471,15.135],[-84.467,15.142],[-84.462,15.142],[-84.462,15.148],[-84.457,15.144],[-84.441,15.148],[-84.437,15.159],[-84.431,15.158],[-84.433,15.166],[-84.425,15.163],[-84.425,15.169],[-84.42,15.168],[-84.415,15.174],[-84.405,15.168],[-84.404,15.18],[-84.376,15.183],[-84.373,15.19],[-84.355,15.189],[-84.351,15.197],[-84.343,15.2],[-84.342,15.196],[-84.345,15.208],[-84.337,15.212],[-84.333,15.211],[-84.333,15.205],[-84.319,15.202],[-84.321,15.206],[-84.319,15.21],[-84.311,15.212],[-84.303,15.222],[-84.307,15.223],[-84.304,15.226],[-84.307,15.229],[-84.295,15.229],[-84.29,15.236],[-84.276,15.237],[-84.273,15.241],[-84.267,15.238],[-84.262,15.25],[-84.241,15.262],[-84.241,15.268],[-84.246,15.271],[-84.24,15.287],[-84.237,15.286],[-84.241,15.29],[-84.236,15.295],[-84.234,15.293],[-84.234,15.297],[-84.227,15.297],[-84.226,15.309],[-84.223,15.308],[-84.221,15.316],[-84.212,15.321],[-84.216,15.324],[-84.215,15.33],[-84.21,15.333],[-84.21,15.341],[-84.206,15.345],[-84.213,15.359],[-84.209,15.358],[-84.211,15.362],[-84.207,15.363],[-84.206,15.371],[-84.202,15.369],[-84.191,15.378],[-84.192,15.385],[-84.196,15.383],[-84.192,15.397],[-84.197,15.398],[-84.192,15.401],[-84.194,15.404],[-84.19,15.409],[-84.18,15.41],[-84.172,15.424],[-84.173,15.437],[-84.167,15.437],[-84.173,15.441],[-84.17,15.446],[-84.178,15.453],[-84.178,15.46],[-84.162,15.455],[-84.161,15.459],[-84.152,15.46],[-84.147,15.469],[-84.138,15.464],[-84.134,15.466],[-84.135,15.476],[-84.129,15.48],[-84.12,15.479],[-84.111,15.465],[-84.091,15.472],[-84.085,15.487],[-84.08,15.488],[-84.07,15.48],[-84.068,15.623],[-83.908,15.479],[-83.825,15.424],[-83.767,15.401],[-83.729,15.393],[-83.719,15.397],[-83.689,15.371],[-83.617,15.333],[-83.463,15.285],[-83.413,15.266],[-83.387,15.25],[-83.387,15.239],[-83.395,15.231],[-83.435,15.226],[-83.442,15.213],[-83.444,15.192],[-83.455,15.192],[-83.465,15.185],[-83.48,15.185],[-83.485,15.172],[-83.496,15.163],[-83.49,15.142],[-83.504,15.116],[-83.512,15.113],[-83.528,15.123],[-83.546,15.123],[-83.552,15.115],[-83.549,15.111],[-83.537,15.113],[-83.532,15.106],[-83.536,15.103],[-83.552,15.105],[-83.557,15.092],[-83.548,15.081],[-83.554,15.07],[-83.555,15.057],[-83.551,15.047],[-83.555,15.041],[-83.552,15.036],[-83.553,14.941],[-83.559,14.942],[-83.562,14.938],[-83.561,14.914],[-83.571,14.92],[-83.579,14.913],[-83.594,14.92],[-83.6,14.919],[-83.601,14.915],[-83.594,14.906],[-83.603,14.901],[-83.616,14.901],[-83.61,14.892],[-83.616,14.886],[-83.617,14.876],[-83.646,14.884],[-83.671,14.878],[-83.683,14.868],[-83.691,14.881],[-83.696,14.88],[-83.694,14.871],[-83.701,14.859],[-83.717,14.86],[-83.723,14.855],[-83.719,14.849],[-83.713,14.854],[-83.701,14.852],[-83.698,14.83],[-83.703,14.826],[-83.712,14.844],[-83.716,14.843],[-83.721,14.832],[-83.726,14.834],[-83.728,14.843],[-83.732,14.843],[-83.735,14.84],[-83.73,14.829],[-83.732,14.821],[-83.738,14.821],[-83.744,14.831],[-83.752,14.834],[-83.756,14.83],[-83.753,14.815],[-83.757,14.809],[-83.764,14.808],[-83.776,14.812],[-83.783,14.826],[-83.785,14.809],[-83.807,14.8],[-83.814,14.791],[-83.824,14.798],[-83.831,14.797],[-83.836,14.783],[-83.844,14.775],[-83.857,14.777],[-83.87,14.769],[-83.881,14.772],[-83.89,14.767],[-83.919,14.772],[-83.929,14.779],[-83.937,14.778],[-83.937,14.768],[-83.926,14.764],[-83.92,14.755],[-83.926,14.749],[-83.943,14.76],[-83.971,14.749],[-83.982,14.749],[-84.0,14.761],[-84.014,14.749],[-84.034,14.749],[-84.045,14.754],[-84.039,14.767],[-84.045,14.776],[-84.061,14.764],[-84.081,14.759],[-84.084,14.762],[-84.082,14.788],[-84.092,14.792],[-84.111,14.792],[-84.117,14.787],[-84.117,14.778],[-84.098,14.74],[-84.097,14.731],[-84.124,14.735],[-84.145,14.722],[-84.168,14.716],[-84.189,14.717],[-84.211,14.735],[-84.222,14.732],[-84.229,14.735],[-84.223,14.755],[-84.226,14.76],[-84.236,14.761],[-84.26,14.748],[-84.273,14.732],[-84.272,14.721],[-84.263,14.702],[-84.267,14.688],[-84.258,14.679],[-84.275,14.664],[-84.298,14.664],[-84.306,14.682],[-84.311,14.685],[-84.33,14.676],[-84.349,14.681],[-84.354,14.691],[-84.344,14.702],[-84.363,14.718],[-84.367,14.715],[-84.367,14.705],[-84.379,14.695],[-84.381,14.684],[-84.415,14.657],[-84.413,14.644],[-84.425,14.641],[-84.432,14.633],[-84.463,14.633],[-84.464,14.624],[-84.47,14.616],[-84.498,14.621],[-84.509,14.637],[-84.522,14.636],[-84.529,14.63],[-84.536,14.637],[-84.538,14.646],[-84.523,14.65],[-84.527,14.658],[-84.554,14.657],[-84.562,14.65],[-84.565,14.659],[-84.575,14.652],[-84.581,14.654],[-84.585,14.666],[-84.595,14.659],[-84.614,14.666],[-84.629,14.664],[-84.63,14.675],[-84.635,14.678],[-84.645,14.672],[-84.666,14.673],[-84.673,14.682],[-84.67,14.691],[-84.674,14.695],[-84.68,14.692],[-84.694,14.667],[-84.703,14.665],[-84.702,14.673],[-84.707,14.681],[-84.703,14.691],[-84.708,14.694],[-84.715,14.692],[-84.726,14.698],[-84.73,14.709],[-84.749,14.72],[-84.75,14.729]],[[-84.317,15.208],[-84.319,15.206],[-84.317,15.207],[-84.317,15.208]],[[-84.213,15.328],[-84.214,15.327],[-84.213,15.327],[-84.213,15.328]],[[-84.213,15.327],[-84.212,15.326],[-84.212,15.327],[-84.213,15.327]]],[[[-84.27,15.242],[-84.271,15.241],[-84.271,15.242],[-84.27,15.242]]],[[[-83.849,16.368],[-83.847,16.367],[-83.849,16.367],[-83.849,16.368]]],[[[-83.846,16.368],[-83.836,16.375],[-83.827,16.373],[-83.835,16.367],[-83.846,16.368]]],[[[-83.851,16.368],[-83.882,16.364],[-83.88,16.37],[-83.868,16.371],[-83.866,16.376],[-83.859,16.377],[-83.858,16.371],[-83.851,16.368]]],[[[-83.88,16.361],[-83.879,16.36],[-83.88,16.36],[-83.88,16.361]]]]}},{"type":"Feature","properties":{"cve_ent":"HN09","cve_mun":"002","cvegeo":"HN0902","nombre":"Brus Laguna"},"geometry":{"type":"MultiPolygon","coordinates":[[[[-84.709,15.32],[-84.717,15.319],[-84.724,15.312],[-84.728,15.314],[-84.729,15.308],[-84.737,15.311],[-84.743,15.306],[-84.751,15.31],[-84.745,15.301],[-84.745,15.292],[-84.751,15.292],[-84.754,15.297],[-84.766,15.287],[-84.773,15.29],[-84.773,15.297],[-84.777,15.294],[-84.78,15.3],[-84.793,15.302],[-84.796,15.296],[-84.802,15.299],[-84.804,15.302],[-84.798,15.312],[-84.808,15.315],[-84.812,15.322],[-84.813,15.319],[-84.824,15.319],[-84.827,15.324],[-84.835,15.32],[-84.856,15.326],[-84.86,15.315],[-84.866,15.318],[-84.886,15.316],[-84.891,15.32],[-84.898,15.311],[-84.905,15.31],[-84.91,15.302],[-84.906,15.288],[-84.911,15.27],[-85.0,15.271],[-85.0,15.47],[-84.987,15.472],[-84.979,15.466],[-84.974,15.472],[-84.965,15.469],[-84.953,15.489],[-84.957,15.494],[-84.968,15.494],[-84.967,15.5],[-84.977,15.503],[-84.973,15.51],[-84.978,15.512],[-84.976,15.52],[-84.98,15.52],[-84.989,15.549],[-84.984,15.562],[-84.972,15.561],[-84.97,15.565],[-84.961,15.566],[-84.961,15.578],[-84.965,15.576],[-84.978,15.582],[-84.968,15.584],[-84.966,15.591],[-84.96,15.589],[-84.96,15.592],[-84.955,15.592],[-84.953,15.6],[-84.958,15.612],[-84.953,15.611],[-84.952,15.616],[-84.947,15.607],[-84.936,15.6],[-84.921,15.61],[-84.923,15.621],[-84.915,15.63],[-84.916,15.644],[-84.91,15.652],[-84.905,15.651],[-84.891,15.662],[-84.895,15.673],[-84.889,15.683],[-84.884,15.684],[-84.875,15.668],[-84.87,15.673],[-84.862,15.67],[-84.857,15.681],[-84.85,15.674],[-84.843,15.676],[-84.838,15.673],[-84.834,15.691],[-84.825,15.694],[-84.83,15.7],[-84.82,15.701],[-84.815,15.712],[-84.82,15.711],[-84.819,15.716],[-84.81,15.717],[-84.813,15.72],[-84.811,15.726],[-84.805,15.725],[-84.808,15.732],[-84.804,15.738],[-84.798,15.738],[-84.801,15.742],[-84.797,15.905],[-84.713,15.879],[-84.499,15.834],[-84.43,15.824],[-84.326,15.82],[-84.306,15.817],[-84.299,15.812],[-84.283,15.794],[-84.292,15.785],[-84.292,15.78],[-84.282,15.773],[-84.282,15.767],[-84.293,15.756],[-84.304,15.754],[-84.302,15.743],[-84.307,15.734],[-84.307,15.723],[-84.314,15.72],[-84.322,15.725],[-84.321,15.715],[-84.326,15.709],[-84.339,15.716],[-84.337,15.706],[-84.346,15.699],[-84.35,15.7],[-84.349,15.706],[-84.354,15.706],[-84.355,15.702],[-84.344,15.692],[-84.35,15.682],[-84.353,15.691],[-84.359,15.681],[-84.367,15.679],[-84.376,15.686],[-84.385,15.675],[-84.381,15.667],[-84.368,15.675],[-84.361,15.675],[-84.356,15.666],[-84.36,15.663],[-84.373,15.667],[-84.379,15.657],[-84.395,15.652],[-84.399,15.646],[-84.393,15.641],[-84.382,15.643],[-84.369,15.635],[-84.369,15.632],[-84.391,15.628],[-84.379,15.62],[-84.384,15.612],[-84.382,15.607],[-84.365,15.607],[-84.381,15.598],[-84.378,15.594],[-84.365,15.592],[-84.379,15.591],[-84.381,15.586],[-84.368,15.579],[-84.372,15.564],[-84.379,15.557],[-84.37,15.551],[-84.359,15.558],[-84.354,15.551],[-84.352,15.536],[-84.361,15.536],[-84.362,15.533],[-84.352,15.526],[-84.368,15.522],[-84.36,15.511],[-84.36,15.503],[-84.366,15.498],[-84.373,15.513],[-84.381,15.514],[-84.383,15.5],[-84.387,15.498],[-84.392,15.504],[-84.397,15.502],[-84.387,15.493],[-84.397,15.49],[-84.396,15.482],[-84.402,15.475],[-84.417,15.484],[-84.433,15.48],[-84.446,15.482],[-84.444,15.466],[-84.453,15.463],[-84.447,15.454],[-84.463,15.44],[-84.467,15.443],[-84.462,15.448],[-84.465,15.454],[-84.473,15.452],[-84.484,15.456],[-84.493,15.448],[-84.487,15.443],[-84.488,15.438],[-84.498,15.441],[-84.506,15.437],[-84.503,15.431],[-84.492,15.431],[-84.488,15.411],[-84.498,15.408],[-84.504,15.418],[-84.506,15.414],[-84.513,15.416],[-84.517,15.413],[-84.52,15.405],[-84.536,15.409],[-84.545,15.405],[-84.542,15.399],[-84.53,15.398],[-84.528,15.391],[-84.535,15.384],[-84.549,15.386],[-84.552,15.391],[-84.559,15.392],[-84.566,15.385],[-84.565,15.375],[-84.571,15.377],[-84.579,15.369],[-84.59,15.368],[-84.593,15.359],[-84.598,15.357],[-84.613,15.359],[-84.616,15.349],[-84.631,15.345],[-84.632,15.339],[-84.633,15.341],[-84.636,15.341],[-84.636,15.336],[-84.641,15.339],[-84.641,15.337],[-84.644,15.334],[-84.646,15.336],[-84.654,15.33],[-84.656,15.333],[-84.683,15.329],[-84.698,15.331],[-84.696,15.329],[-84.701,15.329],[-84.702,15.321],[-84.709,15.32]],[[-84.579,15.372],[-84.578,15.373],[-84.579,15.373],[-84.579,15.372]],[[-84.643,15.337],[-84.642,15.338],[-84.643,15.338],[-84.643,15.337]]],[[[-84.641,15.337],[-84.64,15.336],[-84.641,15.336],[-84.641,15.337]]],[[[-84.709,15.319],[-84.709,15.318],[-84.71,15.318],[-84.709,15.319]]],[[[-84.635,15.339],[-84.634,15.34],[-84.634,15.339],[-84.635,15.339]]]]}},{"type":"Feature","properties":{"cve_ent":"HN09","cve_mun":"003","cvegeo":"HN0903","nombre":"Juan Francisco Bulnes"},"geometry":{"type":"Polygon","coordinates":[[[-85.0,15.47],[-85.0,15.982],[-84.999,15.982],[-84.921,15.959],[-84.876,15.934],[-84.797,15.905],[-84.801,15.742],[-84.798,15.738],[-84.804,15.738],[-84.808,15.732],[-84.805,15.725],[-84.813,15.724],[-84.81,15.717],[-84.819,15.716],[-84.82,15.711],[-84.815,15.713],[-84.819,15.702],[-84.83,15.7],[-84.825,15.694],[-84.834,15.691],[-84.838,15.673],[-84.843,15.676],[-84.85,15.674],[-84.857,15.681],[-84.862,15.67],[-84.87,15.673],[-84.875,15.668],[-84.884,15.684],[-84.889,15.683],[-84.895,15.673],[-84.891,15.662],[-84.905,15.651],[-84.91,15.652],[-84.916,15.644],[-84.915,15.63],[-84.923,15.621],[-84.921,15.61],[-84.936,15.6],[-84.947,15.607],[-84.952,15.616],[-84.953,15.611],[-84.958,15.612],[-84.953,15.6],[-84.955,15.592],[-84.96,15.592],[-84.96,15.589],[-84.966,15.591],[-84.968,15.584],[-84.978,15.582],[-84.965,15.576],[-84.961,15.578],[-84.961,15.566],[-84.97,15.565],[-84.972,15.561],[-84.984,15.562],[-84.989,15.549],[-84.98,15.52],[-84.976,15.52],[-84.978,15.512],[-84.973,15.51],[-84.977,15.503],[-84.967,15.5],[-84.968,15.494],[-84.957,15.494],[-84.953,15.489],[-84.965,15.469],[-84.974,15.472],[-84.979,15.466],[-84.987,15.472],[-85.0,15.47]]]}},{"type":"Feature","properties":{"cve_ent":"HN09","cve_mun":"004","cvegeo":"HN0904","nombre":"Ahuás"},"geometry":{"type":"MultiPolygon","coordinates":[[[[-84.491,15.121],[-84.491,15.411],[-84.487,15.413],[-84.492,15.431],[-84.503,15.431],[-84.507,15.435],[-84.498,15.441],[-84.488,15.438],[-84.487,15.443],[-84.493,15.448],[-84.484,15.456],[-84.473,15.452],[-84.465,15.454],[-84.462,15.448],[-84.467,15.443],[-84.463,15.44],[-84.447,15.454],[-84.453,15.463],[-84.444,15.466],[-84.447,15.477],[-84.444,15.483],[-84.433,15.48],[-84.417,15.484],[-84.402,15.475],[-84.396,15.482],[-84.397,15.49],[-84.387,15.493],[-84.397,15.502],[-84.392,15.504],[-84.387,15.498],[-84.383,15.5],[-84.379,15.515],[-84.367,15.506],[-84.366,15.498],[-84.36,15.503],[-84.36,15.511],[-84.368,15.522],[-84.352,15.526],[-84.362,15.533],[-84.361,15.536],[-84.352,15.536],[-84.354,15.551],[-84.359,15.558],[-84.37,15.551],[-84.379,15.557],[-84.372,15.564],[-84.368,15.579],[-84.381,15.586],[-84.379,15.591],[-84.365,15.592],[-84.381,15.596],[-84.365,15.607],[-84.382,15.607],[-84.384,15.612],[-84.379,15.62],[-84.391,15.628],[-84.369,15.632],[-84.369,15.635],[-84.382,15.643],[-84.393,15.641],[-84.399,15.646],[-84.395,15.652],[-84.379,15.657],[-84.373,15.667],[-84.36,15.663],[-84.356,15.666],[-84.361,15.675],[-84.368,15.675],[-84.377,15.667],[-84.382,15.668],[-84.385,15.675],[-84.376,15.686],[-84.367,15.679],[-84.359,15.681],[-84.353,15.691],[-84.35,15.682],[-84.344,15.692],[-84.355,15.702],[-84.354,15.706],[-84.349,15.706],[-84.35,15.7],[-84.346,15.699],[-84.337,15.706],[-84.339,15.716],[-84.326,15.709],[-84.321,15.715],[-84.322,15.725],[-84.314,15.72],[-84.307,15.723],[-84.307,15.734],[-84.302,15.743],[-84.304,15.754],[-84.293,15.756],[-84.282,15.767],[-84.282,15.773],[-84.292,15.78],[-84.292,15.785],[-84.283,15.794],[-84.299,15.812],[-84.149,15.693],[-84.068,15.623],[-84.07,15.48],[-84.08,15.488],[-84.085,15.487],[-84.091,15.472],[-84.106,15.465],[-84.114,15.467],[-84.12,15.479],[-84.129,15.48],[-84.135,15.476],[-84.134,15.466],[-84.138,15.464],[-84.147,15.469],[-84.152,15.46],[-84.161,15.459],[-84.162,15.455],[-84.178,15.46],[-84.178,15.453],[-84.17,15.446],[-84.173,15.441],[-84.167,15.437],[-84.173,15.437],[-84.172,15.424],[-84.18,15.41],[-84.19,15.409],[-84.194,15.404],[-84.192,15.401],[-84.197,15.398],[-84.192,15.397],[-84.196,15.383],[-84.192,15.385],[-84.191,15.378],[-84.202,15.369],[-84.206,15.371],[-84.207,15.363],[-84.211,15.362],[-84.209,15.358],[-84.213,15.359],[-84.206,15.345],[-84.21,15.341],[-84.21,15.333],[-84.215,15.33],[-84.216,15.324],[-84.212,15.321],[-84.221,15.316],[-84.223,15.308],[-84.226,15.309],[-84.227,15.297],[-84.234,15.297],[-84.234,15.293],[-84.236,15.295],[-84.241,15.29],[-84.237,15.286],[-84.24,15.287],[-84.246,15.271],[-84.24,15.263],[-84.262,15.25],[-84.267,15.238],[-84.273,15.241],[-84.276,15.237],[-84.29,15.236],[-84.295,15.229],[-84.307,15.229],[-84.304,15.227],[-84.307,15.223],[-84.303,15.222],[-84.311,15.212],[-84.319,15.21],[-84.321,15.207],[-84.319,15.202],[-84.333,15.205],[-84.333,15.211],[-84.337,15.212],[-84.345,15.208],[-84.342,15.196],[-84.343,15.2],[-84.351,15.197],[-84.355,15.189],[-84.373,15.19],[-84.376,15.183],[-84.404,15.18],[-84.405,15.168],[-84.415,15.174],[-84.42,15.168],[-84.425,15.169],[-84.425,15.163],[-84.433,15.166],[-84.431,15.158],[-84.437,15.159],[-84.441,15.148],[-84.453,15.147],[-84.453,15.144],[-84.462,15.148],[-84.462,15.142],[-84.467,15.142],[-84.471,15.135],[-84.479,15.137],[-84.482,15.125],[-84.488,15.127],[-84.491,15.121]],[[-84.271,15.241],[-84.27,15.242],[-84.271,15.242],[-84.271,15.241]]],[[[-84.319,15.206],[-84.317,15.208],[-84.317,15.207],[-84.319,15.206]]],[[[-84.214,15.327],[-84.213,15.328],[-84.213,15.327],[-84.214,15.327]]],[[[-84.213,15.327],[-84.212,15.327],[-84.212,15.326],[-84.213,15.327]]]]}},{"type":"Feature","properties":{"cve_ent":"HN09","cve_mun":"005","cvegeo":"HN0905","nombre":"Wampusirpi"},"geometry":{"type":"MultiPolygon","coordinates":[[[[-84.717,15.319],[-84.71,15.318],[-84.709,15.318],[-84.709,15.319],[-84.709,15.32],[-84.702,15.321],[-84.701,15.329],[-84.696,15.329],[-84.698,15.331],[-84.683,15.329],[-84.656,15.333],[-84.654,15.33],[-84.646,15.336],[-84.638,15.336],[-84.638,15.339],[-84.636,15.336],[-84.636,15.341],[-84.633,15.341],[-84.632,15.339],[-84.631,15.345],[-84.616,15.349],[-84.613,15.359],[-84.598,15.357],[-84.593,15.359],[-84.59,15.368],[-84.579,15.369],[-84.571,15.377],[-84.565,15.375],[-84.566,15.385],[-84.559,15.392],[-84.552,15.391],[-84.549,15.386],[-84.535,15.384],[-84.528,15.392],[-84.531,15.399],[-84.544,15.401],[-84.545,15.405],[-84.539,15.409],[-84.52,15.405],[-84.517,15.413],[-84.513,15.416],[-84.506,15.414],[-84.504,15.418],[-84.498,15.408],[-84.491,15.411],[-84.494,15.124],[-84.503,15.118],[-84.499,15.117],[-84.507,15.111],[-84.503,15.109],[-84.515,15.102],[-84.519,15.094],[-84.526,15.094],[-84.531,15.084],[-84.534,15.088],[-84.543,15.083],[-84.542,15.079],[-84.547,15.082],[-84.554,15.078],[-84.566,15.08],[-84.571,15.068],[-84.589,15.064],[-84.591,15.06],[-84.602,15.072],[-84.61,15.069],[-84.611,15.065],[-84.619,15.065],[-84.623,15.071],[-84.625,15.067],[-84.633,15.067],[-84.639,15.062],[-84.65,15.067],[-84.66,15.062],[-84.659,15.055],[-84.654,15.053],[-84.655,15.018],[-84.663,15.015],[-84.661,15.011],[-84.665,15.013],[-84.68,15.007],[-84.681,15.003],[-84.697,14.994],[-84.693,14.988],[-84.682,14.987],[-84.682,14.977],[-84.669,14.971],[-84.674,14.961],[-84.671,14.956],[-84.674,14.94],[-84.684,14.925],[-84.691,14.926],[-84.691,14.922],[-84.7,14.919],[-84.703,14.915],[-84.702,14.902],[-84.717,14.885],[-84.688,14.858],[-84.726,14.852],[-84.749,14.839],[-84.757,14.841],[-84.77,14.825],[-84.777,14.822],[-84.777,14.818],[-84.782,14.82],[-84.79,14.815],[-84.817,14.829],[-84.847,14.824],[-84.847,14.818],[-84.858,14.812],[-84.877,14.817],[-84.887,14.813],[-84.899,14.816],[-84.932,14.771],[-84.924,14.767],[-84.928,14.759],[-84.941,14.759],[-84.943,14.755],[-84.961,14.758],[-84.974,14.742],[-84.985,14.742],[-84.994,14.728],[-85.0,14.725],[-85.0,15.271],[-84.911,15.27],[-84.906,15.288],[-84.91,15.302],[-84.905,15.31],[-84.898,15.311],[-84.891,15.32],[-84.886,15.316],[-84.866,15.318],[-84.86,15.315],[-84.856,15.326],[-84.835,15.32],[-84.827,15.324],[-84.824,15.319],[-84.813,15.319],[-84.812,15.322],[-84.808,15.315],[-84.798,15.312],[-84.804,15.302],[-84.802,15.299],[-84.796,15.296],[-84.793,15.302],[-84.78,15.3],[-84.777,15.294],[-84.773,15.297],[-84.773,15.29],[-84.766,15.287],[-84.754,15.297],[-84.751,15.292],[-84.745,15.292],[-84.745,15.301],[-84.751,15.31],[-84.743,15.306],[-84.737,15.311],[-84.729,15.308],[-84.728,15.314],[-84.724,15.312],[-84.717,15.319]],[[-84.634,15.34],[-84.635,15.339],[-84.634,15.339],[-84.634,15.34]]],[[[-84.578,15.373],[-84.579,15.372],[-84.579,15.373],[-84.578,15.373]]],[[[-84.64,15.339],[-84.641,15.337],[-84.641,15.339],[-84.64,15.339]]],[[[-84.642,15.338],[-84.643,15.337],[-84.643,15.338],[-84.642,15.338]]],[[[-84.709,15.319],[-84.71,15.318],[-84.71,15.319],[-84.709,15.319]]]]}},{"type":"Feature","properties":{"cve_ent":"HN09","cve_mun":"006","cvegeo":"HN0906","nombre":"Villeda Morales"},"geometry":{"type":"Polygon","coordinates":[[[-83.387,15.25],[-83.354,15.2],[-83.34,15.15],[-83.319,15.106],[-83.288,15.069],[-83.259,15.047],[-83.224,15.028],[-83.179,15.013],[-83.136,15.008],[-83.136,15.001],[-83.172,14.992],[-83.202,14.999],[-83.234,14.983],[-83.256,14.991],[-83.283,14.989],[-83.281,14.979],[-83.289,14.977],[-83.294,14.987],[-83.276,14.999],[-83.276,15.006],[-83.303,15.0],[-83.345,15.011],[-83.349,15.009],[-83.348,14.996],[-83.351,14.996],[-83.36,15.005],[-83.362,15.016],[-83.384,15.016],[-83.403,15.031],[-83.408,15.025],[-83.401,15.017],[-83.407,15.01],[-83.407,15.0],[-83.415,15.005],[-83.422,14.991],[-83.43,14.996],[-83.44,14.996],[-83.45,14.985],[-83.46,14.982],[-83.466,14.983],[-83.472,14.991],[-83.481,14.992],[-83.479,15.006],[-83.494,15.012],[-83.504,15.011],[-83.515,15.001],[-83.516,14.992],[-83.528,14.995],[-83.53,14.989],[-83.524,14.981],[-83.525,14.976],[-83.531,14.975],[-83.537,14.982],[-83.542,14.979],[-83.54,14.964],[-83.53,14.951],[-83.539,14.95],[-83.549,14.958],[-83.547,14.948],[-83.539,14.943],[-83.543,14.939],[-83.553,14.941],[-83.552,15.036],[-83.555,15.041],[-83.551,15.047],[-83.555,15.057],[-83.548,15.084],[-83.557,15.092],[-83.552,15.105],[-83.536,15.103],[-83.532,15.106],[-83.537,15.113],[-83.549,15.111],[-83.552,15.115],[-83.546,15.123],[-83.528,15.123],[-83.512,15.113],[-83.504,15.116],[-83.49,15.142],[-83.496,15.163],[-83.485,15.172],[-83.48,15.185],[-83.465,15.185],[-83.455,15.192],[-83.444,15.192],[-83.442,15.213],[-83.435,15.226],[-83.395,15.231],[-83.387,15.239],[-83.387,15.25]]]}}]}