{"type":"FeatureCollection","features":[{"type":"Feature","properties":{"cve_ent":"HN10","cve_mun":"001","cvegeo":"HN1001","nombre":"La Esperanza"},"geometry":{"type":"MultiPolygon","coordinates":[[[[-88.218,14.306],[-88.216,14.314],[-88.204,14.311],[-88.205,14.305],[-88.192,14.304],[-88.186,14.311],[-88.177,14.313],[-88.174,14.308],[-88.149,14.31],[-88.141,14.314],[-88.131,14.312],[-88.126,14.306],[-88.118,14.307],[-88.108,14.296],[-88.093,14.293],[-88.086,14.283],[-88.079,14.282],[-88.07,14.273],[-88.071,14.265],[-88.059,14.257],[-88.056,14.25],[-88.107,14.212],[-88.107,14.194],[-88.118,14.185],[-88.119,14.173],[-88.133,14.17],[-88.132,14.165],[-88.154,14.16],[-88.158,14.17],[-88.165,14.172],[-88.163,14.183],[-88.167,14.187],[-88.154,14.208],[-88.161,14.222],[-88.164,14.248],[-88.176,14.256],[-88.218,14.306]]],[[[-88.256,14.63],[-88.254,14.644],[-88.233,14.654],[-88.193,14.657],[-88.218,14.622],[-88.232,14.63],[-88.243,14.631],[-88.253,14.627],[-88.256,14.63]]]]}},{"type":"Feature","properties":{"cve_ent":"HN10","cve_mun":"002","cvegeo":"HN1002","nombre":"Camasca"},"geometry":{"type":"Polygon","coordinates":[[[-88.441,14.003],[-88.435,14.02],[-88.427,14.019],[-88.404,14.032],[-88.403,14.036],[-88.383,14.039],[-88.382,14.045],[-88.376,14.046],[-88.365,14.014],[-88.341,13.993],[-88.334,13.9956],[-88.338,13.989],[-88.333,13.981],[-88.339,13.972],[-88.339,13.963],[-88.354,13.957],[-88.367,13.973],[-88.378,13.972],[-88.378,13.964],[-88.419,13.968],[-88.432,13.973],[-88.427,13.978],[-88.428,13.984],[-88.441,14.003]]]}},{"type":"Feature","properties":{"cve_ent":"HN10","cve_mun":"003","cvegeo":"HN1003","nombre":"Colomoncagua"},"geometry":{"type":"Polygon","coordinates":[[[-88.29,13.915],[-88.317,13.899],[-88.316,13.891],[-88.346,13.895],[-88.35,13.89],[-88.355,13.896],[-88.357,13.917],[-88.35,13.919],[-88.347,13.931],[-88.355,13.957],[-88.339,13.963],[-88.339,13.972],[-88.333,13.981],[-88.338,13.991],[-88.332,14.001],[-88.303,14.013],[-88.261,14.022],[-88.267,14.031],[-88.271,14.031],[-88.264,14.044],[-88.271,14.052],[-88.273,14.047],[-88.282,14.044],[-88.285,14.053],[-88.281,14.061],[-88.272,14.062],[-88.262,14.074],[-88.255,14.074],[-88.248,14.088],[-88.238,14.087],[-88.229,14.067],[-88.223,14.067],[-88.225,14.063],[-88.216,14.063],[-88.205,14.051],[-88.217,13.994],[-88.226,14.0],[-88.238,13.995],[-88.238,13.99],[-88.234,13.99],[-88.236,13.971],[-88.22,13.956],[-88.22,13.952],[-88.227,13.938],[-88.265,13.938],[-88.263,13.927],[-88.266,13.924],[-88.262,13.919],[-88.268,13.913],[-88.272,13.915],[-88.281,13.91],[-88.29,13.915]]]}},{"type":"Feature","properties":{"cve_ent":"HN10","cve_mun":"004","cvegeo":"HN1004","nombre":"Concepción"},"geometry":{"type":"Polygon","coordinates":[[[-88.376,14.045],[-88.372,14.052],[-88.364,14.054],[-88.351,14.075],[-88.327,14.079],[-88.333,14.097],[-88.327,14.106],[-88.318,14.107],[-88.281,14.095],[-88.271,14.063],[-88.282,14.06],[-88.285,14.047],[-88.281,14.044],[-88.27,14.051],[-88.264,14.043],[-88.271,14.031],[-88.267,14.031],[-88.261,14.022],[-88.303,14.013],[-88.332,14.001],[-88.333,13.996],[-88.341,13.993],[-88.365,14.014],[-88.376,14.045]]]}},{"type":"Feature","properties":{"cve_ent":"HN10","cve_mun":"005","cvegeo":"HN1005","nombre":"Dolores"},"geometry":{"type":"Polygon","coordinates":[[[-88.406,14.243],[-88.424,14.249],[-88.425,14.258],[-88.409,14.281],[-88.387,14.294],[-88.344,14.297],[-88.342,14.289],[-88.337,14.288],[-88.312,14.296],[-88.295,14.281],[-88.305,14.257],[-88.305,14.248],[-88.316,14.23],[-88.336,14.226],[-88.369,14.232],[-88.384,14.229],[-88.389,14.235],[-88.397,14.234],[-88.406,14.243]]]}},{"type":"Feature","properties":{"cve_ent":"HN10","cve_mun":"006","cvegeo":"HN1006","nombre":"Intibucá"},"geometry":{"type":"MultiPolygon","coordinates":[[[[-88.249,14.419],[-88.246,14.439],[-88.252,14.448],[-88.254,14.47],[-88.246,14.474],[-88.246,14.483],[-88.24,14.485],[-88.243,14.499],[-88.239,14.515],[-88.252,14.522],[-88.249,14.534],[-88.243,14.535],[-88.237,14.546],[-88.219,14.562],[-88.222,14.566],[-88.218,14.6],[-88.211,14.595],[-88.201,14.598],[-88.19,14.604],[-88.184,14.613],[-88.215,14.625],[-88.211,14.635],[-88.205,14.637],[-88.206,14.641],[-88.201,14.643],[-88.193,14.657],[-88.163,14.659],[-88.129,14.65],[-88.136,14.642],[-88.129,14.635],[-88.13,14.627],[-88.145,14.617],[-88.158,14.614],[-88.163,14.602],[-88.15,14.567],[-88.156,14.562],[-88.152,14.554],[-88.149,14.517],[-88.142,14.504],[-88.128,14.518],[-88.116,14.443],[-88.065,14.43],[-88.053,14.423],[-88.067,14.406],[-88.057,14.379],[-88.059,14.37],[-88.054,14.366],[-88.054,14.358],[-88.059,14.357],[-88.062,14.344],[-88.069,14.339],[-88.042,14.32],[-88.042,14.312],[-88.032,14.302],[-88.023,14.278],[-88.015,14.272],[-88.006,14.274],[-88.006,14.256],[-88.045,14.254],[-88.057,14.25],[-88.057,14.255],[-88.071,14.265],[-88.07,14.273],[-88.079,14.282],[-88.086,14.283],[-88.093,14.293],[-88.108,14.296],[-88.118,14.307],[-88.126,14.306],[-88.131,14.312],[-88.141,14.314],[-88.149,14.31],[-88.174,14.308],[-88.177,14.313],[-88.186,14.311],[-88.191,14.304],[-88.205,14.305],[-88.204,14.311],[-88.216,14.314],[-88.206,14.344],[-88.223,14.353],[-88.221,14.384],[-88.243,14.406],[-88.249,14.419]]],[[[-88.052,14.423],[-88.053,14.424],[-88.052,14.424],[-88.052,14.423]]]]}},{"type":"Feature","properties":{"cve_ent":"HN10","cve_mun":"007","cvegeo":"HN1007","nombre":"Jesus de Otoro"},"geometry":{"type":"Polygon","coordinates":[[[-88.094,14.599],[-88.108,14.605],[-88.119,14.613],[-88.131,14.628],[-88.129,14.635],[-88.134,14.637],[-88.135,14.646],[-88.129,14.65],[-88.101,14.642],[-88.088,14.659],[-88.077,14.663],[-88.067,14.654],[-88.067,14.645],[-88.061,14.637],[-88.055,14.641],[-88.041,14.641],[-88.0,14.627],[-87.99,14.614],[-87.985,14.615],[-87.986,14.618],[-87.978,14.618],[-87.973,14.613],[-87.965,14.613],[-87.966,14.6],[-87.951,14.582],[-87.953,14.569],[-87.943,14.543],[-87.91,14.536],[-87.9,14.526],[-87.904,14.508],[-87.903,14.501],[-87.897,14.498],[-87.906,14.488],[-87.934,14.47],[-87.925,14.465],[-87.932,14.446],[-87.96,14.429],[-87.968,14.43],[-87.97,14.439],[-87.985,14.442],[-88.0,14.432],[-88.017,14.436],[-88.017,14.432],[-88.035,14.423],[-88.054,14.423],[-88.067,14.431],[-88.116,14.443],[-88.128,14.518],[-88.092,14.532],[-88.081,14.546],[-88.083,14.552],[-88.068,14.561],[-88.067,14.569],[-88.062,14.571],[-88.065,14.575],[-88.081,14.575],[-88.084,14.588],[-88.094,14.594],[-88.094,14.599]]]}},{"type":"Feature","properties":{"cve_ent":"HN10","cve_mun":"008","cvegeo":"HN1008","nombre":"Magdalena"},"geometry":{"type":"Polygon","coordinates":[[[-88.392,13.884],[-88.397,13.896],[-88.371,13.914],[-88.376,13.915],[-88.388,13.931],[-88.4,13.935],[-88.399,13.965],[-88.378,13.964],[-88.378,13.972],[-88.367,13.973],[-88.359,13.965],[-88.347,13.933],[-88.35,13.919],[-88.357,13.917],[-88.355,13.896],[-88.349,13.887],[-88.351,13.876],[-88.363,13.87],[-88.372,13.876],[-88.376,13.885],[-88.392,13.884]]]}},{"type":"Feature","properties":{"cve_ent":"HN10","cve_mun":"009","cvegeo":"HN1009","nombre":"Masaguara"},"geometry":{"type":"Polygon","coordinates":[[[-88.023,14.28],[-88.03,14.298],[-88.041,14.31],[-88.043,14.32],[-88.069,14.339],[-88.061,14.345],[-88.059,14.356],[-88.054,14.357],[-88.054,14.366],[-88.059,14.371],[-88.056,14.378],[-88.067,14.404],[-88.062,14.415],[-88.052,14.423],[-88.035,14.423],[-88.017,14.432],[-88.017,14.436],[-88.0,14.432],[-87.985,14.442],[-87.97,14.439],[-87.967,14.429],[-87.953,14.432],[-87.931,14.448],[-87.925,14.465],[-87.934,14.47],[-87.906,14.488],[-87.897,14.498],[-87.892,14.496],[-87.881,14.478],[-87.852,14.448],[-87.848,14.433],[-87.866,14.414],[-87.917,14.381],[-87.949,14.385],[-87.95,14.389],[-87.958,14.391],[-87.955,14.374],[-87.962,14.368],[-87.958,14.367],[-87.956,14.358],[-87.959,14.35],[-87.951,14.344],[-87.954,14.338],[-87.952,14.331],[-87.956,14.33],[-87.952,14.327],[-87.969,14.323],[-87.968,14.308],[-87.974,14.304],[-87.975,14.296],[-87.998,14.289],[-88.005,14.273],[-88.015,14.272],[-88.023,14.28]]]}},{"type":"Feature","properties":{"cve_ent":"HN10","cve_mun":"010","cvegeo":"HN1010","nombre":"San Antonio"},"geometry":{"type":"Polygon","coordinates":[[[-88.466,13.887],[-88.48,13.873],[-88.479,13.869],[-88.486,13.866],[-88.484,13.862],[-88.492,13.861],[-88.496,13.874],[-88.491,13.878],[-88.501,13.893],[-88.504,13.907],[-88.511,13.911],[-88.506,13.923],[-88.509,13.927],[-88.507,13.943],[-88.498,13.95],[-88.5,13.965],[-88.492,13.963],[-88.49,13.974],[-88.481,13.975],[-88.477,13.98],[-88.481,13.992],[-88.47,13.994],[-88.462,14.009],[-88.444,14.01],[-88.44,14.018],[-88.435,14.019],[-88.441,14.001],[-88.428,13.984],[-88.427,13.978],[-88.432,13.973],[-88.414,13.967],[-88.42,13.954],[-88.432,13.949],[-88.419,13.946],[-88.416,13.933],[-88.435,13.932],[-88.448,13.915],[-88.455,13.917],[-88.456,13.893],[-88.466,13.892],[-88.466,13.887]]]}},{"type":"Feature","properties":{"cve_ent":"HN10","cve_mun":"011","cvegeo":"HN1011","nombre":"San Isidro"},"geometry":{"type":"Polygon","coordinates":[[[-88.114,14.608],[-88.094,14.599],[-88.094,14.594],[-88.084,14.588],[-88.081,14.575],[-88.065,14.575],[-88.062,14.571],[-88.067,14.569],[-88.068,14.561],[-88.083,14.552],[-88.081,14.546],[-88.092,14.532],[-88.128,14.518],[-88.142,14.504],[-88.149,14.517],[-88.151,14.553],[-88.156,14.562],[-88.149,14.567],[-88.163,14.601],[-88.161,14.611],[-88.13,14.627],[-88.114,14.608]]]}},{"type":"Feature","properties":{"cve_ent":"HN10","cve_mun":"012","cvegeo":"HN1012","nombre":"San Juan"},"geometry":{"type":"Polygon","coordinates":[[[-88.503,14.434],[-88.498,14.451],[-88.503,14.453],[-88.464,14.476],[-88.445,14.479],[-88.431,14.473],[-88.385,14.475],[-88.375,14.48],[-88.359,14.466],[-88.369,14.45],[-88.334,14.428],[-88.343,14.406],[-88.351,14.402],[-88.362,14.387],[-88.39,14.375],[-88.384,14.373],[-88.388,14.368],[-88.382,14.362],[-88.384,14.357],[-88.419,14.353],[-88.423,14.348],[-88.43,14.365],[-88.443,14.367],[-88.45,14.362],[-88.489,14.39],[-88.5,14.407],[-88.495,14.408],[-88.495,14.415],[-88.501,14.423],[-88.499,14.43],[-88.503,14.434]]]}},{"type":"Feature","properties":{"cve_ent":"HN10","cve_mun":"013","cvegeo":"HN1013","nombre":"San Marcos de la Sierra"},"geometry":{"type":"Polygon","coordinates":[[[-88.165,14.183],[-88.165,14.172],[-88.158,14.17],[-88.154,14.159],[-88.171,14.142],[-88.185,14.136],[-88.197,14.112],[-88.203,14.111],[-88.205,14.102],[-88.218,14.097],[-88.224,14.084],[-88.227,14.088],[-88.231,14.085],[-88.248,14.088],[-88.255,14.074],[-88.262,14.074],[-88.271,14.065],[-88.281,14.095],[-88.318,14.106],[-88.317,14.12],[-88.321,14.122],[-88.324,14.139],[-88.32,14.144],[-88.319,14.158],[-88.33,14.166],[-88.329,14.169],[-88.285,14.178],[-88.193,14.174],[-88.165,14.183]]]}},{"type":"Feature","properties":{"cve_ent":"HN10","cve_mun":"014","cvegeo":"HN1014","nombre":"San Miguel guancapla"},"geometry":{"type":"Polygon","coordinates":[[[-88.342,14.29],[-88.344,14.297],[-88.379,14.296],[-88.409,14.281],[-88.423,14.348],[-88.419,14.353],[-88.384,14.357],[-88.382,14.362],[-88.388,14.365],[-88.384,14.373],[-88.39,14.375],[-88.362,14.387],[-88.339,14.412],[-88.334,14.429],[-88.369,14.45],[-88.359,14.466],[-88.295,14.424],[-88.259,14.392],[-88.267,14.379],[-88.285,14.384],[-88.304,14.365],[-88.312,14.364],[-88.309,14.355],[-88.294,14.346],[-88.287,14.334],[-88.329,14.291],[-88.342,14.29]]]}},{"type":"Feature","properties":{"cve_ent":"HN10","cve_mun":"015","cvegeo":"HN1015","nombre":"Santa Lucía"},"geometry":{"type":"Polygon","coordinates":[[[-88.48,13.873],[-88.466,13.887],[-88.466,13.892],[-88.456,13.893],[-88.455,13.917],[-88.448,13.915],[-88.435,13.932],[-88.416,13.933],[-88.419,13.946],[-88.432,13.95],[-88.42,13.954],[-88.415,13.968],[-88.401,13.968],[-88.397,13.959],[-88.398,13.947],[-88.402,13.945],[-88.4,13.935],[-88.388,13.931],[-88.376,13.915],[-88.371,13.914],[-88.397,13.896],[-88.391,13.883],[-88.414,13.879],[-88.419,13.886],[-88.424,13.879],[-88.432,13.879],[-88.439,13.86],[-88.449,13.865],[-88.451,13.86],[-88.466,13.863],[-88.466,13.85],[-88.469,13.849],[-88.472,13.855],[-88.486,13.861],[-88.486,13.866],[-88.479,13.869],[-88.48,13.873]]]}},{"type":"Feature","properties":{"cve_ent":"HN10","cve_mun":"016","cvegeo":"HN1016","nombre":"Yamaranguila"},"geometry":{"type":"Polygon","coordinates":[[[-88.312,14.296],[-88.329,14.291],[-88.328,14.295],[-88.32,14.299],[-88.311,14.313],[-88.287,14.334],[-88.294,14.346],[-88.309,14.355],[-88.312,14.364],[-88.304,14.365],[-88.285,14.384],[-88.267,14.379],[-88.26,14.392],[-88.225,14.388],[-88.221,14.384],[-88.223,14.353],[-88.206,14.344],[-88.218,14.306],[-88.162,14.243],[-88.161,14.222],[-88.154,14.208],[-88.166,14.193],[-88.164,14.183],[-88.193,14.174],[-88.285,14.178],[-88.329,14.169],[-88.334,14.179],[-88.321,14.212],[-88.333,14.227],[-88.316,14.23],[-88.305,14.248],[-88.305,14.257],[-88.295,14.281],[-88.312,14.296]]]}},{"type":"Feature","properties":{"cve_ent":"HN10","cve_mun":"017","cvegeo":"HN1017","nombre":"San Francisco de Opalaca"},"geometry":{"type":"Polygon","coordinates":[[[-88.348,14.653],[-88.254,14.644],[-88.252,14.635],[-88.256,14.63],[-88.253,14.627],[-88.243,14.631],[-88.232,14.63],[-88.222,14.622],[-88.214,14.626],[-88.199,14.617],[-88.184,14.614],[-88.192,14.602],[-88.2,14.598],[-88.211,14.595],[-88.217,14.599],[-88.22,14.593],[-88.219,14.562],[-88.237,14.546],[-88.243,14.535],[-88.249,14.533],[-88.252,14.523],[-88.238,14.514],[-88.242,14.499],[-88.239,14.485],[-88.246,14.482],[-88.246,14.473],[-88.254,14.47],[-88.251,14.446],[-88.246,14.439],[-88.249,14.419],[-88.244,14.407],[-88.225,14.388],[-88.259,14.391],[-88.295,14.424],[-88.375,14.48],[-88.345,14.507],[-88.343,14.518],[-88.349,14.53],[-88.323,14.568],[-88.33,14.623],[-88.348,14.653]]]}}]}