{"type":"FeatureCollection","features":[{"type":"Feature","properties":{"cve_ent":"HN11","cve_mun":"001","cvegeo":"HN1101","nombre":"Roatán"},"geometry":{"type":"MultiPolygon","coordinates":[[[[-86.59,16.315],[-86.583,16.314],[-86.584,16.319],[-86.544,16.347],[-86.538,16.346],[-86.537,16.35],[-86.526,16.354],[-86.519,16.349],[-86.517,16.358],[-86.512,16.359],[-86.515,16.354],[-86.506,16.356],[-86.496,16.362],[-86.496,16.367],[-86.486,16.365],[-86.463,16.379],[-86.451,16.375],[-86.434,16.384],[-86.435,16.361],[-86.454,16.355],[-86.452,16.35],[-86.458,16.348],[-86.461,16.353],[-86.475,16.34],[-86.475,16.334],[-86.478,16.335],[-86.476,16.337],[-86.486,16.336],[-86.482,16.332],[-86.486,16.323],[-86.496,16.321],[-86.499,16.33],[-86.507,16.32],[-86.513,16.322],[-86.527,16.314],[-86.548,16.315],[-86.565,16.295],[-86.602,16.267],[-86.594,16.296],[-86.595,16.31],[-86.592,16.312],[-86.589,16.308],[-86.59,16.315]],[[-86.486,16.332],[-86.487,16.333],[-86.487,16.332],[-86.486,16.332]],[[-86.495,16.322],[-86.494,16.323],[-86.495,16.323],[-86.495,16.322]]],[[[-86.438,16.359],[-86.436,16.357],[-86.438,16.357],[-86.438,16.359]]],[[[-86.442,16.353],[-86.443,16.352],[-86.443,16.353],[-86.442,16.353]]],[[[-86.445,16.35],[-86.444,16.352],[-86.444,16.35],[-86.445,16.35]]],[[[-86.462,16.346],[-86.464,16.347],[-86.462,16.348],[-86.462,16.346]]],[[[-86.465,15.958],[-86.466,15.959],[-86.465,15.959],[-86.465,15.958]]],[[[-86.464,15.959],[-86.465,15.96],[-86.464,15.96],[-86.464,15.959]]],[[[-86.466,15.956],[-86.467,15.957],[-86.466,15.957],[-86.466,15.956]]],[[[-86.469,16.339],[-86.471,16.341],[-86.468,16.343],[-86.469,16.339]]],[[[-86.486,15.976],[-86.479,15.977],[-86.479,15.981],[-86.471,15.979],[-86.473,15.966],[-86.477,15.964],[-86.486,15.976]]],[[[-86.472,15.96],[-86.473,15.962],[-86.472,15.962],[-86.472,15.96]]],[[[-86.475,15.952],[-86.476,15.953],[-86.475,15.953],[-86.475,15.952]]],[[[-86.477,15.948],[-86.478,15.949],[-86.477,15.949],[-86.477,15.948]]],[[[-86.479,15.945],[-86.479,15.946],[-86.478,15.946],[-86.479,15.945]]],[[[-86.507,15.956],[-86.502,15.958],[-86.498,15.965],[-86.498,15.953],[-86.507,15.956]]],[[[-86.519,15.952],[-86.517,15.953],[-86.517,15.952],[-86.519,15.952]]],[[[-86.536,16.31],[-86.537,16.313],[-86.536,16.313],[-86.536,16.31]]]]}},{"type":"Feature","properties":{"cve_ent":"HN11","cve_mun":"002","cvegeo":"HN1102","nombre":"Guanaja"},"geometry":{"type":"MultiPolygon","coordinates":[[[[-85.951,16.403],[-85.944,16.422],[-85.938,16.428],[-85.939,16.436],[-85.931,16.454],[-85.924,16.456],[-85.915,16.452],[-85.914,16.469],[-85.906,16.481],[-85.898,16.484],[-85.888,16.501],[-85.876,16.505],[-85.868,16.5],[-85.867,16.51],[-85.857,16.517],[-85.842,16.514],[-85.841,16.51],[-85.848,16.506],[-85.831,16.503],[-85.822,16.509],[-85.823,16.502],[-85.816,16.499],[-85.819,16.492],[-85.84,16.484],[-85.853,16.486],[-85.849,16.482],[-85.848,16.468],[-85.858,16.454],[-85.865,16.453],[-85.873,16.458],[-85.891,16.449],[-85.892,16.444],[-85.904,16.443],[-85.897,16.438],[-85.916,16.428],[-85.92,16.421],[-85.929,16.419],[-85.933,16.411],[-85.951,16.403]]],[[[-85.906,16.482],[-85.907,16.481],[-85.907,16.482],[-85.906,16.482]]],[[[-85.867,16.453],[-85.865,16.452],[-85.867,16.452],[-85.867,16.453]]],[[[-85.821,16.481],[-85.822,16.48],[-85.822,16.481],[-85.821,16.481]]],[[[-85.824,16.47],[-85.825,16.472],[-85.824,16.472],[-85.824,16.47]]],[[[-85.826,16.467],[-85.828,16.468],[-85.826,16.469],[-85.826,16.467]]],[[[-85.829,16.459],[-85.83,16.46],[-85.829,16.46],[-85.829,16.459]]],[[[-85.839,16.448],[-85.84,16.449],[-85.839,16.449],[-85.839,16.448]]],[[[-85.849,16.44],[-85.851,16.441],[-85.849,16.441],[-85.849,16.44]]],[[[-85.848,16.441],[-85.849,16.443],[-85.848,16.443],[-85.848,16.441]]],[[[-85.884,16.404],[-85.884,16.408],[-85.881,16.408],[-85.884,16.404]]],[[[-85.886,16.443],[-85.888,16.441],[-85.889,16.443],[-85.886,16.443]]]]}},{"type":"Feature","properties":{"cve_ent":"HN11","cve_mun":"003","cvegeo":"HN1103","nombre":"José Santos Guardiola"},"geometry":{"type":"MultiPolygon","coordinates":[[[[-86.148,16.436],[-86.168,16.429],[-86.167,16.434],[-86.157,16.443],[-86.145,16.447],[-86.122,16.446],[-86.14,16.43],[-86.148,16.436]]],[[[-86.185,16.428],[-86.191,16.428],[-86.187,16.436],[-86.183,16.434],[-86.185,16.428]]],[[[-86.433,16.36],[-86.434,16.384],[-86.428,16.39],[-86.42,16.39],[-86.416,16.395],[-86.407,16.396],[-86.405,16.4],[-86.408,16.401],[-86.4,16.405],[-86.393,16.403],[-86.39,16.408],[-86.379,16.409],[-86.352,16.422],[-86.347,16.418],[-86.315,16.429],[-86.285,16.431],[-86.271,16.431],[-86.26,16.425],[-86.243,16.428],[-86.222,16.425],[-86.197,16.431],[-86.191,16.426],[-86.192,16.422],[-86.204,16.424],[-86.224,16.409],[-86.227,16.409],[-86.231,16.42],[-86.236,16.421],[-86.259,16.418],[-86.262,16.412],[-86.261,16.42],[-86.269,16.42],[-86.275,16.41],[-86.297,16.415],[-86.299,16.407],[-86.318,16.404],[-86.318,16.397],[-86.323,16.393],[-86.336,16.394],[-86.338,16.409],[-86.341,16.403],[-86.337,16.392],[-86.341,16.396],[-86.351,16.392],[-86.354,16.398],[-86.354,16.391],[-86.363,16.387],[-86.366,16.396],[-86.366,16.39],[-86.373,16.386],[-86.375,16.393],[-86.376,16.39],[-86.38,16.393],[-86.385,16.389],[-86.377,16.387],[-86.375,16.382],[-86.382,16.378],[-86.387,16.385],[-86.386,16.375],[-86.39,16.368],[-86.403,16.371],[-86.4,16.367],[-86.41,16.366],[-86.411,16.37],[-86.415,16.36],[-86.419,16.361],[-86.417,16.369],[-86.42,16.37],[-86.42,16.359],[-86.433,16.36]],[[-86.224,16.424],[-86.225,16.425],[-86.225,16.424],[-86.224,16.424]],[[-86.261,16.421],[-86.26,16.42],[-86.26,16.421],[-86.261,16.421]],[[-86.354,16.398],[-86.354,16.399],[-86.355,16.399],[-86.354,16.398]],[[-86.224,16.42],[-86.226,16.421],[-86.226,16.42],[-86.224,16.42]]],[[[-86.373,16.383],[-86.371,16.386],[-86.371,16.383],[-86.373,16.383]]],[[[-86.358,16.387],[-86.357,16.388],[-86.357,16.387],[-86.358,16.387]]],[[[-86.355,16.388],[-86.356,16.389],[-86.355,16.389],[-86.355,16.388]]],[[[-86.351,16.392],[-86.351,16.391],[-86.352,16.391],[-86.351,16.392]]],[[[-86.351,16.39],[-86.348,16.391],[-86.348,16.39],[-86.351,16.39]]],[[[-86.347,16.391],[-86.348,16.392],[-86.347,16.392],[-86.347,16.391]]],[[[-86.275,16.409],[-86.272,16.41],[-86.272,16.408],[-86.275,16.409]]],[[[-86.315,16.43],[-86.316,16.429],[-86.316,16.43],[-86.315,16.43]]],[[[-86.206,16.412],[-86.203,16.417],[-86.201,16.413],[-86.206,16.412]]],[[[-86.286,16.402],[-86.282,16.405],[-86.281,16.403],[-86.286,16.402]]],[[[-86.288,16.406],[-86.289,16.404],[-86.289,16.406],[-86.288,16.406]]]]}},{"type":"Feature","properties":{"cve_ent":"HN11","cve_mun":"004","cvegeo":"HN1104","nombre":"Utila"},"geometry":{"type":"MultiPolygon","coordinates":[[[[-86.977,16.102],[-86.972,16.101],[-86.971,16.105],[-86.958,16.109],[-86.953,16.105],[-86.946,16.107],[-86.942,16.11],[-86.944,16.116],[-86.935,16.123],[-86.91,16.115],[-86.9,16.123],[-86.883,16.124],[-86.875,16.121],[-86.871,16.113],[-86.883,16.102],[-86.882,16.092],[-86.888,16.087],[-86.894,16.087],[-86.888,16.089],[-86.893,16.096],[-86.902,16.097],[-86.909,16.089],[-86.913,16.089],[-86.909,16.091],[-86.911,16.094],[-86.923,16.088],[-86.915,16.087],[-86.914,16.09],[-86.916,16.083],[-86.943,16.076],[-86.954,16.069],[-86.967,16.069],[-86.971,16.077],[-86.991,16.082],[-86.99,16.092],[-86.977,16.102]],[[-86.911,16.094],[-86.905,16.095],[-86.904,16.097],[-86.913,16.099],[-86.911,16.094]]],[[[-86.962,16.065],[-86.963,16.066],[-86.962,16.066],[-86.962,16.065]]],[[[-86.964,16.065],[-86.965,16.063],[-86.966,16.065],[-86.964,16.065]]],[[[-86.967,16.063],[-86.969,16.064],[-86.967,16.064],[-86.967,16.063]]],[[[-86.973,16.062],[-86.974,16.061],[-86.974,16.062],[-86.973,16.062]]],[[[-86.975,16.059],[-86.977,16.06],[-86.975,16.06],[-86.975,16.059]]],[[[-86.978,16.056],[-86.98,16.055],[-86.98,16.056],[-86.978,16.056]]]]}}]}