{"type":"FeatureCollection","features":[{"type":"Feature","properties":{"cve_ent":"HN12","cve_mun":"001","cvegeo":"HN1201","nombre":"La Paz"},"geometry":{"type":"Polygon","coordinates":[[[-87.843,14.295],[-87.864,14.297],[-87.87,14.3],[-87.87,14.304],[-87.856,14.309],[-87.84,14.333],[-87.824,14.342],[-87.805,14.364],[-87.789,14.392],[-87.783,14.374],[-87.754,14.372],[-87.732,14.359],[-87.713,14.356],[-87.701,14.347],[-87.658,14.373],[-87.649,14.368],[-87.646,14.372],[-87.647,14.362],[-87.637,14.354],[-87.641,14.349],[-87.639,14.342],[-87.635,14.341],[-87.64,14.333],[-87.638,14.324],[-87.635,14.324],[-87.637,14.317],[-87.626,14.314],[-87.629,14.307],[-87.68,14.31],[-87.692,14.293],[-87.729,14.288],[-87.754,14.272],[-87.748,14.262],[-87.724,14.258],[-87.715,14.258],[-87.713,14.266],[-87.701,14.27],[-87.678,14.267],[-87.689,14.257],[-87.694,14.257],[-87.694,14.253],[-87.701,14.25],[-87.714,14.253],[-87.717,14.249],[-87.722,14.251],[-87.724,14.247],[-87.734,14.247],[-87.74,14.237],[-87.755,14.24],[-87.763,14.235],[-87.776,14.235],[-87.781,14.244],[-87.816,14.229],[-87.827,14.245],[-87.82,14.254],[-87.828,14.258],[-87.826,14.266],[-87.832,14.266],[-87.829,14.275],[-87.833,14.28],[-87.832,14.286],[-87.843,14.295]]]}},{"type":"Feature","properties":{"cve_ent":"HN12","cve_mun":"002","cvegeo":"HN1202","nombre":"Aguanqueterique"},"geometry":{"type":"Polygon","coordinates":[[[-87.689,14.047],[-87.677,14.06],[-87.661,14.071],[-87.654,14.085],[-87.643,14.089],[-87.615,14.088],[-87.604,14.034],[-87.605,14.001],[-87.592,13.981],[-87.599,13.972],[-87.591,13.966],[-87.6,13.945],[-87.598,13.928],[-87.604,13.911],[-87.602,13.897],[-87.615,13.891],[-87.616,13.876],[-87.636,13.885],[-87.646,13.885],[-87.65,13.89],[-87.671,13.891],[-87.673,13.896],[-87.668,13.908],[-87.682,13.917],[-87.677,13.918],[-87.677,13.936],[-87.685,13.939],[-87.68,13.95],[-87.687,13.951],[-87.697,13.964],[-87.697,13.981],[-87.7,13.984],[-87.693,13.992],[-87.692,14.014],[-87.685,14.02],[-87.689,14.047]]]}},{"type":"Feature","properties":{"cve_ent":"HN12","cve_mun":"003","cvegeo":"HN1203","nombre":"Cabañas"},"geometry":{"type":"Polygon","coordinates":[[[-88.08,13.994],[-88.073,14.012],[-88.073,14.02],[-88.056,14.041],[-88.054,14.054],[-88.046,14.059],[-88.032,14.056],[-88.012,14.073],[-88.006,14.085],[-87.994,14.09],[-87.995,14.069],[-88.01,14.069],[-88.013,14.063],[-88.009,14.056],[-87.998,14.054],[-87.983,14.061],[-87.972,14.048],[-87.974,14.037],[-87.97,14.027],[-87.996,14.025],[-87.998,14.015],[-87.994,14.008],[-87.984,14.004],[-87.991,14.001],[-87.99,13.997],[-87.97,13.997],[-87.961,13.992],[-87.958,13.981],[-87.947,13.972],[-87.95,13.969],[-87.949,13.957],[-87.954,13.958],[-87.953,13.956],[-87.954,13.948],[-87.975,13.962],[-87.987,13.958],[-87.977,13.927],[-87.989,13.921],[-88.02,13.921],[-88.02,13.915],[-88.029,13.903],[-88.033,13.914],[-88.044,13.923],[-88.046,13.933],[-88.057,13.943],[-88.064,13.944],[-88.065,13.963],[-88.073,13.975],[-88.073,13.993],[-88.08,13.994]]]}},{"type":"Feature","properties":{"cve_ent":"HN12","cve_mun":"004","cvegeo":"HN1204","nombre":"Cane"},"geometry":{"type":"Polygon","coordinates":[[[-87.67,14.262],[-87.678,14.258],[-87.678,14.267],[-87.692,14.271],[-87.711,14.267],[-87.715,14.258],[-87.724,14.258],[-87.748,14.262],[-87.754,14.272],[-87.729,14.288],[-87.692,14.293],[-87.68,14.31],[-87.633,14.308],[-87.635,14.304],[-87.63,14.303],[-87.625,14.284],[-87.629,14.287],[-87.629,14.281],[-87.635,14.276],[-87.641,14.279],[-87.636,14.271],[-87.643,14.264],[-87.65,14.262],[-87.655,14.269],[-87.657,14.263],[-87.663,14.267],[-87.668,14.257],[-87.67,14.262]]]}},{"type":"Feature","properties":{"cve_ent":"HN12","cve_mun":"005","cvegeo":"HN1205","nombre":"Chinacla"},"geometry":{"type":"Polygon","coordinates":[[[-88.009,14.215],[-88.014,14.23],[-88.011,14.232],[-88.005,14.225],[-88.001,14.227],[-87.999,14.223],[-87.992,14.223],[-87.986,14.218],[-87.984,14.202],[-87.961,14.206],[-87.954,14.203],[-87.919,14.205],[-87.91,14.198],[-87.899,14.198],[-87.894,14.204],[-87.88,14.188],[-87.881,14.178],[-87.896,14.178],[-87.906,14.185],[-87.921,14.176],[-87.923,14.168],[-87.933,14.163],[-87.943,14.133],[-87.95,14.137],[-87.952,14.165],[-87.977,14.167],[-87.98,14.149],[-87.994,14.156],[-88.013,14.197],[-88.015,14.207],[-88.014,14.213],[-88.009,14.215]]]}},{"type":"Feature","properties":{"cve_ent":"HN12","cve_mun":"006","cvegeo":"HN1206","nombre":"Guajiquiro"},"geometry":{"type":"Polygon","coordinates":[[[-87.826,14.213],[-87.825,14.2],[-87.788,14.19],[-87.769,14.163],[-87.785,14.153],[-87.786,14.138],[-87.738,14.131],[-87.714,14.095],[-87.697,14.104],[-87.689,14.09],[-87.687,14.082],[-87.691,14.076],[-87.689,14.067],[-87.692,14.066],[-87.687,14.054],[-87.691,14.052],[-87.685,14.034],[-87.688,14.031],[-87.685,14.02],[-87.692,14.014],[-87.69,14.008],[-87.694,14.004],[-87.693,13.992],[-87.697,13.987],[-87.782,13.973],[-87.8,13.986],[-87.813,13.979],[-87.829,14.005],[-87.837,14.03],[-87.858,14.036],[-87.868,14.046],[-87.859,14.079],[-87.853,14.087],[-87.857,14.094],[-87.854,14.11],[-87.861,14.127],[-87.873,14.127],[-87.873,14.147],[-87.88,14.156],[-87.884,14.174],[-87.88,14.188],[-87.856,14.198],[-87.84,14.197],[-87.826,14.213]]]}},{"type":"Feature","properties":{"cve_ent":"HN12","cve_mun":"007","cvegeo":"HN1207","nombre":"Lauterique"},"geometry":{"type":"Polygon","coordinates":[[[-87.66,13.889],[-87.65,13.89],[-87.646,13.885],[-87.633,13.884],[-87.615,13.873],[-87.626,13.852],[-87.639,13.844],[-87.645,13.83],[-87.669,13.834],[-87.68,13.846],[-87.689,13.848],[-87.693,13.853],[-87.686,13.862],[-87.687,13.87],[-87.679,13.875],[-87.682,13.878],[-87.681,13.891],[-87.676,13.891],[-87.673,13.886],[-87.669,13.886],[-87.666,13.893],[-87.66,13.889]]]}},{"type":"Feature","properties":{"cve_ent":"HN12","cve_mun":"008","cvegeo":"HN1208","nombre":"Marcala"},"geometry":{"type":"Polygon","coordinates":[[[-88.108,14.193],[-88.107,14.212],[-88.056,14.251],[-88.008,14.254],[-88.014,14.231],[-88.009,14.215],[-88.014,14.213],[-88.015,14.206],[-87.994,14.156],[-87.98,14.149],[-87.977,14.167],[-87.952,14.165],[-87.95,14.137],[-87.943,14.133],[-87.953,14.118],[-87.975,14.115],[-87.969,14.105],[-87.97,14.091],[-87.986,14.086],[-87.99,14.094],[-88.006,14.085],[-88.012,14.073],[-88.032,14.056],[-88.046,14.059],[-88.054,14.054],[-88.056,14.041],[-88.073,14.02],[-88.08,13.994],[-88.108,14.001],[-88.107,14.012],[-88.101,14.015],[-88.1,14.029],[-88.089,14.048],[-88.077,14.047],[-88.075,14.056],[-88.078,14.061],[-88.061,14.073],[-88.057,14.083],[-88.05,14.084],[-88.051,14.093],[-88.038,14.089],[-88.039,14.098],[-88.03,14.104],[-88.032,14.108],[-88.057,14.112],[-88.055,14.122],[-88.059,14.131],[-88.052,14.135],[-88.053,14.139],[-88.068,14.138],[-88.08,14.158],[-88.096,14.163],[-88.096,14.169],[-88.106,14.179],[-88.116,14.174],[-88.118,14.185],[-88.108,14.193]]]}},{"type":"Feature","properties":{"cve_ent":"HN12","cve_mun":"009","cvegeo":"HN1209","nombre":"Mercedes de Oriente"},"geometry":{"type":"Polygon","coordinates":[[[-87.796,13.963],[-87.801,13.974],[-87.808,13.979],[-87.804,13.986],[-87.787,13.977],[-87.782,13.961],[-87.772,13.95],[-87.768,13.921],[-87.753,13.909],[-87.756,13.89],[-87.75,13.889],[-87.751,13.875],[-87.762,13.867],[-87.771,13.876],[-87.785,13.878],[-87.786,13.884],[-87.8,13.893],[-87.795,13.901],[-87.8,13.92],[-87.798,13.925],[-87.804,13.933],[-87.797,13.939],[-87.796,13.963]]]}},{"type":"Feature","properties":{"cve_ent":"HN12","cve_mun":"010","cvegeo":"HN1210","nombre":"Opatoro"},"geometry":{"type":"Polygon","coordinates":[[[-87.934,14.161],[-87.921,14.176],[-87.906,14.185],[-87.896,14.178],[-87.881,14.178],[-87.884,14.168],[-87.873,14.147],[-87.873,14.127],[-87.861,14.127],[-87.854,14.11],[-87.857,14.094],[-87.853,14.087],[-87.859,14.079],[-87.868,14.046],[-87.858,14.036],[-87.837,14.03],[-87.819,13.986],[-87.801,13.974],[-87.796,13.963],[-87.797,13.939],[-87.804,13.933],[-87.798,13.925],[-87.797,13.912],[-87.803,13.921],[-87.831,13.919],[-87.842,13.907],[-87.844,13.898],[-87.856,13.894],[-87.864,13.899],[-87.87,13.896],[-87.881,13.903],[-87.887,13.902],[-87.878,13.907],[-87.879,13.915],[-87.874,13.921],[-87.879,13.926],[-87.897,13.924],[-87.897,13.936],[-87.907,13.952],[-87.878,13.968],[-87.884,13.98],[-87.897,13.991],[-87.897,13.997],[-87.916,14.002],[-87.927,14.011],[-87.914,14.025],[-87.907,14.04],[-87.916,14.051],[-87.91,14.067],[-87.92,14.073],[-87.924,14.084],[-87.95,14.113],[-87.95,14.124],[-87.942,14.134],[-87.934,14.161]]]}},{"type":"Feature","properties":{"cve_ent":"HN12","cve_mun":"011","cvegeo":"HN1211","nombre":"San Antonio del Norte"},"geometry":{"type":"Polygon","coordinates":[[[-87.708,13.926],[-87.693,13.939],[-87.678,13.938],[-87.677,13.918],[-87.682,13.917],[-87.668,13.908],[-87.673,13.896],[-87.668,13.887],[-87.681,13.891],[-87.682,13.878],[-87.679,13.875],[-87.687,13.87],[-87.686,13.862],[-87.693,13.856],[-87.689,13.848],[-87.705,13.852],[-87.731,13.848],[-87.745,13.841],[-87.748,13.858],[-87.762,13.866],[-87.751,13.875],[-87.75,13.889],[-87.756,13.89],[-87.752,13.906],[-87.756,13.913],[-87.767,13.919],[-87.77,13.931],[-87.765,13.934],[-87.755,13.925],[-87.731,13.933],[-87.708,13.926]]]}},{"type":"Feature","properties":{"cve_ent":"HN12","cve_mun":"012","cvegeo":"HN1212","nombre":"San José"},"geometry":{"type":"Polygon","coordinates":[[[-88.012,14.231],[-88.005,14.269],[-87.969,14.273],[-87.956,14.266],[-87.953,14.255],[-87.942,14.25],[-87.93,14.236],[-87.919,14.235],[-87.912,14.227],[-87.906,14.227],[-87.906,14.235],[-87.902,14.239],[-87.889,14.239],[-87.892,14.232],[-87.888,14.215],[-87.899,14.198],[-87.91,14.198],[-87.919,14.205],[-87.954,14.203],[-87.961,14.206],[-87.984,14.202],[-87.986,14.218],[-88.001,14.227],[-88.005,14.225],[-88.009,14.232],[-88.012,14.231]]]}},{"type":"Feature","properties":{"cve_ent":"HN12","cve_mun":"013","cvegeo":"HN1213","nombre":"San Juan"},"geometry":{"type":"Polygon","coordinates":[[[-87.734,13.932],[-87.755,13.925],[-87.765,13.934],[-87.77,13.931],[-87.772,13.95],[-87.782,13.961],[-87.786,13.974],[-87.758,13.975],[-87.741,13.978],[-87.74,13.981],[-87.701,13.988],[-87.697,13.987],[-87.7,13.984],[-87.697,13.981],[-87.698,13.966],[-87.687,13.951],[-87.68,13.95],[-87.684,13.938],[-87.698,13.937],[-87.708,13.926],[-87.734,13.932]]]}},{"type":"Feature","properties":{"cve_ent":"HN12","cve_mun":"014","cvegeo":"HN1214","nombre":"San Pedro Tutule"},"geometry":{"type":"Polygon","coordinates":[[[-87.863,14.297],[-87.842,14.295],[-87.832,14.286],[-87.833,14.28],[-87.829,14.276],[-87.832,14.266],[-87.826,14.266],[-87.828,14.258],[-87.82,14.254],[-87.821,14.249],[-87.827,14.246],[-87.821,14.233],[-87.833,14.223],[-87.826,14.213],[-87.84,14.197],[-87.845,14.196],[-87.86,14.215],[-87.869,14.219],[-87.881,14.232],[-87.879,14.245],[-87.882,14.255],[-87.866,14.274],[-87.87,14.281],[-87.863,14.297]]]}},{"type":"Feature","properties":{"cve_ent":"HN12","cve_mun":"015","cvegeo":"HN1215","nombre":"Santa Ana"},"geometry":{"type":"Polygon","coordinates":[[[-88.02,13.921],[-87.989,13.921],[-87.977,13.927],[-87.987,13.958],[-87.975,13.962],[-87.954,13.948],[-87.954,13.958],[-87.949,13.957],[-87.95,13.969],[-87.947,13.972],[-87.958,13.981],[-87.961,13.992],[-87.97,13.997],[-87.99,13.997],[-87.991,14.001],[-87.984,14.004],[-87.994,14.008],[-87.998,14.015],[-87.996,14.025],[-87.97,14.027],[-87.974,14.037],[-87.972,14.048],[-87.983,14.061],[-87.998,14.054],[-88.009,14.056],[-88.013,14.063],[-88.01,14.069],[-87.995,14.069],[-87.992,14.093],[-87.987,14.092],[-87.986,14.086],[-87.97,14.091],[-87.969,14.105],[-87.975,14.114],[-87.973,14.117],[-87.955,14.117],[-87.949,14.121],[-87.95,14.113],[-87.945,14.111],[-87.944,14.104],[-87.924,14.084],[-87.92,14.073],[-87.91,14.067],[-87.916,14.051],[-87.907,14.04],[-87.914,14.025],[-87.927,14.011],[-87.916,14.002],[-87.897,13.997],[-87.897,13.991],[-87.884,13.98],[-87.878,13.968],[-87.907,13.952],[-87.897,13.936],[-87.897,13.924],[-87.879,13.926],[-87.874,13.921],[-87.879,13.915],[-87.878,13.907],[-87.889,13.899],[-87.896,13.903],[-87.907,13.902],[-87.909,13.898],[-87.912,13.9],[-87.912,13.893],[-87.922,13.894],[-87.922,13.885],[-87.933,13.894],[-87.945,13.896],[-87.952,13.892],[-87.96,13.903],[-87.964,13.893],[-87.969,13.895],[-87.978,13.888],[-87.987,13.888],[-87.995,13.879],[-88.005,13.876],[-88.007,13.871],[-88.014,13.873],[-88.015,13.89],[-88.027,13.902],[-88.02,13.921]]]}},{"type":"Feature","properties":{"cve_ent":"HN12","cve_mun":"016","cvegeo":"HN1216","nombre":"Santa Elena"},"geometry":{"type":"Polygon","coordinates":[[[-88.158,14.153],[-88.145,14.147],[-88.13,14.132],[-88.112,14.125],[-88.094,14.107],[-88.104,14.098],[-88.099,14.09],[-88.093,14.089],[-88.095,14.076],[-88.091,14.066],[-88.124,14.027],[-88.122,14.013],[-88.115,14.008],[-88.118,13.997],[-88.135,13.99],[-88.147,13.992],[-88.159,13.984],[-88.173,13.985],[-88.18,13.992],[-88.188,13.99],[-88.197,13.997],[-88.217,13.994],[-88.205,14.051],[-88.216,14.063],[-88.225,14.063],[-88.223,14.067],[-88.229,14.067],[-88.236,14.085],[-88.227,14.088],[-88.224,14.084],[-88.218,14.097],[-88.205,14.102],[-88.203,14.111],[-88.197,14.112],[-88.185,14.136],[-88.158,14.153]]]}},{"type":"Feature","properties":{"cve_ent":"HN12","cve_mun":"017","cvegeo":"HN1217","nombre":"Santa Maria"},"geometry":{"type":"Polygon","coordinates":[[[-88.006,14.273],[-87.998,14.289],[-87.975,14.296],[-87.974,14.304],[-87.968,14.308],[-87.969,14.323],[-87.961,14.323],[-87.957,14.327],[-87.891,14.314],[-87.889,14.308],[-87.876,14.307],[-87.875,14.281],[-87.878,14.273],[-87.868,14.271],[-87.875,14.267],[-87.875,14.261],[-87.882,14.255],[-87.879,14.245],[-87.881,14.232],[-87.869,14.219],[-87.86,14.215],[-87.848,14.199],[-87.88,14.188],[-87.894,14.204],[-87.888,14.215],[-87.892,14.232],[-87.889,14.239],[-87.902,14.239],[-87.906,14.235],[-87.906,14.227],[-87.912,14.227],[-87.919,14.235],[-87.93,14.236],[-87.942,14.25],[-87.953,14.255],[-87.956,14.266],[-87.969,14.273],[-88.001,14.269],[-88.006,14.273]]]}},{"type":"Feature","properties":{"cve_ent":"HN12","cve_mun":"018","cvegeo":"HN1218","nombre":"Santiago Puringla"},"geometry":{"type":"Polygon","coordinates":[[[-87.958,14.391],[-87.949,14.385],[-87.917,14.381],[-87.866,14.414],[-87.855,14.427],[-87.848,14.421],[-87.836,14.395],[-87.789,14.392],[-87.805,14.364],[-87.824,14.342],[-87.84,14.333],[-87.856,14.309],[-87.869,14.306],[-87.87,14.3],[-87.863,14.297],[-87.87,14.281],[-87.866,14.275],[-87.869,14.272],[-87.878,14.273],[-87.875,14.281],[-87.876,14.307],[-87.889,14.308],[-87.891,14.314],[-87.948,14.323],[-87.949,14.327],[-87.956,14.329],[-87.952,14.331],[-87.954,14.338],[-87.951,14.344],[-87.959,14.35],[-87.956,14.358],[-87.958,14.367],[-87.962,14.369],[-87.955,14.374],[-87.958,14.391]]]}},{"type":"Feature","properties":{"cve_ent":"HN12","cve_mun":"019","cvegeo":"HN1219","nombre":"Yarula"},"geometry":{"type":"Polygon","coordinates":[[[-88.158,14.158],[-88.132,14.165],[-88.133,14.17],[-88.119,14.173],[-88.119,14.178],[-88.114,14.173],[-88.109,14.18],[-88.106,14.179],[-88.096,14.169],[-88.096,14.163],[-88.08,14.158],[-88.068,14.138],[-88.059,14.141],[-88.052,14.138],[-88.059,14.131],[-88.055,14.122],[-88.057,14.112],[-88.032,14.108],[-88.03,14.104],[-88.039,14.098],[-88.038,14.089],[-88.051,14.093],[-88.05,14.084],[-88.057,14.083],[-88.062,14.072],[-88.075,14.065],[-88.078,14.061],[-88.075,14.056],[-88.077,14.047],[-88.09,14.047],[-88.1,14.029],[-88.101,14.015],[-88.107,14.012],[-88.108,14.001],[-88.117,13.997],[-88.115,14.008],[-88.122,14.013],[-88.124,14.027],[-88.091,14.066],[-88.095,14.076],[-88.093,14.089],[-88.099,14.09],[-88.104,14.098],[-88.094,14.107],[-88.112,14.125],[-88.13,14.132],[-88.145,14.147],[-88.159,14.153],[-88.158,14.158]]]}}]}