{"type":"FeatureCollection","features":[{"type":"Feature","properties":{"cve_ent":"HN13","cve_mun":"001","cvegeo":"HN1301","nombre":"Gracias"},"geometry":{"type":"MultiPolygon","coordinates":[[[[-88.396,14.594],[-88.388,14.61],[-88.365,14.614],[-88.357,14.623],[-88.33,14.623],[-88.323,14.568],[-88.331,14.555],[-88.338,14.578],[-88.353,14.582],[-88.356,14.59],[-88.367,14.592],[-88.386,14.588],[-88.396,14.594]]],[[[-88.717,14.519],[-88.715,14.534],[-88.722,14.544],[-88.745,14.545],[-88.752,14.541],[-88.777,14.55],[-88.759,14.594],[-88.753,14.595],[-88.734,14.611],[-88.709,14.612],[-88.705,14.623],[-88.702,14.623],[-88.705,14.639],[-88.685,14.648],[-88.678,14.656],[-88.664,14.66],[-88.656,14.656],[-88.64,14.656],[-88.63,14.669],[-88.618,14.673],[-88.626,14.691],[-88.616,14.689],[-88.597,14.707],[-88.587,14.705],[-88.576,14.71],[-88.549,14.745],[-88.495,14.748],[-88.495,14.716],[-88.527,14.706],[-88.543,14.686],[-88.526,14.653],[-88.53,14.64],[-88.52,14.624],[-88.52,14.619],[-88.527,14.617],[-88.538,14.597],[-88.534,14.589],[-88.521,14.58],[-88.525,14.571],[-88.512,14.567],[-88.517,14.549],[-88.534,14.541],[-88.539,14.526],[-88.555,14.524],[-88.562,14.514],[-88.588,14.52],[-88.623,14.521],[-88.632,14.513],[-88.644,14.511],[-88.68,14.517],[-88.688,14.523],[-88.717,14.519]]]]}},{"type":"Feature","properties":{"cve_ent":"HN13","cve_mun":"002","cvegeo":"HN1302","nombre":"Belén"},"geometry":{"type":"Polygon","coordinates":[[[-88.528,14.51],[-88.531,14.527],[-88.538,14.536],[-88.529,14.542],[-88.53,14.545],[-88.517,14.549],[-88.512,14.567],[-88.478,14.559],[-88.475,14.565],[-88.461,14.564],[-88.452,14.554],[-88.444,14.553],[-88.441,14.542],[-88.421,14.538],[-88.406,14.548],[-88.407,14.584],[-88.402,14.595],[-88.397,14.595],[-88.386,14.588],[-88.367,14.592],[-88.356,14.59],[-88.353,14.582],[-88.338,14.578],[-88.331,14.562],[-88.332,14.552],[-88.349,14.53],[-88.343,14.518],[-88.345,14.507],[-88.363,14.489],[-88.385,14.475],[-88.431,14.473],[-88.451,14.479],[-88.474,14.472],[-88.503,14.453],[-88.503,14.463],[-88.509,14.465],[-88.508,14.469],[-88.512,14.469],[-88.514,14.474],[-88.509,14.486],[-88.512,14.489],[-88.512,14.492],[-88.519,14.494],[-88.528,14.51]],[[-88.511,14.49],[-88.51,14.489],[-88.51,14.49],[-88.511,14.49]]]}},{"type":"Feature","properties":{"cve_ent":"HN13","cve_mun":"003","cvegeo":"HN1303","nombre":"Candelaria"},"geometry":{"type":"Polygon","coordinates":[[[-88.559,14.097],[-88.524,14.071],[-88.526,14.061],[-88.518,14.055],[-88.524,14.034],[-88.52,14.032],[-88.522,14.025],[-88.518,14.024],[-88.523,14.019],[-88.52,14.013],[-88.546,14.026],[-88.593,14.037],[-88.603,14.059],[-88.578,14.092],[-88.564,14.097],[-88.559,14.097]]]}},{"type":"Feature","properties":{"cve_ent":"HN13","cve_mun":"004","cvegeo":"HN1304","nombre":"Cololaca"},"geometry":{"type":"Polygon","coordinates":[[[-88.966,14.273],[-88.982,14.3],[-88.969,14.303],[-88.956,14.313],[-88.956,14.32],[-88.947,14.326],[-88.951,14.337],[-88.948,14.342],[-88.918,14.344],[-88.887,14.356],[-88.879,14.369],[-88.88,14.412],[-88.859,14.407],[-88.855,14.397],[-88.836,14.384],[-88.806,14.385],[-88.799,14.365],[-88.784,14.351],[-88.783,14.337],[-88.802,14.31],[-88.821,14.298],[-88.837,14.298],[-88.835,14.268],[-88.848,14.264],[-88.856,14.267],[-88.868,14.262],[-88.871,14.264],[-88.88,14.257],[-88.886,14.259],[-88.887,14.25],[-88.895,14.247],[-88.898,14.24],[-88.908,14.245],[-88.929,14.266],[-88.941,14.264],[-88.953,14.256],[-88.951,14.249],[-88.946,14.249],[-88.925,14.224],[-88.926,14.217],[-88.92,14.208],[-88.93,14.203],[-88.942,14.203],[-88.973,14.214],[-88.974,14.22],[-88.966,14.227],[-88.973,14.255],[-88.966,14.273]]]}},{"type":"Feature","properties":{"cve_ent":"HN13","cve_mun":"005","cvegeo":"HN1305","nombre":"Erandique"},"geometry":{"type":"Polygon","coordinates":[[[-88.547,14.298],[-88.531,14.293],[-88.511,14.301],[-88.507,14.296],[-88.5,14.296],[-88.466,14.343],[-88.467,14.353],[-88.461,14.353],[-88.459,14.358],[-88.453,14.357],[-88.443,14.367],[-88.432,14.366],[-88.427,14.363],[-88.416,14.326],[-88.409,14.281],[-88.425,14.258],[-88.424,14.249],[-88.411,14.242],[-88.406,14.243],[-88.397,14.234],[-88.389,14.235],[-88.384,14.229],[-88.371,14.232],[-88.352,14.23],[-88.332,14.227],[-88.33,14.221],[-88.346,14.21],[-88.347,14.205],[-88.369,14.185],[-88.386,14.182],[-88.392,14.186],[-88.395,14.18],[-88.407,14.176],[-88.413,14.162],[-88.434,14.148],[-88.434,14.136],[-88.456,14.132],[-88.473,14.136],[-88.475,14.127],[-88.483,14.124],[-88.48,14.145],[-88.483,14.151],[-88.491,14.151],[-88.496,14.16],[-88.531,14.185],[-88.532,14.205],[-88.516,14.213],[-88.53,14.228],[-88.533,14.256],[-88.54,14.272],[-88.554,14.282],[-88.562,14.283],[-88.547,14.298]]]}},{"type":"Feature","properties":{"cve_ent":"HN13","cve_mun":"006","cvegeo":"HN1306","nombre":"Gualcince"},"geometry":{"type":"Polygon","coordinates":[[[-88.664,14.123],[-88.658,14.132],[-88.661,14.14],[-88.653,14.144],[-88.649,14.142],[-88.639,14.154],[-88.621,14.153],[-88.605,14.147],[-88.585,14.162],[-88.579,14.173],[-88.556,14.175],[-88.552,14.188],[-88.556,14.194],[-88.545,14.194],[-88.533,14.205],[-88.531,14.185],[-88.496,14.16],[-88.491,14.151],[-88.484,14.152],[-88.48,14.147],[-88.486,14.11],[-88.502,14.099],[-88.517,14.099],[-88.525,14.094],[-88.529,14.086],[-88.525,14.076],[-88.564,14.097],[-88.574,14.095],[-88.585,14.085],[-88.598,14.083],[-88.609,14.073],[-88.619,14.073],[-88.619,14.069],[-88.631,14.074],[-88.635,14.072],[-88.64,14.078],[-88.651,14.081],[-88.652,14.093],[-88.66,14.102],[-88.657,14.115],[-88.664,14.123]]]}},{"type":"Feature","properties":{"cve_ent":"HN13","cve_mun":"007","cvegeo":"HN1307","nombre":"Guarita"},"geometry":{"type":"MultiPolygon","coordinates":[[[[-88.861,14.172],[-88.883,14.19],[-88.901,14.191],[-88.903,14.206],[-88.92,14.208],[-88.929,14.23],[-88.946,14.249],[-88.951,14.249],[-88.953,14.256],[-88.941,14.264],[-88.929,14.266],[-88.908,14.245],[-88.898,14.24],[-88.895,14.247],[-88.887,14.25],[-88.886,14.259],[-88.88,14.257],[-88.871,14.264],[-88.868,14.262],[-88.857,14.267],[-88.848,14.264],[-88.835,14.268],[-88.837,14.298],[-88.821,14.298],[-88.812,14.302],[-88.797,14.295],[-88.789,14.281],[-88.8,14.264],[-88.816,14.255],[-88.813,14.24],[-88.825,14.231],[-88.826,14.224],[-88.796,14.213],[-88.791,14.206],[-88.766,14.205],[-88.756,14.192],[-88.745,14.189],[-88.748,14.145],[-88.758,14.146],[-88.756,14.188],[-88.76,14.178],[-88.771,14.18],[-88.781,14.171],[-88.778,14.176],[-88.79,14.184],[-88.815,14.177],[-88.82,14.172],[-88.825,14.182],[-88.821,14.193],[-88.829,14.193],[-88.829,14.168],[-88.818,14.148],[-88.786,14.15],[-88.788,14.133],[-88.797,14.124],[-88.795,14.115],[-88.786,14.113],[-88.784,14.1051],[-88.821,14.109],[-88.831,14.106],[-88.83,14.113],[-88.835,14.116],[-88.84,14.131],[-88.848,14.132],[-88.849,14.149],[-88.859,14.153],[-88.861,14.172]]],[[[-88.832,14.106],[-88.831,14.105],[-88.832,14.104],[-88.832,14.106]]]]}},{"type":"Feature","properties":{"cve_ent":"HN13","cve_mun":"008","cvegeo":"HN1308","nombre":"La Campa"},"geometry":{"type":"MultiPolygon","coordinates":[[[[-88.626,14.474],[-88.628,14.479],[-88.633,14.479],[-88.635,14.493],[-88.611,14.488],[-88.604,14.519],[-88.588,14.52],[-88.562,14.514],[-88.555,14.524],[-88.539,14.526],[-88.538,14.533],[-88.535,14.533],[-88.531,14.527],[-88.531,14.514],[-88.519,14.494],[-88.512,14.492],[-88.512,14.489],[-88.509,14.486],[-88.514,14.477],[-88.513,14.471],[-88.503,14.463],[-88.503,14.453],[-88.498,14.45],[-88.504,14.437],[-88.528,14.421],[-88.612,14.44],[-88.603,14.455],[-88.621,14.475],[-88.626,14.474]]],[[[-88.51,14.489],[-88.511,14.49],[-88.51,14.49],[-88.51,14.489]]]]}},{"type":"Feature","properties":{"cve_ent":"HN13","cve_mun":"009","cvegeo":"HN1309","nombre":"La Iguala"},"geometry":{"type":"Polygon","coordinates":[[[-88.521,14.577],[-88.534,14.589],[-88.538,14.597],[-88.527,14.617],[-88.52,14.619],[-88.52,14.624],[-88.53,14.64],[-88.526,14.653],[-88.543,14.686],[-88.527,14.706],[-88.495,14.716],[-88.495,14.748],[-88.549,14.745],[-88.521,14.801],[-88.514,14.802],[-88.516,14.812],[-88.504,14.83],[-88.457,14.783],[-88.447,14.782],[-88.446,14.768],[-88.428,14.769],[-88.437,14.758],[-88.441,14.759],[-88.453,14.75],[-88.447,14.742],[-88.447,14.729],[-88.431,14.724],[-88.428,14.719],[-88.404,14.713],[-88.411,14.702],[-88.412,14.675],[-88.392,14.661],[-88.348,14.653],[-88.33,14.623],[-88.357,14.623],[-88.365,14.614],[-88.388,14.61],[-88.394,14.596],[-88.402,14.595],[-88.407,14.584],[-88.406,14.548],[-88.421,14.538],[-88.441,14.542],[-88.444,14.553],[-88.452,14.554],[-88.461,14.564],[-88.475,14.565],[-88.478,14.559],[-88.525,14.571],[-88.521,14.577]]]}},{"type":"Feature","properties":{"cve_ent":"HN13","cve_mun":"010","cvegeo":"HN1310","nombre":"Las Flores"},"geometry":{"type":"Polygon","coordinates":[[[-88.704,14.623],[-88.709,14.612],[-88.734,14.611],[-88.753,14.643],[-88.733,14.645],[-88.725,14.651],[-88.716,14.651],[-88.717,14.655],[-88.692,14.656],[-88.683,14.682],[-88.668,14.691],[-88.672,14.71],[-88.653,14.718],[-88.653,14.731],[-88.658,14.732],[-88.657,14.737],[-88.565,14.722],[-88.576,14.71],[-88.587,14.705],[-88.597,14.707],[-88.616,14.689],[-88.626,14.691],[-88.618,14.673],[-88.63,14.669],[-88.64,14.656],[-88.656,14.656],[-88.661,14.66],[-88.672,14.658],[-88.705,14.639],[-88.704,14.623]]]}},{"type":"Feature","properties":{"cve_ent":"HN13","cve_mun":"011","cvegeo":"HN1311","nombre":"La Unión"},"geometry":{"type":"Polygon","coordinates":[[[-88.424,14.763],[-88.431,14.771],[-88.438,14.766],[-88.446,14.768],[-88.447,14.782],[-88.457,14.783],[-88.489,14.812],[-88.471,14.818],[-88.455,14.853],[-88.444,14.858],[-88.424,14.853],[-88.414,14.835],[-88.38,14.838],[-88.364,14.823],[-88.383,14.78],[-88.39,14.769],[-88.397,14.768],[-88.404,14.754],[-88.421,14.765],[-88.424,14.763]]]}},{"type":"Feature","properties":{"cve_ent":"HN13","cve_mun":"012","cvegeo":"HN1312","nombre":"La Virtud"},"geometry":{"type":"Polygon","coordinates":[[[-88.681,14.021],[-88.702,14.036],[-88.711,14.036],[-88.724,14.05],[-88.739,14.058],[-88.733,14.093],[-88.731,14.102],[-88.704,14.113],[-88.701,14.118],[-88.689,14.117],[-88.661,14.14],[-88.658,14.132],[-88.664,14.123],[-88.657,14.115],[-88.66,14.102],[-88.652,14.093],[-88.651,14.081],[-88.636,14.074],[-88.637,14.07],[-88.645,14.069],[-88.644,14.06],[-88.652,14.059],[-88.657,14.049],[-88.654,14.039],[-88.636,14.024],[-88.636,14.02],[-88.638,14.017],[-88.654,14.018],[-88.663,14.025],[-88.665,14.016],[-88.673,14.009],[-88.683,14.011],[-88.681,14.021]]]}},{"type":"Feature","properties":{"cve_ent":"HN13","cve_mun":"013","cvegeo":"HN1313","nombre":"Lepaera"},"geometry":{"type":"Polygon","coordinates":[[[-88.561,14.933],[-88.556,14.935],[-88.538,14.882],[-88.504,14.83],[-88.516,14.812],[-88.514,14.802],[-88.521,14.801],[-88.55,14.743],[-88.565,14.722],[-88.648,14.736],[-88.653,14.734],[-88.664,14.744],[-88.659,14.753],[-88.664,14.755],[-88.664,14.769],[-88.669,14.773],[-88.667,14.779],[-88.681,14.785],[-88.68,14.801],[-88.676,14.807],[-88.68,14.817],[-88.67,14.837],[-88.654,14.845],[-88.652,14.851],[-88.658,14.86],[-88.654,14.869],[-88.643,14.869],[-88.649,14.875],[-88.649,14.886],[-88.639,14.9],[-88.645,14.923],[-88.624,14.919],[-88.611,14.932],[-88.614,14.935],[-88.611,14.948],[-88.561,14.933]]]}},{"type":"Feature","properties":{"cve_ent":"HN13","cve_mun":"014","cvegeo":"HN1314","nombre":"Mapulaca"},"geometry":{"type":"Polygon","coordinates":[[[-88.657,14.049],[-88.652,14.059],[-88.644,14.06],[-88.645,14.069],[-88.641,14.072],[-88.637,14.07],[-88.631,14.074],[-88.619,14.069],[-88.619,14.073],[-88.609,14.073],[-88.594,14.085],[-88.585,14.085],[-88.603,14.06],[-88.593,14.037],[-88.617,14.014],[-88.627,14.023],[-88.636,14.021],[-88.654,14.039],[-88.657,14.049]]]}},{"type":"Feature","properties":{"cve_ent":"HN13","cve_mun":"015","cvegeo":"HN1315","nombre":"Piraera"},"geometry":{"type":"Polygon","coordinates":[[[-88.524,14.071],[-88.53,14.076],[-88.525,14.076],[-88.529,14.085],[-88.527,14.092],[-88.517,14.099],[-88.502,14.099],[-88.487,14.109],[-88.483,14.124],[-88.475,14.127],[-88.473,14.136],[-88.457,14.132],[-88.434,14.136],[-88.431,14.132],[-88.434,14.129],[-88.423,14.121],[-88.421,14.11],[-88.414,14.104],[-88.408,14.085],[-88.396,14.074],[-88.387,14.074],[-88.383,14.064],[-88.376,14.061],[-88.383,14.05],[-88.383,14.039],[-88.403,14.036],[-88.404,14.032],[-88.427,14.019],[-88.439,14.019],[-88.444,14.01],[-88.462,14.009],[-88.47,13.994],[-88.481,13.992],[-88.477,13.98],[-88.481,13.975],[-88.49,13.974],[-88.493,13.963],[-88.527,13.984],[-88.525,14.002],[-88.52,14.007],[-88.523,14.019],[-88.518,14.024],[-88.522,14.025],[-88.52,14.032],[-88.524,14.034],[-88.518,14.055],[-88.526,14.061],[-88.524,14.071]]]}},{"type":"Feature","properties":{"cve_ent":"HN13","cve_mun":"016","cvegeo":"HN1316","nombre":"San Andrés"},"geometry":{"type":"Polygon","coordinates":[[[-88.673,14.268],[-88.671,14.273],[-88.666,14.271],[-88.663,14.274],[-88.663,14.282],[-88.659,14.282],[-88.651,14.297],[-88.648,14.296],[-88.647,14.303],[-88.654,14.315],[-88.644,14.324],[-88.643,14.335],[-88.629,14.336],[-88.628,14.326],[-88.618,14.322],[-88.617,14.308],[-88.588,14.305],[-88.581,14.298],[-88.577,14.299],[-88.577,14.295],[-88.566,14.291],[-88.56,14.281],[-88.554,14.282],[-88.54,14.272],[-88.533,14.256],[-88.53,14.228],[-88.516,14.213],[-88.533,14.205],[-88.545,14.194],[-88.556,14.194],[-88.552,14.188],[-88.556,14.175],[-88.579,14.173],[-88.585,14.162],[-88.594,14.158],[-88.601,14.149],[-88.605,14.147],[-88.621,14.153],[-88.639,14.154],[-88.649,14.142],[-88.653,14.144],[-88.661,14.14],[-88.659,14.145],[-88.663,14.145],[-88.671,14.165],[-88.67,14.171],[-88.68,14.176],[-88.678,14.19],[-88.688,14.192],[-88.684,14.196],[-88.685,14.206],[-88.689,14.206],[-88.691,14.213],[-88.686,14.215],[-88.69,14.221],[-88.688,14.227],[-88.692,14.228],[-88.691,14.233],[-88.695,14.237],[-88.695,14.247],[-88.69,14.249],[-88.692,14.255],[-88.682,14.27],[-88.673,14.268]]]}},{"type":"Feature","properties":{"cve_ent":"HN13","cve_mun":"017","cvegeo":"HN1317","nombre":"San Francisco"},"geometry":{"type":"Polygon","coordinates":[[[-88.434,14.148],[-88.413,14.162],[-88.407,14.176],[-88.395,14.18],[-88.392,14.186],[-88.386,14.182],[-88.369,14.185],[-88.347,14.205],[-88.346,14.21],[-88.33,14.221],[-88.325,14.217],[-88.321,14.208],[-88.328,14.199],[-88.327,14.191],[-88.334,14.176],[-88.33,14.166],[-88.319,14.158],[-88.32,14.144],[-88.324,14.139],[-88.316,14.108],[-88.327,14.106],[-88.333,14.097],[-88.327,14.079],[-88.351,14.075],[-88.365,14.053],[-88.372,14.052],[-88.378,14.044],[-88.382,14.045],[-88.383,14.05],[-88.376,14.062],[-88.383,14.064],[-88.387,14.074],[-88.396,14.074],[-88.408,14.085],[-88.408,14.092],[-88.421,14.11],[-88.423,14.121],[-88.434,14.129],[-88.431,14.131],[-88.436,14.138],[-88.434,14.148]]]}},{"type":"Feature","properties":{"cve_ent":"HN13","cve_mun":"018","cvegeo":"HN1318","nombre":"San Juan Guarita"},"geometry":{"type":"Polygon","coordinates":[[[-88.795,14.148],[-88.818,14.148],[-88.829,14.168],[-88.829,14.193],[-88.821,14.193],[-88.825,14.182],[-88.82,14.172],[-88.815,14.177],[-88.79,14.184],[-88.778,14.176],[-88.781,14.171],[-88.771,14.18],[-88.76,14.178],[-88.756,14.188],[-88.758,14.139],[-88.754,14.113],[-88.774,14.103],[-88.784,14.105],[-88.786,14.113],[-88.795,14.115],[-88.797,14.124],[-88.788,14.133],[-88.786,14.15],[-88.792,14.152],[-88.795,14.148]]]}},{"type":"Feature","properties":{"cve_ent":"HN13","cve_mun":"019","cvegeo":"HN1319","nombre":"San Manuel Colohete"},"geometry":{"type":"MultiPolygon","coordinates":[[[[-88.734,14.475],[-88.716,14.511],[-88.717,14.519],[-88.688,14.523],[-88.68,14.517],[-88.649,14.511],[-88.632,14.513],[-88.623,14.521],[-88.604,14.519],[-88.611,14.488],[-88.635,14.493],[-88.633,14.479],[-88.627,14.478],[-88.628,14.474],[-88.621,14.475],[-88.603,14.455],[-88.628,14.412],[-88.62,14.395],[-88.628,14.389],[-88.629,14.378],[-88.645,14.377],[-88.645,14.373],[-88.654,14.372],[-88.666,14.378],[-88.693,14.368],[-88.7,14.394],[-88.709,14.402],[-88.71,14.419],[-88.724,14.427],[-88.729,14.437],[-88.737,14.44],[-88.739,14.456],[-88.731,14.462],[-88.734,14.475]]],[[[-88.796,14.413],[-88.806,14.385],[-88.826,14.404],[-88.82,14.427],[-88.796,14.413]]]]}},{"type":"Feature","properties":{"cve_ent":"HN13","cve_mun":"020","cvegeo":"HN1320","nombre":"San Rafael"},"geometry":{"type":"Polygon","coordinates":[[[-88.453,14.751],[-88.427,14.768],[-88.424,14.763],[-88.421,14.765],[-88.404,14.754],[-88.397,14.768],[-88.391,14.77],[-88.378,14.75],[-88.375,14.736],[-88.355,14.719],[-88.317,14.735],[-88.32,14.685],[-88.348,14.653],[-88.392,14.661],[-88.412,14.675],[-88.411,14.702],[-88.404,14.713],[-88.428,14.719],[-88.431,14.724],[-88.447,14.729],[-88.447,14.742],[-88.453,14.751]]]}},{"type":"Feature","properties":{"cve_ent":"HN13","cve_mun":"021","cvegeo":"HN1321","nombre":"San Sebastián"},"geometry":{"type":"Polygon","coordinates":[[[-88.742,14.443],[-88.729,14.437],[-88.724,14.427],[-88.71,14.419],[-88.709,14.402],[-88.7,14.394],[-88.693,14.368],[-88.68,14.36],[-88.672,14.342],[-88.665,14.34],[-88.652,14.344],[-88.642,14.338],[-88.644,14.324],[-88.654,14.315],[-88.647,14.303],[-88.648,14.296],[-88.651,14.297],[-88.659,14.282],[-88.663,14.282],[-88.663,14.274],[-88.666,14.271],[-88.671,14.273],[-88.672,14.268],[-88.677,14.271],[-88.684,14.266],[-88.729,14.264],[-88.772,14.289],[-88.785,14.288],[-88.789,14.281],[-88.797,14.295],[-88.813,14.302],[-88.802,14.31],[-88.783,14.337],[-88.784,14.351],[-88.799,14.365],[-88.806,14.385],[-88.796,14.413],[-88.749,14.432],[-88.742,14.443]]]}},{"type":"Feature","properties":{"cve_ent":"HN13","cve_mun":"022","cvegeo":"HN1322","nombre":"Santa Cruz"},"geometry":{"type":"MultiPolygon","coordinates":[[[[-88.642,14.335],[-88.633,14.345],[-88.618,14.345],[-88.608,14.352],[-88.594,14.353],[-88.586,14.36],[-88.573,14.36],[-88.572,14.364],[-88.565,14.364],[-88.546,14.385],[-88.535,14.384],[-88.536,14.398],[-88.528,14.421],[-88.502,14.439],[-88.501,14.423],[-88.495,14.415],[-88.495,14.408],[-88.5,14.407],[-88.489,14.39],[-88.45,14.362],[-88.453,14.357],[-88.459,14.358],[-88.461,14.353],[-88.467,14.353],[-88.466,14.343],[-88.5,14.296],[-88.507,14.296],[-88.511,14.301],[-88.531,14.293],[-88.547,14.298],[-88.561,14.284],[-88.588,14.305],[-88.617,14.308],[-88.618,14.322],[-88.628,14.326],[-88.628,14.335],[-88.642,14.335]]],[[[-88.501,14.442],[-88.502,14.44],[-88.502,14.443],[-88.501,14.442]]]]}},{"type":"Feature","properties":{"cve_ent":"HN13","cve_mun":"023","cvegeo":"HN1323","nombre":"Talgua"},"geometry":{"type":"Polygon","coordinates":[[[-88.796,14.686],[-88.794,14.714],[-88.788,14.718],[-88.779,14.717],[-88.774,14.712],[-88.762,14.712],[-88.757,14.716],[-88.746,14.709],[-88.728,14.707],[-88.705,14.714],[-88.69,14.712],[-88.681,14.724],[-88.673,14.719],[-88.668,14.722],[-88.666,14.717],[-88.663,14.722],[-88.657,14.721],[-88.657,14.717],[-88.672,14.71],[-88.668,14.691],[-88.683,14.682],[-88.692,14.656],[-88.717,14.655],[-88.716,14.651],[-88.725,14.651],[-88.733,14.645],[-88.754,14.643],[-88.761,14.649],[-88.775,14.651],[-88.793,14.686],[-88.796,14.686]]]}},{"type":"Feature","properties":{"cve_ent":"HN13","cve_mun":"024","cvegeo":"HN1324","nombre":"Tambla"},"geometry":{"type":"Polygon","coordinates":[[[-88.779,14.225],[-88.758,14.223],[-88.743,14.229],[-88.737,14.223],[-88.724,14.223],[-88.714,14.231],[-88.688,14.226],[-88.69,14.221],[-88.686,14.214],[-88.691,14.21],[-88.685,14.206],[-88.684,14.196],[-88.688,14.193],[-88.691,14.197],[-88.728,14.208],[-88.731,14.188],[-88.752,14.19],[-88.766,14.205],[-88.791,14.206],[-88.796,14.213],[-88.825,14.222],[-88.825,14.231],[-88.813,14.24],[-88.816,14.255],[-88.8,14.264],[-88.789,14.281],[-88.763,14.257],[-88.765,14.248],[-88.793,14.232],[-88.779,14.225]]]}},{"type":"Feature","properties":{"cve_ent":"HN13","cve_mun":"025","cvegeo":"HN1325","nombre":"Tomalá"},"geometry":{"type":"Polygon","coordinates":[[[-88.779,14.225],[-88.793,14.232],[-88.765,14.248],[-88.763,14.257],[-88.789,14.281],[-88.785,14.288],[-88.772,14.289],[-88.729,14.264],[-88.684,14.266],[-88.692,14.255],[-88.691,14.247],[-88.695,14.247],[-88.695,14.237],[-88.688,14.226],[-88.714,14.231],[-88.724,14.223],[-88.737,14.223],[-88.743,14.229],[-88.758,14.223],[-88.779,14.225]]]}},{"type":"Feature","properties":{"cve_ent":"HN13","cve_mun":"026","cvegeo":"HN1326","nombre":"Valladolid"},"geometry":{"type":"Polygon","coordinates":[[[-88.742,14.117],[-88.757,14.11],[-88.754,14.118],[-88.758,14.146],[-88.748,14.145],[-88.745,14.189],[-88.731,14.188],[-88.729,14.207],[-88.711,14.204],[-88.691,14.197],[-88.683,14.189],[-88.678,14.19],[-88.68,14.176],[-88.67,14.171],[-88.671,14.165],[-88.663,14.145],[-88.659,14.145],[-88.66,14.141],[-88.689,14.117],[-88.701,14.118],[-88.704,14.113],[-88.731,14.102],[-88.742,14.117]]]}},{"type":"Feature","properties":{"cve_ent":"HN13","cve_mun":"027","cvegeo":"HN1327","nombre":"Virginia"},"geometry":{"type":"Polygon","coordinates":[[[-88.587,14.007],[-88.595,14.009],[-88.607,14.005],[-88.617,14.014],[-88.593,14.037],[-88.546,14.026],[-88.52,14.013],[-88.525,14.002],[-88.526,13.985],[-88.541,13.985],[-88.548,13.98],[-88.557,13.984],[-88.567,13.978],[-88.573,13.982],[-88.576,13.997],[-88.587,14.007]]]}},{"type":"Feature","properties":{"cve_ent":"HN13","cve_mun":"028","cvegeo":"HN1328","nombre":"San Marcos de Caiquin"},"geometry":{"type":"Polygon","coordinates":[[[-88.669,14.34],[-88.68,14.36],[-88.691,14.368],[-88.666,14.378],[-88.654,14.372],[-88.645,14.373],[-88.645,14.377],[-88.63,14.377],[-88.628,14.389],[-88.62,14.395],[-88.628,14.412],[-88.612,14.44],[-88.528,14.421],[-88.536,14.398],[-88.534,14.385],[-88.546,14.385],[-88.565,14.364],[-88.586,14.36],[-88.594,14.353],[-88.608,14.352],[-88.618,14.345],[-88.633,14.345],[-88.642,14.335],[-88.644,14.342],[-88.648,14.34],[-88.654,14.344],[-88.669,14.34]]]}}]}