{"type":"FeatureCollection","features":[{"type":"Feature","properties":{"cve_ent":"HN14","cve_mun":"001","cvegeo":"HN1401","nombre":"Ocotepeque"},"geometry":{"type":"MultiPolygon","coordinates":[[[[-89.211,14.375],[-89.211,14.386],[-89.245,14.391],[-89.276,14.401],[-89.299,14.416],[-89.323,14.411],[-89.342,14.42],[-89.356,14.421],[-89.323,14.447],[-89.312,14.466],[-89.305,14.471],[-89.3,14.485],[-89.296,14.486],[-89.253,14.457],[-89.247,14.462],[-89.21,14.465],[-89.209,14.45],[-89.205,14.444],[-89.209,14.437],[-89.205,14.431],[-89.189,14.44],[-89.161,14.443],[-89.155,14.437],[-89.133,14.43],[-89.108,14.412],[-89.107,14.404],[-89.112,14.403],[-89.117,14.392],[-89.125,14.388],[-89.126,14.381],[-89.148,14.353],[-89.168,14.366],[-89.189,14.366],[-89.211,14.375]]],[[[-89.107,14.403],[-89.103,14.404],[-89.103,14.403],[-89.107,14.403]]],[[[-89.102,14.404],[-89.103,14.405],[-89.102,14.405],[-89.102,14.404]]]]}},{"type":"Feature","properties":{"cve_ent":"HN14","cve_mun":"002","cvegeo":"HN1402","nombre":"Belén Gualcho"},"geometry":{"type":"Polygon","coordinates":[[[-88.843,14.45],[-88.838,14.464],[-88.845,14.469],[-88.856,14.496],[-88.848,14.501],[-88.846,14.497],[-88.825,14.5],[-88.83,14.512],[-88.826,14.52],[-88.832,14.527],[-88.832,14.534],[-88.826,14.537],[-88.812,14.533],[-88.798,14.544],[-88.777,14.55],[-88.752,14.541],[-88.745,14.545],[-88.722,14.544],[-88.715,14.534],[-88.718,14.526],[-88.716,14.511],[-88.734,14.476],[-88.731,14.462],[-88.739,14.456],[-88.737,14.441],[-88.742,14.443],[-88.749,14.432],[-88.796,14.413],[-88.822,14.428],[-88.839,14.431],[-88.843,14.45]]]}},{"type":"Feature","properties":{"cve_ent":"HN14","cve_mun":"003","cvegeo":"HN1403","nombre":"Concepción"},"geometry":{"type":"MultiPolygon","coordinates":[[[[-89.262,14.551],[-89.257,14.561],[-89.251,14.563],[-89.254,14.569],[-89.24,14.58],[-89.239,14.585],[-89.203,14.583],[-89.194,14.575],[-89.187,14.577],[-89.178,14.572],[-89.163,14.572],[-89.158,14.554],[-89.142,14.55],[-89.16,14.538],[-89.169,14.526],[-89.161,14.522],[-89.13,14.519],[-89.14,14.511],[-89.138,14.505],[-89.142,14.496],[-89.175,14.486],[-89.18,14.491],[-89.186,14.48],[-89.183,14.476],[-89.195,14.477],[-89.198,14.474],[-89.199,14.466],[-89.204,14.462],[-89.203,14.452],[-89.207,14.452],[-89.212,14.466],[-89.247,14.462],[-89.264,14.47],[-89.255,14.482],[-89.25,14.483],[-89.247,14.495],[-89.231,14.49],[-89.219,14.491],[-89.215,14.495],[-89.219,14.503],[-89.226,14.504],[-89.219,14.507],[-89.224,14.509],[-89.225,14.516],[-89.241,14.52],[-89.232,14.527],[-89.241,14.526],[-89.24,14.534],[-89.245,14.532],[-89.248,14.536],[-89.249,14.533],[-89.254,14.538],[-89.252,14.544],[-89.257,14.54],[-89.262,14.551]]],[[[-89.188,14.474],[-89.187,14.475],[-89.187,14.474],[-89.188,14.474]]]]}},{"type":"Feature","properties":{"cve_ent":"HN14","cve_mun":"004","cvegeo":"HN1404","nombre":"Dolores Merendón"},"geometry":{"type":"Polygon","coordinates":[[[-89.168,14.528],[-89.142,14.55],[-89.158,14.554],[-89.158,14.562],[-89.163,14.563],[-89.159,14.58],[-89.132,14.59],[-89.132,14.607],[-89.108,14.613],[-89.106,14.606],[-89.116,14.599],[-89.122,14.567],[-89.104,14.553],[-89.105,14.534],[-89.102,14.528],[-89.108,14.528],[-89.11,14.523],[-89.124,14.523],[-89.127,14.519],[-89.161,14.522],[-89.168,14.528]]]}},{"type":"Feature","properties":{"cve_ent":"HN14","cve_mun":"005","cvegeo":"HN1405","nombre":"La Fraternidad"},"geometry":{"type":"Polygon","coordinates":[[[-89.065,14.649],[-89.042,14.629],[-89.029,14.639],[-89.029,14.615],[-89.019,14.608],[-89.023,14.601],[-89.021,14.593],[-89.04,14.575],[-89.052,14.57],[-89.046,14.562],[-89.05,14.555],[-89.044,14.557],[-89.041,14.551],[-89.048,14.547],[-89.06,14.546],[-89.071,14.522],[-89.094,14.519],[-89.105,14.534],[-89.104,14.553],[-89.122,14.567],[-89.116,14.599],[-89.106,14.606],[-89.108,14.613],[-89.092,14.613],[-89.085,14.617],[-89.09,14.62],[-89.083,14.634],[-89.079,14.638],[-89.073,14.636],[-89.065,14.649]],[[-89.053,14.547],[-89.052,14.548],[-89.053,14.548],[-89.053,14.547]]]}},{"type":"Feature","properties":{"cve_ent":"HN14","cve_mun":"006","cvegeo":"HN1406","nombre":"La Encarnación"},"geometry":{"type":"Polygon","coordinates":[[[-89.104,14.662],[-89.095,14.669],[-89.072,14.673],[-89.055,14.683],[-89.038,14.683],[-89.022,14.688],[-89.021,14.692],[-89.01,14.693],[-89.004,14.683],[-89.005,14.668],[-88.991,14.651],[-89.012,14.658],[-89.031,14.655],[-89.041,14.648],[-89.056,14.655],[-89.057,14.648],[-89.065,14.649],[-89.073,14.636],[-89.079,14.638],[-89.083,14.633],[-89.104,14.662]]]}},{"type":"Feature","properties":{"cve_ent":"HN14","cve_mun":"007","cvegeo":"HN1407","nombre":"La Labor"},"geometry":{"type":"MultiPolygon","coordinates":[[[[-89.066,14.439],[-89.085,14.52],[-89.071,14.522],[-89.06,14.546],[-89.056,14.545],[-89.043,14.549],[-89.042,14.556],[-89.035,14.552],[-89.022,14.555],[-89.012,14.544],[-89.006,14.544],[-89.0,14.538],[-88.994,14.54],[-88.998,14.519],[-88.979,14.489],[-88.984,14.483],[-88.969,14.477],[-89.007,14.457],[-89.017,14.457],[-89.031,14.435],[-89.066,14.439]]],[[[-89.001,14.54],[-89.001,14.541],[-89.0,14.54],[-89.001,14.54]]],[[[-89.052,14.548],[-89.053,14.547],[-89.053,14.548],[-89.052,14.548]]]]}},{"type":"Feature","properties":{"cve_ent":"HN14","cve_mun":"008","cvegeo":"HN1408","nombre":"Lucerna"},"geometry":{"type":"Polygon","coordinates":[[[-89.046,14.562],[-89.051,14.571],[-89.04,14.575],[-89.021,14.593],[-89.023,14.601],[-89.019,14.608],[-89.029,14.615],[-89.029,14.639],[-89.042,14.629],[-89.059,14.647],[-89.056,14.655],[-89.041,14.648],[-89.031,14.655],[-89.012,14.658],[-88.991,14.651],[-88.967,14.633],[-88.959,14.632],[-88.927,14.603],[-88.922,14.593],[-88.927,14.591],[-88.925,14.584],[-88.93,14.578],[-88.93,14.562],[-88.924,14.557],[-88.911,14.558],[-88.915,14.542],[-88.907,14.533],[-88.938,14.533],[-88.944,14.544],[-88.973,14.543],[-88.991,14.579],[-88.991,14.586],[-88.986,14.59],[-88.989,14.608],[-89.001,14.618],[-89.004,14.604],[-88.997,14.597],[-88.999,14.58],[-88.995,14.569],[-88.998,14.561],[-88.989,14.55],[-88.994,14.54],[-89.0,14.538],[-89.006,14.544],[-89.012,14.544],[-89.022,14.555],[-89.034,14.552],[-89.044,14.557],[-89.05,14.555],[-89.046,14.562]],[[-89.001,14.54],[-89.0,14.54],[-89.001,14.541],[-89.001,14.54]]]}},{"type":"Feature","properties":{"cve_ent":"HN14","cve_mun":"009","cvegeo":"HN1409","nombre":"Mercedes"},"geometry":{"type":"Polygon","coordinates":[[[-89.086,14.349],[-89.08,14.36],[-89.084,14.382],[-89.076,14.393],[-89.063,14.394],[-89.071,14.387],[-89.072,14.38],[-89.047,14.372],[-89.038,14.374],[-89.035,14.364],[-89.019,14.347],[-88.99,14.349],[-88.969,14.341],[-88.948,14.342],[-88.951,14.337],[-88.947,14.326],[-88.956,14.32],[-88.956,14.313],[-88.969,14.303],[-88.982,14.3],[-88.966,14.273],[-88.973,14.257],[-88.966,14.227],[-88.971,14.226],[-88.977,14.232],[-88.978,14.241],[-88.986,14.246],[-88.992,14.259],[-89.014,14.271],[-89.025,14.27],[-89.022,14.314],[-89.035,14.316],[-89.035,14.332],[-89.081,14.34],[-89.082,14.348],[-89.086,14.349]]]}},{"type":"Feature","properties":{"cve_ent":"HN14","cve_mun":"010","cvegeo":"HN1410","nombre":"San Fernando"},"geometry":{"type":"Polygon","coordinates":[[[-89.131,14.713],[-89.082,14.727],[-89.082,14.7],[-89.061,14.707],[-89.031,14.708],[-89.045,14.695],[-89.046,14.682],[-89.055,14.683],[-89.072,14.673],[-89.09,14.671],[-89.104,14.661],[-89.12,14.66],[-89.125,14.656],[-89.126,14.659],[-89.133,14.657],[-89.141,14.671],[-89.149,14.676],[-89.131,14.713]]]}},{"type":"Feature","properties":{"cve_ent":"HN14","cve_mun":"011","cvegeo":"HN1411","nombre":"San Francisco del Valle"},"geometry":{"type":"Polygon","coordinates":[[[-88.99,14.395],[-88.987,14.385],[-88.999,14.369],[-89.019,14.372],[-89.039,14.393],[-89.06,14.405],[-89.06,14.395],[-89.076,14.393],[-89.08,14.388],[-89.077,14.398],[-89.069,14.403],[-89.066,14.439],[-89.031,14.435],[-89.017,14.457],[-89.007,14.457],[-88.969,14.478],[-88.946,14.467],[-88.931,14.466],[-88.922,14.471],[-88.893,14.461],[-88.902,14.443],[-88.911,14.445],[-88.928,14.438],[-88.957,14.422],[-88.99,14.395]]]}},{"type":"Feature","properties":{"cve_ent":"HN14","cve_mun":"012","cvegeo":"HN1412","nombre":"San Jorge"},"geometry":{"type":"MultiPolygon","coordinates":[[[[-89.068,14.717],[-89.05,14.716],[-89.04,14.72],[-89.029,14.719],[-89.022,14.714],[-89.014,14.716],[-89.008,14.697],[-89.01,14.693],[-89.021,14.692],[-89.026,14.686],[-89.046,14.682],[-89.045,14.695],[-89.031,14.709],[-89.061,14.707],[-89.082,14.7],[-89.081,14.727],[-89.08,14.723],[-89.068,14.717]]],[[[-89.157,14.673],[-89.145,14.675],[-89.133,14.657],[-89.126,14.659],[-89.124,14.656],[-89.12,14.66],[-89.104,14.662],[-89.083,14.633],[-89.09,14.62],[-89.084,14.618],[-89.092,14.613],[-89.122,14.612],[-89.133,14.606],[-89.132,14.59],[-89.137,14.586],[-89.154,14.587],[-89.147,14.608],[-89.148,14.615],[-89.153,14.618],[-89.146,14.63],[-89.155,14.654],[-89.153,14.661],[-89.157,14.673]]]]}},{"type":"Feature","properties":{"cve_ent":"HN14","cve_mun":"013","cvegeo":"HN1413","nombre":"San Marcos"},"geometry":{"type":"Polygon","coordinates":[[[-89.072,14.381],[-89.071,14.387],[-89.058,14.398],[-89.06,14.405],[-89.039,14.393],[-89.019,14.372],[-88.999,14.369],[-88.987,14.385],[-88.991,14.396],[-88.957,14.422],[-88.911,14.445],[-88.904,14.442],[-88.9,14.446],[-88.866,14.448],[-88.849,14.473],[-88.838,14.464],[-88.843,14.451],[-88.839,14.431],[-88.82,14.427],[-88.826,14.404],[-88.806,14.385],[-88.836,14.384],[-88.855,14.397],[-88.859,14.407],[-88.88,14.412],[-88.879,14.369],[-88.888,14.355],[-88.927,14.342],[-88.932,14.345],[-88.953,14.341],[-88.969,14.341],[-88.99,14.349],[-89.019,14.347],[-89.035,14.364],[-89.038,14.374],[-89.052,14.373],[-89.072,14.381]]]}},{"type":"Feature","properties":{"cve_ent":"HN14","cve_mun":"014","cvegeo":"HN1414","nombre":"Santa Fe"},"geometry":{"type":"MultiPolygon","coordinates":[[[[-89.356,14.466],[-89.351,14.473],[-89.302,14.495],[-89.306,14.507],[-89.288,14.516],[-89.284,14.533],[-89.27,14.547],[-89.26,14.547],[-89.257,14.54],[-89.252,14.544],[-89.254,14.538],[-89.249,14.533],[-89.248,14.536],[-89.245,14.532],[-89.24,14.534],[-89.241,14.526],[-89.232,14.525],[-89.241,14.52],[-89.225,14.516],[-89.224,14.509],[-89.219,14.507],[-89.226,14.504],[-89.215,14.499],[-89.219,14.491],[-89.249,14.493],[-89.25,14.483],[-89.264,14.472],[-89.247,14.463],[-89.253,14.457],[-89.299,14.486],[-89.305,14.471],[-89.312,14.466],[-89.323,14.447],[-89.351,14.426],[-89.349,14.439],[-89.354,14.447],[-89.351,14.456],[-89.356,14.466]]],[[[-89.351,14.426],[-89.352,14.4253],[-89.352,14.426],[-89.351,14.426]]],[[[-89.3523,14.425],[-89.353,14.4245],[-89.353,14.425],[-89.3523,14.425]]],[[[-89.3537,14.424],[-89.354,14.4238],[-89.354,14.424],[-89.3537,14.424]]]]}},{"type":"Feature","properties":{"cve_ent":"HN14","cve_mun":"015","cvegeo":"HN1415","nombre":"Sensenti"},"geometry":{"type":"Polygon","coordinates":[[[-89.002,14.618],[-88.989,14.608],[-88.986,14.59],[-88.991,14.586],[-88.991,14.579],[-88.973,14.543],[-88.944,14.544],[-88.938,14.533],[-88.907,14.533],[-88.894,14.519],[-88.853,14.512],[-88.848,14.501],[-88.856,14.496],[-88.847,14.473],[-88.866,14.448],[-88.899,14.446],[-88.893,14.461],[-88.922,14.471],[-88.931,14.466],[-88.946,14.467],[-88.984,14.483],[-88.979,14.489],[-88.998,14.519],[-88.997,14.534],[-88.993,14.535],[-88.994,14.542],[-88.989,14.549],[-88.998,14.561],[-88.995,14.569],[-88.999,14.58],[-88.997,14.597],[-89.004,14.604],[-89.002,14.618]]]}},{"type":"Feature","properties":{"cve_ent":"HN14","cve_mun":"016","cvegeo":"HN1416","nombre":"Sinuapa"},"geometry":{"type":"Polygon","coordinates":[[[-89.195,14.477],[-89.183,14.476],[-89.186,14.48],[-89.18,14.491],[-89.175,14.486],[-89.142,14.496],[-89.138,14.514],[-89.124,14.523],[-89.11,14.523],[-89.102,14.53],[-89.094,14.519],[-89.085,14.52],[-89.066,14.441],[-89.069,14.403],[-89.079,14.395],[-89.082,14.382],[-89.094,14.4],[-89.108,14.405],[-89.11,14.414],[-89.133,14.43],[-89.155,14.437],[-89.161,14.443],[-89.189,14.44],[-89.205,14.431],[-89.209,14.437],[-89.205,14.441],[-89.209,14.451],[-89.203,14.452],[-89.204,14.462],[-89.199,14.466],[-89.198,14.474],[-89.195,14.477]],[[-89.187,14.475],[-89.188,14.474],[-89.187,14.474],[-89.187,14.475]]]}}]}