{"type":"FeatureCollection","features":[{"type":"Feature","properties":{"cve_ent":"HN15","cve_mun":"001","cvegeo":"HN1501","nombre":"Juticalpa"},"geometry":{"type":"MultiPolygon","coordinates":[[[[-86.657,14.724],[-86.656,14.731],[-86.652,14.729],[-86.646,14.735],[-86.647,14.737],[-86.646,14.739],[-86.64,14.731],[-86.634,14.733],[-86.634,14.719],[-86.627,14.714],[-86.623,14.704],[-86.6,14.695],[-86.591,14.687],[-86.529,14.682],[-86.505,14.709],[-86.499,14.722],[-86.489,14.722],[-86.482,14.714],[-86.451,14.713],[-86.448,14.75],[-86.425,14.792],[-86.378,14.767],[-86.297,14.742],[-86.269,14.744],[-86.147,14.725],[-86.136,14.743],[-86.02,14.793],[-85.999,14.771],[-85.941,14.737],[-85.946,14.727],[-85.955,14.727],[-85.962,14.72],[-85.97,14.721],[-85.967,14.715],[-85.97,14.711],[-85.983,14.719],[-85.98,14.724],[-85.983,14.732],[-85.989,14.735],[-85.998,14.732],[-85.996,14.723],[-86.007,14.711],[-86.011,14.69],[-86.016,14.697],[-86.029,14.687],[-86.03,14.694],[-86.035,14.695],[-86.034,14.686],[-86.05,14.684],[-86.056,14.68],[-86.056,14.675],[-86.063,14.68],[-86.064,14.674],[-86.079,14.671],[-86.087,14.664],[-86.093,14.671],[-86.103,14.667],[-86.108,14.669],[-86.111,14.658],[-86.116,14.658],[-86.115,14.665],[-86.121,14.663],[-86.12,14.655],[-86.126,14.654],[-86.128,14.643],[-86.134,14.646],[-86.135,14.639],[-86.143,14.64],[-86.141,14.634],[-86.146,14.627],[-86.136,14.618],[-86.138,14.597],[-86.128,14.586],[-86.126,14.574],[-86.102,14.549],[-86.101,14.538],[-86.09,14.522],[-86.098,14.514],[-86.09,14.507],[-86.052,14.536],[-86.017,14.541],[-86.012,14.546],[-85.995,14.529],[-85.988,14.528],[-86.011,14.501],[-86.053,14.433],[-86.063,14.393],[-86.109,14.348],[-86.151,14.272],[-86.186,14.361],[-86.249,14.345],[-86.258,14.334],[-86.268,14.332],[-86.287,14.319],[-86.295,14.319],[-86.338,14.283],[-86.35,14.288],[-86.353,14.282],[-86.367,14.282],[-86.441,14.289],[-86.448,14.314],[-86.464,14.333],[-86.503,14.337],[-86.508,14.353],[-86.515,14.353],[-86.522,14.364],[-86.576,14.376],[-86.549,14.4],[-86.552,14.434],[-86.56,14.444],[-86.566,14.488],[-86.562,14.49],[-86.561,14.503],[-86.555,14.51],[-86.556,14.516],[-86.55,14.519],[-86.547,14.526],[-86.549,14.534],[-86.544,14.54],[-86.563,14.542],[-86.566,14.546],[-86.56,14.557],[-86.563,14.567],[-86.577,14.58],[-86.587,14.583],[-86.591,14.594],[-86.609,14.602],[-86.606,14.607],[-86.615,14.615],[-86.617,14.627],[-86.626,14.632],[-86.628,14.642],[-86.637,14.643],[-86.637,14.648],[-86.659,14.648],[-86.656,14.662],[-86.664,14.669],[-86.667,14.679],[-86.673,14.681],[-86.668,14.685],[-86.668,14.691],[-86.676,14.691],[-86.678,14.695],[-86.671,14.711],[-86.659,14.719],[-86.657,14.724]]],[[[-86.659,14.726],[-86.658,14.725],[-86.659,14.725],[-86.659,14.726]]]]}},{"type":"Feature","properties":{"cve_ent":"HN15","cve_mun":"002","cvegeo":"HN1502","nombre":"Campamento"},"geometry":{"type":"Polygon","coordinates":[[[-86.713,14.419],[-86.711,14.433],[-86.734,14.479],[-86.729,14.506],[-86.743,14.51],[-86.751,14.532],[-86.74,14.577],[-86.685,14.581],[-86.659,14.594],[-86.647,14.576],[-86.639,14.574],[-86.614,14.58],[-86.61,14.589],[-86.6,14.593],[-86.601,14.597],[-86.591,14.594],[-86.587,14.583],[-86.577,14.58],[-86.563,14.567],[-86.56,14.56],[-86.566,14.548],[-86.563,14.542],[-86.544,14.54],[-86.549,14.534],[-86.547,14.526],[-86.55,14.519],[-86.556,14.516],[-86.555,14.51],[-86.561,14.503],[-86.562,14.49],[-86.566,14.488],[-86.56,14.444],[-86.552,14.434],[-86.55,14.398],[-86.576,14.376],[-86.598,14.382],[-86.607,14.373],[-86.612,14.375],[-86.615,14.394],[-86.627,14.398],[-86.628,14.407],[-86.639,14.405],[-86.649,14.409],[-86.656,14.397],[-86.67,14.404],[-86.669,14.409],[-86.679,14.409],[-86.695,14.418],[-86.706,14.415],[-86.713,14.419]]]}},{"type":"Feature","properties":{"cve_ent":"HN15","cve_mun":"003","cvegeo":"HN1503","nombre":"Catacamas"},"geometry":{"type":"Polygon","coordinates":[[[-85.918,14.69],[-85.918,14.712],[-85.923,14.72],[-85.922,14.726],[-85.931,14.734],[-85.929,14.74],[-85.934,14.745],[-85.923,14.753],[-85.912,14.753],[-85.91,14.759],[-85.924,14.922],[-85.916,14.924],[-85.94,15.033],[-85.936,15.048],[-85.848,15.056],[-85.813,15.034],[-85.8,15.032],[-85.728,15.077],[-85.698,15.083],[-85.624,15.022],[-85.616,15.026],[-85.606,15.024],[-85.583,14.971],[-85.426,14.869],[-85.405,14.865],[-85.402,14.873],[-85.396,14.869],[-85.392,14.871],[-85.388,14.863],[-85.383,14.865],[-85.38,14.862],[-85.373,14.864],[-85.377,14.87],[-85.366,14.876],[-85.359,14.889],[-85.33,14.883],[-85.326,14.889],[-85.302,14.902],[-85.296,14.896],[-85.284,14.9],[-85.276,14.894],[-85.276,14.889],[-85.269,14.89],[-85.27,14.887],[-85.262,14.883],[-85.258,14.875],[-85.248,14.874],[-85.246,14.878],[-85.241,14.874],[-85.235,14.878],[-85.234,14.869],[-85.228,14.869],[-85.215,14.859],[-85.209,14.86],[-85.211,14.854],[-85.207,14.848],[-85.195,14.847],[-85.191,14.835],[-85.176,14.838],[-85.182,14.858],[-85.174,14.871],[-85.164,14.868],[-85.166,14.858],[-85.159,14.859],[-85.158,14.867],[-85.152,14.871],[-85.142,14.873],[-85.135,14.873],[-85.134,14.865],[-85.123,14.858],[-85.118,14.863],[-85.111,14.859],[-85.105,14.863],[-85.107,14.851],[-85.12,14.844],[-85.129,14.846],[-85.131,14.843],[-85.134,14.816],[-85.148,14.786],[-85.142,14.783],[-85.139,14.774],[-85.15,14.764],[-85.16,14.762],[-85.051,14.651],[-85.028,14.643],[-85.024,14.634],[-85.026,14.625],[-85.037,14.619],[-85.043,14.61],[-85.022,14.61],[-85.022,14.607],[-85.043,14.575],[-85.059,14.569],[-85.066,14.559],[-85.075,14.56],[-85.087,14.552],[-85.102,14.556],[-85.108,14.562],[-85.112,14.576],[-85.121,14.579],[-85.122,14.586],[-85.135,14.576],[-85.147,14.577],[-85.152,14.572],[-85.149,14.565],[-85.142,14.563],[-85.14,14.552],[-85.148,14.544],[-85.139,14.522],[-85.148,14.505],[-85.15,14.485],[-85.164,14.482],[-85.166,14.474],[-85.176,14.476],[-85.185,14.467],[-85.181,14.461],[-85.185,14.445],[-85.18,14.429],[-85.188,14.425],[-85.192,14.407],[-85.201,14.408],[-85.206,14.386],[-85.221,14.377],[-85.219,14.368],[-85.206,14.37],[-85.196,14.365],[-85.198,14.355],[-85.194,14.351],[-85.199,14.346],[-85.194,14.341],[-85.193,14.329],[-85.181,14.332],[-85.181,14.315],[-85.153,14.302],[-85.158,14.288],[-85.177,14.271],[-85.185,14.25],[-85.189,14.248],[-85.198,14.257],[-85.208,14.253],[-85.241,14.252],[-85.27,14.262],[-85.27,14.259],[-85.284,14.261],[-85.294,14.25],[-85.313,14.256],[-85.332,14.248],[-85.341,14.249],[-85.342,14.232],[-85.356,14.232],[-85.358,14.217],[-85.362,14.213],[-85.37,14.214],[-85.369,14.225],[-85.379,14.225],[-85.384,14.221],[-85.375,14.216],[-85.374,14.197],[-85.381,14.197],[-85.375,14.183],[-85.399,14.163],[-85.401,14.145],[-85.395,14.139],[-85.405,14.134],[-85.404,14.124],[-85.414,14.122],[-85.42,14.115],[-85.426,14.117],[-85.429,14.107],[-85.445,14.106],[-85.456,14.114],[-85.457,14.106],[-85.462,14.104],[-85.467,14.093],[-85.478,14.095],[-85.479,14.084],[-85.483,14.089],[-85.494,14.088],[-85.494,14.076],[-85.498,14.077],[-85.5,14.088],[-85.506,14.089],[-85.509,14.084],[-85.508,14.062],[-85.522,14.06],[-85.518,14.048],[-85.529,14.05],[-85.538,14.046],[-85.562,14.051],[-85.555,14.064],[-85.568,14.063],[-85.569,14.071],[-85.578,14.083],[-85.586,14.08],[-85.599,14.092],[-85.61,14.096],[-85.604,14.133],[-85.609,14.136],[-85.614,14.152],[-85.653,14.192],[-85.667,14.173],[-85.712,14.19],[-85.731,14.186],[-85.748,14.189],[-85.759,14.2],[-85.765,14.199],[-85.782,14.161],[-85.808,14.163],[-85.829,14.188],[-85.846,14.181],[-85.851,14.172],[-85.858,14.173],[-85.872,14.164],[-85.876,14.158],[-85.872,14.147],[-85.877,14.133],[-85.885,14.133],[-85.894,14.125],[-85.904,14.126],[-85.909,14.131],[-85.897,14.161],[-85.887,14.177],[-85.879,14.18],[-85.876,14.192],[-85.85,14.205],[-85.846,14.213],[-85.837,14.212],[-85.823,14.226],[-85.819,14.237],[-85.821,14.248],[-85.817,14.253],[-85.823,14.264],[-85.819,14.276],[-85.827,14.283],[-85.823,14.294],[-85.825,14.302],[-85.821,14.305],[-85.82,14.315],[-85.804,14.325],[-85.804,14.329],[-85.805,14.336],[-85.82,14.357],[-85.83,14.362],[-85.844,14.358],[-85.858,14.365],[-85.861,14.38],[-85.875,14.39],[-85.875,14.398],[-85.891,14.409],[-85.933,14.411],[-85.936,14.419],[-85.952,14.432],[-85.959,14.447],[-85.983,14.439],[-85.993,14.442],[-85.995,14.448],[-86.002,14.452],[-86.001,14.457],[-85.99,14.465],[-85.987,14.474],[-85.977,14.482],[-85.98,14.492],[-85.97,14.495],[-85.962,14.516],[-85.962,14.52],[-85.971,14.527],[-85.984,14.523],[-85.992,14.539],[-85.984,14.556],[-85.96,14.577],[-85.962,14.629],[-85.944,14.658],[-85.928,14.675],[-85.925,14.686],[-85.918,14.69]]]}},{"type":"Feature","properties":{"cve_ent":"HN15","cve_mun":"004","cvegeo":"HN1504","nombre":"Concordia"},"geometry":{"type":"Polygon","coordinates":[[[-86.742,14.743],[-86.745,14.739],[-86.738,14.741],[-86.741,14.736],[-86.737,14.737],[-86.726,14.727],[-86.719,14.727],[-86.711,14.721],[-86.698,14.727],[-86.696,14.732],[-86.687,14.733],[-86.681,14.732],[-86.674,14.724],[-86.672,14.706],[-86.678,14.693],[-86.668,14.691],[-86.668,14.685],[-86.673,14.681],[-86.667,14.679],[-86.664,14.669],[-86.656,14.662],[-86.659,14.648],[-86.637,14.648],[-86.637,14.643],[-86.628,14.642],[-86.626,14.632],[-86.617,14.627],[-86.615,14.615],[-86.606,14.607],[-86.609,14.602],[-86.6,14.599],[-86.6,14.593],[-86.61,14.589],[-86.614,14.58],[-86.645,14.574],[-86.659,14.594],[-86.685,14.581],[-86.74,14.577],[-86.76,14.586],[-86.762,14.599],[-86.768,14.606],[-86.797,14.623],[-86.796,14.63],[-86.806,14.64],[-86.792,14.654],[-86.78,14.689],[-86.782,14.702],[-86.757,14.73],[-86.758,14.741],[-86.746,14.746],[-86.742,14.743]]]}},{"type":"Feature","properties":{"cve_ent":"HN15","cve_mun":"005","cvegeo":"HN1505","nombre":"Dulce Nombre de Culmí"},"geometry":{"type":"Polygon","coordinates":[[[-85.377,14.869],[-85.373,14.864],[-85.38,14.862],[-85.383,14.865],[-85.388,14.863],[-85.392,14.871],[-85.396,14.869],[-85.402,14.873],[-85.405,14.865],[-85.426,14.869],[-85.583,14.971],[-85.606,15.024],[-85.616,15.026],[-85.624,15.022],[-85.698,15.083],[-85.659,15.102],[-85.637,15.123],[-85.636,15.139],[-85.641,15.149],[-85.618,15.193],[-85.585,15.228],[-85.53,15.275],[-85.484,15.326],[-85.458,15.432],[-85.378,15.403],[-85.237,15.215],[-85.098,15.181],[-85.0,15.071],[-85.0,14.724],[-85.029,14.703],[-85.021,14.687],[-85.028,14.672],[-85.047,14.671],[-85.051,14.653],[-85.16,14.762],[-85.15,14.764],[-85.139,14.774],[-85.142,14.783],[-85.148,14.786],[-85.134,14.816],[-85.131,14.843],[-85.129,14.846],[-85.12,14.844],[-85.107,14.851],[-85.105,14.863],[-85.107,14.859],[-85.118,14.863],[-85.123,14.858],[-85.134,14.865],[-85.135,14.873],[-85.142,14.873],[-85.152,14.871],[-85.158,14.867],[-85.159,14.859],[-85.166,14.858],[-85.164,14.868],[-85.174,14.871],[-85.182,14.858],[-85.176,14.838],[-85.191,14.835],[-85.195,14.847],[-85.207,14.848],[-85.211,14.854],[-85.209,14.86],[-85.215,14.859],[-85.228,14.869],[-85.234,14.869],[-85.235,14.878],[-85.241,14.874],[-85.246,14.878],[-85.248,14.874],[-85.258,14.875],[-85.262,14.883],[-85.27,14.887],[-85.269,14.89],[-85.276,14.889],[-85.276,14.894],[-85.284,14.9],[-85.296,14.896],[-85.302,14.902],[-85.326,14.889],[-85.33,14.883],[-85.359,14.889],[-85.366,14.876],[-85.377,14.869]]]}},{"type":"Feature","properties":{"cve_ent":"HN15","cve_mun":"006","cvegeo":"HN1506","nombre":"El Rosario"},"geometry":{"type":"Polygon","coordinates":[[[-86.755,14.906],[-86.74,14.902],[-86.717,14.942],[-86.713,14.943],[-86.713,14.948],[-86.703,14.951],[-86.702,14.967],[-86.706,14.968],[-86.704,14.972],[-86.689,14.962],[-86.689,14.956],[-86.676,14.954],[-86.675,14.943],[-86.667,14.941],[-86.651,14.928],[-86.628,14.927],[-86.623,14.893],[-86.631,14.861],[-86.689,14.837],[-86.754,14.86],[-86.758,14.868],[-86.777,14.884],[-86.782,14.898],[-86.755,14.906]]]}},{"type":"Feature","properties":{"cve_ent":"HN15","cve_mun":"007","cvegeo":"HN1507","nombre":"Esquipulas del Norte"},"geometry":{"type":"Polygon","coordinates":[[[-86.496,15.387],[-86.489,15.394],[-86.475,15.395],[-86.472,15.403],[-86.476,15.406],[-86.438,15.4],[-86.433,15.387],[-86.426,15.383],[-86.428,15.377],[-86.411,15.37],[-86.406,15.374],[-86.398,15.366],[-86.396,15.353],[-86.391,15.347],[-86.397,15.326],[-86.449,15.322],[-86.457,15.312],[-86.462,15.298],[-86.466,15.296],[-86.462,15.291],[-86.465,15.287],[-86.462,15.281],[-86.472,15.275],[-86.471,15.27],[-86.482,15.253],[-86.481,15.247],[-86.488,15.24],[-86.487,15.202],[-86.511,15.196],[-86.517,15.186],[-86.523,15.184],[-86.526,15.175],[-86.575,15.162],[-86.596,15.141],[-86.623,15.148],[-86.623,15.157],[-86.63,15.16],[-86.634,15.172],[-86.649,15.182],[-86.644,15.203],[-86.66,15.207],[-86.665,15.228],[-86.665,15.248],[-86.661,15.263],[-86.657,15.265],[-86.665,15.292],[-86.65,15.303],[-86.646,15.325],[-86.649,15.333],[-86.634,15.341],[-86.616,15.337],[-86.604,15.343],[-86.596,15.353],[-86.564,15.368],[-86.55,15.369],[-86.544,15.377],[-86.517,15.391],[-86.496,15.387]]]}},{"type":"Feature","properties":{"cve_ent":"HN15","cve_mun":"008","cvegeo":"HN1508","nombre":"Gualaco"},"geometry":{"type":"Polygon","coordinates":[[[-86.331,15.246],[-86.314,15.249],[-86.309,15.262],[-86.296,15.276],[-86.3,15.28],[-86.297,15.287],[-86.305,15.291],[-86.309,15.302],[-86.317,15.307],[-86.32,15.322],[-86.328,15.334],[-86.357,15.334],[-86.291,15.375],[-86.279,15.374],[-86.232,15.408],[-86.165,15.369],[-86.158,15.371],[-86.151,15.367],[-86.14,15.375],[-86.129,15.372],[-86.117,15.378],[-86.105,15.391],[-86.093,15.385],[-86.09,15.398],[-86.07,15.393],[-86.068,15.397],[-86.053,15.395],[-86.045,15.384],[-86.03,15.386],[-86.029,15.397],[-86.021,15.4],[-86.013,15.396],[-86.007,15.405],[-86.0,15.403],[-85.994,15.412],[-85.982,15.412],[-85.978,15.42],[-85.968,15.421],[-85.968,15.437],[-85.961,15.442],[-85.959,15.449],[-85.948,15.46],[-85.935,15.459],[-85.892,15.497],[-85.889,15.501],[-85.894,15.505],[-85.892,15.512],[-85.896,15.517],[-85.892,15.524],[-85.882,15.529],[-85.866,15.529],[-85.865,15.523],[-85.837,15.516],[-85.833,15.518],[-85.832,15.51],[-85.821,15.505],[-85.776,15.45],[-85.78,15.437],[-85.774,15.43],[-85.772,15.418],[-85.784,15.408],[-85.774,15.401],[-85.773,15.39],[-85.78,15.38],[-85.86,15.403],[-85.947,15.366],[-85.931,15.244],[-85.942,15.209],[-85.93,15.208],[-85.925,15.203],[-85.948,15.195],[-85.945,15.165],[-85.941,15.161],[-85.947,15.153],[-85.932,15.152],[-85.927,15.144],[-85.916,15.148],[-85.918,15.139],[-85.915,15.138],[-85.91,15.139],[-85.911,15.143],[-85.907,15.136],[-85.898,15.14],[-85.893,15.133],[-85.896,15.128],[-85.891,15.13],[-85.888,15.125],[-85.878,15.126],[-85.876,15.121],[-85.873,15.126],[-85.862,15.13],[-85.857,15.122],[-85.852,15.124],[-85.849,15.111],[-85.851,15.102],[-85.855,15.101],[-85.849,15.097],[-85.848,15.056],[-85.936,15.048],[-85.94,15.033],[-85.916,14.924],[-85.921,14.921],[-85.995,14.934],[-86.049,14.936],[-86.045,14.929],[-86.053,14.928],[-86.083,14.936],[-86.139,14.932],[-86.275,14.969],[-86.336,14.995],[-86.275,15.015],[-86.27,15.039],[-86.258,15.058],[-86.276,15.168],[-86.32,15.219],[-86.325,15.24],[-86.331,15.246]]]}},{"type":"Feature","properties":{"cve_ent":"HN15","cve_mun":"009","cvegeo":"HN1509","nombre":"Guarizama"},"geometry":{"type":"Polygon","coordinates":[[[-86.345,14.902],[-86.351,14.913],[-86.342,14.919],[-86.335,14.939],[-86.315,14.959],[-86.326,14.986],[-86.335,14.9946],[-86.275,14.969],[-86.225,14.956],[-86.223,14.944],[-86.234,14.934],[-86.238,14.91],[-86.248,14.9],[-86.249,14.89],[-86.244,14.884],[-86.242,14.865],[-86.257,14.843],[-86.252,14.84],[-86.252,14.835],[-86.243,14.831],[-86.242,14.82],[-86.251,14.819],[-86.254,14.824],[-86.273,14.822],[-86.312,14.844],[-86.334,14.866],[-86.364,14.878],[-86.352,14.898],[-86.345,14.902]],[[-86.344,14.902],[-86.345,14.9],[-86.343,14.9],[-86.344,14.902]]]}},{"type":"Feature","properties":{"cve_ent":"HN15","cve_mun":"010","cvegeo":"HN1510","nombre":"Guata"},"geometry":{"type":"Polygon","coordinates":[[[-86.435,15.052],[-86.435,15.08],[-86.453,15.083],[-86.436,15.114],[-86.443,15.117],[-86.449,15.114],[-86.46,15.131],[-86.484,15.148],[-86.49,15.159],[-86.481,15.172],[-86.486,15.185],[-86.488,15.24],[-86.481,15.247],[-86.482,15.253],[-86.471,15.27],[-86.472,15.275],[-86.462,15.281],[-86.465,15.285],[-86.462,15.291],[-86.466,15.296],[-86.449,15.322],[-86.397,15.326],[-86.38,15.323],[-86.357,15.334],[-86.328,15.334],[-86.32,15.322],[-86.317,15.307],[-86.309,15.302],[-86.305,15.291],[-86.297,15.287],[-86.3,15.28],[-86.296,15.276],[-86.309,15.262],[-86.315,15.248],[-86.322,15.25],[-86.331,15.245],[-86.325,15.24],[-86.32,15.219],[-86.276,15.168],[-86.27,15.121],[-86.259,15.077],[-86.258,15.058],[-86.27,15.039],[-86.275,15.015],[-86.31,15.006],[-86.349,14.99],[-86.394,15.001],[-86.447,15.034],[-86.435,15.052]]]}},{"type":"Feature","properties":{"cve_ent":"HN15","cve_mun":"011","cvegeo":"HN1511","nombre":"Guayape"},"geometry":{"type":"Polygon","coordinates":[[[-86.912,14.817],[-86.904,14.826],[-86.913,14.853],[-86.919,14.864],[-86.929,14.868],[-86.93,14.888],[-86.936,14.898],[-86.923,14.907],[-86.925,14.918],[-86.914,14.934],[-86.903,14.939],[-86.865,14.926],[-86.855,14.912],[-86.812,14.894],[-86.782,14.898],[-86.777,14.884],[-86.758,14.868],[-86.754,14.86],[-86.724,14.85],[-86.741,14.837],[-86.738,14.787],[-86.756,14.779],[-86.759,14.771],[-86.765,14.768],[-86.765,14.76],[-86.775,14.755],[-86.768,14.749],[-86.752,14.747],[-86.749,14.743],[-86.758,14.741],[-86.757,14.73],[-86.782,14.702],[-86.78,14.689],[-86.792,14.654],[-86.806,14.64],[-86.829,14.642],[-86.834,14.652],[-86.851,14.664],[-86.879,14.746],[-86.901,14.771],[-86.894,14.796],[-86.891,14.799],[-86.904,14.808],[-86.909,14.807],[-86.912,14.817]],[[-86.893,14.794],[-86.894,14.793],[-86.893,14.793],[-86.893,14.794]]]}},{"type":"Feature","properties":{"cve_ent":"HN15","cve_mun":"012","cvegeo":"HN1512","nombre":"Jano"},"geometry":{"type":"Polygon","coordinates":[[[-86.606,15.1],[-86.615,15.115],[-86.624,15.117],[-86.623,15.148],[-86.596,15.141],[-86.575,15.162],[-86.526,15.175],[-86.523,15.184],[-86.517,15.186],[-86.511,15.196],[-86.494,15.198],[-86.487,15.203],[-86.486,15.185],[-86.481,15.173],[-86.49,15.159],[-86.486,15.15],[-86.463,15.134],[-86.455,15.121],[-86.448,15.117],[-86.449,15.114],[-86.444,15.117],[-86.436,15.114],[-86.453,15.083],[-86.435,15.08],[-86.432,15.07],[-86.435,15.052],[-86.447,15.034],[-86.409,15.011],[-86.418,15.005],[-86.47,14.996],[-86.476,14.989],[-86.476,14.977],[-86.495,14.951],[-86.496,14.973],[-86.519,14.975],[-86.522,14.954],[-86.515,14.955],[-86.513,14.949],[-86.52,14.935],[-86.52,14.925],[-86.516,14.921],[-86.52,14.918],[-86.532,14.928],[-86.537,14.94],[-86.549,14.948],[-86.55,14.964],[-86.56,14.968],[-86.553,15.011],[-86.577,15.014],[-86.582,15.037],[-86.583,15.071],[-86.59,15.075],[-86.589,15.086],[-86.604,15.085],[-86.606,15.1]]]}},{"type":"Feature","properties":{"cve_ent":"HN15","cve_mun":"013","cvegeo":"HN1513","nombre":"La Unión"},"geometry":{"type":"Polygon","coordinates":[[[-86.675,14.944],[-86.676,14.954],[-86.689,14.956],[-86.689,14.962],[-86.7,14.971],[-86.695,14.986],[-86.701,14.997],[-86.718,15.001],[-86.745,15.018],[-86.758,15.019],[-86.773,15.069],[-86.792,15.104],[-86.79,15.15],[-86.784,15.149],[-86.777,15.296],[-86.762,15.289],[-86.753,15.27],[-86.733,15.265],[-86.722,15.269],[-86.701,15.265],[-86.663,15.284],[-86.657,15.265],[-86.661,15.263],[-86.665,15.248],[-86.665,15.228],[-86.66,15.207],[-86.644,15.203],[-86.649,15.182],[-86.634,15.172],[-86.63,15.16],[-86.623,15.157],[-86.624,15.117],[-86.615,15.115],[-86.608,15.108],[-86.604,15.085],[-86.589,15.086],[-86.59,15.075],[-86.583,15.071],[-86.582,15.037],[-86.577,15.014],[-86.553,15.011],[-86.56,14.944],[-86.573,14.927],[-86.648,14.927],[-86.675,14.944]]]}},{"type":"Feature","properties":{"cve_ent":"HN15","cve_mun":"014","cvegeo":"HN1514","nombre":"Mangulile"},"geometry":{"type":"Polygon","coordinates":[[[-86.908,15.069],[-86.897,15.08],[-86.888,15.077],[-86.882,15.083],[-86.886,15.103],[-86.88,15.104],[-86.881,15.119],[-86.862,15.141],[-86.862,15.145],[-86.868,15.144],[-86.868,15.147],[-86.862,15.159],[-86.858,15.16],[-86.86,15.166],[-86.856,15.17],[-86.856,15.18],[-86.865,15.2],[-86.869,15.231],[-86.865,15.248],[-86.857,15.258],[-86.848,15.257],[-86.838,15.266],[-86.82,15.272],[-86.818,15.285],[-86.793,15.279],[-86.778,15.291],[-86.784,15.149],[-86.79,15.15],[-86.792,15.104],[-86.773,15.069],[-86.758,15.019],[-86.782,15.019],[-86.787,15.012],[-86.803,15.013],[-86.814,15.005],[-86.819,15.007],[-86.84,14.99],[-86.848,14.998],[-86.891,15.001],[-86.904,14.992],[-86.957,14.988],[-86.971,14.983],[-86.99,15.005],[-86.991,15.016],[-86.98,15.033],[-86.964,15.046],[-86.944,15.041],[-86.933,15.044],[-86.925,15.04],[-86.919,15.068],[-86.908,15.069]]]}},{"type":"Feature","properties":{"cve_ent":"HN15","cve_mun":"015","cvegeo":"HN1515","nombre":"Manto"},"geometry":{"type":"MultiPolygon","coordinates":[[[[-86.52,14.933],[-86.513,14.949],[-86.515,14.955],[-86.522,14.954],[-86.519,14.975],[-86.496,14.973],[-86.495,14.951],[-86.476,14.977],[-86.476,14.989],[-86.468,14.997],[-86.418,15.005],[-86.409,15.011],[-86.394,15.001],[-86.349,14.99],[-86.335,14.995],[-86.326,14.986],[-86.315,14.959],[-86.335,14.939],[-86.342,14.919],[-86.351,14.913],[-86.35,14.903],[-86.346,14.905],[-86.345,14.902],[-86.352,14.898],[-86.364,14.878],[-86.334,14.866],[-86.312,14.844],[-86.273,14.822],[-86.254,14.824],[-86.251,14.819],[-86.243,14.82],[-86.243,14.812],[-86.255,14.798],[-86.244,14.791],[-86.256,14.773],[-86.26,14.753],[-86.268,14.744],[-86.297,14.742],[-86.378,14.767],[-86.463,14.813],[-86.477,14.808],[-86.481,14.821],[-86.473,14.843],[-86.477,14.847],[-86.483,14.846],[-86.484,14.855],[-86.526,14.854],[-86.537,14.865],[-86.529,14.888],[-86.536,14.896],[-86.529,14.905],[-86.515,14.911],[-86.52,14.933]]],[[[-86.345,14.9],[-86.344,14.902],[-86.343,14.9],[-86.345,14.9]]]]}},{"type":"Feature","properties":{"cve_ent":"HN15","cve_mun":"016","cvegeo":"HN1516","nombre":"Salamá"},"geometry":{"type":"Polygon","coordinates":[[[-86.741,14.736],[-86.738,14.741],[-86.745,14.739],[-86.743,14.746],[-86.759,14.746],[-86.775,14.754],[-86.765,14.76],[-86.765,14.768],[-86.759,14.771],[-86.756,14.779],[-86.738,14.787],[-86.741,14.837],[-86.729,14.844],[-86.727,14.85],[-86.689,14.837],[-86.631,14.861],[-86.623,14.893],[-86.628,14.927],[-86.573,14.927],[-86.56,14.944],[-86.56,14.968],[-86.55,14.964],[-86.549,14.948],[-86.537,14.94],[-86.532,14.928],[-86.517,14.918],[-86.515,14.911],[-86.534,14.9],[-86.536,14.895],[-86.529,14.888],[-86.541,14.855],[-86.56,14.839],[-86.556,14.792],[-86.582,14.78],[-86.635,14.732],[-86.642,14.732],[-86.641,14.735],[-86.647,14.739],[-86.646,14.735],[-86.652,14.729],[-86.656,14.731],[-86.659,14.719],[-86.666,14.716],[-86.672,14.707],[-86.675,14.711],[-86.674,14.724],[-86.683,14.733],[-86.696,14.732],[-86.698,14.727],[-86.711,14.721],[-86.719,14.727],[-86.726,14.727],[-86.737,14.737],[-86.741,14.736]],[[-86.658,14.725],[-86.659,14.726],[-86.659,14.725],[-86.658,14.725]]]}},{"type":"Feature","properties":{"cve_ent":"HN15","cve_mun":"017","cvegeo":"HN1517","nombre":"San Estéban"},"geometry":{"type":"Polygon","coordinates":[[[-85.916,15.148],[-85.927,15.144],[-85.932,15.152],[-85.947,15.153],[-85.941,15.161],[-85.945,15.165],[-85.948,15.195],[-85.925,15.203],[-85.93,15.208],[-85.942,15.209],[-85.931,15.244],[-85.947,15.366],[-85.86,15.403],[-85.78,15.38],[-85.773,15.39],[-85.774,15.401],[-85.784,15.408],[-85.772,15.418],[-85.774,15.43],[-85.78,15.437],[-85.776,15.45],[-85.821,15.505],[-85.834,15.513],[-85.832,15.523],[-85.814,15.544],[-85.788,15.551],[-85.785,15.561],[-85.789,15.572],[-85.785,15.578],[-85.773,15.578],[-85.767,15.586],[-85.762,15.586],[-85.747,15.57],[-85.714,15.568],[-85.701,15.572],[-85.683,15.591],[-85.673,15.596],[-85.544,15.471],[-85.458,15.432],[-85.484,15.326],[-85.53,15.275],[-85.585,15.228],[-85.618,15.193],[-85.641,15.149],[-85.635,15.126],[-85.659,15.102],[-85.698,15.083],[-85.728,15.077],[-85.796,15.033],[-85.807,15.032],[-85.848,15.056],[-85.849,15.097],[-85.855,15.101],[-85.849,15.107],[-85.853,15.125],[-85.857,15.122],[-85.864,15.13],[-85.876,15.121],[-85.878,15.126],[-85.888,15.125],[-85.891,15.13],[-85.896,15.128],[-85.893,15.133],[-85.898,15.14],[-85.907,15.136],[-85.908,15.142],[-85.911,15.143],[-85.91,15.139],[-85.915,15.138],[-85.918,15.139],[-85.916,15.148]]]}},{"type":"Feature","properties":{"cve_ent":"HN15","cve_mun":"018","cvegeo":"HN1518","nombre":"San Francisco de Becerra"},"geometry":{"type":"Polygon","coordinates":[[[-86.146,14.629],[-86.141,14.634],[-86.143,14.64],[-86.135,14.639],[-86.134,14.646],[-86.128,14.643],[-86.126,14.654],[-86.12,14.655],[-86.12,14.664],[-86.113,14.664],[-86.116,14.658],[-86.111,14.658],[-86.108,14.669],[-86.103,14.667],[-86.093,14.671],[-86.087,14.664],[-86.079,14.671],[-86.064,14.674],[-86.063,14.68],[-86.056,14.675],[-86.056,14.68],[-86.05,14.684],[-86.034,14.686],[-86.035,14.695],[-86.03,14.694],[-86.029,14.687],[-86.016,14.697],[-86.011,14.69],[-86.007,14.711],[-85.996,14.723],[-85.998,14.732],[-85.991,14.735],[-85.983,14.732],[-85.98,14.726],[-85.983,14.719],[-85.971,14.712],[-85.978,14.709],[-85.978,14.698],[-85.968,14.673],[-85.972,14.66],[-85.963,14.652],[-85.96,14.577],[-85.989,14.548],[-85.992,14.537],[-85.988,14.528],[-85.995,14.529],[-86.012,14.546],[-86.017,14.541],[-86.052,14.536],[-86.09,14.507],[-86.098,14.514],[-86.09,14.522],[-86.101,14.538],[-86.101,14.547],[-86.126,14.574],[-86.128,14.586],[-86.138,14.597],[-86.136,14.618],[-86.145,14.624],[-86.146,14.629]]]}},{"type":"Feature","properties":{"cve_ent":"HN15","cve_mun":"019","cvegeo":"HN1519","nombre":"San Francisco de la Paz"},"geometry":{"type":"Polygon","coordinates":[[[-86.243,14.831],[-86.257,14.843],[-86.242,14.865],[-86.244,14.884],[-86.249,14.89],[-86.248,14.9],[-86.238,14.91],[-86.234,14.934],[-86.223,14.944],[-86.225,14.956],[-86.139,14.932],[-86.083,14.936],[-86.045,14.929],[-85.981,14.813],[-86.002,14.8],[-86.136,14.743],[-86.149,14.725],[-86.269,14.744],[-86.258,14.756],[-86.256,14.773],[-86.244,14.791],[-86.255,14.797],[-86.242,14.814],[-86.243,14.831]]]}},{"type":"Feature","properties":{"cve_ent":"HN15","cve_mun":"020","cvegeo":"HN1520","nombre":"Santa Maria del Real"},"geometry":{"type":"Polygon","coordinates":[[[-86.049,14.936],[-85.995,14.934],[-85.924,14.922],[-85.91,14.759],[-85.912,14.753],[-85.923,14.753],[-85.934,14.743],[-85.929,14.74],[-85.931,14.734],[-85.922,14.726],[-85.918,14.69],[-85.925,14.686],[-85.928,14.675],[-85.944,14.658],[-85.962,14.629],[-85.963,14.652],[-85.972,14.66],[-85.968,14.673],[-85.977,14.694],[-85.978,14.709],[-85.967,14.713],[-85.97,14.721],[-85.962,14.72],[-85.955,14.727],[-85.946,14.727],[-85.941,14.737],[-85.999,14.771],[-86.02,14.793],[-85.981,14.813],[-86.049,14.936]]]}},{"type":"Feature","properties":{"cve_ent":"HN15","cve_mun":"021","cvegeo":"HN1521","nombre":"Silca"},"geometry":{"type":"MultiPolygon","coordinates":[[[[-86.634,14.733],[-86.582,14.78],[-86.556,14.792],[-86.56,14.839],[-86.541,14.855],[-86.537,14.87],[-86.537,14.865],[-86.526,14.854],[-86.484,14.855],[-86.483,14.846],[-86.477,14.847],[-86.473,14.843],[-86.481,14.821],[-86.478,14.809],[-86.463,14.813],[-86.425,14.792],[-86.448,14.75],[-86.451,14.713],[-86.482,14.714],[-86.489,14.722],[-86.499,14.722],[-86.505,14.709],[-86.529,14.682],[-86.591,14.687],[-86.6,14.695],[-86.623,14.704],[-86.627,14.714],[-86.634,14.719],[-86.634,14.733]]],[[[-86.634,14.734],[-86.635,14.733],[-86.635,14.734],[-86.634,14.734]]]]}},{"type":"Feature","properties":{"cve_ent":"HN15","cve_mun":"022","cvegeo":"HN1522","nombre":"Yocón"},"geometry":{"type":"Polygon","coordinates":[[[-86.782,15.019],[-86.745,15.018],[-86.718,15.001],[-86.701,14.997],[-86.695,14.986],[-86.7,14.971],[-86.705,14.972],[-86.706,14.969],[-86.702,14.967],[-86.703,14.951],[-86.713,14.948],[-86.713,14.943],[-86.717,14.942],[-86.724,14.925],[-86.741,14.901],[-86.755,14.906],[-86.812,14.894],[-86.855,14.912],[-86.865,14.926],[-86.931,14.952],[-86.933,14.962],[-86.949,14.965],[-86.956,14.971],[-86.961,14.969],[-86.97,14.976],[-86.971,14.983],[-86.957,14.988],[-86.904,14.992],[-86.891,15.001],[-86.848,14.998],[-86.84,14.99],[-86.819,15.007],[-86.814,15.005],[-86.803,15.013],[-86.787,15.012],[-86.782,15.019]]]}},{"type":"Feature","properties":{"cve_ent":"HN15","cve_mun":"023","cvegeo":"HN1523","nombre":"Patuca"},"geometry":{"type":"Polygon","coordinates":[[[-86.038,14.263],[-86.062,14.272],[-86.071,14.265],[-86.069,14.247],[-86.078,14.247],[-86.148,14.266],[-86.151,14.272],[-86.109,14.348],[-86.063,14.393],[-86.053,14.433],[-86.011,14.501],[-85.988,14.528],[-85.984,14.523],[-85.971,14.527],[-85.962,14.52],[-85.967,14.501],[-85.97,14.495],[-85.98,14.492],[-85.977,14.482],[-85.987,14.474],[-85.99,14.465],[-86.001,14.457],[-86.002,14.452],[-85.995,14.448],[-85.993,14.442],[-85.983,14.439],[-85.959,14.447],[-85.952,14.432],[-85.936,14.419],[-85.933,14.411],[-85.891,14.409],[-85.875,14.398],[-85.875,14.39],[-85.861,14.38],[-85.858,14.365],[-85.844,14.358],[-85.83,14.362],[-85.815,14.352],[-85.805,14.336],[-85.804,14.325],[-85.82,14.315],[-85.821,14.305],[-85.825,14.302],[-85.823,14.294],[-85.827,14.283],[-85.819,14.276],[-85.823,14.268],[-85.817,14.253],[-85.821,14.248],[-85.819,14.237],[-85.826,14.221],[-85.834,14.218],[-85.837,14.212],[-85.846,14.213],[-85.85,14.205],[-85.876,14.192],[-85.879,14.18],[-85.887,14.177],[-85.905,14.143],[-85.909,14.131],[-85.904,14.126],[-85.926,14.143],[-85.936,14.129],[-85.949,14.123],[-85.948,14.131],[-85.952,14.135],[-85.94,14.17],[-85.981,14.178],[-85.994,14.187],[-85.999,14.228],[-86.013,14.248],[-86.017,14.261],[-86.028,14.266],[-86.038,14.263]]]}}]}