{"type":"FeatureCollection","features":[{"type":"Feature","properties":{"cve_ent":"HN16","cve_mun":"001","cvegeo":"HN1601","nombre":"Santa Bárbara"},"geometry":{"type":"Polygon","coordinates":[[[-88.283,14.896],[-88.302,14.916],[-88.32,14.921],[-88.3,14.938],[-88.286,14.938],[-88.283,14.942],[-88.268,14.937],[-88.258,14.938],[-88.261,14.944],[-88.261,14.978],[-88.256,14.979],[-88.252,14.986],[-88.229,14.987],[-88.226,14.99],[-88.219,14.976],[-88.184,14.97],[-88.143,14.981],[-88.124,15.001],[-88.089,14.999],[-88.073,14.993],[-88.05,14.994],[-88.061,14.933],[-88.11,14.922],[-88.11,14.896],[-88.101,14.878],[-88.169,14.863],[-88.176,14.867],[-88.188,14.866],[-88.207,14.845],[-88.26,14.815],[-88.274,14.815],[-88.268,14.836],[-88.264,14.839],[-88.269,14.845],[-88.267,14.859],[-88.258,14.855],[-88.253,14.857],[-88.256,14.863],[-88.264,14.865],[-88.263,14.871],[-88.27,14.875],[-88.27,14.88],[-88.262,14.882],[-88.254,14.893],[-88.283,14.896]]]}},{"type":"Feature","properties":{"cve_ent":"HN16","cve_mun":"002","cvegeo":"HN1602","nombre":"Arada"},"geometry":{"type":"Polygon","coordinates":[[[-88.33,14.909],[-88.331,14.868],[-88.307,14.849],[-88.28,14.872],[-88.271,14.868],[-88.264,14.873],[-88.264,14.865],[-88.256,14.863],[-88.253,14.857],[-88.258,14.855],[-88.267,14.859],[-88.269,14.845],[-88.264,14.839],[-88.272,14.823],[-88.284,14.822],[-88.294,14.812],[-88.3,14.811],[-88.313,14.817],[-88.312,14.824],[-88.32,14.818],[-88.331,14.797],[-88.344,14.791],[-88.356,14.809],[-88.369,14.811],[-88.364,14.823],[-88.38,14.838],[-88.398,14.838],[-88.395,14.886],[-88.387,14.886],[-88.363,14.911],[-88.33,14.909]]]}},{"type":"Feature","properties":{"cve_ent":"HN16","cve_mun":"003","cvegeo":"HN1603","nombre":"Atima"},"geometry":{"type":"Polygon","coordinates":[[[-88.541,14.96],[-88.541,14.971],[-88.547,14.973],[-88.542,14.983],[-88.548,15.002],[-88.542,15.005],[-88.479,15.004],[-88.469,15.007],[-88.465,15.0],[-88.47,14.991],[-88.47,14.98],[-88.478,14.97],[-88.459,14.952],[-88.461,14.942],[-88.45,14.937],[-88.438,14.94],[-88.432,14.928],[-88.436,14.915],[-88.406,14.909],[-88.418,14.896],[-88.432,14.89],[-88.45,14.889],[-88.461,14.867],[-88.455,14.853],[-88.471,14.818],[-88.489,14.812],[-88.516,14.846],[-88.538,14.882],[-88.556,14.935],[-88.563,14.933],[-88.585,14.938],[-88.61,14.948],[-88.541,14.96]]]}},{"type":"Feature","properties":{"cve_ent":"HN16","cve_mun":"004","cvegeo":"HN1604","nombre":"Azacualpa"},"geometry":{"type":"Polygon","coordinates":[[[-88.682,15.34],[-88.592,15.422],[-88.584,15.42],[-88.57,15.427],[-88.562,15.438],[-88.562,15.444],[-88.552,15.447],[-88.534,15.462],[-88.522,15.447],[-88.523,15.411],[-88.507,15.378],[-88.494,15.369],[-88.49,15.339],[-88.484,15.336],[-88.494,15.313],[-88.524,15.323],[-88.534,15.332],[-88.578,15.315],[-88.601,15.297],[-88.657,15.317],[-88.682,15.34]]]}},{"type":"Feature","properties":{"cve_ent":"HN16","cve_mun":"005","cvegeo":"HN1605","nombre":"Ceguaca"},"geometry":{"type":"Polygon","coordinates":[[[-88.22,14.784],[-88.235,14.801],[-88.242,14.8],[-88.246,14.808],[-88.253,14.807],[-88.26,14.815],[-88.207,14.845],[-88.188,14.866],[-88.176,14.867],[-88.169,14.863],[-88.171,14.842],[-88.175,14.838],[-88.171,14.833],[-88.171,14.814],[-88.191,14.792],[-88.19,14.78],[-88.193,14.781],[-88.198,14.769],[-88.203,14.768],[-88.204,14.774],[-88.209,14.776],[-88.205,14.778],[-88.207,14.783],[-88.214,14.788],[-88.22,14.784]]]}},{"type":"Feature","properties":{"cve_ent":"HN16","cve_mun":"006","cvegeo":"HN1606","nombre":"San José de Colinas"},"geometry":{"type":"Polygon","coordinates":[[[-88.398,15.122],[-88.411,15.127],[-88.414,15.149],[-88.408,15.147],[-88.395,15.155],[-88.39,15.168],[-88.377,15.171],[-88.321,15.158],[-88.309,15.146],[-88.32,15.136],[-88.317,15.123],[-88.286,15.094],[-88.237,15.07],[-88.234,15.063],[-88.238,15.044],[-88.233,15.035],[-88.24,15.032],[-88.24,15.028],[-88.233,15.023],[-88.227,15.024],[-88.225,15.019],[-88.24,15.014],[-88.229,14.996],[-88.229,14.987],[-88.24,14.989],[-88.254,14.985],[-88.256,14.979],[-88.263,14.979],[-88.272,14.995],[-88.285,15.002],[-88.295,15.02],[-88.299,15.016],[-88.316,15.021],[-88.335,15.017],[-88.336,15.011],[-88.344,15.013],[-88.357,15.0],[-88.37,15.01],[-88.377,15.009],[-88.392,15.016],[-88.393,15.02],[-88.404,15.01],[-88.408,15.011],[-88.404,15.021],[-88.41,15.027],[-88.412,15.042],[-88.386,15.087],[-88.379,15.087],[-88.383,15.103],[-88.398,15.122]]]}},{"type":"Feature","properties":{"cve_ent":"HN16","cve_mun":"007","cvegeo":"HN1607","nombre":"Concepción del Norte"},"geometry":{"type":"Polygon","coordinates":[[[-88.185,15.144],[-88.182,15.162],[-88.191,15.17],[-88.189,15.177],[-88.198,15.179],[-88.199,15.196],[-88.206,15.209],[-88.205,15.233],[-88.198,15.244],[-88.187,15.246],[-88.179,15.238],[-88.161,15.258],[-88.126,15.267],[-88.113,15.25],[-88.104,15.219],[-88.06,15.211],[-88.066,15.204],[-88.066,15.193],[-88.081,15.186],[-88.084,15.181],[-88.082,15.174],[-88.092,15.169],[-88.096,15.158],[-88.108,15.157],[-88.113,15.162],[-88.13,15.159],[-88.135,15.146],[-88.142,15.147],[-88.157,15.134],[-88.166,15.137],[-88.172,15.132],[-88.185,15.144]]]}},{"type":"Feature","properties":{"cve_ent":"HN16","cve_mun":"008","cvegeo":"HN1608","nombre":"Concepción del Sur"},"geometry":{"type":"Polygon","coordinates":[[[-88.171,14.815],[-88.171,14.833],[-88.175,14.838],[-88.171,14.842],[-88.169,14.863],[-88.101,14.878],[-88.091,14.867],[-88.112,14.85],[-88.126,14.825],[-88.13,14.824],[-88.131,14.804],[-88.136,14.794],[-88.139,14.795],[-88.137,14.78],[-88.141,14.775],[-88.165,14.766],[-88.169,14.769],[-88.177,14.766],[-88.198,14.769],[-88.195,14.779],[-88.19,14.78],[-88.191,14.792],[-88.171,14.815]]]}},{"type":"Feature","properties":{"cve_ent":"HN16","cve_mun":"009","cvegeo":"HN1609","nombre":"Chinda"},"geometry":{"type":"Polygon","coordinates":[[[-88.198,15.179],[-88.189,15.177],[-88.191,15.17],[-88.182,15.162],[-88.185,15.144],[-88.172,15.132],[-88.166,15.137],[-88.157,15.134],[-88.142,15.147],[-88.135,15.146],[-88.13,15.159],[-88.113,15.162],[-88.108,15.157],[-88.101,15.157],[-88.121,15.135],[-88.1,15.105],[-88.119,15.097],[-88.173,15.094],[-88.192,15.108],[-88.215,15.118],[-88.22,15.128],[-88.198,15.135],[-88.188,15.158],[-88.215,15.184],[-88.223,15.219],[-88.205,15.228],[-88.206,15.209],[-88.199,15.196],[-88.198,15.179]]]}},{"type":"Feature","properties":{"cve_ent":"HN16","cve_mun":"010","cvegeo":"HN1610","nombre":"El Nispero"},"geometry":{"type":"Polygon","coordinates":[[[-88.291,14.783],[-88.308,14.766],[-88.304,14.756],[-88.314,14.738],[-88.355,14.719],[-88.375,14.736],[-88.378,14.75],[-88.39,14.769],[-88.369,14.811],[-88.356,14.809],[-88.344,14.791],[-88.331,14.797],[-88.32,14.818],[-88.312,14.824],[-88.313,14.817],[-88.3,14.811],[-88.294,14.812],[-88.284,14.822],[-88.272,14.823],[-88.291,14.783]]]}},{"type":"Feature","properties":{"cve_ent":"HN16","cve_mun":"011","cvegeo":"HN1611","nombre":"Gualala"},"geometry":{"type":"Polygon","coordinates":[[[-88.219,14.976],[-88.24,15.014],[-88.225,15.019],[-88.227,15.024],[-88.233,15.023],[-88.24,15.028],[-88.233,15.039],[-88.182,15.033],[-88.16,15.022],[-88.137,15.026],[-88.119,15.0],[-88.124,15.001],[-88.143,14.981],[-88.184,14.97],[-88.219,14.976]]]}},{"type":"Feature","properties":{"cve_ent":"HN16","cve_mun":"012","cvegeo":"HN1612","nombre":"Ilama"},"geometry":{"type":"Polygon","coordinates":[[[-88.173,15.094],[-88.119,15.097],[-88.1,15.105],[-88.088,15.091],[-88.076,15.09],[-88.07,15.085],[-88.065,15.072],[-88.054,15.072],[-88.052,15.062],[-88.044,15.053],[-88.026,15.049],[-88.034,15.041],[-88.041,15.001],[-88.05,14.994],[-88.073,14.993],[-88.089,14.999],[-88.119,15.0],[-88.137,15.026],[-88.16,15.022],[-88.182,15.033],[-88.233,15.039],[-88.238,15.044],[-88.236,15.063],[-88.229,15.063],[-88.228,15.068],[-88.222,15.071],[-88.223,15.079],[-88.213,15.088],[-88.204,15.09],[-88.205,15.096],[-88.198,15.103],[-88.204,15.113],[-88.173,15.094]]]}},{"type":"Feature","properties":{"cve_ent":"HN16","cve_mun":"013","cvegeo":"HN1613","nombre":"Macuelizo"},"geometry":{"type":"Polygon","coordinates":[[[-88.7,15.205],[-88.715,15.217],[-88.66,15.221],[-88.652,15.213],[-88.636,15.215],[-88.629,15.224],[-88.604,15.229],[-88.596,15.235],[-88.599,15.243],[-88.591,15.253],[-88.586,15.25],[-88.585,15.259],[-88.577,15.268],[-88.608,15.28],[-88.602,15.296],[-88.578,15.315],[-88.534,15.332],[-88.526,15.324],[-88.495,15.312],[-88.486,15.327],[-88.479,15.325],[-88.476,15.303],[-88.461,15.29],[-88.46,15.284],[-88.467,15.281],[-88.471,15.281],[-88.468,15.286],[-88.482,15.289],[-88.484,15.282],[-88.493,15.277],[-88.492,15.27],[-88.499,15.268],[-88.498,15.259],[-88.512,15.258],[-88.51,15.247],[-88.516,15.243],[-88.512,15.21],[-88.518,15.204],[-88.518,15.195],[-88.513,15.192],[-88.516,15.188],[-88.515,15.174],[-88.528,15.165],[-88.544,15.164],[-88.577,15.15],[-88.579,15.145],[-88.629,15.167],[-88.647,15.157],[-88.669,15.173],[-88.673,15.17],[-88.679,15.172],[-88.686,15.181],[-88.689,15.196],[-88.698,15.198],[-88.7,15.205]]]}},{"type":"Feature","properties":{"cve_ent":"HN16","cve_mun":"014","cvegeo":"HN1614","nombre":"Naranjito"},"geometry":{"type":"Polygon","coordinates":[[[-88.688,14.92],[-88.704,14.954],[-88.681,15.003],[-88.681,15.015],[-88.663,15.015],[-88.612,15.001],[-88.577,15.029],[-88.56,15.038],[-88.551,15.009],[-88.553,15.002],[-88.548,15.002],[-88.545,14.996],[-88.542,14.982],[-88.547,14.973],[-88.54,14.969],[-88.541,14.96],[-88.611,14.948],[-88.614,14.937],[-88.611,14.932],[-88.624,14.919],[-88.645,14.923],[-88.67,14.913],[-88.683,14.922],[-88.688,14.92]]]}},{"type":"Feature","properties":{"cve_ent":"HN16","cve_mun":"015","cvegeo":"HN1615","nombre":"Nuevo Celilac"},"geometry":{"type":"Polygon","coordinates":[[[-88.439,14.94],[-88.458,14.938],[-88.461,14.942],[-88.459,14.952],[-88.478,14.97],[-88.47,14.98],[-88.47,14.991],[-88.462,15.008],[-88.447,15.004],[-88.434,15.013],[-88.424,15.01],[-88.41,15.015],[-88.404,15.01],[-88.393,15.02],[-88.392,15.016],[-88.377,15.009],[-88.37,15.01],[-88.357,15.0],[-88.344,15.013],[-88.336,15.011],[-88.335,15.017],[-88.316,15.021],[-88.299,15.016],[-88.295,15.02],[-88.285,15.002],[-88.272,14.995],[-88.269,14.985],[-88.259,14.974],[-88.259,14.954],[-88.273,14.954],[-88.273,14.957],[-88.286,14.962],[-88.291,14.97],[-88.299,14.971],[-88.306,14.946],[-88.309,14.95],[-88.32,14.949],[-88.331,14.955],[-88.345,14.953],[-88.352,14.957],[-88.354,14.95],[-88.387,14.947],[-88.386,14.94],[-88.39,14.937],[-88.4,14.936],[-88.412,14.942],[-88.433,14.928],[-88.439,14.94]]]}},{"type":"Feature","properties":{"cve_ent":"HN16","cve_mun":"016","cvegeo":"HN1616","nombre":"Petoa"},"geometry":{"type":"Polygon","coordinates":[[[-88.131,15.37],[-88.126,15.267],[-88.153,15.258],[-88.201,15.261],[-88.255,15.221],[-88.25,15.209],[-88.269,15.208],[-88.281,15.225],[-88.335,15.186],[-88.35,15.205],[-88.332,15.23],[-88.338,15.251],[-88.3,15.305],[-88.275,15.305],[-88.266,15.312],[-88.256,15.311],[-88.254,15.302],[-88.249,15.307],[-88.222,15.306],[-88.216,15.311],[-88.214,15.322],[-88.201,15.319],[-88.199,15.326],[-88.18,15.319],[-88.178,15.329],[-88.166,15.328],[-88.16,15.343],[-88.161,15.354],[-88.148,15.362],[-88.146,15.377],[-88.131,15.37]]]}},{"type":"Feature","properties":{"cve_ent":"HN16","cve_mun":"017","cvegeo":"HN1617","nombre":"Protección"},"geometry":{"type":"Polygon","coordinates":[[[-88.583,15.096],[-88.563,15.083],[-88.565,15.069],[-88.547,15.051],[-88.568,15.031],[-88.577,15.029],[-88.612,15.001],[-88.663,15.015],[-88.681,15.015],[-88.676,15.047],[-88.656,15.069],[-88.646,15.069],[-88.638,15.075],[-88.637,15.082],[-88.643,15.089],[-88.644,15.1],[-88.665,15.118],[-88.664,15.138],[-88.659,15.151],[-88.629,15.167],[-88.579,15.145],[-88.586,15.111],[-88.583,15.096]]]}},{"type":"Feature","properties":{"cve_ent":"HN16","cve_mun":"018","cvegeo":"HN1618","nombre":"Quimistán"},"geometry":{"type":"Polygon","coordinates":[[[-88.247,15.501],[-88.238,15.486],[-88.242,15.469],[-88.236,15.461],[-88.243,15.446],[-88.24,15.441],[-88.242,15.434],[-88.238,15.434],[-88.23,15.414],[-88.216,15.413],[-88.206,15.406],[-88.197,15.405],[-88.196,15.401],[-88.192,15.402],[-88.186,15.387],[-88.177,15.387],[-88.165,15.373],[-88.146,15.377],[-88.148,15.362],[-88.161,15.354],[-88.16,15.343],[-88.167,15.327],[-88.178,15.329],[-88.18,15.319],[-88.195,15.326],[-88.2,15.325],[-88.201,15.319],[-88.214,15.322],[-88.216,15.311],[-88.222,15.306],[-88.249,15.307],[-88.254,15.302],[-88.256,15.311],[-88.266,15.312],[-88.275,15.305],[-88.296,15.306],[-88.305,15.3],[-88.312,15.32],[-88.324,15.323],[-88.33,15.329],[-88.356,15.327],[-88.36,15.321],[-88.366,15.321],[-88.377,15.332],[-88.396,15.323],[-88.402,15.323],[-88.411,15.33],[-88.42,15.326],[-88.42,15.32],[-88.428,15.312],[-88.44,15.309],[-88.44,15.301],[-88.452,15.3],[-88.452,15.294],[-88.46,15.286],[-88.47,15.301],[-88.476,15.303],[-88.479,15.325],[-88.486,15.327],[-88.484,15.336],[-88.49,15.339],[-88.493,15.367],[-88.507,15.378],[-88.523,15.411],[-88.522,15.447],[-88.534,15.462],[-88.473,15.514],[-88.411,15.547],[-88.247,15.501]]]}},{"type":"Feature","properties":{"cve_ent":"HN16","cve_mun":"019","cvegeo":"HN1619","nombre":"San Francisco de Ojuera"},"geometry":{"type":"Polygon","coordinates":[[[-88.237,14.768],[-88.226,14.786],[-88.218,14.784],[-88.214,14.788],[-88.207,14.783],[-88.205,14.778],[-88.209,14.776],[-88.204,14.774],[-88.203,14.768],[-88.19,14.77],[-88.189,14.766],[-88.177,14.766],[-88.169,14.769],[-88.163,14.764],[-88.151,14.691],[-88.163,14.659],[-88.233,14.654],[-88.254,14.644],[-88.291,14.645],[-88.348,14.653],[-88.32,14.685],[-88.319,14.714],[-88.287,14.708],[-88.281,14.701],[-88.259,14.699],[-88.245,14.719],[-88.242,14.744],[-88.232,14.754],[-88.237,14.768]]]}},{"type":"Feature","properties":{"cve_ent":"HN16","cve_mun":"020","cvegeo":"HN1620","nombre":"San Luis"},"geometry":{"type":"Polygon","coordinates":[[[-88.547,15.051],[-88.565,15.069],[-88.563,15.083],[-88.583,15.096],[-88.586,15.111],[-88.577,15.15],[-88.544,15.164],[-88.528,15.165],[-88.515,15.174],[-88.516,15.188],[-88.513,15.192],[-88.518,15.195],[-88.518,15.204],[-88.512,15.21],[-88.516,15.228],[-88.514,15.237],[-88.503,15.229],[-88.502,15.222],[-88.486,15.211],[-88.47,15.206],[-88.458,15.208],[-88.458,15.215],[-88.454,15.218],[-88.428,15.218],[-88.397,15.199],[-88.378,15.201],[-88.365,15.191],[-88.364,15.186],[-88.374,15.169],[-88.39,15.168],[-88.395,15.155],[-88.408,15.147],[-88.414,15.149],[-88.411,15.127],[-88.392,15.118],[-88.379,15.089],[-88.386,15.087],[-88.412,15.042],[-88.41,15.027],[-88.404,15.021],[-88.407,15.012],[-88.409,15.015],[-88.424,15.01],[-88.434,15.013],[-88.447,15.004],[-88.462,15.008],[-88.467,15.004],[-88.476,15.007],[-88.479,15.004],[-88.508,15.006],[-88.553,15.002],[-88.551,15.009],[-88.56,15.038],[-88.547,15.051]]]}},{"type":"Feature","properties":{"cve_ent":"HN16","cve_mun":"021","cvegeo":"HN1621","nombre":"San Marcos"},"geometry":{"type":"Polygon","coordinates":[[[-88.516,15.24],[-88.51,15.247],[-88.512,15.258],[-88.498,15.259],[-88.499,15.268],[-88.492,15.27],[-88.493,15.277],[-88.484,15.282],[-88.482,15.289],[-88.468,15.286],[-88.471,15.281],[-88.46,15.284],[-88.452,15.294],[-88.452,15.3],[-88.44,15.301],[-88.44,15.309],[-88.428,15.312],[-88.417,15.328],[-88.407,15.33],[-88.402,15.323],[-88.396,15.323],[-88.377,15.332],[-88.373,15.325],[-88.36,15.321],[-88.356,15.327],[-88.33,15.329],[-88.324,15.323],[-88.313,15.321],[-88.307,15.311],[-88.308,15.304],[-88.304,15.3],[-88.338,15.251],[-88.332,15.23],[-88.364,15.186],[-88.365,15.191],[-88.378,15.201],[-88.397,15.199],[-88.428,15.218],[-88.454,15.218],[-88.458,15.215],[-88.458,15.208],[-88.467,15.206],[-88.486,15.211],[-88.502,15.222],[-88.503,15.229],[-88.516,15.24]]]}},{"type":"Feature","properties":{"cve_ent":"HN16","cve_mun":"022","cvegeo":"HN1622","nombre":"San Nicolás"},"geometry":{"type":"Polygon","coordinates":[[[-88.432,14.926],[-88.412,14.942],[-88.4,14.936],[-88.39,14.937],[-88.386,14.94],[-88.387,14.947],[-88.354,14.95],[-88.352,14.957],[-88.345,14.953],[-88.331,14.955],[-88.32,14.949],[-88.309,14.95],[-88.306,14.946],[-88.299,14.971],[-88.291,14.97],[-88.286,14.962],[-88.273,14.957],[-88.273,14.954],[-88.26,14.955],[-88.258,14.94],[-88.268,14.937],[-88.283,14.942],[-88.286,14.938],[-88.3,14.938],[-88.32,14.921],[-88.33,14.92],[-88.33,14.909],[-88.363,14.911],[-88.387,14.886],[-88.395,14.886],[-88.398,14.838],[-88.405,14.835],[-88.414,14.835],[-88.424,14.853],[-88.444,14.858],[-88.455,14.853],[-88.461,14.867],[-88.45,14.889],[-88.432,14.89],[-88.418,14.896],[-88.406,14.909],[-88.436,14.915],[-88.432,14.926]]]}},{"type":"Feature","properties":{"cve_ent":"HN16","cve_mun":"023","cvegeo":"HN1623","nombre":"San Pedro Zacapa"},"geometry":{"type":"Polygon","coordinates":[[[-88.138,14.781],[-88.139,14.795],[-88.136,14.794],[-88.131,14.804],[-88.131,14.822],[-88.128,14.825],[-88.123,14.819],[-88.01,14.815],[-88.01,14.806],[-88.004,14.796],[-87.996,14.794],[-88.033,14.763],[-88.051,14.758],[-88.086,14.718],[-88.087,14.712],[-88.073,14.708],[-88.057,14.682],[-88.076,14.663],[-88.088,14.659],[-88.101,14.642],[-88.163,14.659],[-88.151,14.691],[-88.161,14.76],[-88.165,14.766],[-88.152,14.773],[-88.144,14.773],[-88.138,14.781]]]}},{"type":"Feature","properties":{"cve_ent":"HN16","cve_mun":"024","cvegeo":"HN1624","nombre":"Santa Rita"},"geometry":{"type":"Polygon","coordinates":[[[-88.245,14.719],[-88.259,14.699],[-88.281,14.701],[-88.287,14.708],[-88.319,14.714],[-88.317,14.736],[-88.307,14.746],[-88.304,14.756],[-88.308,14.766],[-88.291,14.783],[-88.275,14.815],[-88.26,14.816],[-88.253,14.807],[-88.246,14.808],[-88.242,14.8],[-88.235,14.801],[-88.222,14.789],[-88.237,14.768],[-88.232,14.754],[-88.242,14.744],[-88.245,14.719]]]}},{"type":"Feature","properties":{"cve_ent":"HN16","cve_mun":"025","cvegeo":"HN1625","nombre":"San Vicente Centenario"},"geometry":{"type":"Polygon","coordinates":[[[-88.331,14.868],[-88.33,14.92],[-88.313,14.921],[-88.302,14.916],[-88.283,14.896],[-88.259,14.895],[-88.254,14.891],[-88.262,14.882],[-88.27,14.88],[-88.27,14.875],[-88.265,14.872],[-88.271,14.868],[-88.28,14.872],[-88.307,14.849],[-88.331,14.868]]]}},{"type":"Feature","properties":{"cve_ent":"HN16","cve_mun":"026","cvegeo":"HN1626","nombre":"Trinidad"},"geometry":{"type":"Polygon","coordinates":[[[-88.202,15.26],[-88.181,15.262],[-88.161,15.258],[-88.179,15.238],[-88.187,15.246],[-88.198,15.244],[-88.203,15.24],[-88.205,15.228],[-88.223,15.219],[-88.215,15.184],[-88.188,15.158],[-88.198,15.135],[-88.22,15.128],[-88.215,15.118],[-88.203,15.113],[-88.198,15.103],[-88.205,15.096],[-88.204,15.09],[-88.22,15.082],[-88.224,15.077],[-88.222,15.071],[-88.228,15.068],[-88.229,15.063],[-88.234,15.063],[-88.238,15.071],[-88.286,15.094],[-88.317,15.123],[-88.32,15.136],[-88.309,15.146],[-88.321,15.158],[-88.374,15.169],[-88.35,15.205],[-88.335,15.186],[-88.281,15.225],[-88.269,15.208],[-88.25,15.209],[-88.255,15.221],[-88.202,15.26]]]}},{"type":"Feature","properties":{"cve_ent":"HN16","cve_mun":"027","cvegeo":"HN1627","nombre":"Las Vegas"},"geometry":{"type":"Polygon","coordinates":[[[-88.042,14.921],[-88.036,14.911],[-88.036,14.915],[-88.033,14.914],[-88.035,14.904],[-88.028,14.9],[-88.028,14.886],[-88.006,14.882],[-87.999,14.873],[-88.015,14.827],[-88.015,14.82],[-88.009,14.815],[-88.078,14.816],[-88.127,14.821],[-88.126,14.829],[-88.112,14.85],[-88.091,14.867],[-88.1,14.876],[-88.11,14.896],[-88.11,14.922],[-88.061,14.933],[-88.061,14.929],[-88.055,14.928],[-88.031,14.934],[-88.036,14.923],[-88.042,14.921]],[[-88.04,14.912],[-88.042,14.913],[-88.042,14.912],[-88.04,14.912]],[[-88.038,14.909],[-88.039,14.91],[-88.039,14.909],[-88.038,14.909]],[[-88.04,14.91],[-88.039,14.911],[-88.04,14.911],[-88.04,14.91]],[[-88.032,14.887],[-88.031,14.888],[-88.032,14.888],[-88.032,14.887]]]}},{"type":"Feature","properties":{"cve_ent":"HN16","cve_mun":"028","cvegeo":"HN1628","nombre":"Nueva Frontera"},"geometry":{"type":"Polygon","coordinates":[[[-88.577,15.268],[-88.586,15.25],[-88.591,15.253],[-88.599,15.243],[-88.597,15.234],[-88.604,15.229],[-88.629,15.224],[-88.636,15.215],[-88.652,15.213],[-88.66,15.221],[-88.715,15.217],[-88.721,15.221],[-88.71,15.246],[-88.758,15.295],[-88.682,15.34],[-88.657,15.317],[-88.601,15.297],[-88.608,15.28],[-88.577,15.268]]]}}]}