{"type":"FeatureCollection","features":[{"type":"Feature","properties":{"cve_ent":"HN17","cve_mun":"001","cvegeo":"HN1701","nombre":"Nacaome"},"geometry":{"type":"MultiPolygon","coordinates":[[[[-87.619,13.428],[-87.619,13.439],[-87.625,13.437],[-87.622,13.445],[-87.598,13.461],[-87.612,13.46],[-87.622,13.467],[-87.635,13.466],[-87.639,13.472],[-87.64,13.486],[-87.644,13.49],[-87.636,13.504],[-87.64,13.511],[-87.637,13.527],[-87.646,13.535],[-87.645,13.576],[-87.65,13.583],[-87.623,13.596],[-87.597,13.591],[-87.567,13.62],[-87.549,13.629],[-87.54,13.628],[-87.533,13.619],[-87.518,13.627],[-87.514,13.625],[-87.507,13.656],[-87.474,13.67],[-87.459,13.67],[-87.45,13.656],[-87.41,13.637],[-87.428,13.592],[-87.415,13.589],[-87.411,13.583],[-87.416,13.577],[-87.392,13.535],[-87.385,13.535],[-87.379,13.529],[-87.37,13.53],[-87.367,13.526],[-87.379,13.514],[-87.389,13.512],[-87.39,13.506],[-87.413,13.52],[-87.429,13.52],[-87.438,13.486],[-87.444,13.483],[-87.447,13.474],[-87.456,13.474],[-87.463,13.467],[-87.472,13.465],[-87.472,13.461],[-87.483,13.46],[-87.482,13.457],[-87.495,13.452],[-87.493,13.447],[-87.498,13.436],[-87.49,13.432],[-87.491,13.429],[-87.484,13.429],[-87.479,13.418],[-87.483,13.416],[-87.477,13.41],[-87.487,13.408],[-87.487,13.402],[-87.48,13.401],[-87.482,13.397],[-87.491,13.396],[-87.49,13.391],[-87.497,13.391],[-87.5,13.386],[-87.504,13.388],[-87.508,13.382],[-87.511,13.384],[-87.509,13.373],[-87.512,13.369],[-87.503,13.372],[-87.502,13.36],[-87.507,13.357],[-87.51,13.357],[-87.509,13.361],[-87.518,13.359],[-87.519,13.357],[-87.519,13.356],[-87.519,13.349],[-87.52,13.348],[-87.535,13.344],[-87.538,13.349],[-87.559,13.357],[-87.547,13.373],[-87.559,13.367],[-87.569,13.369],[-87.566,13.372],[-87.57,13.376],[-87.569,13.38],[-87.589,13.379],[-87.593,13.382],[-87.592,13.385],[-87.587,13.384],[-87.587,13.388],[-87.618,13.375],[-87.619,13.38],[-87.612,13.393],[-87.599,13.397],[-87.602,13.397],[-87.6,13.407],[-87.602,13.408],[-87.602,13.409],[-87.604,13.41],[-87.604,13.411],[-87.607,13.411],[-87.607,13.42],[-87.608,13.402],[-87.615,13.41],[-87.63,13.413],[-87.627,13.42],[-87.613,13.42],[-87.619,13.428]],[[-87.51,13.385],[-87.509,13.384],[-87.509,13.385],[-87.51,13.385]],[[-87.544,13.353],[-87.543,13.352],[-87.543,13.353],[-87.544,13.353]],[[-87.557,13.357],[-87.556,13.357],[-87.556,13.358],[-87.557,13.357]],[[-87.566,13.381],[-87.568,13.38],[-87.567,13.376],[-87.566,13.381]],[[-87.569,13.382],[-87.568,13.384],[-87.569,13.384],[-87.569,13.382]],[[-87.586,13.384],[-87.587,13.383],[-87.586,13.383],[-87.586,13.384]],[[-87.585,13.383],[-87.586,13.382],[-87.585,13.382],[-87.585,13.383]],[[-87.585,13.383],[-87.583,13.383],[-87.58,13.384],[-87.58,13.385],[-87.585,13.383]],[[-87.579,13.388],[-87.578,13.385],[-87.578,13.388],[-87.579,13.388]],[[-87.58,13.388],[-87.579,13.389],[-87.58,13.389],[-87.58,13.388]],[[-87.581,13.389],[-87.58,13.391],[-87.583,13.392],[-87.581,13.389]],[[-87.584,13.392],[-87.583,13.393],[-87.584,13.393],[-87.584,13.392]],[[-87.583,13.393],[-87.578,13.394],[-87.576,13.397],[-87.578,13.398],[-87.583,13.393]],[[-87.575,13.396],[-87.576,13.395],[-87.575,13.395],[-87.575,13.396]],[[-87.574,13.395],[-87.575,13.394],[-87.574,13.394],[-87.574,13.395]],[[-87.575,13.392],[-87.577,13.394],[-87.576,13.392],[-87.575,13.392]],[[-87.599,13.385],[-87.598,13.386],[-87.599,13.386],[-87.599,13.385]],[[-87.519,13.361],[-87.518,13.36],[-87.518,13.361],[-87.519,13.361]],[[-87.518,13.362],[-87.517,13.361],[-87.517,13.362],[-87.518,13.362]],[[-87.539,13.353],[-87.541,13.352],[-87.539,13.352],[-87.539,13.353]],[[-87.539,13.353],[-87.538,13.353],[-87.538,13.354],[-87.539,13.354],[-87.539,13.353]],[[-87.54,13.354],[-87.539,13.355],[-87.54,13.355],[-87.54,13.354]],[[-87.532,13.355],[-87.533,13.354],[-87.532,13.354],[-87.532,13.355]],[[-87.531,13.354],[-87.532,13.353],[-87.531,13.353],[-87.531,13.354]],[[-87.532,13.355],[-87.531,13.355],[-87.531,13.357],[-87.529,13.358],[-87.532,13.358],[-87.532,13.355]],[[-87.536,13.357],[-87.537,13.358],[-87.537,13.357],[-87.536,13.357]],[[-87.538,13.358],[-87.537,13.359],[-87.538,13.359],[-87.538,13.358]],[[-87.555,13.358],[-87.554,13.359],[-87.555,13.359],[-87.555,13.358]],[[-87.554,13.36],[-87.553,13.359],[-87.553,13.36],[-87.554,13.36]],[[-87.563,13.378],[-87.565,13.374],[-87.562,13.375],[-87.563,13.378]],[[-87.562,13.374],[-87.563,13.373],[-87.562,13.373],[-87.562,13.374]],[[-87.559,13.374],[-87.562,13.372],[-87.558,13.372],[-87.559,13.374]],[[-87.562,13.377],[-87.56,13.375],[-87.561,13.378],[-87.562,13.377]],[[-87.575,13.385],[-87.574,13.384],[-87.574,13.385],[-87.575,13.385]],[[-87.573,13.384],[-87.574,13.383],[-87.573,13.383],[-87.573,13.384]],[[-87.572,13.395],[-87.573,13.393],[-87.574,13.392],[-87.573,13.392],[-87.572,13.392],[-87.572,13.393],[-87.572,13.395]],[[-87.57,13.391],[-87.571,13.39],[-87.57,13.39],[-87.57,13.391]],[[-87.569,13.392],[-87.57,13.393],[-87.57,13.392],[-87.569,13.392]],[[-87.52,13.355],[-87.521,13.356],[-87.521,13.355],[-87.52,13.355]],[[-87.521,13.361],[-87.52,13.358],[-87.52,13.361],[-87.521,13.361]],[[-87.524,13.358],[-87.523,13.361],[-87.524,13.361],[-87.524,13.358]],[[-87.526,13.362],[-87.524,13.363],[-87.526,13.364],[-87.526,13.362]],[[-87.508,13.361],[-87.507,13.361],[-87.507,13.362],[-87.508,13.361]],[[-87.538,13.356],[-87.537,13.355],[-87.537,13.356],[-87.538,13.356]],[[-87.535,13.356],[-87.536,13.355],[-87.535,13.355],[-87.535,13.356]],[[-87.529,13.353],[-87.53,13.351],[-87.529,13.351],[-87.529,13.353]],[[-87.53,13.359],[-87.529,13.36],[-87.53,13.36],[-87.53,13.359]],[[-87.552,13.361],[-87.551,13.36],[-87.551,13.361],[-87.552,13.361]],[[-87.549,13.363],[-87.548,13.362],[-87.548,13.363],[-87.549,13.363]],[[-87.562,13.371],[-87.561,13.37],[-87.561,13.371],[-87.562,13.371]],[[-87.56,13.379],[-87.559,13.378],[-87.559,13.379],[-87.56,13.379]],[[-87.578,13.383],[-87.577,13.382],[-87.577,13.383],[-87.578,13.383]],[[-87.574,13.382],[-87.576,13.381],[-87.574,13.381],[-87.574,13.382]]],[[[-87.605,13.409],[-87.604,13.41],[-87.604,13.409],[-87.605,13.409]]],[[[-87.573,13.393],[-87.572,13.393],[-87.573,13.392],[-87.573,13.393]]],[[[-87.57,13.372],[-87.571,13.371],[-87.571,13.372],[-87.57,13.372]]],[[[-87.519,13.356],[-87.518,13.357],[-87.518,13.356],[-87.519,13.356]]]]}},{"type":"Feature","properties":{"cve_ent":"HN17","cve_mun":"002","cvegeo":"HN1702","nombre":"Alianza"},"geometry":{"type":"MultiPolygon","coordinates":[[[[-87.82,13.412],[-87.795,13.411],[-87.79,13.415],[-87.785,13.43],[-87.775,13.425],[-87.772,13.433],[-87.759,13.441],[-87.747,13.436],[-87.74,13.445],[-87.721,13.445],[-87.722,13.462],[-87.717,13.469],[-87.724,13.495],[-87.72,13.505],[-87.733,13.511],[-87.747,13.506],[-87.749,13.517],[-87.754,13.519],[-87.761,13.515],[-87.762,13.508],[-87.782,13.513],[-87.781,13.518],[-87.744,13.542],[-87.712,13.537],[-87.676,13.541],[-87.667,13.514],[-87.66,13.511],[-87.65,13.497],[-87.651,13.488],[-87.647,13.49],[-87.647,13.487],[-87.64,13.486],[-87.641,13.477],[-87.636,13.464],[-87.64,13.461],[-87.647,13.463],[-87.647,13.455],[-87.651,13.453],[-87.657,13.455],[-87.658,13.443],[-87.661,13.451],[-87.667,13.452],[-87.668,13.447],[-87.666,13.451],[-87.662,13.45],[-87.662,13.442],[-87.667,13.441],[-87.681,13.429],[-87.667,13.435],[-87.656,13.435],[-87.651,13.429],[-87.656,13.427],[-87.65,13.42],[-87.653,13.408],[-87.665,13.404],[-87.66,13.4],[-87.659,13.391],[-87.672,13.393],[-87.674,13.383],[-87.68,13.383],[-87.684,13.38],[-87.676,13.379],[-87.68,13.37],[-87.687,13.369],[-87.693,13.373],[-87.694,13.366],[-87.716,13.364],[-87.718,13.357],[-87.74,13.357],[-87.745,13.353],[-87.742,13.367],[-87.752,13.359],[-87.765,13.377],[-87.786,13.378],[-87.785,13.382],[-87.77,13.387],[-87.772,13.395],[-87.767,13.393],[-87.769,13.397],[-87.773,13.396],[-87.772,13.388],[-87.794,13.383],[-87.8,13.387],[-87.797,13.393],[-87.803,13.395],[-87.804,13.399],[-87.808,13.398],[-87.82,13.412]],[[-87.658,13.455],[-87.657,13.457],[-87.658,13.457],[-87.658,13.455]],[[-87.66,13.457],[-87.658,13.458],[-87.66,13.459],[-87.66,13.457]],[[-87.68,13.432],[-87.679,13.433],[-87.68,13.433],[-87.68,13.432]],[[-87.68,13.433],[-87.684,13.439],[-87.688,13.44],[-87.684,13.434],[-87.68,13.433]],[[-87.682,13.429],[-87.681,13.43],[-87.682,13.43],[-87.682,13.429]],[[-87.683,13.43],[-87.682,13.431],[-87.683,13.431],[-87.683,13.43]],[[-87.685,13.431],[-87.683,13.432],[-87.685,13.432],[-87.685,13.431]],[[-87.686,13.429],[-87.689,13.43],[-87.689,13.429],[-87.686,13.429]],[[-87.691,13.43],[-87.692,13.431],[-87.693,13.426],[-87.691,13.43]],[[-87.766,13.393],[-87.767,13.392],[-87.766,13.392],[-87.766,13.393]],[[-87.803,13.397],[-87.802,13.396],[-87.802,13.397],[-87.803,13.397]],[[-87.659,13.427],[-87.66,13.428],[-87.66,13.427],[-87.659,13.427]],[[-87.661,13.428],[-87.66,13.431],[-87.661,13.431],[-87.661,13.428]],[[-87.696,13.42],[-87.697,13.421],[-87.697,13.42],[-87.696,13.42]],[[-87.697,13.419],[-87.698,13.42],[-87.698,13.419],[-87.697,13.419]],[[-87.689,13.442],[-87.688,13.443],[-87.689,13.443],[-87.689,13.442]],[[-87.688,13.443],[-87.685,13.443],[-87.684,13.446],[-87.686,13.446],[-87.688,13.443]],[[-87.688,13.445],[-87.687,13.446],[-87.688,13.446],[-87.688,13.445]],[[-87.689,13.447],[-87.688,13.448],[-87.689,13.448],[-87.689,13.447]],[[-87.689,13.446],[-87.69,13.447],[-87.69,13.446],[-87.689,13.446]],[[-87.69,13.445],[-87.691,13.446],[-87.692,13.446],[-87.69,13.445]],[[-87.669,13.446],[-87.671,13.447],[-87.671,13.446],[-87.67,13.446],[-87.669,13.446]],[[-87.673,13.447],[-87.674,13.451],[-87.676,13.45],[-87.673,13.447]],[[-87.674,13.451],[-87.67,13.452],[-87.67,13.457],[-87.671,13.453],[-87.674,13.451]],[[-87.672,13.457],[-87.671,13.458],[-87.672,13.458],[-87.672,13.457]],[[-87.674,13.458],[-87.672,13.459],[-87.674,13.459],[-87.674,13.458]],[[-87.674,13.458],[-87.675,13.461],[-87.676,13.461],[-87.677,13.457],[-87.675,13.456],[-87.674,13.458]],[[-87.67,13.444],[-87.671,13.445],[-87.671,13.444],[-87.67,13.444]],[[-87.676,13.444],[-87.677,13.445],[-87.677,13.444],[-87.676,13.444]],[[-87.677,13.443],[-87.678,13.444],[-87.678,13.443],[-87.677,13.443]],[[-87.686,13.462],[-87.685,13.463],[-87.686,13.463],[-87.686,13.462]],[[-87.687,13.463],[-87.686,13.464],[-87.687,13.464],[-87.687,13.463]],[[-87.686,13.465],[-87.685,13.464],[-87.685,13.465],[-87.686,13.465]],[[-87.681,13.468],[-87.68,13.469],[-87.681,13.469],[-87.681,13.468]],[[-87.681,13.469],[-87.681,13.47],[-87.682,13.47],[-87.681,13.469]],[[-87.682,13.47],[-87.682,13.471],[-87.683,13.471],[-87.682,13.47]],[[-87.684,13.471],[-87.683,13.472],[-87.684,13.472],[-87.684,13.471]],[[-87.686,13.472],[-87.685,13.474],[-87.687,13.474],[-87.686,13.472]],[[-87.661,13.459],[-87.664,13.462],[-87.666,13.461],[-87.664,13.459],[-87.661,13.459]],[[-87.664,13.463],[-87.661,13.462],[-87.661,13.463],[-87.664,13.463]],[[-87.661,13.465],[-87.66,13.463],[-87.66,13.465],[-87.661,13.465]],[[-87.663,13.465],[-87.661,13.467],[-87.664,13.465],[-87.663,13.465]],[[-87.663,13.467],[-87.662,13.468],[-87.663,13.468],[-87.663,13.467]],[[-87.667,13.461],[-87.666,13.462],[-87.667,13.462],[-87.667,13.461]],[[-87.665,13.464],[-87.667,13.465],[-87.667,13.464],[-87.665,13.464]],[[-87.668,13.465],[-87.667,13.466],[-87.668,13.466],[-87.668,13.465]],[[-87.667,13.467],[-87.666,13.466],[-87.666,13.467],[-87.667,13.467]],[[-87.668,13.467],[-87.667,13.468],[-87.668,13.468],[-87.668,13.467]],[[-87.804,13.401],[-87.803,13.4],[-87.803,13.401],[-87.804,13.401]],[[-87.803,13.404],[-87.802,13.401],[-87.801,13.405],[-87.803,13.404]],[[-87.8,13.397],[-87.799,13.395],[-87.799,13.397],[-87.8,13.397]],[[-87.786,13.387],[-87.785,13.386],[-87.785,13.387],[-87.786,13.387]],[[-87.672,13.395],[-87.671,13.394],[-87.671,13.395],[-87.672,13.395]],[[-87.658,13.428],[-87.657,13.429],[-87.658,13.429],[-87.658,13.428]],[[-87.694,13.423],[-87.695,13.424],[-87.695,13.423],[-87.694,13.423]],[[-87.694,13.428],[-87.693,13.43],[-87.694,13.43],[-87.694,13.428]],[[-87.692,13.449],[-87.69,13.448],[-87.69,13.449],[-87.692,13.449]],[[-87.694,13.448],[-87.693,13.449],[-87.694,13.449],[-87.694,13.448]],[[-87.676,13.447],[-87.677,13.447],[-87.676,13.446],[-87.676,13.447]],[[-87.681,13.457],[-87.68,13.458],[-87.681,13.458],[-87.681,13.457]],[[-87.683,13.461],[-87.677,13.462],[-87.684,13.462],[-87.683,13.461]],[[-87.684,13.466],[-87.682,13.464],[-87.68,13.466],[-87.684,13.466]],[[-87.689,13.474],[-87.688,13.475],[-87.689,13.475],[-87.689,13.474]],[[-87.666,13.459],[-87.667,13.459],[-87.667,13.458],[-87.666,13.459]],[[-87.67,13.462],[-87.669,13.463],[-87.67,13.463],[-87.67,13.462]],[[-87.799,13.401],[-87.798,13.399],[-87.798,13.401],[-87.799,13.401]]],[[[-87.675,13.458],[-87.676,13.457],[-87.676,13.458],[-87.675,13.458]]],[[[-87.741,13.347],[-87.743,13.348],[-87.741,13.348],[-87.741,13.347]]]]}},{"type":"Feature","properties":{"cve_ent":"HN17","cve_mun":"003","cvegeo":"HN1703","nombre":"Amapala"},"geometry":{"type":"MultiPolygon","coordinates":[[[[-87.593,13.356],[-87.586,13.357],[-87.582,13.361],[-87.563,13.359],[-87.561,13.355],[-87.564,13.354],[-87.554,13.347],[-87.543,13.346],[-87.542,13.342],[-87.546,13.338],[-87.55,13.34],[-87.572,13.333],[-87.576,13.342],[-87.57,13.349],[-87.583,13.35],[-87.593,13.356]],[[-87.563,13.356],[-87.565,13.357],[-87.565,13.356],[-87.563,13.356]],[[-87.554,13.347],[-87.555,13.347],[-87.555,13.346],[-87.554,13.347]],[[-87.555,13.346],[-87.556,13.346],[-87.556,13.345],[-87.555,13.346]],[[-87.56,13.344],[-87.561,13.345],[-87.561,13.344],[-87.56,13.344]]],[[[-87.653,13.351],[-87.657,13.354],[-87.656,13.366],[-87.648,13.363],[-87.643,13.373],[-87.636,13.374],[-87.63,13.365],[-87.621,13.364],[-87.615,13.368],[-87.613,13.365],[-87.603,13.38],[-87.587,13.377],[-87.591,13.37],[-87.587,13.37],[-87.586,13.364],[-87.58,13.367],[-87.579,13.363],[-87.587,13.358],[-87.595,13.359],[-87.595,13.355],[-87.587,13.35],[-87.575,13.347],[-87.575,13.344],[-87.579,13.342],[-87.575,13.324],[-87.582,13.319],[-87.581,13.307],[-87.59,13.306],[-87.59,13.312],[-87.608,13.309],[-87.609,13.313],[-87.617,13.307],[-87.644,13.317],[-87.647,13.325],[-87.66,13.335],[-87.661,13.347],[-87.653,13.351]],[[-87.612,13.365],[-87.613,13.364],[-87.612,13.364],[-87.612,13.365]],[[-87.592,13.375],[-87.593,13.376],[-87.593,13.375],[-87.592,13.375]],[[-87.586,13.363],[-87.587,13.364],[-87.587,13.363],[-87.586,13.363]],[[-87.59,13.35],[-87.592,13.352],[-87.592,13.35],[-87.59,13.35]],[[-87.593,13.312],[-87.592,13.313],[-87.593,13.313],[-87.593,13.312]],[[-87.589,13.363],[-87.588,13.364],[-87.589,13.364],[-87.589,13.363]],[[-87.59,13.364],[-87.589,13.365],[-87.59,13.365],[-87.59,13.364]],[[-87.595,13.369],[-87.596,13.371],[-87.596,13.369],[-87.595,13.369]],[[-87.596,13.367],[-87.597,13.369],[-87.597,13.367],[-87.596,13.367]],[[-87.582,13.337],[-87.584,13.338],[-87.584,13.337],[-87.582,13.337]],[[-87.578,13.343],[-87.579,13.344],[-87.579,13.343],[-87.578,13.343]],[[-87.581,13.343],[-87.58,13.344],[-87.581,13.344],[-87.581,13.343]],[[-87.598,13.36],[-87.597,13.361],[-87.598,13.361],[-87.598,13.36]],[[-87.588,13.361],[-87.589,13.362],[-87.589,13.361],[-87.588,13.361]],[[-87.594,13.373],[-87.595,13.374],[-87.595,13.373],[-87.594,13.373]],[[-87.6,13.366],[-87.599,13.367],[-87.6,13.367],[-87.6,13.366]],[[-87.6,13.377],[-87.6,13.376],[-87.599,13.377],[-87.6,13.377]]],[[[-87.587,13.37],[-87.586,13.375],[-87.581,13.373],[-87.581,13.37],[-87.587,13.37]]],[[[-87.588,13.302],[-87.589,13.302],[-87.588,13.303],[-87.588,13.302]]],[[[-87.595,13.301],[-87.596,13.299],[-87.597,13.301],[-87.595,13.301]]],[[[-87.599,13.303],[-87.6,13.302],[-87.6,13.303],[-87.599,13.303]]],[[[-87.667,13.278],[-87.664,13.276],[-87.667,13.275],[-87.667,13.278]]],[[[-87.664,13.276],[-87.659,13.28],[-87.661,13.283],[-87.655,13.295],[-87.649,13.293],[-87.64,13.298],[-87.626,13.288],[-87.619,13.291],[-87.614,13.283],[-87.617,13.278],[-87.612,13.274],[-87.615,13.257],[-87.631,13.249],[-87.66,13.251],[-87.664,13.259],[-87.661,13.27],[-87.664,13.276]]],[[[-87.629,13.296],[-87.632,13.298],[-87.629,13.298],[-87.629,13.296]]],[[[-87.634,13.377],[-87.635,13.376],[-87.635,13.377],[-87.634,13.377]]],[[[-87.658,13.354],[-87.659,13.354],[-87.658,13.355],[-87.658,13.354]]],[[[-87.679,13.304],[-87.685,13.315],[-87.68,13.318],[-87.681,13.323],[-87.675,13.331],[-87.667,13.317],[-87.677,13.313],[-87.679,13.304]]],[[[-87.7,13.308],[-87.701,13.309],[-87.7,13.309],[-87.7,13.308]]],[[[-87.701,13.315],[-87.703,13.312],[-87.706,13.312],[-87.705,13.316],[-87.701,13.315]]],[[[-87.72,13.335],[-87.709,13.336],[-87.704,13.329],[-87.717,13.328],[-87.72,13.335]]],[[[-87.712,13.323],[-87.714,13.321],[-87.714,13.323],[-87.712,13.323]]],[[[-87.719,13.325],[-87.721,13.327],[-87.719,13.327],[-87.719,13.325]]]]}},{"type":"Feature","properties":{"cve_ent":"HN17","cve_mun":"004","cvegeo":"HN1704","nombre":"Aramecina"},"geometry":{"type":"Polygon","coordinates":[[[-87.727,13.691],[-87.748,13.696],[-87.732,13.715],[-87.734,13.72],[-87.726,13.732],[-87.728,13.738],[-87.736,13.742],[-87.737,13.748],[-87.73,13.75],[-87.728,13.761],[-87.718,13.769],[-87.709,13.787],[-87.71,13.795],[-87.699,13.795],[-87.688,13.784],[-87.683,13.787],[-87.663,13.784],[-87.644,13.789],[-87.649,13.744],[-87.66,13.74],[-87.653,13.732],[-87.657,13.715],[-87.65,13.707],[-87.657,13.681],[-87.678,13.673],[-87.691,13.674],[-87.722,13.694],[-87.728,13.695],[-87.727,13.691]]]}},{"type":"Feature","properties":{"cve_ent":"HN17","cve_mun":"005","cvegeo":"HN1705","nombre":"Caridad"},"geometry":{"type":"Polygon","coordinates":[[[-87.67,13.835],[-87.645,13.83],[-87.644,13.789],[-87.663,13.784],[-87.679,13.784],[-87.681,13.787],[-87.688,13.784],[-87.699,13.795],[-87.709,13.796],[-87.708,13.803],[-87.717,13.82],[-87.729,13.822],[-87.734,13.83],[-87.742,13.83],[-87.746,13.838],[-87.731,13.848],[-87.705,13.852],[-87.68,13.846],[-87.67,13.835]]]}},{"type":"Feature","properties":{"cve_ent":"HN17","cve_mun":"006","cvegeo":"HN1706","nombre":"Goascorán"},"geometry":{"type":"Polygon","coordinates":[[[-87.727,13.691],[-87.728,13.695],[-87.722,13.694],[-87.71,13.684],[-87.699,13.681],[-87.692,13.669],[-87.683,13.663],[-87.68,13.627],[-87.671,13.609],[-87.667,13.61],[-87.659,13.603],[-87.645,13.576],[-87.646,13.535],[-87.637,13.527],[-87.64,13.511],[-87.636,13.505],[-87.644,13.487],[-87.647,13.49],[-87.651,13.488],[-87.653,13.503],[-87.667,13.514],[-87.676,13.541],[-87.712,13.537],[-87.744,13.542],[-87.777,13.519],[-87.793,13.523],[-87.781,13.535],[-87.787,13.543],[-87.785,13.558],[-87.779,13.565],[-87.783,13.572],[-87.772,13.575],[-87.774,13.585],[-87.769,13.587],[-87.769,13.595],[-87.754,13.604],[-87.757,13.615],[-87.752,13.644],[-87.752,13.656],[-87.757,13.658],[-87.753,13.667],[-87.756,13.671],[-87.753,13.678],[-87.755,13.69],[-87.749,13.694],[-87.727,13.691]]]}},{"type":"Feature","properties":{"cve_ent":"HN17","cve_mun":"007","cvegeo":"HN1707","nombre":"Langue"},"geometry":{"type":"Polygon","coordinates":[[[-87.586,13.687],[-87.598,13.668],[-87.567,13.62],[-87.597,13.591],[-87.623,13.596],[-87.65,13.583],[-87.659,13.603],[-87.667,13.61],[-87.671,13.609],[-87.68,13.627],[-87.681,13.66],[-87.692,13.669],[-87.694,13.676],[-87.678,13.673],[-87.657,13.681],[-87.65,13.707],[-87.657,13.715],[-87.653,13.732],[-87.66,13.74],[-87.649,13.744],[-87.63,13.741],[-87.597,13.72],[-87.597,13.699],[-87.586,13.687]]]}},{"type":"Feature","properties":{"cve_ent":"HN17","cve_mun":"008","cvegeo":"HN1708","nombre":"San Francisco de Coray"},"geometry":{"type":"Polygon","coordinates":[[[-87.597,13.72],[-87.584,13.713],[-87.544,13.717],[-87.542,13.71],[-87.52,13.697],[-87.518,13.691],[-87.459,13.67],[-87.474,13.67],[-87.505,13.658],[-87.514,13.625],[-87.518,13.627],[-87.533,13.619],[-87.54,13.628],[-87.549,13.629],[-87.567,13.62],[-87.598,13.668],[-87.586,13.687],[-87.597,13.699],[-87.597,13.72]]]}},{"type":"Feature","properties":{"cve_ent":"HN17","cve_mun":"009","cvegeo":"HN1709","nombre":"San Lorenzo"},"geometry":{"type":"MultiPolygon","coordinates":[[[[-87.495,13.452],[-87.482,13.457],[-87.483,13.46],[-87.472,13.461],[-87.472,13.465],[-87.463,13.467],[-87.456,13.474],[-87.447,13.474],[-87.444,13.483],[-87.438,13.486],[-87.429,13.52],[-87.413,13.52],[-87.39,13.506],[-87.389,13.512],[-87.379,13.514],[-87.366,13.526],[-87.36,13.523],[-87.367,13.487],[-87.339,13.444],[-87.345,13.442],[-87.343,13.43],[-87.349,13.428],[-87.351,13.412],[-87.362,13.402],[-87.381,13.401],[-87.385,13.395],[-87.386,13.399],[-87.387,13.399],[-87.388,13.4],[-87.392,13.405],[-87.404,13.404],[-87.397,13.407],[-87.4,13.408],[-87.398,13.415],[-87.416,13.422],[-87.419,13.416],[-87.423,13.418],[-87.425,13.413],[-87.423,13.414],[-87.42,13.413],[-87.429,13.397],[-87.443,13.407],[-87.442,13.409],[-87.443,13.413],[-87.447,13.416],[-87.459,13.418],[-87.463,13.406],[-87.476,13.406],[-87.474,13.41],[-87.468,13.409],[-87.465,13.41],[-87.468,13.41],[-87.467,13.417],[-87.471,13.42],[-87.475,13.42],[-87.475,13.416],[-87.479,13.416],[-87.484,13.429],[-87.491,13.429],[-87.49,13.432],[-87.498,13.436],[-87.493,13.447],[-87.495,13.452]],[[-87.392,13.407],[-87.391,13.405],[-87.391,13.407],[-87.392,13.407]],[[-87.402,13.421],[-87.402,13.419],[-87.401,13.421],[-87.402,13.421]],[[-87.421,13.419],[-87.42,13.418],[-87.42,13.419],[-87.421,13.419]],[[-87.425,13.418],[-87.423,13.419],[-87.425,13.419],[-87.425,13.418]],[[-87.426,13.419],[-87.425,13.421],[-87.426,13.421],[-87.426,13.419]],[[-87.425,13.409],[-87.427,13.413],[-87.426,13.409],[-87.425,13.409]],[[-87.459,13.418],[-87.456,13.423],[-87.461,13.425],[-87.464,13.419],[-87.459,13.418]],[[-87.464,13.418],[-87.465,13.419],[-87.465,13.418],[-87.464,13.418]],[[-87.466,13.418],[-87.467,13.419],[-87.467,13.418],[-87.466,13.418]],[[-87.468,13.419],[-87.467,13.42],[-87.468,13.42],[-87.468,13.419]],[[-87.477,13.418],[-87.478,13.419],[-87.478,13.418],[-87.477,13.418]],[[-87.479,13.419],[-87.478,13.42],[-87.479,13.42],[-87.479,13.419]],[[-87.431,13.409],[-87.432,13.41],[-87.432,13.409],[-87.431,13.409]],[[-87.432,13.408],[-87.434,13.409],[-87.434,13.408],[-87.432,13.408]],[[-87.435,13.409],[-87.434,13.41],[-87.435,13.41],[-87.435,13.409]],[[-87.436,13.41],[-87.435,13.411],[-87.436,13.411],[-87.436,13.41]],[[-87.424,13.421],[-87.423,13.421],[-87.423,13.422],[-87.423,13.423],[-87.424,13.421]],[[-87.423,13.422],[-87.422,13.422],[-87.422,13.423],[-87.423,13.422]],[[-87.426,13.424],[-87.425,13.425],[-87.426,13.425],[-87.426,13.424]],[[-87.427,13.425],[-87.426,13.426],[-87.427,13.426],[-87.427,13.425]],[[-87.38,13.408],[-87.379,13.407],[-87.379,13.408],[-87.38,13.408]],[[-87.379,13.409],[-87.378,13.408],[-87.378,13.409],[-87.379,13.409]],[[-87.39,13.409],[-87.389,13.408],[-87.389,13.409],[-87.39,13.409]],[[-87.391,13.409],[-87.39,13.411],[-87.391,13.411],[-87.391,13.409]],[[-87.393,13.411],[-87.391,13.412],[-87.393,13.412],[-87.393,13.411]],[[-87.393,13.41],[-87.394,13.411],[-87.394,13.41],[-87.393,13.41]],[[-87.394,13.409],[-87.395,13.41],[-87.395,13.409],[-87.394,13.409]],[[-87.395,13.408],[-87.396,13.409],[-87.396,13.408],[-87.395,13.408]],[[-87.442,13.413],[-87.441,13.412],[-87.442,13.414],[-87.442,13.413]],[[-87.443,13.414],[-87.442,13.415],[-87.443,13.416],[-87.443,13.414]],[[-87.44,13.418],[-87.441,13.417],[-87.44,13.417],[-87.44,13.418]],[[-87.439,13.417],[-87.44,13.416],[-87.439,13.416],[-87.439,13.417]],[[-87.437,13.416],[-87.438,13.415],[-87.437,13.415],[-87.437,13.416]],[[-87.437,13.416],[-87.436,13.416],[-87.436,13.417],[-87.437,13.417],[-87.437,13.416]],[[-87.437,13.419],[-87.436,13.418],[-87.436,13.419],[-87.437,13.419]],[[-87.436,13.42],[-87.435,13.419],[-87.435,13.42],[-87.436,13.42]],[[-87.426,13.407],[-87.427,13.408],[-87.427,13.407],[-87.426,13.407]],[[-87.43,13.408],[-87.429,13.409],[-87.43,13.409],[-87.43,13.408]],[[-87.437,13.412],[-87.436,13.413],[-87.437,13.413],[-87.437,13.412]],[[-87.435,13.416],[-87.434,13.415],[-87.434,13.416],[-87.435,13.416]],[[-87.432,13.416],[-87.432,13.413],[-87.431,13.416],[-87.432,13.416]],[[-87.382,13.402],[-87.381,13.405],[-87.382,13.405],[-87.382,13.402]],[[-87.387,13.408],[-87.388,13.407],[-87.387,13.407],[-87.387,13.408]],[[-87.43,13.402],[-87.431,13.401],[-87.43,13.401],[-87.43,13.402]],[[-87.431,13.404],[-87.43,13.403],[-87.431,13.405],[-87.431,13.404]],[[-87.439,13.413],[-87.44,13.412],[-87.439,13.412],[-87.439,13.413]],[[-87.443,13.418],[-87.442,13.418],[-87.442,13.419],[-87.443,13.418]],[[-87.438,13.421],[-87.439,13.422],[-87.439,13.421],[-87.438,13.421]],[[-87.433,13.42],[-87.434,13.417],[-87.433,13.417],[-87.433,13.42]]],[[[-87.479,13.416],[-87.474,13.415],[-87.472,13.419],[-87.468,13.412],[-87.477,13.409],[-87.481,13.412],[-87.479,13.416]]],[[[-87.443,13.41],[-87.443,13.409],[-87.444,13.409],[-87.443,13.41]]],[[[-87.389,13.399],[-87.388,13.4],[-87.388,13.399],[-87.389,13.399]]],[[[-87.388,13.398],[-87.387,13.399],[-87.387,13.398],[-87.388,13.398]]],[[[-87.419,13.377],[-87.408,13.373],[-87.414,13.372],[-87.426,13.358],[-87.427,13.379],[-87.417,13.405],[-87.414,13.403],[-87.416,13.395],[-87.411,13.393],[-87.414,13.385],[-87.413,13.384],[-87.409,13.385],[-87.403,13.377],[-87.406,13.374],[-87.413,13.379],[-87.419,13.377]],[[-87.422,13.378],[-87.417,13.383],[-87.419,13.386],[-87.421,13.385],[-87.422,13.378]],[[-87.419,13.378],[-87.42,13.377],[-87.419,13.377],[-87.419,13.378]],[[-87.416,13.387],[-87.414,13.39],[-87.415,13.39],[-87.416,13.387]],[[-87.419,13.39],[-87.417,13.386],[-87.418,13.39],[-87.419,13.39]],[[-87.419,13.392],[-87.416,13.39],[-87.416,13.391],[-87.419,13.392]],[[-87.416,13.392],[-87.415,13.391],[-87.415,13.392],[-87.416,13.392]],[[-87.415,13.391],[-87.414,13.391],[-87.414,13.392],[-87.415,13.391]],[[-87.414,13.392],[-87.413,13.392],[-87.413,13.393],[-87.414,13.392]],[[-87.421,13.385],[-87.421,13.386],[-87.422,13.386],[-87.421,13.385]],[[-87.422,13.377],[-87.423,13.376],[-87.422,13.376],[-87.422,13.377]],[[-87.422,13.382],[-87.423,13.383],[-87.423,13.382],[-87.422,13.382]],[[-87.42,13.368],[-87.419,13.369],[-87.42,13.369],[-87.42,13.368]],[[-87.421,13.374],[-87.42,13.375],[-87.421,13.375],[-87.421,13.374]],[[-87.421,13.389],[-87.42,13.39],[-87.421,13.39],[-87.421,13.389]],[[-87.418,13.395],[-87.417,13.396],[-87.418,13.396],[-87.418,13.395]],[[-87.416,13.393],[-87.415,13.394],[-87.416,13.394],[-87.416,13.393]],[[-87.414,13.382],[-87.415,13.381],[-87.414,13.381],[-87.414,13.382]]],[[[-87.415,13.398],[-87.411,13.402],[-87.408,13.398],[-87.398,13.401],[-87.397,13.397],[-87.397,13.402],[-87.394,13.402],[-87.387,13.395],[-87.379,13.394],[-87.379,13.39],[-87.389,13.386],[-87.387,13.374],[-87.39,13.37],[-87.403,13.372],[-87.399,13.381],[-87.404,13.381],[-87.409,13.386],[-87.413,13.386],[-87.41,13.393],[-87.415,13.398]],[[-87.402,13.398],[-87.404,13.397],[-87.402,13.397],[-87.402,13.398]],[[-87.398,13.38],[-87.399,13.379],[-87.398,13.379],[-87.398,13.38]],[[-87.397,13.379],[-87.398,13.378],[-87.397,13.378],[-87.397,13.379]],[[-87.398,13.377],[-87.399,13.378],[-87.399,13.377],[-87.398,13.377]],[[-87.396,13.377],[-87.397,13.376],[-87.396,13.376],[-87.396,13.377]],[[-87.397,13.379],[-87.395,13.379],[-87.395,13.38],[-87.397,13.38],[-87.397,13.379]],[[-87.399,13.383],[-87.393,13.381],[-87.392,13.383],[-87.399,13.383]],[[-87.407,13.384],[-87.403,13.385],[-87.404,13.388],[-87.407,13.387],[-87.407,13.384]],[[-87.399,13.384],[-87.398,13.385],[-87.399,13.385],[-87.399,13.384]],[[-87.399,13.385],[-87.4,13.385],[-87.4,13.384],[-87.399,13.385]],[[-87.398,13.388],[-87.398,13.396],[-87.4,13.396],[-87.399,13.395],[-87.4,13.391],[-87.398,13.388]],[[-87.401,13.392],[-87.4,13.393],[-87.401,13.393],[-87.401,13.392]],[[-87.407,13.393],[-87.408,13.392],[-87.407,13.392],[-87.407,13.393]],[[-87.408,13.39],[-87.409,13.392],[-87.409,13.39],[-87.408,13.39]],[[-87.407,13.39],[-87.408,13.389],[-87.407,13.389],[-87.407,13.39]],[[-87.395,13.375],[-87.396,13.374],[-87.395,13.374],[-87.395,13.375]],[[-87.392,13.378],[-87.393,13.377],[-87.392,13.377],[-87.392,13.378]],[[-87.391,13.385],[-87.39,13.386],[-87.391,13.386],[-87.391,13.385]],[[-87.388,13.395],[-87.389,13.394],[-87.388,13.394],[-87.388,13.395]],[[-87.39,13.39],[-87.391,13.391],[-87.391,13.39],[-87.39,13.39]],[[-87.392,13.389],[-87.394,13.39],[-87.394,13.388],[-87.392,13.389]],[[-87.395,13.387],[-87.396,13.389],[-87.396,13.387],[-87.395,13.387]],[[-87.396,13.393],[-87.395,13.392],[-87.395,13.393],[-87.396,13.393]],[[-87.405,13.396],[-87.407,13.397],[-87.407,13.396],[-87.405,13.396]],[[-87.402,13.396],[-87.403,13.394],[-87.402,13.394],[-87.402,13.396]],[[-87.394,13.393],[-87.392,13.392],[-87.392,13.393],[-87.394,13.393]]],[[[-87.408,13.418],[-87.41,13.414],[-87.413,13.412],[-87.408,13.418]]],[[[-87.471,13.4],[-87.46,13.407],[-87.458,13.401],[-87.464,13.395],[-87.454,13.392],[-87.447,13.397],[-87.445,13.386],[-87.431,13.384],[-87.443,13.374],[-87.459,13.377],[-87.468,13.373],[-87.472,13.381],[-87.478,13.386],[-87.477,13.389],[-87.475,13.387],[-87.469,13.389],[-87.472,13.391],[-87.469,13.393],[-87.471,13.395],[-87.471,13.4]],[[-87.467,13.389],[-87.469,13.387],[-87.467,13.388],[-87.467,13.389]],[[-87.465,13.392],[-87.469,13.391],[-87.465,13.391],[-87.465,13.392]],[[-87.465,13.392],[-87.464,13.392],[-87.464,13.393],[-87.465,13.393],[-87.465,13.392]],[[-87.464,13.394],[-87.463,13.393],[-87.463,13.394],[-87.464,13.394]],[[-87.462,13.39],[-87.46,13.389],[-87.46,13.39],[-87.462,13.39]],[[-87.459,13.389],[-87.46,13.387],[-87.459,13.387],[-87.459,13.389]],[[-87.462,13.384],[-87.461,13.385],[-87.462,13.385],[-87.462,13.384]],[[-87.463,13.385],[-87.462,13.386],[-87.463,13.386],[-87.463,13.385]],[[-87.463,13.384],[-87.464,13.385],[-87.464,13.384],[-87.463,13.384]],[[-87.464,13.381],[-87.465,13.383],[-87.465,13.381],[-87.464,13.381]],[[-87.465,13.38],[-87.467,13.381],[-87.467,13.38],[-87.465,13.38]],[[-87.467,13.379],[-87.47,13.38],[-87.47,13.379],[-87.467,13.379]],[[-87.45,13.391],[-87.452,13.392],[-87.452,13.391],[-87.45,13.391]],[[-87.452,13.391],[-87.453,13.391],[-87.453,13.39],[-87.452,13.391]],[[-87.466,13.401],[-87.467,13.4],[-87.466,13.4],[-87.466,13.401]],[[-87.465,13.4],[-87.466,13.399],[-87.465,13.399],[-87.465,13.4]],[[-87.465,13.399],[-87.464,13.399],[-87.464,13.4],[-87.465,13.399]],[[-87.466,13.394],[-87.465,13.395],[-87.466,13.395],[-87.466,13.394]],[[-87.47,13.396],[-87.468,13.396],[-87.466,13.397],[-87.47,13.396]],[[-87.445,13.384],[-87.446,13.385],[-87.446,13.384],[-87.445,13.384]],[[-87.448,13.384],[-87.447,13.385],[-87.448,13.385],[-87.448,13.384]],[[-87.459,13.383],[-87.46,13.386],[-87.46,13.383],[-87.459,13.383]],[[-87.466,13.376],[-87.465,13.376],[-87.465,13.377],[-87.466,13.376]],[[-87.441,13.377],[-87.442,13.378],[-87.442,13.377],[-87.441,13.377]],[[-87.44,13.379],[-87.439,13.38],[-87.44,13.38],[-87.44,13.379]],[[-87.443,13.38],[-87.441,13.381],[-87.443,13.381],[-87.443,13.38]]],[[[-87.458,13.401],[-87.46,13.41],[-87.446,13.414],[-87.445,13.41],[-87.454,13.408],[-87.453,13.402],[-87.435,13.401],[-87.431,13.39],[-87.441,13.386],[-87.447,13.398],[-87.458,13.394],[-87.458,13.401]],[[-87.438,13.39],[-87.437,13.391],[-87.438,13.391],[-87.438,13.39]],[[-87.437,13.393],[-87.436,13.392],[-87.436,13.393],[-87.437,13.393]],[[-87.435,13.396],[-87.436,13.397],[-87.436,13.396],[-87.435,13.396]],[[-87.438,13.4],[-87.439,13.399],[-87.438,13.399],[-87.438,13.4]]],[[[-87.471,13.393],[-87.475,13.389],[-87.475,13.39],[-87.475,13.391],[-87.475,13.392],[-87.476,13.392],[-87.476,13.396],[-87.474,13.399],[-87.471,13.393]],[[-87.474,13.392],[-87.473,13.393],[-87.474,13.393],[-87.474,13.392]]],[[[-87.481,13.404],[-87.478,13.408],[-87.475,13.403],[-87.47,13.403],[-87.476,13.4],[-87.478,13.39],[-87.482,13.392],[-87.478,13.398],[-87.481,13.404]]],[[[-87.473,13.38],[-87.474,13.379],[-87.474,13.38],[-87.473,13.38]]],[[[-87.474,13.381],[-87.475,13.38],[-87.475,13.381],[-87.474,13.381]]],[[[-87.475,13.391],[-87.476,13.39],[-87.476,13.391],[-87.475,13.391]]],[[[-87.457,13.414],[-87.46,13.411],[-87.46,13.415],[-87.457,13.414]]],[[[-87.46,13.411],[-87.461,13.41],[-87.461,13.411],[-87.46,13.411]]],[[[-87.453,13.407],[-87.441,13.404],[-87.451,13.403],[-87.453,13.407]]],[[[-87.446,13.406],[-87.445,13.407],[-87.445,13.406],[-87.446,13.406]]],[[[-87.482,13.402],[-87.487,13.403],[-87.485,13.409],[-87.48,13.409],[-87.482,13.402]]]]}}]}