{"type":"FeatureCollection","features":[{"type":"Feature","properties":{"cve_ent":"HN18","cve_mun":"001","cvegeo":"HN1801","nombre":"Yoro"},"geometry":{"type":"Polygon","coordinates":[[[-87.535,15.445],[-87.51,15.46],[-87.51,15.484],[-87.515,15.499],[-87.515,15.508],[-87.511,15.512],[-87.515,15.516],[-87.501,15.518],[-87.479,15.534],[-87.479,15.538],[-87.469,15.539],[-87.459,15.546],[-87.45,15.531],[-87.439,15.529],[-87.434,15.533],[-87.437,15.523],[-87.434,15.517],[-87.438,15.518],[-87.435,15.513],[-87.441,15.51],[-87.438,15.505],[-87.441,15.498],[-87.431,15.491],[-87.438,15.484],[-87.426,15.481],[-87.423,15.463],[-87.419,15.466],[-87.418,15.459],[-87.41,15.46],[-87.41,15.455],[-87.406,15.458],[-87.399,15.456],[-87.402,15.453],[-87.402,15.45],[-87.398,15.452],[-87.399,15.448],[-87.39,15.452],[-87.392,15.444],[-87.386,15.447],[-87.385,15.44],[-87.379,15.44],[-87.38,15.437],[-87.37,15.443],[-87.362,15.443],[-87.345,15.458],[-87.334,15.453],[-87.323,15.455],[-87.312,15.442],[-87.293,15.449],[-87.286,15.448],[-87.28,15.447],[-87.275,15.439],[-87.262,15.439],[-87.259,15.435],[-87.246,15.438],[-87.215,15.424],[-87.191,15.428],[-87.186,15.421],[-87.179,15.421],[-87.166,15.444],[-87.14,15.41],[-87.108,15.386],[-87.105,15.347],[-87.087,15.34],[-87.087,15.336],[-87.099,15.332],[-87.099,15.328],[-87.09,15.317],[-87.082,15.316],[-87.081,15.303],[-87.066,15.3],[-87.048,15.284],[-86.986,15.25],[-86.987,15.241],[-86.965,15.232],[-86.948,15.208],[-86.903,15.212],[-86.871,15.181],[-86.859,15.186],[-86.856,15.18],[-86.856,15.17],[-86.86,15.166],[-86.858,15.16],[-86.862,15.159],[-86.868,15.147],[-86.868,15.144],[-86.862,15.145],[-86.862,15.141],[-86.881,15.119],[-86.88,15.104],[-86.886,15.103],[-86.882,15.083],[-86.888,15.077],[-86.897,15.08],[-86.906,15.069],[-86.919,15.068],[-86.925,15.04],[-86.933,15.044],[-86.944,15.041],[-86.964,15.046],[-86.98,15.033],[-86.991,15.015],[-87.031,15.025],[-87.064,15.022],[-87.075,15.016],[-87.107,15.032],[-87.127,15.029],[-87.135,15.033],[-87.137,15.028],[-87.156,15.028],[-87.171,15.039],[-87.186,15.042],[-87.189,15.047],[-87.236,15.059],[-87.236,15.082],[-87.258,15.122],[-87.271,15.117],[-87.285,15.124],[-87.3,15.121],[-87.322,15.135],[-87.367,15.145],[-87.39,15.128],[-87.391,15.116],[-87.397,15.112],[-87.419,15.119],[-87.423,15.126],[-87.447,15.126],[-87.457,15.139],[-87.477,15.139],[-87.492,15.156],[-87.514,15.157],[-87.53,15.17],[-87.548,15.169],[-87.562,15.175],[-87.547,15.192],[-87.534,15.198],[-87.528,15.211],[-87.531,15.232],[-87.514,15.24],[-87.513,15.246],[-87.496,15.257],[-87.493,15.265],[-87.439,15.255],[-87.432,15.263],[-87.459,15.339],[-87.501,15.357],[-87.508,15.381],[-87.528,15.396],[-87.535,15.393],[-87.543,15.402],[-87.543,15.409],[-87.53,15.429],[-87.532,15.439],[-87.538,15.439],[-87.535,15.445]]]}},{"type":"Feature","properties":{"cve_ent":"HN18","cve_mun":"002","cvegeo":"HN1802","nombre":"Arenal"},"geometry":{"type":"MultiPolygon","coordinates":[[[[-86.948,15.382],[-86.947,15.382],[-86.947,15.381],[-86.948,15.382]]],[[[-86.947,15.382],[-86.916,15.394],[-86.906,15.386],[-86.893,15.388],[-86.876,15.401],[-86.871,15.397],[-86.854,15.396],[-86.841,15.403],[-86.833,15.4],[-86.822,15.403],[-86.815,15.398],[-86.806,15.4],[-86.799,15.392],[-86.786,15.395],[-86.781,15.4],[-86.763,15.395],[-86.752,15.404],[-86.753,15.409],[-86.745,15.418],[-86.738,15.416],[-86.735,15.42],[-86.72,15.421],[-86.716,15.425],[-86.704,15.424],[-86.695,15.415],[-86.699,15.409],[-86.706,15.409],[-86.705,15.403],[-86.715,15.402],[-86.717,15.397],[-86.727,15.398],[-86.732,15.391],[-86.738,15.393],[-86.737,15.383],[-86.748,15.383],[-86.748,15.39],[-86.754,15.387],[-86.758,15.379],[-86.758,15.363],[-86.753,15.358],[-86.756,15.343],[-86.76,15.339],[-86.77,15.343],[-86.77,15.334],[-86.78,15.33],[-86.785,15.312],[-86.774,15.298],[-86.782,15.286],[-86.792,15.283],[-86.793,15.279],[-86.81,15.282],[-86.814,15.286],[-86.827,15.285],[-86.836,15.296],[-86.853,15.302],[-86.869,15.322],[-86.889,15.333],[-86.913,15.355],[-86.925,15.382],[-86.947,15.382]]]]}},{"type":"Feature","properties":{"cve_ent":"HN18","cve_mun":"003","cvegeo":"HN1803","nombre":"El Negrito"},"geometry":{"type":"MultiPolygon","coordinates":[[[[-87.772,15.705],[-87.747,15.7],[-87.737,15.684],[-87.729,15.683],[-87.715,15.67],[-87.706,15.671],[-87.705,15.666],[-87.695,15.664],[-87.692,15.652],[-87.689,15.653],[-87.683,15.644],[-87.683,15.615],[-87.677,15.605],[-87.68,15.593],[-87.676,15.582],[-87.662,15.576],[-87.643,15.575],[-87.639,15.57],[-87.626,15.567],[-87.621,15.555],[-87.598,15.553],[-87.623,15.506],[-87.615,15.484],[-87.62,15.476],[-87.635,15.474],[-87.639,15.47],[-87.636,15.463],[-87.64,15.461],[-87.636,15.461],[-87.636,15.456],[-87.618,15.455],[-87.612,15.444],[-87.608,15.446],[-87.606,15.443],[-87.608,15.436],[-87.617,15.433],[-87.622,15.418],[-87.619,15.411],[-87.625,15.402],[-87.624,15.393],[-87.627,15.394],[-87.63,15.388],[-87.631,15.372],[-87.626,15.36],[-87.629,15.335],[-87.651,15.285],[-87.665,15.28],[-87.677,15.281],[-87.679,15.267],[-87.689,15.258],[-87.688,15.248],[-87.687,15.249],[-87.685,15.248],[-87.692,15.244],[-87.69,15.241],[-87.695,15.242],[-87.692,15.236],[-87.7,15.229],[-87.702,15.221],[-87.706,15.221],[-87.708,15.211],[-87.711,15.214],[-87.714,15.214],[-87.713,15.21],[-87.717,15.212],[-87.719,15.2],[-87.729,15.201],[-87.725,15.21],[-87.75,15.211],[-87.775,15.23],[-87.799,15.227],[-87.806,15.237],[-87.793,15.249],[-87.78,15.269],[-87.767,15.343],[-87.75,15.392],[-87.736,15.416],[-87.732,15.436],[-87.69,15.458],[-87.686,15.466],[-87.686,15.5],[-87.704,15.525],[-87.713,15.53],[-87.722,15.529],[-87.735,15.535],[-87.74,15.534],[-87.742,15.538],[-87.749,15.538],[-87.747,15.548],[-87.764,15.561],[-87.753,15.583],[-87.745,15.59],[-87.742,15.609],[-87.748,15.614],[-87.755,15.614],[-87.76,15.621],[-87.772,15.705]],[[-87.716,15.53],[-87.715,15.531],[-87.716,15.531],[-87.716,15.53]]],[[[-87.736,15.534],[-87.735,15.533],[-87.736,15.533],[-87.736,15.534]]]]}},{"type":"Feature","properties":{"cve_ent":"HN18","cve_mun":"004","cvegeo":"HN1804","nombre":"El Progreso"},"geometry":{"type":"MultiPolygon","coordinates":[[[[-87.938,15.236],[-87.932,15.269],[-87.922,15.275],[-87.91,15.274],[-87.91,15.288],[-87.929,15.295],[-87.923,15.304],[-87.905,15.306],[-87.909,15.314],[-87.916,15.315],[-87.918,15.323],[-87.91,15.326],[-87.893,15.324],[-87.887,15.334],[-87.886,15.346],[-87.874,15.335],[-87.867,15.335],[-87.863,15.344],[-87.866,15.347],[-87.877,15.345],[-87.88,15.353],[-87.848,15.375],[-87.838,15.404],[-87.823,15.401],[-87.818,15.408],[-87.826,15.433],[-87.863,15.448],[-87.865,15.455],[-87.86,15.459],[-87.834,15.459],[-87.83,15.454],[-87.831,15.442],[-87.827,15.438],[-87.821,15.44],[-87.81,15.455],[-87.807,15.461],[-87.809,15.468],[-87.828,15.476],[-87.822,15.49],[-87.838,15.502],[-87.826,15.515],[-87.833,15.527],[-87.822,15.53],[-87.814,15.52],[-87.807,15.519],[-87.805,15.527],[-87.815,15.535],[-87.816,15.552],[-87.8,15.557],[-87.798,15.561],[-87.806,15.579],[-87.8,15.583],[-87.792,15.582],[-87.779,15.567],[-87.773,15.568],[-87.771,15.574],[-87.779,15.58],[-87.784,15.595],[-87.775,15.598],[-87.764,15.594],[-87.766,15.604],[-87.763,15.611],[-87.774,15.619],[-87.769,15.632],[-87.773,15.64],[-87.805,15.64],[-87.811,15.647],[-87.81,15.655],[-87.804,15.659],[-87.809,15.666],[-87.819,15.653],[-87.83,15.661],[-87.823,15.68],[-87.816,15.684],[-87.805,15.682],[-87.806,15.691],[-87.811,15.692],[-87.819,15.685],[-87.832,15.69],[-87.839,15.687],[-87.829,15.698],[-87.806,15.705],[-87.802,15.71],[-87.803,15.721],[-87.795,15.725],[-87.785,15.711],[-87.776,15.712],[-87.772,15.708],[-87.76,15.621],[-87.755,15.614],[-87.748,15.614],[-87.742,15.609],[-87.745,15.59],[-87.753,15.583],[-87.764,15.561],[-87.747,15.548],[-87.749,15.538],[-87.742,15.538],[-87.74,15.534],[-87.735,15.535],[-87.722,15.529],[-87.713,15.53],[-87.704,15.525],[-87.686,15.5],[-87.687,15.46],[-87.732,15.436],[-87.736,15.416],[-87.75,15.392],[-87.767,15.343],[-87.78,15.269],[-87.793,15.249],[-87.806,15.238],[-87.837,15.226],[-87.918,15.224],[-87.919,15.229],[-87.926,15.231],[-87.926,15.236],[-87.92,15.241],[-87.922,15.246],[-87.932,15.236],[-87.938,15.236]],[[-87.735,15.533],[-87.736,15.534],[-87.736,15.533],[-87.735,15.533]]],[[[-87.715,15.531],[-87.716,15.53],[-87.716,15.531],[-87.715,15.531]]]]}},{"type":"Feature","properties":{"cve_ent":"HN18","cve_mun":"005","cvegeo":"HN1805","nombre":"Jocón"},"geometry":{"type":"Polygon","coordinates":[[[-87.081,15.303],[-87.082,15.316],[-87.094,15.32],[-87.099,15.332],[-87.087,15.336],[-87.083,15.35],[-87.087,15.363],[-87.077,15.367],[-87.071,15.378],[-87.064,15.375],[-87.06,15.379],[-87.056,15.375],[-87.049,15.38],[-87.045,15.371],[-87.038,15.371],[-87.035,15.375],[-87.032,15.369],[-87.025,15.372],[-87.022,15.366],[-87.014,15.37],[-87.007,15.368],[-87.007,15.382],[-87.0,15.38],[-86.995,15.394],[-86.988,15.396],[-86.986,15.389],[-86.976,15.39],[-86.959,15.381],[-86.925,15.382],[-86.913,15.355],[-86.889,15.333],[-86.869,15.322],[-86.853,15.302],[-86.836,15.296],[-86.827,15.285],[-86.819,15.285],[-86.819,15.273],[-86.838,15.266],[-86.848,15.257],[-86.857,15.258],[-86.865,15.248],[-86.869,15.231],[-86.86,15.185],[-86.871,15.181],[-86.903,15.212],[-86.948,15.208],[-86.965,15.232],[-86.987,15.241],[-86.986,15.25],[-87.048,15.284],[-87.066,15.3],[-87.081,15.303]]]}},{"type":"Feature","properties":{"cve_ent":"HN18","cve_mun":"006","cvegeo":"HN1806","nombre":"Morazán"},"geometry":{"type":"Polygon","coordinates":[[[-87.64,15.461],[-87.639,15.47],[-87.635,15.474],[-87.62,15.476],[-87.615,15.484],[-87.621,15.495],[-87.622,15.508],[-87.57,15.508],[-87.554,15.515],[-87.543,15.514],[-87.528,15.523],[-87.512,15.513],[-87.515,15.499],[-87.51,15.484],[-87.51,15.46],[-87.537,15.444],[-87.538,15.439],[-87.532,15.439],[-87.53,15.429],[-87.543,15.409],[-87.543,15.402],[-87.535,15.393],[-87.528,15.396],[-87.508,15.381],[-87.501,15.357],[-87.459,15.339],[-87.432,15.267],[-87.439,15.255],[-87.493,15.265],[-87.496,15.257],[-87.513,15.246],[-87.514,15.24],[-87.531,15.232],[-87.528,15.211],[-87.534,15.198],[-87.547,15.192],[-87.562,15.175],[-87.57,15.178],[-87.592,15.176],[-87.645,15.208],[-87.648,15.239],[-87.639,15.259],[-87.64,15.271],[-87.647,15.277],[-87.653,15.276],[-87.653,15.281],[-87.641,15.302],[-87.626,15.346],[-87.631,15.375],[-87.63,15.388],[-87.627,15.394],[-87.624,15.393],[-87.625,15.402],[-87.619,15.411],[-87.622,15.415],[-87.62,15.426],[-87.617,15.433],[-87.608,15.436],[-87.606,15.441],[-87.608,15.446],[-87.612,15.444],[-87.618,15.455],[-87.636,15.456],[-87.636,15.461],[-87.64,15.461]]]}},{"type":"Feature","properties":{"cve_ent":"HN18","cve_mun":"007","cvegeo":"HN1807","nombre":"Olanchito"},"geometry":{"type":"Polygon","coordinates":[[[-86.854,15.396],[-86.876,15.401],[-86.89,15.389],[-86.903,15.386],[-86.916,15.394],[-86.952,15.381],[-86.968,15.384],[-86.976,15.39],[-86.986,15.389],[-86.987,15.395],[-86.993,15.396],[-86.998,15.382],[-87.008,15.38],[-87.006,15.369],[-87.014,15.37],[-87.018,15.366],[-87.024,15.367],[-87.025,15.372],[-87.032,15.369],[-87.035,15.375],[-87.038,15.371],[-87.045,15.371],[-87.049,15.38],[-87.056,15.375],[-87.06,15.379],[-87.064,15.375],[-87.071,15.378],[-87.077,15.367],[-87.087,15.363],[-87.083,15.35],[-87.087,15.344],[-87.084,15.341],[-87.088,15.34],[-87.105,15.347],[-87.108,15.386],[-87.14,15.41],[-87.166,15.444],[-87.151,15.46],[-87.108,15.456],[-87.091,15.473],[-87.073,15.474],[-87.049,15.488],[-87.05,15.499],[-87.042,15.504],[-87.044,15.51],[-87.029,15.513],[-87.026,15.519],[-87.006,15.532],[-86.993,15.551],[-86.984,15.556],[-86.983,15.552],[-86.971,15.547],[-86.944,15.55],[-86.927,15.546],[-86.907,15.561],[-86.898,15.554],[-86.882,15.56],[-86.876,15.557],[-86.859,15.567],[-86.851,15.565],[-86.85,15.547],[-86.84,15.549],[-86.837,15.543],[-86.828,15.543],[-86.819,15.553],[-86.808,15.556],[-86.803,15.548],[-86.764,15.545],[-86.765,15.549],[-86.732,15.558],[-86.696,15.583],[-86.641,15.605],[-86.574,15.586],[-86.557,15.592],[-86.535,15.592],[-86.525,15.582],[-86.519,15.582],[-86.518,15.587],[-86.51,15.585],[-86.502,15.591],[-86.484,15.592],[-86.479,15.598],[-86.463,15.596],[-86.452,15.589],[-86.401,15.574],[-86.389,15.555],[-86.379,15.547],[-86.377,15.536],[-86.357,15.535],[-86.351,15.54],[-86.328,15.539],[-86.321,15.542],[-86.318,15.538],[-86.315,15.541],[-86.314,15.536],[-86.305,15.537],[-86.302,15.524],[-86.307,15.512],[-86.288,15.505],[-86.268,15.508],[-86.268,15.519],[-86.259,15.513],[-86.254,15.515],[-86.253,15.523],[-86.238,15.524],[-86.239,15.519],[-86.229,15.5],[-86.229,15.487],[-86.232,15.485],[-86.229,15.476],[-86.235,15.471],[-86.23,15.459],[-86.239,15.456],[-86.243,15.45],[-86.232,15.437],[-86.232,15.408],[-86.279,15.374],[-86.291,15.375],[-86.373,15.324],[-86.397,15.326],[-86.391,15.347],[-86.404,15.373],[-86.411,15.37],[-86.428,15.377],[-86.426,15.383],[-86.433,15.387],[-86.438,15.4],[-86.476,15.406],[-86.472,15.403],[-86.475,15.395],[-86.489,15.394],[-86.501,15.386],[-86.509,15.392],[-86.517,15.391],[-86.544,15.377],[-86.55,15.369],[-86.564,15.368],[-86.596,15.353],[-86.604,15.343],[-86.616,15.337],[-86.634,15.341],[-86.646,15.336],[-86.649,15.333],[-86.646,15.325],[-86.65,15.303],[-86.665,15.292],[-86.664,15.284],[-86.701,15.265],[-86.72,15.269],[-86.733,15.265],[-86.753,15.27],[-86.762,15.289],[-86.776,15.296],[-86.774,15.299],[-86.785,15.312],[-86.78,15.33],[-86.769,15.336],[-86.771,15.342],[-86.76,15.339],[-86.756,15.343],[-86.753,15.358],[-86.758,15.363],[-86.758,15.379],[-86.754,15.387],[-86.748,15.39],[-86.748,15.383],[-86.737,15.383],[-86.738,15.393],[-86.732,15.391],[-86.727,15.398],[-86.717,15.397],[-86.715,15.402],[-86.705,15.403],[-86.706,15.409],[-86.699,15.409],[-86.695,15.414],[-86.704,15.424],[-86.716,15.425],[-86.72,15.421],[-86.735,15.42],[-86.738,15.416],[-86.745,15.418],[-86.753,15.409],[-86.752,15.404],[-86.763,15.395],[-86.781,15.4],[-86.786,15.395],[-86.799,15.392],[-86.806,15.4],[-86.815,15.398],[-86.822,15.403],[-86.831,15.4],[-86.841,15.403],[-86.854,15.396]]]}},{"type":"Feature","properties":{"cve_ent":"HN18","cve_mun":"008","cvegeo":"HN1808","nombre":"Santa Rita"},"geometry":{"type":"Polygon","coordinates":[[[-87.802,15.229],[-87.775,15.23],[-87.75,15.211],[-87.725,15.21],[-87.729,15.204],[-87.725,15.198],[-87.731,15.192],[-87.729,15.182],[-87.741,15.176],[-87.744,15.163],[-87.758,15.158],[-87.757,15.148],[-87.766,15.15],[-87.767,15.142],[-87.781,15.134],[-87.797,15.14],[-87.795,15.151],[-87.802,15.156],[-87.814,15.15],[-87.819,15.161],[-87.844,15.158],[-87.851,15.163],[-87.848,15.175],[-87.857,15.178],[-87.867,15.193],[-87.904,15.191],[-87.911,15.199],[-87.926,15.2],[-87.926,15.208],[-87.916,15.209],[-87.925,15.213],[-87.918,15.224],[-87.837,15.226],[-87.806,15.238],[-87.802,15.229]]]}},{"type":"Feature","properties":{"cve_ent":"HN18","cve_mun":"009","cvegeo":"HN1809","nombre":"Sulaco"},"geometry":{"type":"Polygon","coordinates":[[[-87.36,14.941],[-87.354,14.952],[-87.364,14.967],[-87.348,14.985],[-87.391,15.012],[-87.38,15.041],[-87.375,15.045],[-87.336,15.045],[-87.334,15.041],[-87.327,15.04],[-87.326,15.026],[-87.285,15.026],[-87.275,15.02],[-87.275,15.015],[-87.268,15.02],[-87.266,15.027],[-87.256,15.023],[-87.241,15.027],[-87.234,15.022],[-87.206,15.016],[-87.193,15.018],[-87.185,15.012],[-87.185,14.97],[-87.191,14.964],[-87.2,14.962],[-87.209,14.95],[-87.214,14.949],[-87.214,14.937],[-87.208,14.925],[-87.217,14.912],[-87.196,14.906],[-87.199,14.896],[-87.193,14.889],[-87.199,14.883],[-87.199,14.876],[-87.208,14.875],[-87.212,14.882],[-87.217,14.881],[-87.219,14.885],[-87.254,14.898],[-87.257,14.904],[-87.268,14.909],[-87.268,14.915],[-87.275,14.919],[-87.278,14.927],[-87.29,14.925],[-87.294,14.914],[-87.299,14.913],[-87.313,14.932],[-87.318,14.927],[-87.324,14.931],[-87.343,14.93],[-87.36,14.941]],[[-87.19,14.966],[-87.19,14.967],[-87.191,14.966],[-87.19,14.966]]]}},{"type":"Feature","properties":{"cve_ent":"HN18","cve_mun":"010","cvegeo":"HN1810","nombre":"Victoria"},"geometry":{"type":"Polygon","coordinates":[[[-87.77,15.139],[-87.766,15.15],[-87.757,15.148],[-87.758,15.158],[-87.743,15.164],[-87.741,15.176],[-87.729,15.182],[-87.731,15.192],[-87.725,15.198],[-87.727,15.201],[-87.719,15.2],[-87.714,15.214],[-87.708,15.211],[-87.706,15.221],[-87.702,15.221],[-87.7,15.229],[-87.692,15.236],[-87.695,15.242],[-87.69,15.241],[-87.692,15.244],[-87.685,15.248],[-87.688,15.248],[-87.689,15.258],[-87.679,15.267],[-87.677,15.281],[-87.665,15.28],[-87.653,15.286],[-87.653,15.276],[-87.647,15.277],[-87.64,15.271],[-87.639,15.259],[-87.648,15.239],[-87.645,15.208],[-87.592,15.176],[-87.57,15.178],[-87.548,15.169],[-87.53,15.17],[-87.514,15.157],[-87.492,15.156],[-87.477,15.139],[-87.457,15.139],[-87.447,15.126],[-87.423,15.126],[-87.419,15.119],[-87.397,15.112],[-87.399,15.095],[-87.396,15.084],[-87.402,15.059],[-87.4,15.045],[-87.405,15.04],[-87.389,15.038],[-87.383,15.033],[-87.391,15.012],[-87.348,14.985],[-87.364,14.967],[-87.354,14.949],[-87.364,14.938],[-87.377,14.939],[-87.403,14.911],[-87.411,14.912],[-87.424,14.904],[-87.433,14.911],[-87.436,14.908],[-87.439,14.911],[-87.45,14.909],[-87.456,14.915],[-87.453,14.926],[-87.459,14.928],[-87.452,14.937],[-87.46,14.939],[-87.465,14.946],[-87.46,14.954],[-87.465,14.964],[-87.462,14.971],[-87.478,14.97],[-87.475,14.979],[-87.486,14.977],[-87.497,14.983],[-87.496,14.99],[-87.505,14.995],[-87.507,15.013],[-87.503,15.017],[-87.507,15.025],[-87.52,15.042],[-87.527,15.047],[-87.533,15.046],[-87.541,15.057],[-87.555,15.051],[-87.563,15.052],[-87.573,15.038],[-87.59,15.038],[-87.591,15.034],[-87.583,15.029],[-87.585,15.024],[-87.611,15.021],[-87.611,15.016],[-87.621,15.007],[-87.637,15.022],[-87.652,15.017],[-87.654,15.02],[-87.664,15.018],[-87.67,15.024],[-87.674,15.018],[-87.678,15.02],[-87.689,15.013],[-87.695,15.018],[-87.702,15.011],[-87.712,15.014],[-87.735,15.01],[-87.737,15.021],[-87.745,15.027],[-87.75,15.048],[-87.744,15.06],[-87.745,15.074],[-87.736,15.077],[-87.731,15.084],[-87.738,15.089],[-87.735,15.097],[-87.739,15.099],[-87.732,15.11],[-87.744,15.116],[-87.757,15.135],[-87.77,15.139]]]}},{"type":"Feature","properties":{"cve_ent":"HN18","cve_mun":"011","cvegeo":"HN1811","nombre":"Yorito"},"geometry":{"type":"Polygon","coordinates":[[[-87.402,15.057],[-87.396,15.084],[-87.399,15.1],[-87.397,15.112],[-87.39,15.119],[-87.391,15.126],[-87.378,15.139],[-87.364,15.145],[-87.322,15.135],[-87.3,15.121],[-87.285,15.124],[-87.271,15.117],[-87.258,15.122],[-87.236,15.082],[-87.236,15.059],[-87.189,15.047],[-87.186,15.042],[-87.171,15.039],[-87.156,15.028],[-87.167,15.025],[-87.174,15.029],[-87.174,15.024],[-87.185,15.012],[-87.193,15.018],[-87.206,15.016],[-87.234,15.022],[-87.241,15.027],[-87.251,15.023],[-87.266,15.027],[-87.268,15.02],[-87.275,15.015],[-87.275,15.02],[-87.285,15.026],[-87.326,15.026],[-87.327,15.04],[-87.334,15.041],[-87.336,15.045],[-87.375,15.045],[-87.38,15.041],[-87.381,15.033],[-87.389,15.038],[-87.403,15.039],[-87.405,15.042],[-87.4,15.045],[-87.402,15.057]]]}}]}