{"type":"FeatureCollection","features":[{"type":"Feature","properties":{"cve_ent":"CO05","cve_mun":"001","cvegeo":"CO05001","nombre":"Medellín"},"geometry":{"type":"Polygon","coordinates":[[[-75.6687,6.3729],[-75.6516,6.3332],[-75.5218,6.2886],[-75.501,6.2973],[-75.4851,6.1907],[-75.583,6.1895],[-75.6797,6.1634],[-75.6944,6.1944],[-75.7103,6.2589],[-75.7177,6.3605],[-75.6687,6.3729]]]}},{"type":"Feature","properties":{"cve_ent":"CO05","cve_mun":"002","cvegeo":"CO05002","nombre":"Abejorral"},"geometry":{"type":"Polygon","coordinates":[[[-75.4153,5.9019],[-75.2843,5.8734],[-75.2684,5.8536],[-75.3211,5.7817],[-75.4227,5.7284],[-75.4239,5.6962],[-75.479,5.6639],[-75.5561,5.7247],[-75.5341,5.8598],[-75.4863,5.8709],[-75.4814,5.9341],[-75.4153,5.9019]]]}},{"type":"Feature","properties":{"cve_ent":"CO05","cve_mun":"004","cvegeo":"CO05004","nombre":"Abriaquí"},"geometry":{"type":"Polygon","coordinates":[[[-76.0115,6.6468],[-76.0078,6.6344],[-76.0384,6.5043],[-76.058,6.5068],[-76.1621,6.5923],[-76.1767,6.6791],[-76.1033,6.7138],[-76.0874,6.7547],[-76.0115,6.6468]]]}},{"type":"Feature","properties":{"cve_ent":"CO05","cve_mun":"021","cvegeo":"CO05021","nombre":"Alejandría"},"geometry":{"type":"Polygon","coordinates":[[[-74.9869,6.3853],[-75.1166,6.3023],[-75.1705,6.2973],[-75.1448,6.4113],[-75.0885,6.394],[-75.0334,6.4175],[-74.9869,6.3853]]]}},{"type":"Feature","properties":{"cve_ent":"CO05","cve_mun":"030","cvegeo":"CO05030","nombre":"Amagá"},"geometry":{"type":"Polygon","coordinates":[[[-75.67,5.9986],[-75.6993,5.9812],[-75.7667,5.9998],[-75.7471,6.0692],[-75.6773,6.0878],[-75.67,5.9986]]]}},{"type":"Feature","properties":{"cve_ent":"CO05","cve_mun":"031","cvegeo":"CO05031","nombre":"Amalfi"},"geometry":{"type":"Polygon","coordinates":[[[-74.9134,7.2876],[-74.9159,7.2641],[-74.8424,7.1339],[-74.8583,7.0472],[-74.8375,6.9914],[-74.8767,6.8489],[-74.9208,6.7509],[-75.026,6.834],[-75.0591,6.7671],[-75.1093,6.7819],[-75.1815,6.8464],[-75.1705,6.9059],[-75.0848,6.9654],[-75.0212,7.1401],[-74.9134,7.2876]]]}},{"type":"Feature","properties":{"cve_ent":"CO05","cve_mun":"034","cvegeo":"CO05034","nombre":"Andes"},"geometry":{"type":"Polygon","coordinates":[[[-75.8364,5.7296],[-75.8095,5.6552],[-75.8732,5.6367],[-75.8707,5.5437],[-75.9062,5.4817],[-75.9833,5.5189],[-76.009,5.5672],[-76.0066,5.623],[-76.0739,5.6776],[-76.0029,5.6701],[-75.9062,5.6974],[-75.8927,5.7544],[-75.8732,5.7755],[-75.8364,5.7296]]]}},{"type":"Feature","properties":{"cve_ent":"CO05","cve_mun":"036","cvegeo":"CO05036","nombre":"Angelópolis"},"geometry":{"type":"Polygon","coordinates":[[[-75.6797,6.1634],[-75.6724,6.1188],[-75.6773,6.0878],[-75.7471,6.0692],[-75.7667,6.1349],[-75.7471,6.1461],[-75.6944,6.1944],[-75.6797,6.1634]]]}},{"type":"Feature","properties":{"cve_ent":"CO05","cve_mun":"038","cvegeo":"CO05038","nombre":"Angostura"},"geometry":{"type":"Polygon","coordinates":[[[-75.2427,6.9269],[-75.288,6.8216],[-75.3786,6.7733],[-75.49,6.7733],[-75.4716,6.8513],[-75.3749,6.9009],[-75.3358,6.9455],[-75.2684,6.9703],[-75.2427,6.9269]]]}},{"type":"Feature","properties":{"cve_ent":"CO05","cve_mun":"040","cvegeo":"CO05040","nombre":"Anorí"},"geometry":{"type":"Polygon","coordinates":[[[-74.9134,7.2876],[-75.0212,7.1401],[-75.0848,6.9654],[-75.1705,6.9059],[-75.2244,6.9331],[-75.2244,7.0373],[-75.2599,7.1153],[-75.3149,7.16],[-75.3174,7.2133],[-75.2966,7.2294],[-75.1913,7.2703],[-75.1656,7.3558],[-75.0456,7.424],[-74.9942,7.3942],[-74.8902,7.393],[-74.9134,7.2876]]]}},{"type":"Feature","properties":{"cve_ent":"CO05","cve_mun":"042","cvegeo":"CO05042","nombre":"Santa Fé de Antioquia"},"geometry":{"type":"Polygon","coordinates":[[[-75.8328,6.6803],[-75.8009,6.5378],[-75.8193,6.4101],[-75.8315,6.3977],[-75.905,6.3965],[-75.9429,6.4584],[-76.0384,6.5043],[-76.0078,6.6344],[-75.9307,6.622],[-75.8805,6.6456],[-75.8328,6.6803]]]}},{"type":"Feature","properties":{"cve_ent":"CO05","cve_mun":"044","cvegeo":"CO05044","nombre":"Anzá"},"geometry":{"type":"Polygon","coordinates":[[[-75.8315,6.3977],[-75.856,6.327],[-75.8523,6.249],[-75.9331,6.2167],[-76.0041,6.2849],[-75.9882,6.3444],[-75.905,6.3965],[-75.8315,6.3977]]]}},{"type":"Feature","properties":{"cve_ent":"CO05","cve_mun":"045","cvegeo":"CO05045","nombre":"Apartadó"},"geometry":{"type":"Polygon","coordinates":[[[-76.4253,8.0735],[-76.4118,8.0065],[-76.4216,7.9123],[-76.4644,7.8702],[-76.5171,7.8355],[-76.5489,7.771],[-76.7019,7.8119],[-76.7533,7.8789],[-76.533,7.9631],[-76.4253,8.0735]]]}},{"type":"Feature","properties":{"cve_ent":"CO05","cve_mun":"051","cvegeo":"CO05051","nombre":"Arboletes"},"geometry":{"type":"Polygon","coordinates":[[[-76.364,8.7093],[-76.2514,8.6114],[-76.2551,8.594],[-76.32,8.5445],[-76.3285,8.4465],[-76.4032,8.4639],[-76.4338,8.4503],[-76.5709,8.5816],[-76.566,8.6114],[-76.451,8.6895],[-76.4865,8.8184],[-76.413,8.8742],[-76.364,8.7093]]]}},{"type":"Feature","properties":{"cve_ent":"CO05","cve_mun":"055","cvegeo":"CO05055","nombre":"Argelia"},"geometry":{"type":"Polygon","coordinates":[[[-74.8804,5.7457],[-74.993,5.716],[-75.0689,5.6627],[-75.1607,5.6466],[-75.2354,5.6763],[-75.2366,5.7259],[-75.0983,5.7594],[-74.9905,5.7408],[-74.8804,5.7457]]]}},{"type":"Feature","properties":{"cve_ent":"CO05","cve_mun":"059","cvegeo":"CO05059","nombre":"Armenia"},"geometry":{"type":"Polygon","coordinates":[[[-75.8168,6.2254],[-75.7471,6.1461],[-75.7667,6.1349],[-75.8548,6.1002],[-75.8413,6.1659],[-75.8548,6.2465],[-75.8523,6.249],[-75.8168,6.2254]]]}},{"type":"Feature","properties":{"cve_ent":"CO05","cve_mun":"079","cvegeo":"CO05079","nombre":"Barbosa"},"geometry":{"type":"Polygon","coordinates":[[[-75.2635,6.508],[-75.2415,6.4473],[-75.3064,6.3915],[-75.4043,6.3655],[-75.4484,6.4361],[-75.3957,6.4411],[-75.3235,6.513],[-75.2635,6.508]]]}},{"type":"Feature","properties":{"cve_ent":"CO05","cve_mun":"086","cvegeo":"CO05086","nombre":"Belmira"},"geometry":{"type":"Polygon","coordinates":[[[-75.6271,6.7856],[-75.5855,6.6753],[-75.654,6.6543],[-75.5647,6.5303],[-75.6455,6.4944],[-75.7177,6.6357],[-75.7263,6.798],[-75.6675,6.7534],[-75.6271,6.7856]]]}},{"type":"Feature","properties":{"cve_ent":"CO05","cve_mun":"088","cvegeo":"CO05088","nombre":"Bello"},"geometry":{"type":"Polygon","coordinates":[[[-75.5328,6.389],[-75.5218,6.2886],[-75.6516,6.3332],[-75.6687,6.3729],[-75.6626,6.4051],[-75.5916,6.4324],[-75.5328,6.389]]]}},{"type":"Feature","properties":{"cve_ent":"CO05","cve_mun":"091","cvegeo":"CO05091","nombre":"Betania"},"geometry":{"type":"Polygon","coordinates":[[[-75.8927,5.7544],[-75.9062,5.6974],[-76.0029,5.6701],[-76.0739,5.6776],[-76.0874,5.6887],[-76.0654,5.7643],[-76.0201,5.7532],[-75.9552,5.7978],[-75.8927,5.7544]]]}},{"type":"Feature","properties":{"cve_ent":"CO05","cve_mun":"093","cvegeo":"CO05093","nombre":"Betulia"},"geometry":{"type":"Polygon","coordinates":[[[-75.8548,6.2465],[-75.8413,6.1659],[-75.9968,6.0779],[-76.0482,6.2613],[-76.0041,6.2849],[-75.9331,6.2167],[-75.8548,6.2465]]]}},{"type":"Feature","properties":{"cve_ent":"CO05","cve_mun":"101","cvegeo":"CO05101","nombre":"Ciudad Bolívar"},"geometry":{"type":"Polygon","coordinates":[[[-75.9148,5.8635],[-75.9148,5.8474],[-75.9552,5.7978],[-76.0201,5.7532],[-76.0654,5.7643],[-76.0984,5.8498],[-76.0543,5.9317],[-75.9148,5.8635]]]}},{"type":"Feature","properties":{"cve_ent":"CO05","cve_mun":"107","cvegeo":"CO05107","nombre":"Briceño"},"geometry":{"type":"Polygon","coordinates":[[[-75.4716,7.0497],[-75.5353,6.9902],[-75.6087,7.0558],[-75.6589,7.0286],[-75.6871,7.0844],[-75.6051,7.1786],[-75.4447,7.2492],[-75.4973,7.1327],[-75.4716,7.0497]]]}},{"type":"Feature","properties":{"cve_ent":"CO05","cve_mun":"113","cvegeo":"CO05113","nombre":"Buriticá"},"geometry":{"type":"Polygon","coordinates":[[[-75.845,6.8712],[-75.8707,6.7844],[-75.8328,6.6803],[-75.8805,6.6456],[-75.9589,6.7262],[-75.9833,6.7609],[-75.954,6.9666],[-75.9172,6.9641],[-75.845,6.8712]]]}},{"type":"Feature","properties":{"cve_ent":"CO05","cve_mun":"120","cvegeo":"CO05120","nombre":"Cáceres"},"geometry":{"type":"Polygon","coordinates":[[[-75.0199,7.5814],[-75.0799,7.5157],[-75.0297,7.4897],[-74.9942,7.3942],[-75.0456,7.424],[-75.1656,7.3558],[-75.2488,7.4574],[-75.2745,7.5343],[-75.3321,7.5355],[-75.3664,7.6186],[-75.4386,7.6694],[-75.4851,7.7363],[-75.4582,7.8342],[-75.3541,7.8689],[-75.3309,7.926],[-75.2941,7.8913],[-75.2158,7.9445],[-75.1644,7.89],[-75.1644,7.8008],[-75.0334,7.771],[-75.042,7.6111],[-75.0199,7.5814]]]}},{"type":"Feature","properties":{"cve_ent":"CO05","cve_mun":"125","cvegeo":"CO05125","nombre":"Caicedo"},"geometry":{"type":"Polygon","coordinates":[[[-76.0384,6.5043],[-75.9429,6.4584],[-75.905,6.3965],[-75.9882,6.3444],[-76.0421,6.3779],[-76.058,6.5068],[-76.0384,6.5043]]]}},{"type":"Feature","properties":{"cve_ent":"CO05","cve_mun":"129","cvegeo":"CO05129","nombre":"Caldas"},"geometry":{"type":"Polygon","coordinates":[[[-75.6063,6.1163],[-75.5904,6.1126],[-75.5732,6.099],[-75.5916,6.006],[-75.6136,5.9788],[-75.67,5.9986],[-75.6773,6.0878],[-75.6724,6.1188],[-75.6063,6.1163]]]}},{"type":"Feature","properties":{"cve_ent":"CO05","cve_mun":"134","cvegeo":"CO05134","nombre":"Campamento"},"geometry":{"type":"Polygon","coordinates":[[[-75.2244,6.9331],[-75.2427,6.9269],[-75.2684,6.9703],[-75.3358,6.9455],[-75.3137,7.0112],[-75.3333,7.0757],[-75.3174,7.2133],[-75.3149,7.16],[-75.2599,7.1153],[-75.2244,7.0373],[-75.2244,6.9331]]]}},{"type":"Feature","properties":{"cve_ent":"CO05","cve_mun":"138","cvegeo":"CO05138","nombre":"Cañasgordas"},"geometry":{"type":"Polygon","coordinates":[[[-75.954,6.9666],[-75.9833,6.7609],[-75.9589,6.7262],[-76.0115,6.6468],[-76.0874,6.7547],[-76.1217,6.8513],[-76.1009,6.8922],[-75.9833,6.9431],[-75.965,6.9802],[-75.954,6.9666]]]}},{"type":"Feature","properties":{"cve_ent":"CO05","cve_mun":"142","cvegeo":"CO05142","nombre":"Caracolí"},"geometry":{"type":"Polygon","coordinates":[[[-74.7176,6.3965],[-74.6331,6.275],[-74.7127,6.2403],[-74.7935,6.3134],[-74.8375,6.4336],[-74.8118,6.4621],[-74.7176,6.3965]]]}},{"type":"Feature","properties":{"cve_ent":"CO05","cve_mun":"145","cvegeo":"CO05145","nombre":"Caramanta"},"geometry":{"type":"Polygon","coordinates":[[[-75.5806,5.6057],[-75.5708,5.5437],[-75.5769,5.5164],[-75.6406,5.5301],[-75.7042,5.5375],[-75.714,5.5474],[-75.6761,5.5982],[-75.5806,5.6057]]]}},{"type":"Feature","properties":{"cve_ent":"CO05","cve_mun":"147","cvegeo":"CO05147","nombre":"Carepa"},"geometry":{"type":"Polygon","coordinates":[[[-76.7533,7.8789],[-76.7019,7.8119],[-76.5489,7.771],[-76.5171,7.8355],[-76.4644,7.8702],[-76.4914,7.7202],[-76.6199,7.7338],[-76.7019,7.719],[-76.8096,7.771],[-76.8047,7.8689],[-76.7533,7.8789]]]}},{"type":"Feature","properties":{"cve_ent":"CO05","cve_mun":"148","cvegeo":"CO05148","nombre":"El Carmen de Viboral"},"geometry":{"type":"Polygon","coordinates":[[[-75.3076,6.1436],[-75.2684,6.0568],[-75.1362,5.9403],[-75.1656,5.8734],[-75.2684,5.8536],[-75.2843,5.8734],[-75.3602,6.0308],[-75.3872,6.0581],[-75.3517,6.1448],[-75.3076,6.1436]]]}},{"type":"Feature","properties":{"cve_ent":"CO05","cve_mun":"150","cvegeo":"CO05150","nombre":"Carolina"},"geometry":{"type":"Polygon","coordinates":[[[-75.2868,6.6778],[-75.3786,6.7733],[-75.288,6.8216],[-75.2305,6.7931],[-75.2868,6.6778]]]}},{"type":"Feature","properties":{"cve_ent":"CO05","cve_mun":"154","cvegeo":"CO05154","nombre":"Caucasia"},"geometry":{"type":"Polygon","coordinates":[[[-74.8057,7.7847],[-74.7824,7.7252],[-74.8412,7.6681],[-74.9,7.6719],[-74.9391,7.621],[-75.0199,7.5814],[-75.042,7.6111],[-75.0334,7.771],[-75.1644,7.8008],[-75.1644,7.89],[-75.2158,7.9445],[-75.2941,7.8913],[-75.3309,7.926],[-75.337,7.9483],[-75.3088,7.947],[-75.2207,8.066],[-75.168,8.0524],[-75.0567,8.0474],[-74.9134,8.0995],[-74.933,7.9805],[-74.9232,7.8094],[-74.8057,7.7847]]]}},{"type":"Feature","properties":{"cve_ent":"CO05","cve_mun":"172","cvegeo":"CO05172","nombre":"Chigorodó"},"geometry":{"type":"Polygon","coordinates":[[[-76.4914,7.7202],[-76.5024,7.5554],[-76.5758,7.4859],[-76.6444,7.4686],[-76.7129,7.5938],[-76.8096,7.6681],[-76.8096,7.771],[-76.7019,7.719],[-76.6199,7.7338],[-76.4914,7.7202]]]}},{"type":"Feature","properties":{"cve_ent":"CO05","cve_mun":"190","cvegeo":"CO05190","nombre":"Cisneros"},"geometry":{"type":"Polygon","coordinates":[[[-75.0346,6.5378],[-75.1362,6.5477],[-75.0934,6.5824],[-75.0346,6.5378]]]}},{"type":"Feature","properties":{"cve_ent":"CO05","cve_mun":"197","cvegeo":"CO05197","nombre":"Cocorná"},"geometry":{"type":"Polygon","coordinates":[[[-75.1668,6.1015],[-75.0848,6.0209],[-75.0689,5.9998],[-75.0554,5.9193],[-75.1656,5.8734],[-75.1362,5.9403],[-75.2684,6.0568],[-75.2207,6.1139],[-75.1668,6.1015]]]}},{"type":"Feature","properties":{"cve_ent":"CO05","cve_mun":"206","cvegeo":"CO05206","nombre":"Concepción"},"geometry":{"type":"Polygon","coordinates":[[[-75.1448,6.4113],[-75.1705,6.2973],[-75.1827,6.2849],[-75.2427,6.3221],[-75.3064,6.3915],[-75.2415,6.4473],[-75.1448,6.4113]]]}},{"type":"Feature","properties":{"cve_ent":"CO05","cve_mun":"209","cvegeo":"CO05209","nombre":"Concordia"},"geometry":{"type":"Polygon","coordinates":[[[-75.8413,6.1659],[-75.8548,6.1002],[-75.8413,6.0085],[-75.8487,5.9564],[-75.9442,5.9788],[-75.9429,6.0444],[-75.998,6.0692],[-75.9968,6.0779],[-75.8413,6.1659]]]}},{"type":"Feature","properties":{"cve_ent":"CO05","cve_mun":"212","cvegeo":"CO05212","nombre":"Copacabana"},"geometry":{"type":"Polygon","coordinates":[[[-75.4508,6.3345],[-75.501,6.2973],[-75.5218,6.2886],[-75.5328,6.389],[-75.4888,6.4299],[-75.4508,6.3345]]]}},{"type":"Feature","properties":{"cve_ent":"CO05","cve_mun":"234","cvegeo":"CO05234","nombre":"Dabeiba"},"geometry":{"type":"Polygon","coordinates":[[[-76.2184,7.15],[-76.1572,7.1277],[-76.0617,7.1711],[-75.9662,7.1315],[-75.9821,7.0013],[-76.0751,6.9406],[-76.1535,6.9778],[-76.2245,6.9207],[-76.2894,6.8997],[-76.2759,6.8042],[-76.3151,6.7745],[-76.4081,6.8501],[-76.4301,6.7435],[-76.5207,6.7646],[-76.577,6.6952],[-76.6015,6.715],[-76.5721,6.8464],[-76.5122,6.9257],[-76.5477,7.0026],[-76.5256,7.1054],[-76.4852,7.1352],[-76.3959,7.1872],[-76.3175,7.1525],[-76.2184,7.15]]]}},{"type":"Feature","properties":{"cve_ent":"CO05","cve_mun":"237","cvegeo":"CO05237","nombre":"Donmatías"},"geometry":{"type":"Polygon","coordinates":[[[-75.2097,6.5539],[-75.2635,6.508],[-75.3235,6.513],[-75.3957,6.4411],[-75.4888,6.4299],[-75.4582,6.5167],[-75.4263,6.5439],[-75.337,6.5439],[-75.2488,6.5737],[-75.2097,6.5539]]]}},{"type":"Feature","properties":{"cve_ent":"CO05","cve_mun":"240","cvegeo":"CO05240","nombre":"Ebéjico"},"geometry":{"type":"Polygon","coordinates":[[[-75.7177,6.3605],[-75.7103,6.2589],[-75.8095,6.2601],[-75.8168,6.2254],[-75.8523,6.249],[-75.856,6.327],[-75.8315,6.3977],[-75.8193,6.4101],[-75.7801,6.42],[-75.7177,6.3605]]]}},{"type":"Feature","properties":{"cve_ent":"CO05","cve_mun":"250","cvegeo":"CO05250","nombre":"El Bagre"},"geometry":{"type":"Polygon","coordinates":[[[-74.5609,7.9681],[-74.5192,7.9012],[-74.5082,7.7239],[-74.5609,7.6458],[-74.5633,7.4326],[-74.5609,7.4277],[-74.6074,7.3868],[-74.6747,7.4376],[-74.758,7.4599],[-74.8204,7.5888],[-74.7641,7.6743],[-74.8057,7.7847],[-74.7898,7.8094],[-74.8204,7.9408],[-74.7494,7.9458],[-74.6343,7.9012],[-74.5609,7.9681]]]}},{"type":"Feature","properties":{"cve_ent":"CO05","cve_mun":"264","cvegeo":"CO05264","nombre":"Entrerríos"},"geometry":{"type":"Polygon","coordinates":[[[-75.4582,6.5167],[-75.4606,6.5117],[-75.5647,6.5303],[-75.654,6.6543],[-75.5855,6.6753],[-75.5426,6.6791],[-75.5084,6.5737],[-75.4582,6.5167]]]}},{"type":"Feature","properties":{"cve_ent":"CO05","cve_mun":"266","cvegeo":"CO05266","nombre":"Envigado"},"geometry":{"type":"Polygon","coordinates":[[[-75.4851,6.1907],[-75.4753,6.1585],[-75.5732,6.099],[-75.5904,6.1126],[-75.6051,6.1634],[-75.583,6.1895],[-75.4851,6.1907]]]}},{"type":"Feature","properties":{"cve_ent":"CO05","cve_mun":"282","cvegeo":"CO05282","nombre":"Fredonia"},"geometry":{"type":"Polygon","coordinates":[[[-75.6136,5.9788],[-75.6357,5.9664],[-75.6198,5.8015],[-75.6406,5.7618],[-75.6651,5.8003],[-75.7605,5.8734],[-75.7752,5.8808],[-75.6993,5.9812],[-75.67,5.9986],[-75.6136,5.9788]]]}},{"type":"Feature","properties":{"cve_ent":"CO05","cve_mun":"284","cvegeo":"CO05284","nombre":"Frontino"},"geometry":{"type":"Polygon","coordinates":[[[-76.1217,6.8513],[-76.0874,6.7547],[-76.1033,6.7138],[-76.1767,6.6791],[-76.1621,6.5923],[-76.2269,6.5712],[-76.3175,6.5055],[-76.38,6.5935],[-76.484,6.4968],[-76.5232,6.5873],[-76.5636,6.5663],[-76.5734,6.6332],[-76.577,6.6952],[-76.5207,6.7646],[-76.4301,6.7435],[-76.4081,6.8501],[-76.3151,6.7745],[-76.2759,6.8042],[-76.2894,6.8997],[-76.2245,6.9207],[-76.2465,6.8774],[-76.1559,6.8241],[-76.1217,6.8513]]]}},{"type":"Feature","properties":{"cve_ent":"CO05","cve_mun":"306","cvegeo":"CO05306","nombre":"Giraldo"},"geometry":{"type":"Polygon","coordinates":[[[-75.8805,6.6456],[-75.9307,6.622],[-76.0078,6.6344],[-76.0115,6.6468],[-75.9589,6.7262],[-75.8805,6.6456]]]}},{"type":"Feature","properties":{"cve_ent":"CO05","cve_mun":"308","cvegeo":"CO05308","nombre":"Girardota"},"geometry":{"type":"Polygon","coordinates":[[[-75.4043,6.3655],[-75.4068,6.3481],[-75.4508,6.3345],[-75.4888,6.4299],[-75.4484,6.4361],[-75.4043,6.3655]]]}},{"type":"Feature","properties":{"cve_ent":"CO05","cve_mun":"310","cvegeo":"CO05310","nombre":"Gómez Plata"},"geometry":{"type":"Polygon","coordinates":[[[-75.1093,6.7819],[-75.1228,6.658],[-75.1974,6.5749],[-75.2868,6.6778],[-75.2305,6.7931],[-75.1815,6.8464],[-75.1093,6.7819]]]}},{"type":"Feature","properties":{"cve_ent":"CO05","cve_mun":"313","cvegeo":"CO05313","nombre":"Granada"},"geometry":{"type":"Polygon","coordinates":[[[-75.0615,6.1275],[-75.0848,6.0209],[-75.2329,6.1634],[-75.1632,6.1721],[-75.1215,6.2316],[-75.0615,6.1275]]]}},{"type":"Feature","properties":{"cve_ent":"CO05","cve_mun":"315","cvegeo":"CO05315","nombre":"Guadalupe"},"geometry":{"type":"Polygon","coordinates":[[[-75.1705,6.9059],[-75.1815,6.8464],[-75.2305,6.7931],[-75.288,6.8216],[-75.2427,6.9269],[-75.2244,6.9331],[-75.1705,6.9059]]]}},{"type":"Feature","properties":{"cve_ent":"CO05","cve_mun":"318","cvegeo":"CO05318","nombre":"Guarne"},"geometry":{"type":"Polygon","coordinates":[[[-75.4068,6.3481],[-75.3798,6.2328],[-75.4863,6.2056],[-75.501,6.2973],[-75.4508,6.3345],[-75.4068,6.3481]]]}},{"type":"Feature","properties":{"cve_ent":"CO05","cve_mun":"321","cvegeo":"CO05321","nombre":"Guatapé"},"geometry":{"type":"Polygon","coordinates":[[[-75.1179,6.2353],[-75.1632,6.1721],[-75.1962,6.2415],[-75.1827,6.2849],[-75.1705,6.2973],[-75.1166,6.3023],[-75.1179,6.2353]]]}},{"type":"Feature","properties":{"cve_ent":"CO05","cve_mun":"347","cvegeo":"CO05347","nombre":"Heliconia"},"geometry":{"type":"Polygon","coordinates":[[[-75.7103,6.2589],[-75.6944,6.1944],[-75.7471,6.1461],[-75.8168,6.2254],[-75.8095,6.2601],[-75.7103,6.2589]]]}},{"type":"Feature","properties":{"cve_ent":"CO05","cve_mun":"353","cvegeo":"CO05353","nombre":"Hispania"},"geometry":{"type":"Polygon","coordinates":[[[-75.8732,5.7755],[-75.8927,5.7544],[-75.9552,5.7978],[-75.9148,5.8474],[-75.8732,5.7755]]]}},{"type":"Feature","properties":{"cve_ent":"CO05","cve_mun":"360","cvegeo":"CO05360","nombre":"Itagüí"},"geometry":{"type":"Polygon","coordinates":[[[-75.583,6.1895],[-75.6051,6.1634],[-75.6259,6.1535],[-75.6479,6.1721],[-75.583,6.1895]]]}},{"type":"Feature","properties":{"cve_ent":"CO05","cve_mun":"361","cvegeo":"CO05361","nombre":"Ituango"},"geometry":{"type":"Polygon","coordinates":[[[-75.6724,7.5975],[-75.6014,7.5901],[-75.5414,7.4921],[-75.5683,7.3806],[-75.5145,7.3732],[-75.5292,7.2988],[-75.4447,7.2492],[-75.6051,7.1786],[-75.6871,7.0844],[-75.7654,7.062],[-75.7752,7.0459],[-75.8793,7.1153],[-75.8854,7.2219],[-75.9454,7.186],[-75.9662,7.1315],[-76.0617,7.1711],[-76.1572,7.1277],[-76.2184,7.15],[-76.3812,7.3917],[-75.845,7.3471],[-75.7422,7.6124],[-75.6724,7.5975]]]}},{"type":"Feature","properties":{"cve_ent":"CO05","cve_mun":"364","cvegeo":"CO05364","nombre":"Jardín"},"geometry":{"type":"Polygon","coordinates":[[[-75.8071,5.654],[-75.752,5.628],[-75.7299,5.5635],[-75.8683,5.4904],[-75.9062,5.4817],[-75.8707,5.5437],[-75.8732,5.6367],[-75.8071,5.654]]]}},{"type":"Feature","properties":{"cve_ent":"CO05","cve_mun":"368","cvegeo":"CO05368","nombre":"Jericó"},"geometry":{"type":"Polygon","coordinates":[[[-75.6651,5.8003],[-75.7446,5.7333],[-75.8071,5.654],[-75.8095,5.6552],[-75.8364,5.7296],[-75.8205,5.8213],[-75.7605,5.8734],[-75.6651,5.8003]]]}},{"type":"Feature","properties":{"cve_ent":"CO05","cve_mun":"376","cvegeo":"CO05376","nombre":"La Ceja"},"geometry":{"type":"Polygon","coordinates":[[[-75.3872,6.0581],[-75.3602,6.0308],[-75.419,5.9812],[-75.4153,5.9019],[-75.4814,5.9341],[-75.5084,5.9602],[-75.4582,6.0011],[-75.4447,6.0593],[-75.3872,6.0581]]]}},{"type":"Feature","properties":{"cve_ent":"CO05","cve_mun":"380","cvegeo":"CO05380","nombre":"La Estrella"},"geometry":{"type":"Polygon","coordinates":[[[-75.6479,6.1721],[-75.6259,6.1535],[-75.6063,6.1163],[-75.6724,6.1188],[-75.6797,6.1634],[-75.6479,6.1721]]]}},{"type":"Feature","properties":{"cve_ent":"CO05","cve_mun":"390","cvegeo":"CO05390","nombre":"La Pintada"},"geometry":{"type":"Polygon","coordinates":[[[-75.5696,5.7247],[-75.5989,5.6813],[-75.6418,5.7569],[-75.6198,5.8015],[-75.5696,5.7247]]]}},{"type":"Feature","properties":{"cve_ent":"CO05","cve_mun":"400","cvegeo":"CO05400","nombre":"La Unión"},"geometry":{"type":"Polygon","coordinates":[[[-75.2843,5.8734],[-75.4153,5.9019],[-75.419,5.9812],[-75.3602,6.0308],[-75.2843,5.8734]]]}},{"type":"Feature","properties":{"cve_ent":"CO05","cve_mun":"411","cvegeo":"CO05411","nombre":"Liborina"},"geometry":{"type":"Polygon","coordinates":[[[-75.7336,6.8055],[-75.7263,6.798],[-75.7201,6.6518],[-75.823,6.6419],[-75.8328,6.6803],[-75.8707,6.7844],[-75.7642,6.7881],[-75.7336,6.8055]]]}},{"type":"Feature","properties":{"cve_ent":"CO05","cve_mun":"425","cvegeo":"CO05425","nombre":"Maceo"},"geometry":{"type":"Polygon","coordinates":[[[-74.5609,6.6381],[-74.6086,6.5811],[-74.6502,6.451],[-74.7176,6.3965],[-74.8118,6.4621],[-74.8388,6.5092],[-74.7347,6.6034],[-74.5609,6.6381]]]}},{"type":"Feature","properties":{"cve_ent":"CO05","cve_mun":"440","cvegeo":"CO05440","nombre":"Marinilla"},"geometry":{"type":"Polygon","coordinates":[[[-75.2843,6.2589],[-75.2525,6.1709],[-75.3076,6.1436],[-75.3517,6.1448],[-75.3272,6.2242],[-75.2843,6.2589]]]}},{"type":"Feature","properties":{"cve_ent":"CO05","cve_mun":"467","cvegeo":"CO05467","nombre":"Montebello"},"geometry":{"type":"Polygon","coordinates":[[[-75.5622,5.975],[-75.5084,5.9602],[-75.4814,5.9341],[-75.4863,5.8709],[-75.5341,5.8598],[-75.5622,5.975]]]}},{"type":"Feature","properties":{"cve_ent":"CO05","cve_mun":"475","cvegeo":"CO05475","nombre":"Murindó"},"geometry":{"type":"Polygon","coordinates":[[[-76.5477,7.0026],[-76.5122,6.9257],[-76.5721,6.8464],[-76.6015,6.715],[-76.577,6.6952],[-76.5734,6.6332],[-76.708,6.6629],[-76.7497,6.6394],[-76.8488,6.6592],[-76.8708,6.7323],[-76.9174,6.7844],[-76.9002,6.829],[-76.7937,6.865],[-76.8243,7.005],[-76.6762,7.0298],[-76.5477,7.0026]]]}},{"type":"Feature","properties":{"cve_ent":"CO05","cve_mun":"480","cvegeo":"CO05480","nombre":"Mutatá"},"geometry":{"type":"Polygon","coordinates":[[[-76.3812,7.3917],[-76.2184,7.15],[-76.3175,7.1525],[-76.3959,7.1872],[-76.4852,7.1352],[-76.5305,7.2554],[-76.615,7.3124],[-76.6823,7.4674],[-76.6444,7.4686],[-76.5758,7.4859],[-76.5024,7.5554],[-76.3812,7.3917]]]}},{"type":"Feature","properties":{"cve_ent":"CO05","cve_mun":"483","cvegeo":"CO05483","nombre":"Nariño"},"geometry":{"type":"Polygon","coordinates":[[[-75.2831,5.4755],[-75.2354,5.6763],[-75.1607,5.6466],[-75.0689,5.6627],[-75.1325,5.5412],[-75.2831,5.4755]]]}},{"type":"Feature","properties":{"cve_ent":"CO05","cve_mun":"490","cvegeo":"CO05490","nombre":"Necoclí"},"geometry":{"type":"Polygon","coordinates":[[[-76.566,8.6114],[-76.5709,8.5816],[-76.4338,8.4503],[-76.4448,8.3722],[-76.566,8.4007],[-76.6223,8.33],[-76.7741,8.2668],[-76.7582,8.392],[-76.8243,8.4961],[-76.9272,8.542],[-76.8855,8.6225],[-76.7986,8.6312],[-76.6493,8.6709],[-76.6285,8.7205],[-76.566,8.6114]]]}},{"type":"Feature","properties":{"cve_ent":"CO05","cve_mun":"495","cvegeo":"CO05495","nombre":"Nechí"},"geometry":{"type":"Polygon","coordinates":[[[-74.6147,8.0313],[-74.5609,7.9681],[-74.6343,7.9012],[-74.7494,7.9458],[-74.8204,7.9408],[-74.7898,7.8094],[-74.8057,7.7847],[-74.9232,7.8094],[-74.933,7.9805],[-74.9134,8.0995],[-74.8302,8.1999],[-74.7849,8.1317],[-74.6306,8.0549],[-74.6147,8.0313]]]}},{"type":"Feature","properties":{"cve_ent":"CO05","cve_mun":"501","cvegeo":"CO05501","nombre":"Olaya"},"geometry":{"type":"Polygon","coordinates":[[[-75.7201,6.6518],[-75.7177,6.6357],[-75.8009,6.5378],[-75.823,6.6419],[-75.7201,6.6518]]]}},{"type":"Feature","properties":{"cve_ent":"CO05","cve_mun":"541","cvegeo":"CO05541","nombre":"Peñol"},"geometry":{"type":"Polygon","coordinates":[[[-75.1827,6.2849],[-75.1962,6.2415],[-75.1632,6.1721],[-75.2329,6.1634],[-75.2525,6.1709],[-75.2843,6.2589],[-75.2427,6.3221],[-75.1827,6.2849]]]}},{"type":"Feature","properties":{"cve_ent":"CO05","cve_mun":"543","cvegeo":"CO05543","nombre":"Peque"},"geometry":{"type":"Polygon","coordinates":[[[-75.7752,7.0459],[-75.823,6.979],[-75.845,6.8712],[-75.9172,6.9641],[-75.954,6.9666],[-75.9821,7.0013],[-75.9662,7.1315],[-75.9454,7.186],[-75.8854,7.2219],[-75.8793,7.1153],[-75.7752,7.0459]]]}},{"type":"Feature","properties":{"cve_ent":"CO05","cve_mun":"576","cvegeo":"CO05576","nombre":"Pueblorrico"},"geometry":{"type":"Polygon","coordinates":[[[-75.8854,5.9069],[-75.8866,5.8647],[-75.8205,5.8213],[-75.8364,5.7296],[-75.8732,5.7755],[-75.9148,5.8474],[-75.9148,5.8635],[-75.8854,5.9069]]]}},{"type":"Feature","properties":{"cve_ent":"CO05","cve_mun":"579","cvegeo":"CO05579","nombre":"Puerto Berrío"},"geometry":{"type":"Polygon","coordinates":[[[-74.3601,6.632],[-74.4091,6.5861],[-74.3968,6.4522],[-74.4507,6.332],[-74.5339,6.2688],[-74.6331,6.275],[-74.7176,6.3965],[-74.6502,6.451],[-74.6086,6.5811],[-74.5609,6.6381],[-74.4972,6.7001],[-74.4519,6.7547],[-74.4201,6.7373],[-74.3601,6.632]]]}},{"type":"Feature","properties":{"cve_ent":"CO05","cve_mun":"585","cvegeo":"CO05585","nombre":"Puerto Nare"},"geometry":{"type":"Polygon","coordinates":[[[-74.6331,6.275],[-74.5339,6.2688],[-74.6123,6.1262],[-74.567,6.0581],[-74.7041,6.0308],[-74.769,5.9936],[-74.9195,6.0432],[-74.8204,6.0866],[-74.7726,6.2006],[-74.7127,6.2403],[-74.6331,6.275]]]}},{"type":"Feature","properties":{"cve_ent":"CO05","cve_mun":"591","cvegeo":"CO05591","nombre":"Puerto Triunfo"},"geometry":{"type":"Polygon","coordinates":[[[-74.6404,5.8598],[-74.8436,5.9267],[-74.769,5.9936],[-74.7041,6.0308],[-74.567,6.0581],[-74.5854,5.9255],[-74.6404,5.8598]]]}},{"type":"Feature","properties":{"cve_ent":"CO05","cve_mun":"604","cvegeo":"CO05604","nombre":"Remedios"},"geometry":{"type":"Polygon","coordinates":[[[-74.2842,7.0087],[-74.2438,7.0038],[-74.3809,6.9108],[-74.4519,6.7547],[-74.4972,6.7001],[-74.5805,6.7051],[-74.5792,6.7819],[-74.5719,6.8613],[-74.6331,6.9245],[-74.8216,6.8687],[-74.8375,6.9914],[-74.8583,7.0472],[-74.8424,7.1339],[-74.7604,7.1352],[-74.7102,7.0707],[-74.6184,7.1674],[-74.3883,7.2666],[-74.4103,7.2021],[-74.3515,7.0819],[-74.3552,7.01],[-74.2842,7.0087]]]}},{"type":"Feature","properties":{"cve_ent":"CO05","cve_mun":"607","cvegeo":"CO05607","nombre":"Retiro"},"geometry":{"type":"Polygon","coordinates":[[[-75.4753,6.1585],[-75.4447,6.0593],[-75.4582,6.0011],[-75.5084,5.9602],[-75.5622,5.975],[-75.5916,6.006],[-75.5732,6.099],[-75.4753,6.1585]]]}},{"type":"Feature","properties":{"cve_ent":"CO05","cve_mun":"615","cvegeo":"CO05615","nombre":"Rionegro"},"geometry":{"type":"Polygon","coordinates":[[[-75.3272,6.2242],[-75.3517,6.1448],[-75.3872,6.0581],[-75.4447,6.0593],[-75.4851,6.1907],[-75.4863,6.2056],[-75.3798,6.2328],[-75.3272,6.2242]]]}},{"type":"Feature","properties":{"cve_ent":"CO05","cve_mun":"628","cvegeo":"CO05628","nombre":"Sabanalarga"},"geometry":{"type":"Polygon","coordinates":[[[-75.7361,6.9269],[-75.7642,6.7881],[-75.8707,6.7844],[-75.845,6.8712],[-75.823,6.979],[-75.7654,7.062],[-75.7361,6.9269]]]}},{"type":"Feature","properties":{"cve_ent":"CO05","cve_mun":"631","cvegeo":"CO05631","nombre":"Sabaneta"},"geometry":{"type":"Polygon","coordinates":[[[-75.5904,6.1126],[-75.6063,6.1163],[-75.6259,6.1535],[-75.6051,6.1634],[-75.5904,6.1126]]]}},{"type":"Feature","properties":{"cve_ent":"CO05","cve_mun":"642","cvegeo":"CO05642","nombre":"Salgar"},"geometry":{"type":"Polygon","coordinates":[[[-75.998,6.0692],[-75.9429,6.0444],[-75.9442,5.9788],[-75.8487,5.9564],[-75.856,5.9378],[-75.8854,5.9069],[-75.9148,5.8635],[-76.0543,5.9317],[-76.0972,6.0035],[-75.998,6.0692]]]}},{"type":"Feature","properties":{"cve_ent":"CO05","cve_mun":"647","cvegeo":"CO05647","nombre":"San Andrés de Cuerquía"},"geometry":{"type":"Polygon","coordinates":[[[-75.5757,6.8935],[-75.643,6.8699],[-75.6981,6.8873],[-75.7336,6.8055],[-75.7642,6.7881],[-75.7361,6.9269],[-75.6589,7.0286],[-75.6026,6.9753],[-75.5757,6.8935]]]}},{"type":"Feature","properties":{"cve_ent":"CO05","cve_mun":"649","cvegeo":"CO05649","nombre":"San Carlos"},"geometry":{"type":"Polygon","coordinates":[[[-74.7935,6.3134],[-74.7127,6.2403],[-74.7726,6.2006],[-74.8204,6.0866],[-74.9195,6.0432],[-74.955,6.1002],[-75.0615,6.1275],[-75.1215,6.2316],[-75.1179,6.2353],[-75.0579,6.2093],[-74.9122,6.3097],[-74.8277,6.3382],[-74.7935,6.3134]]]}},{"type":"Feature","properties":{"cve_ent":"CO05","cve_mun":"652","cvegeo":"CO05652","nombre":"San Francisco"},"geometry":{"type":"Polygon","coordinates":[[[-74.8436,5.9267],[-74.8938,5.8288],[-74.9501,5.7817],[-75.0542,5.7519],[-75.0224,5.8251],[-75.0554,5.9193],[-75.0689,5.9998],[-75.0101,5.9255],[-74.9538,5.9527],[-74.8436,5.9267]]]}},{"type":"Feature","properties":{"cve_ent":"CO05","cve_mun":"656","cvegeo":"CO05656","nombre":"San Jerónimo"},"geometry":{"type":"Polygon","coordinates":[[[-75.6504,6.5018],[-75.6455,6.4944],[-75.6687,6.3729],[-75.7177,6.3605],[-75.7801,6.42],[-75.7324,6.4907],[-75.6504,6.5018]]]}},{"type":"Feature","properties":{"cve_ent":"CO05","cve_mun":"658","cvegeo":"CO05658","nombre":"San José de la Montaña"},"geometry":{"type":"Polygon","coordinates":[[[-75.643,6.8699],[-75.6271,6.7856],[-75.6675,6.7534],[-75.7336,6.8055],[-75.6981,6.8873],[-75.643,6.8699]]]}},{"type":"Feature","properties":{"cve_ent":"CO05","cve_mun":"659","cvegeo":"CO05659","nombre":"San Juan de Urabá"},"geometry":{"type":"Polygon","coordinates":[[[-76.566,8.6114],[-76.6285,8.7205],[-76.544,8.7626],[-76.4865,8.8184],[-76.451,8.6895],[-76.566,8.6114]]]}},{"type":"Feature","properties":{"cve_ent":"CO05","cve_mun":"660","cvegeo":"CO05660","nombre":"San Luis"},"geometry":{"type":"Polygon","coordinates":[[[-74.9195,6.0432],[-74.769,5.9936],[-74.8436,5.9267],[-74.9538,5.9527],[-75.0101,5.9255],[-75.0848,6.0209],[-75.0615,6.1275],[-74.955,6.1002],[-74.9195,6.0432]]]}},{"type":"Feature","properties":{"cve_ent":"CO05","cve_mun":"664","cvegeo":"CO05664","nombre":"San Pedro de los Milagros"},"geometry":{"type":"Polygon","coordinates":[[[-75.4606,6.5117],[-75.4888,6.4299],[-75.5328,6.389],[-75.5916,6.4324],[-75.6626,6.4051],[-75.6455,6.4944],[-75.5647,6.5303],[-75.4606,6.5117]]]}},{"type":"Feature","properties":{"cve_ent":"CO05","cve_mun":"665","cvegeo":"CO05665","nombre":"San Pedro de Urabá"},"geometry":{"type":"Polygon","coordinates":[[[-76.2551,8.594],[-76.2098,8.5234],[-76.2184,8.4441],[-76.1804,8.3994],[-76.2881,8.3288],[-76.3518,8.2036],[-76.3481,8.1553],[-76.402,8.102],[-76.4106,8.1912],[-76.3934,8.3796],[-76.4032,8.4639],[-76.3285,8.4465],[-76.32,8.5445],[-76.2551,8.594]]]}},{"type":"Feature","properties":{"cve_ent":"CO05","cve_mun":"667","cvegeo":"CO05667","nombre":"San Rafael"},"geometry":{"type":"Polygon","coordinates":[[[-74.8277,6.3382],[-74.9122,6.3097],[-75.0579,6.2093],[-75.1179,6.2353],[-75.1166,6.3023],[-74.9869,6.3853],[-74.9171,6.4026],[-74.8277,6.3382]]]}},{"type":"Feature","properties":{"cve_ent":"CO05","cve_mun":"670","cvegeo":"CO05670","nombre":"San Roque"},"geometry":{"type":"Polygon","coordinates":[[[-74.8388,6.5092],[-74.8118,6.4621],[-74.8375,6.4336],[-74.7935,6.3134],[-74.9171,6.4026],[-74.9869,6.3853],[-75.097,6.4634],[-75.0199,6.539],[-74.8388,6.5092]]]}},{"type":"Feature","properties":{"cve_ent":"CO05","cve_mun":"674","cvegeo":"CO05674","nombre":"San Vicente Ferrer"},"geometry":{"type":"Polygon","coordinates":[[[-75.3064,6.3915],[-75.2427,6.3221],[-75.2843,6.2589],[-75.3272,6.2242],[-75.3798,6.2328],[-75.4068,6.3481],[-75.4043,6.3655],[-75.3064,6.3915]]]}},{"type":"Feature","properties":{"cve_ent":"CO05","cve_mun":"679","cvegeo":"CO05679","nombre":"Santa Bárbara"},"geometry":{"type":"Polygon","coordinates":[[[-75.5916,6.006],[-75.5622,5.975],[-75.5341,5.8598],[-75.5561,5.7247],[-75.5696,5.7247],[-75.6198,5.8015],[-75.6357,5.9664],[-75.6136,5.9788],[-75.5916,6.006]]]}},{"type":"Feature","properties":{"cve_ent":"CO05","cve_mun":"686","cvegeo":"CO05686","nombre":"Santa Rosa de Osos"},"geometry":{"type":"Polygon","coordinates":[[[-75.49,6.7733],[-75.3786,6.7733],[-75.2868,6.6778],[-75.1974,6.5749],[-75.2072,6.5551],[-75.2097,6.5539],[-75.2488,6.5737],[-75.337,6.5439],[-75.4263,6.5439],[-75.4582,6.5167],[-75.5084,6.5737],[-75.5426,6.6791],[-75.5855,6.6753],[-75.6271,6.7856],[-75.643,6.8699],[-75.5757,6.8935],[-75.5745,6.8526],[-75.49,6.7733]]]}},{"type":"Feature","properties":{"cve_ent":"CO05","cve_mun":"690","cvegeo":"CO05690","nombre":"Santo Domingo"},"geometry":{"type":"Polygon","coordinates":[[[-75.2072,6.5551],[-75.0346,6.5378],[-75.0199,6.539],[-75.097,6.4634],[-75.0334,6.4175],[-75.0885,6.394],[-75.1448,6.4113],[-75.2415,6.4473],[-75.2635,6.508],[-75.2072,6.5551]]]}},{"type":"Feature","properties":{"cve_ent":"CO05","cve_mun":"697","cvegeo":"CO05697","nombre":"El Santuario"},"geometry":{"type":"Polygon","coordinates":[[[-75.2329,6.1634],[-75.1668,6.1015],[-75.2207,6.1139],[-75.2684,6.0568],[-75.3076,6.1436],[-75.2525,6.1709],[-75.2329,6.1634]]]}},{"type":"Feature","properties":{"cve_ent":"CO05","cve_mun":"736","cvegeo":"CO05736","nombre":"Segovia"},"geometry":{"type":"Polygon","coordinates":[[[-74.3577,7.4723],[-74.3197,7.4401],[-74.3981,7.3484],[-74.3883,7.2666],[-74.6184,7.1674],[-74.7102,7.0707],[-74.7604,7.1352],[-74.8424,7.1339],[-74.9159,7.2641],[-74.6992,7.3124],[-74.5609,7.4277],[-74.4911,7.3434],[-74.414,7.3992],[-74.4127,7.4599],[-74.3577,7.4723]]]}},{"type":"Feature","properties":{"cve_ent":"CO05","cve_mun":"756","cvegeo":"CO05756","nombre":"Sonsón"},"geometry":{"type":"Polygon","coordinates":[[[-74.6404,5.8598],[-74.6649,5.768],[-74.7139,5.7693],[-74.7396,5.6999],[-74.8069,5.6999],[-74.8804,5.7457],[-74.9905,5.7408],[-75.0983,5.7594],[-75.2366,5.7259],[-75.2354,5.6763],[-75.2831,5.4755],[-75.3162,5.4594],[-75.3113,5.5102],[-75.4239,5.6962],[-75.4227,5.7284],[-75.3211,5.7817],[-75.2684,5.8536],[-75.1656,5.8734],[-75.0554,5.9193],[-75.0224,5.8251],[-75.0542,5.7519],[-74.9501,5.7817],[-74.8938,5.8288],[-74.8436,5.9267],[-74.6404,5.8598]]]}},{"type":"Feature","properties":{"cve_ent":"CO05","cve_mun":"761","cvegeo":"CO05761","nombre":"Sopetrán"},"geometry":{"type":"Polygon","coordinates":[[[-75.6504,6.5018],[-75.7324,6.4907],[-75.7801,6.42],[-75.8193,6.4101],[-75.8009,6.5378],[-75.7177,6.6357],[-75.6504,6.5018]]]}},{"type":"Feature","properties":{"cve_ent":"CO05","cve_mun":"789","cvegeo":"CO05789","nombre":"Támesis"},"geometry":{"type":"Polygon","coordinates":[[[-75.6406,5.7618],[-75.6761,5.5982],[-75.714,5.5474],[-75.7299,5.5635],[-75.752,5.628],[-75.8071,5.654],[-75.7446,5.7333],[-75.6651,5.8003],[-75.6406,5.7618]]]}},{"type":"Feature","properties":{"cve_ent":"CO05","cve_mun":"790","cvegeo":"CO05790","nombre":"Tarazá"},"geometry":{"type":"Polygon","coordinates":[[[-75.1656,7.3558],[-75.1913,7.2703],[-75.2966,7.2294],[-75.2745,7.388],[-75.4606,7.3595],[-75.5145,7.3732],[-75.5683,7.3806],[-75.5414,7.4921],[-75.6014,7.5901],[-75.4851,7.7363],[-75.4386,7.6694],[-75.3664,7.6186],[-75.3321,7.5355],[-75.2745,7.5343],[-75.2488,7.4574],[-75.1656,7.3558]]]}},{"type":"Feature","properties":{"cve_ent":"CO05","cve_mun":"792","cvegeo":"CO05792","nombre":"Tarso"},"geometry":{"type":"Polygon","coordinates":[[[-75.7752,5.8808],[-75.7605,5.8734],[-75.8205,5.8213],[-75.8866,5.8647],[-75.8854,5.9069],[-75.856,5.9378],[-75.7752,5.8808]]]}},{"type":"Feature","properties":{"cve_ent":"CO05","cve_mun":"809","cvegeo":"CO05809","nombre":"Titiribí"},"geometry":{"type":"Polygon","coordinates":[[[-75.7471,6.0692],[-75.7667,5.9998],[-75.8413,6.0085],[-75.8548,6.1002],[-75.7667,6.1349],[-75.7471,6.0692]]]}},{"type":"Feature","properties":{"cve_ent":"CO05","cve_mun":"819","cvegeo":"CO05819","nombre":"Toledo"},"geometry":{"type":"Polygon","coordinates":[[[-75.6871,7.0844],[-75.6589,7.0286],[-75.7361,6.9269],[-75.7654,7.062],[-75.6871,7.0844]]]}},{"type":"Feature","properties":{"cve_ent":"CO05","cve_mun":"837","cvegeo":"CO05837","nombre":"Turbo"},"geometry":{"type":"Polygon","coordinates":[[[-76.9429,8.1131],[-76.8831,8.0437],[-76.9247,8.0251],[-76.9223,7.9173],[-76.828,7.9024],[-76.7484,7.9222],[-76.7337,8.071],[-76.7386,8.1739],[-76.7741,8.2668],[-76.6223,8.33],[-76.566,8.4007],[-76.4448,8.3722],[-76.4338,8.4503],[-76.4032,8.4639],[-76.3934,8.3796],[-76.4106,8.1912],[-76.402,8.102],[-76.4253,8.0735],[-76.533,7.9631],[-76.7533,7.8789],[-76.8047,7.8689],[-76.8096,7.771],[-76.8096,7.6681],[-76.7129,7.5938],[-76.6444,7.4686],[-76.6823,7.4674],[-76.8011,7.5715],[-76.9357,7.5839],[-76.9602,7.6396],[-77.123,7.7896],[-77.0753,7.8479],[-77.0263,7.89],[-76.9969,8.0189],[-76.9382,8.0685],[-76.9429,8.1131]]]}},{"type":"Feature","properties":{"cve_ent":"CO05","cve_mun":"842","cvegeo":"CO05842","nombre":"Uramita"},"geometry":{"type":"Polygon","coordinates":[[[-75.965,6.9802],[-75.9833,6.9431],[-76.1009,6.8922],[-76.1217,6.8513],[-76.1559,6.8241],[-76.2465,6.8774],[-76.2245,6.9207],[-76.1535,6.9778],[-76.0751,6.9406],[-75.9821,7.0013],[-75.965,6.9802]]]}},{"type":"Feature","properties":{"cve_ent":"CO05","cve_mun":"847","cvegeo":"CO05847","nombre":"Urrao"},"geometry":{"type":"Polygon","coordinates":[[[-76.1621,6.5923],[-76.058,6.5068],[-76.0421,6.3779],[-75.9882,6.3444],[-76.0041,6.2849],[-76.0482,6.2613],[-75.9968,6.0779],[-75.998,6.0692],[-76.0972,6.0035],[-76.1596,6.0035],[-76.1914,6.0593],[-76.2098,6.1845],[-76.2465,6.2043],[-76.3775,6.1932],[-76.4448,6.1684],[-76.5232,6.2192],[-76.5244,6.3828],[-76.5636,6.5663],[-76.5232,6.5873],[-76.484,6.4968],[-76.38,6.5935],[-76.3175,6.5055],[-76.2269,6.5712],[-76.1621,6.5923]]]}},{"type":"Feature","properties":{"cve_ent":"CO05","cve_mun":"854","cvegeo":"CO05854","nombre":"Valdivia"},"geometry":{"type":"Polygon","coordinates":[[[-75.2966,7.2294],[-75.3872,7.1711],[-75.4239,7.0881],[-75.4716,7.0497],[-75.4973,7.1327],[-75.4447,7.2492],[-75.5292,7.2988],[-75.5145,7.3732],[-75.4606,7.3595],[-75.2745,7.388],[-75.2966,7.2294]]]}},{"type":"Feature","properties":{"cve_ent":"CO05","cve_mun":"856","cvegeo":"CO05856","nombre":"Valparaíso"},"geometry":{"type":"Polygon","coordinates":[[[-75.5989,5.6813],[-75.5806,5.6057],[-75.6761,5.5982],[-75.6418,5.7569],[-75.5989,5.6813]]]}},{"type":"Feature","properties":{"cve_ent":"CO05","cve_mun":"858","cvegeo":"CO05858","nombre":"Vegachí"},"geometry":{"type":"Polygon","coordinates":[[[-74.5792,6.7819],[-74.6429,6.798],[-74.7567,6.7894],[-74.8351,6.7323],[-74.9073,6.7373],[-74.9208,6.7509],[-74.8767,6.8489],[-74.8375,6.9914],[-74.8216,6.8687],[-74.6331,6.9245],[-74.5719,6.8613],[-74.5792,6.7819]]]}},{"type":"Feature","properties":{"cve_ent":"CO05","cve_mun":"861","cvegeo":"CO05861","nombre":"Venecia"},"geometry":{"type":"Polygon","coordinates":[[[-75.7667,5.9998],[-75.6993,5.9812],[-75.7752,5.8808],[-75.856,5.9378],[-75.8487,5.9564],[-75.8413,6.0085],[-75.7667,5.9998]]]}},{"type":"Feature","properties":{"cve_ent":"CO05","cve_mun":"873","cvegeo":"CO05873","nombre":"Vigía del Fuerte"},"geometry":{"type":"Polygon","coordinates":[[[-76.9002,6.829],[-76.9174,6.7844],[-76.8708,6.7323],[-76.8488,6.6592],[-76.7497,6.6394],[-76.708,6.6629],[-76.5734,6.6332],[-76.5636,6.5663],[-76.5244,6.3828],[-76.5232,6.2192],[-76.4448,6.1684],[-76.6015,6.1919],[-76.7154,6.1709],[-76.7178,6.2155],[-76.7766,6.2861],[-76.7913,6.3419],[-76.7778,6.4894],[-76.899,6.5799],[-76.9541,6.6753],[-76.9724,6.798],[-76.9137,6.8464],[-76.9002,6.829]]]}},{"type":"Feature","properties":{"cve_ent":"CO05","cve_mun":"885","cvegeo":"CO05885","nombre":"Yalí"},"geometry":{"type":"Polygon","coordinates":[[[-74.5792,6.7819],[-74.5805,6.7051],[-74.6502,6.6989],[-74.8008,6.6419],[-74.9122,6.6369],[-74.9501,6.7063],[-74.9073,6.7373],[-74.8351,6.7323],[-74.7567,6.7894],[-74.6429,6.798],[-74.5792,6.7819]]]}},{"type":"Feature","properties":{"cve_ent":"CO05","cve_mun":"887","cvegeo":"CO05887","nombre":"Yarumal"},"geometry":{"type":"Polygon","coordinates":[[[-75.3015,7.2269],[-75.3174,7.2133],[-75.3333,7.0757],[-75.3137,7.0112],[-75.3358,6.9455],[-75.3749,6.9009],[-75.4716,6.8513],[-75.49,6.7733],[-75.5745,6.8526],[-75.5757,6.8935],[-75.6026,6.9753],[-75.6589,7.0286],[-75.6087,7.0558],[-75.5353,6.9902],[-75.4716,7.0497],[-75.4239,7.0881],[-75.3872,7.1711],[-75.3015,7.2269]]]}},{"type":"Feature","properties":{"cve_ent":"CO05","cve_mun":"890","cvegeo":"CO05890","nombre":"Yolombó"},"geometry":{"type":"Polygon","coordinates":[[[-74.9208,6.7509],[-74.9073,6.7373],[-74.9501,6.7063],[-74.9122,6.6369],[-74.8008,6.6419],[-74.6502,6.6989],[-74.5805,6.7051],[-74.4972,6.7001],[-74.5609,6.6381],[-74.7347,6.6034],[-74.8388,6.5092],[-75.0199,6.539],[-75.0346,6.5378],[-75.0934,6.5824],[-75.1362,6.5477],[-75.2072,6.5551],[-75.1974,6.5749],[-75.1228,6.658],[-75.1093,6.7819],[-75.0591,6.7671],[-75.026,6.834],[-74.9208,6.7509]]]}},{"type":"Feature","properties":{"cve_ent":"CO05","cve_mun":"893","cvegeo":"CO05893","nombre":"Yondó"},"geometry":{"type":"Polygon","coordinates":[[[-73.9157,7.2951],[-73.9292,7.1153],[-73.8876,7.0707],[-73.8974,6.9864],[-74.0112,6.9133],[-74.0945,6.8042],[-74.1092,6.777],[-74.2316,6.71],[-74.2561,6.6753],[-74.3601,6.632],[-74.4201,6.7373],[-74.4519,6.7547],[-74.3809,6.9108],[-74.2438,7.0038],[-73.9157,7.2951]]]}},{"type":"Feature","properties":{"cve_ent":"CO05","cve_mun":"895","cvegeo":"CO05895","nombre":"Zaragoza"},"geometry":{"type":"Polygon","coordinates":[[[-74.6074,7.3868],[-74.6992,7.3124],[-74.9159,7.2641],[-74.9134,7.2876],[-74.8902,7.393],[-74.9942,7.3942],[-75.0297,7.4897],[-75.0799,7.5157],[-75.0199,7.5814],[-74.9391,7.621],[-74.9,7.6719],[-74.8412,7.6681],[-74.7824,7.7252],[-74.7641,7.6743],[-74.8204,7.5888],[-74.758,7.4599],[-74.6747,7.4376],[-74.6074,7.3868]]]}}]}