{"type":"FeatureCollection","features":[{"type":"Feature","properties":{"cve_ent":"CO08","cve_mun":"001","cvegeo":"CO08001","nombre":"Barranquilla"},"geometry":{"type":"Polygon","coordinates":[[[-74.7567,10.9453],[-74.8265,10.9143],[-74.9183,10.9453],[-74.8743,10.9874],[-74.8743,11.0482],[-74.8522,11.1052],[-74.8436,11.0668],[-74.7641,10.9949],[-74.7567,10.9453]]]}},{"type":"Feature","properties":{"cve_ent":"CO08","cve_mun":"078","cvegeo":"CO08078","nombre":"Baranoa"},"geometry":{"type":"Polygon","coordinates":[[[-74.9453,10.8585],[-74.8718,10.8536],[-74.8791,10.8127],[-74.8755,10.7259],[-74.933,10.711],[-74.9342,10.7705],[-74.9844,10.7904],[-74.9942,10.8152],[-74.9453,10.8585]]]}},{"type":"Feature","properties":{"cve_ent":"CO08","cve_mun":"137","cvegeo":"CO08137","nombre":"Campo de la Cruz"},"geometry":{"type":"Polygon","coordinates":[[[-74.8069,10.483],[-74.8118,10.4508],[-74.8632,10.3665],[-74.8681,10.3404],[-74.9171,10.338],[-74.9624,10.3826],[-74.9171,10.4123],[-74.8522,10.4284],[-74.8204,10.4941],[-74.8069,10.483]]]}},{"type":"Feature","properties":{"cve_ent":"CO08","cve_mun":"141","cvegeo":"CO08141","nombre":"Candelaria"},"geometry":{"type":"Polygon","coordinates":[[[-74.8559,10.5648],[-74.8204,10.4941],[-74.8522,10.4284],[-74.9171,10.4123],[-74.9232,10.5338],[-74.8559,10.5648]]]}},{"type":"Feature","properties":{"cve_ent":"CO08","cve_mun":"296","cvegeo":"CO08296","nombre":"Galapa"},"geometry":{"type":"Polygon","coordinates":[[[-74.8265,10.9143],[-74.8388,10.8858],[-74.8718,10.8536],[-74.9453,10.8585],[-74.9183,10.9453],[-74.8265,10.9143]]]}},{"type":"Feature","properties":{"cve_ent":"CO08","cve_mun":"372","cvegeo":"CO08372","nombre":"Juan de Acosta"},"geometry":{"type":"Polygon","coordinates":[[[-75.0738,10.8858],[-74.9942,10.8152],[-74.9844,10.7904],[-75.0383,10.7705],[-75.146,10.8114],[-75.217,10.8052],[-75.0738,10.8858]]]}},{"type":"Feature","properties":{"cve_ent":"CO08","cve_mun":"421","cvegeo":"CO08421","nombre":"Luruaco"},"geometry":{"type":"Polygon","coordinates":[[[-75.0628,10.685],[-75.0603,10.5945],[-75.2256,10.5598],[-75.2476,10.6962],[-75.0628,10.685]]]}},{"type":"Feature","properties":{"cve_ent":"CO08","cve_mun":"433","cvegeo":"CO08433","nombre":"Malambo"},"geometry":{"type":"Polygon","coordinates":[[[-74.7384,10.8759],[-74.7408,10.835],[-74.8081,10.8127],[-74.8791,10.8127],[-74.8718,10.8536],[-74.8388,10.8858],[-74.7384,10.8759]]]}},{"type":"Feature","properties":{"cve_ent":"CO08","cve_mun":"436","cvegeo":"CO08436","nombre":"Manatí"},"geometry":{"type":"Polygon","coordinates":[[[-74.9232,10.5338],[-74.9171,10.4123],[-74.9624,10.3826],[-75.0334,10.369],[-75.0738,10.4099],[-75.0273,10.5202],[-74.9232,10.5338]]]}},{"type":"Feature","properties":{"cve_ent":"CO08","cve_mun":"520","cvegeo":"CO08520","nombre":"Palmar de Varela"},"geometry":{"type":"Polygon","coordinates":[[[-74.7274,10.7495],[-74.7261,10.7272],[-74.7469,10.6516],[-74.8375,10.6863],[-74.7274,10.7495]]]}},{"type":"Feature","properties":{"cve_ent":"CO08","cve_mun":"549","cvegeo":"CO08549","nombre":"Piojó"},"geometry":{"type":"Polygon","coordinates":[[[-75.0383,10.7705],[-75.0456,10.7011],[-75.0628,10.685],[-75.2476,10.6962],[-75.2244,10.7953],[-75.217,10.8052],[-75.146,10.8114],[-75.0383,10.7705]]]}},{"type":"Feature","properties":{"cve_ent":"CO08","cve_mun":"558","cvegeo":"CO08558","nombre":"Polonuevo"},"geometry":{"type":"Polygon","coordinates":[[[-74.8081,10.8127],[-74.8118,10.778],[-74.8498,10.7086],[-74.8755,10.7259],[-74.8791,10.8127],[-74.8081,10.8127]]]}},{"type":"Feature","properties":{"cve_ent":"CO08","cve_mun":"560","cvegeo":"CO08560","nombre":"Ponedera"},"geometry":{"type":"Polygon","coordinates":[[[-74.8498,10.7086],[-74.8375,10.6863],[-74.7469,10.6516],[-74.7261,10.6007],[-74.7445,10.5388],[-74.8069,10.483],[-74.8204,10.4941],[-74.8559,10.5648],[-74.8412,10.6007],[-74.8755,10.7259],[-74.8498,10.7086]]]}},{"type":"Feature","properties":{"cve_ent":"CO08","cve_mun":"573","cvegeo":"CO08573","nombre":"Puerto Colombia"},"geometry":{"type":"Polygon","coordinates":[[[-74.9183,10.9453],[-74.9844,10.9837],[-74.9208,11.0457],[-74.8743,11.0482],[-74.8743,10.9874],[-74.9183,10.9453]]]}},{"type":"Feature","properties":{"cve_ent":"CO08","cve_mun":"606","cvegeo":"CO08606","nombre":"Repelón"},"geometry":{"type":"Polygon","coordinates":[[[-75.0273,10.5202],[-75.0738,10.4099],[-75.0897,10.4111],[-75.1289,10.3975],[-75.1766,10.4557],[-75.2415,10.5041],[-75.2256,10.5598],[-75.0603,10.5945],[-75.0273,10.5202]]]}},{"type":"Feature","properties":{"cve_ent":"CO08","cve_mun":"634","cvegeo":"CO08634","nombre":"Sabanagrande"},"geometry":{"type":"Polygon","coordinates":[[[-74.7249,10.7718],[-74.8118,10.778],[-74.8081,10.8127],[-74.7408,10.835],[-74.7249,10.7718]]]}},{"type":"Feature","properties":{"cve_ent":"CO08","cve_mun":"638","cvegeo":"CO08638","nombre":"Sabanalarga"},"geometry":{"type":"Polygon","coordinates":[[[-74.9232,10.5338],[-75.0273,10.5202],[-75.0603,10.5945],[-75.0628,10.685],[-75.0456,10.7011],[-74.933,10.711],[-74.8755,10.7259],[-74.8412,10.6007],[-74.8559,10.5648],[-74.9232,10.5338]]]}},{"type":"Feature","properties":{"cve_ent":"CO08","cve_mun":"675","cvegeo":"CO08675","nombre":"Santa Lucía"},"geometry":{"type":"Polygon","coordinates":[[[-74.9624,10.3826],[-74.9171,10.338],[-74.9379,10.2896],[-75.0236,10.364],[-75.0334,10.369],[-74.9624,10.3826]]]}},{"type":"Feature","properties":{"cve_ent":"CO08","cve_mun":"685","cvegeo":"CO08685","nombre":"Santo Tomás"},"geometry":{"type":"Polygon","coordinates":[[[-74.7249,10.7718],[-74.7274,10.7495],[-74.8375,10.6863],[-74.8498,10.7086],[-74.8118,10.778],[-74.7249,10.7718]]]}},{"type":"Feature","properties":{"cve_ent":"CO08","cve_mun":"758","cvegeo":"CO08758","nombre":"Soledad"},"geometry":{"type":"Polygon","coordinates":[[[-74.7567,10.9453],[-74.7384,10.8759],[-74.8388,10.8858],[-74.8265,10.9143],[-74.7567,10.9453]]]}},{"type":"Feature","properties":{"cve_ent":"CO08","cve_mun":"770","cvegeo":"CO08770","nombre":"Suan"},"geometry":{"type":"Polygon","coordinates":[[[-74.8681,10.3404],[-74.911,10.2537],[-74.9379,10.2896],[-74.9171,10.338],[-74.8681,10.3404]]]}},{"type":"Feature","properties":{"cve_ent":"CO08","cve_mun":"832","cvegeo":"CO08832","nombre":"Tubará"},"geometry":{"type":"Polygon","coordinates":[[[-74.9183,10.9453],[-74.9453,10.8585],[-74.9942,10.8152],[-75.0738,10.8858],[-74.9844,10.9837],[-74.9183,10.9453]]]}},{"type":"Feature","properties":{"cve_ent":"CO08","cve_mun":"849","cvegeo":"CO08849","nombre":"Usiacurí"},"geometry":{"type":"Polygon","coordinates":[[[-74.933,10.711],[-75.0456,10.7011],[-75.0383,10.7705],[-74.9844,10.7904],[-74.9342,10.7705],[-74.933,10.711]]]}}]}