{"type":"FeatureCollection","features":[{"type":"Feature","properties":{"cve_ent":"CO17","cve_mun":"001","cvegeo":"CO17001","nombre":"Manizales"},"geometry":{"type":"Polygon","coordinates":[[[-75.3284,5.0417],[-75.4753,5.0268],[-75.5879,4.9847],[-75.6026,5.0157],[-75.6663,5.0777],[-75.6773,5.1409],[-75.6626,5.1657],[-75.4863,5.1421],[-75.3492,5.1086],[-75.3382,5.0454],[-75.3284,5.0417]]]}},{"type":"Feature","properties":{"cve_ent":"CO17","cve_mun":"013","cvegeo":"CO17013","nombre":"Aguadas"},"geometry":{"type":"Polygon","coordinates":[[[-75.5696,5.7247],[-75.5561,5.7247],[-75.479,5.6639],[-75.4239,5.6962],[-75.3113,5.5102],[-75.3162,5.4594],[-75.3811,5.4197],[-75.3725,5.4966],[-75.4141,5.5425],[-75.4973,5.5772],[-75.5708,5.5437],[-75.5806,5.6057],[-75.5989,5.6813],[-75.5696,5.7247]]]}},{"type":"Feature","properties":{"cve_ent":"CO17","cve_mun":"042","cvegeo":"CO17042","nombre":"Anserma"},"geometry":{"type":"Polygon","coordinates":[[[-75.7483,5.2846],[-75.6932,5.2549],[-75.6626,5.1657],[-75.6773,5.1409],[-75.7042,5.1124],[-75.763,5.1756],[-75.8107,5.1173],[-75.8364,5.1148],[-75.8022,5.1979],[-75.8242,5.2698],[-75.7483,5.2846]]]}},{"type":"Feature","properties":{"cve_ent":"CO17","cve_mun":"050","cvegeo":"CO17050","nombre":"Aranzazu"},"geometry":{"type":"Polygon","coordinates":[[[-75.3725,5.2214],[-75.4912,5.2326],[-75.5524,5.2115],[-75.5194,5.2735],[-75.5402,5.328],[-75.5108,5.3342],[-75.3933,5.2735],[-75.3725,5.2214]]]}},{"type":"Feature","properties":{"cve_ent":"CO17","cve_mun":"088","cvegeo":"CO17088","nombre":"Belalcázar"},"geometry":{"type":"Polygon","coordinates":[[[-75.774,5.0628],[-75.7434,5.0516],[-75.8144,4.919],[-75.867,4.9339],[-75.8609,4.9426],[-75.8585,5.0045],[-75.774,5.0628]]]}},{"type":"Feature","properties":{"cve_ent":"CO17","cve_mun":"174","cvegeo":"CO17174","nombre":"Chinchiná"},"geometry":{"type":"Polygon","coordinates":[[[-75.6026,5.0157],[-75.5879,4.9847],[-75.572,4.9364],[-75.714,4.9574],[-75.7471,5.0467],[-75.7103,5.0777],[-75.6895,5.007],[-75.6026,5.0157]]]}},{"type":"Feature","properties":{"cve_ent":"CO17","cve_mun":"272","cvegeo":"CO17272","nombre":"Filadelfia"},"geometry":{"type":"Polygon","coordinates":[[[-75.5402,5.328],[-75.5194,5.2735],[-75.5524,5.2115],[-75.6491,5.2338],[-75.6663,5.276],[-75.61,5.3751],[-75.6075,5.3764],[-75.5402,5.328]]]}},{"type":"Feature","properties":{"cve_ent":"CO17","cve_mun":"380","cvegeo":"CO17380","nombre":"La Dorada"},"geometry":{"type":"Polygon","coordinates":[[[-74.6649,5.768],[-74.6612,5.7519],[-74.627,5.6974],[-74.6747,5.5164],[-74.6502,5.4421],[-74.7347,5.2871],[-74.7898,5.2983],[-74.7947,5.3702],[-74.742,5.4569],[-74.7053,5.566],[-74.813,5.6044],[-74.7396,5.6999],[-74.7139,5.7693],[-74.6649,5.768]]]}},{"type":"Feature","properties":{"cve_ent":"CO17","cve_mun":"388","cvegeo":"CO17388","nombre":"La Merced"},"geometry":{"type":"Polygon","coordinates":[[[-75.5328,5.4421],[-75.5108,5.3342],[-75.5402,5.328],[-75.6075,5.3764],[-75.5818,5.4569],[-75.5328,5.4421]]]}},{"type":"Feature","properties":{"cve_ent":"CO17","cve_mun":"433","cvegeo":"CO17433","nombre":"Manzanares"},"geometry":{"type":"Polygon","coordinates":[[[-75.1191,5.3094],[-75.0603,5.271],[-75.1166,5.1607],[-75.2097,5.1756],[-75.2415,5.2524],[-75.2097,5.2859],[-75.1191,5.3094]]]}},{"type":"Feature","properties":{"cve_ent":"CO17","cve_mun":"442","cvegeo":"CO17442","nombre":"Marmato"},"geometry":{"type":"Polygon","coordinates":[[[-75.5769,5.5164],[-75.5818,5.4569],[-75.5855,5.4458],[-75.6406,5.5301],[-75.5769,5.5164]]]}},{"type":"Feature","properties":{"cve_ent":"CO17","cve_mun":"444","cvegeo":"CO17444","nombre":"Marquetalia"},"geometry":{"type":"Polygon","coordinates":[[[-74.9624,5.3417],[-74.9673,5.3008],[-75.0603,5.271],[-75.1191,5.3094],[-75.0346,5.3441],[-74.9624,5.3417]]]}},{"type":"Feature","properties":{"cve_ent":"CO17","cve_mun":"446","cvegeo":"CO17446","nombre":"Marulanda"},"geometry":{"type":"Polygon","coordinates":[[[-75.2097,5.2859],[-75.2415,5.2524],[-75.2097,5.1756],[-75.1668,5.1694],[-75.2354,5.126],[-75.288,5.1384],[-75.3382,5.0454],[-75.3492,5.1086],[-75.3358,5.1966],[-75.3725,5.2214],[-75.348,5.3293],[-75.2868,5.3466],[-75.2109,5.3503],[-75.2097,5.2859]]]}},{"type":"Feature","properties":{"cve_ent":"CO17","cve_mun":"486","cvegeo":"CO17486","nombre":"Neira"},"geometry":{"type":"Polygon","coordinates":[[[-75.5524,5.2115],[-75.4912,5.2326],[-75.3725,5.2214],[-75.3358,5.1966],[-75.3492,5.1086],[-75.4863,5.1421],[-75.6626,5.1657],[-75.6932,5.2549],[-75.6663,5.276],[-75.6491,5.2338],[-75.5524,5.2115]]]}},{"type":"Feature","properties":{"cve_ent":"CO17","cve_mun":"495","cvegeo":"CO17495","nombre":"Norcasia"},"geometry":{"type":"Polygon","coordinates":[[[-74.7396,5.6999],[-74.813,5.6044],[-74.8902,5.5586],[-74.9379,5.6193],[-74.862,5.6776],[-74.8804,5.7457],[-74.8069,5.6999],[-74.7396,5.6999]]]}},{"type":"Feature","properties":{"cve_ent":"CO17","cve_mun":"513","cvegeo":"CO17513","nombre":"Pácora"},"geometry":{"type":"Polygon","coordinates":[[[-75.3811,5.4197],[-75.4557,5.4545],[-75.5328,5.4421],[-75.5818,5.4569],[-75.5769,5.5164],[-75.5708,5.5437],[-75.4973,5.5772],[-75.4141,5.5425],[-75.3725,5.4966],[-75.3811,5.4197]]]}},{"type":"Feature","properties":{"cve_ent":"CO17","cve_mun":"524","cvegeo":"CO17524","nombre":"Palestina"},"geometry":{"type":"Polygon","coordinates":[[[-75.6026,5.0157],[-75.6895,5.007],[-75.7103,5.0777],[-75.7042,5.1124],[-75.6773,5.1409],[-75.6663,5.0777],[-75.6026,5.0157]]]}},{"type":"Feature","properties":{"cve_ent":"CO17","cve_mun":"541","cvegeo":"CO17541","nombre":"Pensilvania"},"geometry":{"type":"Polygon","coordinates":[[[-75.0346,5.3441],[-75.1191,5.3094],[-75.2097,5.2859],[-75.2109,5.3503],[-75.2868,5.3466],[-75.2807,5.4111],[-75.3162,5.4594],[-75.1325,5.5412],[-75.0836,5.5065],[-75.0848,5.4284],[-75.0346,5.3441]]]}},{"type":"Feature","properties":{"cve_ent":"CO17","cve_mun":"614","cvegeo":"CO17614","nombre":"Riosucio"},"geometry":{"type":"Polygon","coordinates":[[[-75.7299,5.5635],[-75.7042,5.5375],[-75.6467,5.3801],[-75.61,5.3751],[-75.6479,5.307],[-75.6981,5.3776],[-75.7507,5.3863],[-75.8328,5.3615],[-75.8683,5.4904],[-75.7299,5.5635]]]}},{"type":"Feature","properties":{"cve_ent":"CO17","cve_mun":"616","cvegeo":"CO17616","nombre":"Risaralda"},"geometry":{"type":"Polygon","coordinates":[[[-75.7042,5.1124],[-75.7103,5.0777],[-75.7434,5.0516],[-75.8438,5.0851],[-75.8107,5.1173],[-75.763,5.1756],[-75.7042,5.1124]]]}},{"type":"Feature","properties":{"cve_ent":"CO17","cve_mun":"653","cvegeo":"CO17653","nombre":"Salamina"},"geometry":{"type":"Polygon","coordinates":[[[-75.3811,5.4197],[-75.3162,5.4594],[-75.2807,5.4111],[-75.2868,5.3466],[-75.348,5.3293],[-75.3725,5.2214],[-75.3933,5.2735],[-75.5108,5.3342],[-75.5328,5.4421],[-75.4557,5.4545],[-75.3811,5.4197]]]}},{"type":"Feature","properties":{"cve_ent":"CO17","cve_mun":"662","cvegeo":"CO17662","nombre":"Samaná"},"geometry":{"type":"Polygon","coordinates":[[[-74.8902,5.5586],[-74.9183,5.4644],[-74.9134,5.4024],[-74.9624,5.3417],[-75.0346,5.3441],[-75.0848,5.4284],[-75.0836,5.5065],[-75.1325,5.5412],[-75.0689,5.6627],[-74.993,5.716],[-74.8804,5.7457],[-74.862,5.6776],[-74.9379,5.6193],[-74.8902,5.5586]]]}},{"type":"Feature","properties":{"cve_ent":"CO17","cve_mun":"665","cvegeo":"CO17665","nombre":"San José"},"geometry":{"type":"Polygon","coordinates":[[[-75.774,5.0628],[-75.8585,5.0045],[-75.8438,5.0851],[-75.774,5.0628]]]}},{"type":"Feature","properties":{"cve_ent":"CO17","cve_mun":"777","cvegeo":"CO17777","nombre":"Supía"},"geometry":{"type":"Polygon","coordinates":[[[-75.6406,5.5301],[-75.5855,5.4458],[-75.61,5.3751],[-75.6467,5.3801],[-75.7042,5.5375],[-75.6406,5.5301]]]}},{"type":"Feature","properties":{"cve_ent":"CO17","cve_mun":"867","cvegeo":"CO17867","nombre":"Victoria"},"geometry":{"type":"Polygon","coordinates":[[[-74.813,5.6044],[-74.7053,5.566],[-74.742,5.4569],[-74.7947,5.3702],[-74.7898,5.2983],[-74.8608,5.3057],[-74.9673,5.3008],[-74.9624,5.3417],[-74.9134,5.4024],[-74.9183,5.4644],[-74.8902,5.5586],[-74.813,5.6044]]]}},{"type":"Feature","properties":{"cve_ent":"CO17","cve_mun":"873","cvegeo":"CO17873","nombre":"Villamaría"},"geometry":{"type":"Polygon","coordinates":[[[-75.3284,5.0417],[-75.3541,4.9624],[-75.3345,4.8992],[-75.3198,4.893],[-75.3186,4.8868],[-75.3749,4.8025],[-75.4276,4.8161],[-75.4827,4.9165],[-75.572,4.9364],[-75.5879,4.9847],[-75.4753,5.0268],[-75.3284,5.0417]]]}},{"type":"Feature","properties":{"cve_ent":"CO17","cve_mun":"877","cvegeo":"CO17877","nombre":"Viterbo"},"geometry":{"type":"Polygon","coordinates":[[[-75.8364,5.1148],[-75.8107,5.1173],[-75.8438,5.0851],[-75.8585,5.0045],[-75.8609,4.9426],[-75.9221,5.0417],[-75.8842,5.131],[-75.8364,5.1148]]]}}]}