{"type":"FeatureCollection","features":[{"type":"Feature","properties":{"cve_ent":"CO19","cve_mun":"001","cvegeo":"CO19001","nombre":"Popayán"},"geometry":{"type":"Polygon","coordinates":[[[-76.5881,2.5529],[-76.3849,2.424],[-76.5073,2.4153],[-76.5318,2.3124],[-76.5575,2.3979],[-76.6187,2.4153],[-76.7239,2.4772],[-76.768,2.5677],[-76.5881,2.5529]]]}},{"type":"Feature","properties":{"cve_ent":"CO19","cve_mun":"022","cvegeo":"CO19022","nombre":"Almaguer"},"geometry":{"type":"Polygon","coordinates":[[[-76.7239,1.9802],[-76.7484,1.8947],[-76.7937,1.8439],[-76.8684,1.8464],[-76.9357,1.922],[-76.8659,1.9827],[-76.8366,1.9852],[-76.7913,1.9505],[-76.7239,1.9802]]]}},{"type":"Feature","properties":{"cve_ent":"CO19","cve_mun":"050","cvegeo":"CO19050","nombre":"Argelia"},"geometry":{"type":"Polygon","coordinates":[[[-77.3091,2.5082],[-77.1365,2.4351],[-77.134,2.3161],[-77.1659,2.2963],[-77.1781,2.2021],[-77.2124,2.1575],[-77.3054,2.1451],[-77.3226,2.2219],[-77.3752,2.2641],[-77.4033,2.383],[-77.3213,2.4487],[-77.3091,2.5082]]]}},{"type":"Feature","properties":{"cve_ent":"CO19","cve_mun":"075","cvegeo":"CO19075","nombre":"Balboa"},"geometry":{"type":"Polygon","coordinates":[[[-77.161,2.0273],[-77.2026,1.9517],[-77.3323,2.0496],[-77.3054,2.1451],[-77.2124,2.1575],[-77.1781,2.2021],[-77.0875,2.1166],[-77.1193,2.0298],[-77.161,2.0273]]]}},{"type":"Feature","properties":{"cve_ent":"CO19","cve_mun":"100","cvegeo":"CO19100","nombre":"Bolívar"},"geometry":{"type":"Polygon","coordinates":[[[-76.8659,1.9827],[-76.9357,1.922],[-76.8684,1.8464],[-76.8084,1.7026],[-76.8525,1.6356],[-76.9002,1.6617],[-76.9357,1.7286],[-77.0263,1.7137],[-77.052,1.7398],[-77.019,1.8166],[-77.0789,1.824],[-77.0887,1.9034],[-77.1304,1.9381],[-77.0349,2.0025],[-76.9516,2.0967],[-76.9835,2.0434],[-76.8659,1.9827]]]}},{"type":"Feature","properties":{"cve_ent":"CO19","cve_mun":"110","cvegeo":"CO19110","nombre":"Buenos Aires"},"geometry":{"type":"Polygon","coordinates":[[[-76.5575,3.1019],[-76.6113,2.8751],[-76.6309,2.8726],[-76.6444,2.8888],[-76.6872,2.9817],[-76.8047,3.0511],[-76.8121,3.1255],[-76.7888,3.2185],[-76.7827,3.2308],[-76.7497,3.1466],[-76.6774,3.0995],[-76.5575,3.1019]]]}},{"type":"Feature","properties":{"cve_ent":"CO19","cve_mun":"130","cvegeo":"CO19130","nombre":"Cajibío"},"geometry":{"type":"Polygon","coordinates":[[[-76.6689,2.7189],[-76.6162,2.6632],[-76.5011,2.6148],[-76.4975,2.6062],[-76.5881,2.5529],[-76.768,2.5677],[-76.8733,2.678],[-76.8513,2.7611],[-76.6689,2.7189]]]}},{"type":"Feature","properties":{"cve_ent":"CO19","cve_mun":"137","cvegeo":"CO19137","nombre":"Caldono"},"geometry":{"type":"Polygon","coordinates":[[[-76.3653,2.7673],[-76.413,2.7214],[-76.5048,2.7066],[-76.5721,2.8268],[-76.6309,2.8726],[-76.5526,2.8863],[-76.4779,2.8441],[-76.3628,2.9185],[-76.3653,2.7673]]]}},{"type":"Feature","properties":{"cve_ent":"CO19","cve_mun":"142","cvegeo":"CO19142","nombre":"Caloto"},"geometry":{"type":"Polygon","coordinates":[[[-76.4301,3.2135],[-76.4204,3.2073],[-76.435,3.1627],[-76.4044,3.0759],[-76.3567,3.071],[-76.3555,3.1726],[-76.3322,3.1317],[-76.2759,3.0697],[-76.3139,2.9916],[-76.3665,2.9197],[-76.4375,3.0189],[-76.4314,3.1044],[-76.4571,3.154],[-76.4301,3.2135]]]}},{"type":"Feature","properties":{"cve_ent":"CO19","cve_mun":"212","cvegeo":"CO19212","nombre":"Corinto"},"geometry":{"type":"Polygon","coordinates":[[[-76.0837,3.1577],[-76.1033,3.0957],[-76.2147,3.0598],[-76.2759,3.0697],[-76.3322,3.1317],[-76.2869,3.2284],[-76.1253,3.1565],[-76.0837,3.1577]]]}},{"type":"Feature","properties":{"cve_ent":"CO19","cve_mun":"256","cvegeo":"CO19256","nombre":"El Tambo"},"geometry":{"type":"Polygon","coordinates":[[[-76.9161,2.8156],[-76.8513,2.7611],[-76.8733,2.678],[-76.768,2.5677],[-76.7239,2.4772],[-76.7594,2.3062],[-76.8255,2.2975],[-76.8402,2.2269],[-76.9321,2.2579],[-76.9933,2.2058],[-77.0288,2.3161],[-77.134,2.3161],[-77.1365,2.4351],[-77.3091,2.5082],[-77.3103,2.5578],[-77.2063,2.6458],[-77.2516,2.7028],[-77.2185,2.7698],[-77.0079,2.8193],[-76.9602,2.7735],[-76.9161,2.8156]]]}},{"type":"Feature","properties":{"cve_ent":"CO19","cve_mun":"290","cvegeo":"CO19290","nombre":"Florencia"},"geometry":{"type":"Polygon","coordinates":[[[-77.052,1.7398],[-77.0263,1.7137],[-77.0704,1.6741],[-77.1438,1.6778],[-77.052,1.7398]]]}},{"type":"Feature","properties":{"cve_ent":"CO19","cve_mun":"300","cvegeo":"CO19300","nombre":"Guachené"},"geometry":{"type":"Polygon","coordinates":[[[-76.3775,3.2048],[-76.3555,3.1726],[-76.3567,3.071],[-76.4044,3.0759],[-76.435,3.1627],[-76.4204,3.2073],[-76.3775,3.2048]]]}},{"type":"Feature","properties":{"cve_ent":"CO19","cve_mun":"318","cvegeo":"CO19318","nombre":"Guapi"},"geometry":{"type":"Polygon","coordinates":[[[-77.4033,2.383],[-77.3752,2.2641],[-77.4597,2.2864],[-77.4878,2.1947],[-77.5539,2.2021],[-77.5992,2.1674],[-77.7339,2.1339],[-77.8355,2.1761],[-77.8477,2.2603],[-77.9175,2.4116],[-77.9285,2.6409],[-77.9077,2.6805],[-77.7877,2.6904],[-77.7229,2.688],[-77.5906,2.6099],[-77.5784,2.5529],[-77.4474,2.4624],[-77.4033,2.383]]]}},{"type":"Feature","properties":{"cve_ent":"CO19","cve_mun":"355","cvegeo":"CO19355","nombre":"Inzá"},"geometry":{"type":"Polygon","coordinates":[[[-75.9625,2.4983],[-76.1266,2.3806],[-76.2196,2.3186],[-76.3236,2.393],[-76.2881,2.4649],[-76.2269,2.481],[-76.2257,2.5479],[-76.211,2.6322],[-76.0384,2.6694],[-76.025,2.5876],[-75.9576,2.5405],[-75.9625,2.4983]]]}},{"type":"Feature","properties":{"cve_ent":"CO19","cve_mun":"364","cvegeo":"CO19364","nombre":"Jambaló"},"geometry":{"type":"Polygon","coordinates":[[[-76.3139,2.9916],[-76.3053,2.8739],[-76.2245,2.854],[-76.2441,2.7822],[-76.3653,2.7673],[-76.3628,2.9185],[-76.3665,2.9197],[-76.3139,2.9916]]]}},{"type":"Feature","properties":{"cve_ent":"CO19","cve_mun":"392","cvegeo":"CO19392","nombre":"La Sierra"},"geometry":{"type":"Polygon","coordinates":[[[-76.8402,2.2269],[-76.7276,2.2294],[-76.6493,2.1885],[-76.7093,2.1426],[-76.888,2.1624],[-76.8929,2.1661],[-76.9321,2.2579],[-76.8402,2.2269]]]}},{"type":"Feature","properties":{"cve_ent":"CO19","cve_mun":"397","cvegeo":"CO19397","nombre":"La Vega"},"geometry":{"type":"Polygon","coordinates":[[[-76.7093,2.1426],[-76.6652,2.0447],[-76.5807,2.0286],[-76.6236,1.9753],[-76.7239,1.9802],[-76.7913,1.9505],[-76.8366,1.9852],[-76.8782,2.0434],[-76.888,2.1624],[-76.7093,2.1426]]]}},{"type":"Feature","properties":{"cve_ent":"CO19","cve_mun":"418","cvegeo":"CO19418","nombre":"López de Micay"},"geometry":{"type":"Polygon","coordinates":[[[-76.7888,3.2185],[-76.8121,3.1255],[-76.8047,3.0511],[-76.8586,2.9768],[-76.9161,2.8156],[-76.9602,2.7735],[-77.0079,2.8193],[-77.2185,2.7698],[-77.2516,2.7028],[-77.3128,2.7165],[-77.3103,2.8268],[-77.4033,2.8888],[-77.5723,2.9247],[-77.6335,2.9061],[-77.6702,2.9482],[-77.691,3.0003],[-77.5625,3.1627],[-77.4976,3.216],[-77.4303,3.2544],[-77.347,3.1404],[-77.3164,3.1738],[-77.2344,3.1081],[-77.1781,3.1565],[-77.101,3.185],[-76.9982,3.1552],[-76.9382,3.1143],[-76.9088,3.2011],[-76.7888,3.2185]]]}},{"type":"Feature","properties":{"cve_ent":"CO19","cve_mun":"450","cvegeo":"CO19450","nombre":"Mercaderes"},"geometry":{"type":"Polygon","coordinates":[[[-77.1304,1.9381],[-77.0887,1.9034],[-77.0789,1.824],[-77.019,1.8166],[-77.052,1.7398],[-77.1438,1.6778],[-77.2381,1.658],[-77.2699,1.6629],[-77.3299,1.6815],[-77.2944,1.7658],[-77.2944,1.8315],[-77.2014,1.9542],[-77.1304,1.9381]]]}},{"type":"Feature","properties":{"cve_ent":"CO19","cve_mun":"455","cvegeo":"CO19455","nombre":"Miranda"},"geometry":{"type":"Polygon","coordinates":[[[-76.0556,3.2234],[-76.0911,3.1986],[-76.0837,3.1577],[-76.1253,3.1565],[-76.2869,3.2284],[-76.3689,3.2395],[-76.3518,3.2866],[-76.3432,3.2817],[-76.2294,3.2767],[-76.1914,3.2271],[-76.0556,3.2234]]]}},{"type":"Feature","properties":{"cve_ent":"CO19","cve_mun":"473","cvegeo":"CO19473","nombre":"Morales"},"geometry":{"type":"Polygon","coordinates":[[[-76.6444,2.8888],[-76.6113,2.8553],[-76.5758,2.7326],[-76.6689,2.7189],[-76.8513,2.7611],[-76.9161,2.8156],[-76.8586,2.9768],[-76.7998,2.9544],[-76.828,2.8528],[-76.719,2.8057],[-76.6444,2.8888]]]}},{"type":"Feature","properties":{"cve_ent":"CO19","cve_mun":"513","cvegeo":"CO19513","nombre":"Padilla"},"geometry":{"type":"Polygon","coordinates":[[[-76.2869,3.2284],[-76.3322,3.1317],[-76.3775,3.2048],[-76.3689,3.2395],[-76.2869,3.2284]]]}},{"type":"Feature","properties":{"cve_ent":"CO19","cve_mun":"517","cvegeo":"CO19517","nombre":"Páez"},"geometry":{"type":"Polygon","coordinates":[[[-76.0286,2.9408],[-75.8964,2.8553],[-75.823,2.8355],[-75.8107,2.7871],[-75.7483,2.7189],[-75.7605,2.6805],[-75.8401,2.5578],[-75.8144,2.4834],[-75.8413,2.4587],[-75.9099,2.4463],[-75.9625,2.4983],[-75.9576,2.5405],[-76.025,2.5876],[-76.0384,2.6694],[-76.211,2.6322],[-76.2502,2.652],[-76.2159,2.7747],[-76.2441,2.7822],[-76.2245,2.854],[-76.1168,2.9247],[-76.0678,3.0462],[-76.0213,3.0053],[-76.0286,2.9408]]]}},{"type":"Feature","properties":{"cve_ent":"CO19","cve_mun":"532","cvegeo":"CO19532","nombre":"Patía"},"geometry":{"type":"Polygon","coordinates":[[[-76.9321,2.2579],[-76.8929,2.1661],[-77.0349,2.0025],[-77.1304,1.9381],[-77.2014,1.9542],[-77.161,2.0273],[-77.1193,2.0298],[-77.0875,2.1166],[-77.1781,2.2021],[-77.1659,2.2963],[-77.134,2.3161],[-77.0288,2.3161],[-76.9933,2.2058],[-76.9321,2.2579]]]}},{"type":"Feature","properties":{"cve_ent":"CO19","cve_mun":"533","cvegeo":"CO19533","nombre":"Piamonte"},"geometry":{"type":"Polygon","coordinates":[[[-76.1327,1.1014],[-76.0849,1.0581],[-76.1657,1.0295],[-76.2135,0.9787],[-76.4008,0.98],[-76.4852,1.0085],[-76.5673,1.0816],[-76.4693,1.0965],[-76.424,1.1845],[-76.2477,1.3853],[-76.2588,1.4411],[-76.2159,1.4956],[-76.1988,1.5749],[-76.1694,1.5885],[-76.1498,1.5365],[-76.1841,1.4882],[-76.2037,1.3531],[-76.3028,1.2365],[-76.2808,1.1374],[-76.1327,1.1014]]]}},{"type":"Feature","properties":{"cve_ent":"CO19","cve_mun":"548","cvegeo":"CO19548","nombre":"Piendamó - Tunía"},"geometry":{"type":"Polygon","coordinates":[[[-76.5048,2.7066],[-76.5011,2.6148],[-76.6162,2.6632],[-76.6689,2.7189],[-76.5758,2.7326],[-76.6113,2.8553],[-76.5721,2.8268],[-76.5048,2.7066]]]}},{"type":"Feature","properties":{"cve_ent":"CO19","cve_mun":"573","cvegeo":"CO19573","nombre":"Puerto Tejada"},"geometry":{"type":"Polygon","coordinates":[[[-76.4608,3.2594],[-76.4926,3.2891],[-76.4608,3.3288],[-76.3518,3.2866],[-76.3689,3.2395],[-76.3775,3.2048],[-76.4204,3.2073],[-76.4301,3.2135],[-76.4608,3.2594]]]}},{"type":"Feature","properties":{"cve_ent":"CO19","cve_mun":"585","cvegeo":"CO19585","nombre":"Puracé"},"geometry":{"type":"Polygon","coordinates":[[[-76.3236,2.393],[-76.2196,2.3186],[-76.1266,2.3806],[-76.1461,2.2938],[-76.1217,2.2244],[-76.2086,2.1984],[-76.2747,2.2703],[-76.3604,2.2703],[-76.4191,2.1922],[-76.4253,2.129],[-76.5538,2.1389],[-76.5318,2.3124],[-76.5073,2.4153],[-76.3849,2.424],[-76.3236,2.393]]]}},{"type":"Feature","properties":{"cve_ent":"CO19","cve_mun":"622","cvegeo":"CO19622","nombre":"Rosas"},"geometry":{"type":"Polygon","coordinates":[[[-76.7594,2.3062],[-76.7154,2.2864],[-76.6542,2.2343],[-76.6493,2.1885],[-76.7276,2.2294],[-76.8402,2.2269],[-76.8255,2.2975],[-76.7594,2.3062]]]}},{"type":"Feature","properties":{"cve_ent":"CO19","cve_mun":"693","cvegeo":"CO19693","nombre":"San Sebastián"},"geometry":{"type":"Polygon","coordinates":[[[-76.6236,1.9753],[-76.5905,1.8687],[-76.6529,1.7993],[-76.719,1.8055],[-76.8084,1.7026],[-76.8684,1.8464],[-76.7937,1.8439],[-76.7484,1.8947],[-76.7239,1.9802],[-76.6236,1.9753]]]}},{"type":"Feature","properties":{"cve_ent":"CO19","cve_mun":"698","cvegeo":"CO19698","nombre":"Santander de Quilichao"},"geometry":{"type":"Polygon","coordinates":[[[-76.5036,3.1441],[-76.4314,3.1044],[-76.4375,3.0189],[-76.3665,2.9197],[-76.3628,2.9185],[-76.4779,2.8441],[-76.5526,2.8863],[-76.6113,2.8751],[-76.5575,3.1019],[-76.5036,3.1441]]]}},{"type":"Feature","properties":{"cve_ent":"CO19","cve_mun":"701","cvegeo":"CO19701","nombre":"Santa Rosa"},"geometry":{"type":"Polygon","coordinates":[[[-76.3163,1.684],[-76.2269,1.6642],[-76.1988,1.5749],[-76.2159,1.4956],[-76.2588,1.4411],[-76.2477,1.3853],[-76.424,1.1845],[-76.4693,1.0965],[-76.5673,1.0816],[-76.5403,1.2043],[-76.5856,1.3047],[-76.6015,1.4138],[-76.697,1.4435],[-76.8855,1.3729],[-76.921,1.3456],[-76.9284,1.5005],[-76.8586,1.5229],[-76.8525,1.6356],[-76.8084,1.7026],[-76.719,1.8055],[-76.6529,1.7993],[-76.5905,1.8687],[-76.4338,1.7906],[-76.3163,1.684]]]}},{"type":"Feature","properties":{"cve_ent":"CO19","cve_mun":"743","cvegeo":"CO19743","nombre":"Silvia"},"geometry":{"type":"Polygon","coordinates":[[[-76.211,2.6322],[-76.2257,2.5479],[-76.3445,2.5169],[-76.4326,2.5479],[-76.4975,2.6062],[-76.5011,2.6148],[-76.5048,2.7066],[-76.413,2.7214],[-76.3653,2.7673],[-76.2441,2.7822],[-76.2159,2.7747],[-76.2502,2.652],[-76.211,2.6322]]]}},{"type":"Feature","properties":{"cve_ent":"CO19","cve_mun":"760","cvegeo":"CO19760","nombre":"Sotará - Paispamba"},"geometry":{"type":"Polygon","coordinates":[[[-76.6187,2.4153],[-76.5575,2.3979],[-76.5318,2.3124],[-76.5538,2.1389],[-76.5893,2.1079],[-76.5807,2.0286],[-76.6652,2.0447],[-76.7093,2.1426],[-76.6493,2.1885],[-76.6542,2.2343],[-76.7154,2.2864],[-76.6493,2.3099],[-76.6603,2.3645],[-76.6187,2.4153]]]}},{"type":"Feature","properties":{"cve_ent":"CO19","cve_mun":"780","cvegeo":"CO19780","nombre":"Suárez"},"geometry":{"type":"Polygon","coordinates":[[[-76.6444,2.8888],[-76.719,2.8057],[-76.828,2.8528],[-76.7998,2.9544],[-76.8586,2.9768],[-76.8047,3.0511],[-76.6872,2.9817],[-76.6444,2.8888]]]}},{"type":"Feature","properties":{"cve_ent":"CO19","cve_mun":"785","cvegeo":"CO19785","nombre":"Sucre"},"geometry":{"type":"Polygon","coordinates":[[[-76.888,2.1624],[-76.8782,2.0434],[-76.8366,1.9852],[-76.8659,1.9827],[-76.9835,2.0434],[-76.9516,2.0967],[-76.8929,2.1661],[-76.888,2.1624]]]}},{"type":"Feature","properties":{"cve_ent":"CO19","cve_mun":"807","cvegeo":"CO19807","nombre":"Timbío"},"geometry":{"type":"Polygon","coordinates":[[[-76.6187,2.4153],[-76.6603,2.3645],[-76.6493,2.3099],[-76.7154,2.2864],[-76.7594,2.3062],[-76.7239,2.4772],[-76.6187,2.4153]]]}},{"type":"Feature","properties":{"cve_ent":"CO19","cve_mun":"809","cvegeo":"CO19809","nombre":"Timbiquí"},"geometry":{"type":"Polygon","coordinates":[[[-77.2516,2.7028],[-77.2063,2.6458],[-77.3103,2.5578],[-77.3091,2.5082],[-77.3213,2.4487],[-77.4033,2.383],[-77.4474,2.4624],[-77.5784,2.5529],[-77.5906,2.6099],[-77.7229,2.688],[-77.7877,2.6904],[-77.7975,2.7475],[-77.7363,2.7871],[-77.6702,2.9482],[-77.6335,2.9061],[-77.5723,2.9247],[-77.4033,2.8888],[-77.3103,2.8268],[-77.3128,2.7165],[-77.2516,2.7028]]]}},{"type":"Feature","properties":{"cve_ent":"CO19","cve_mun":"821","cvegeo":"CO19821","nombre":"Toribío"},"geometry":{"type":"Polygon","coordinates":[[[-76.0678,3.0462],[-76.1168,2.9247],[-76.2245,2.854],[-76.3053,2.8739],[-76.3139,2.9916],[-76.2759,3.0697],[-76.2147,3.0598],[-76.1033,3.0957],[-76.0678,3.0462]]]}},{"type":"Feature","properties":{"cve_ent":"CO19","cve_mun":"824","cvegeo":"CO19824","nombre":"Totoró"},"geometry":{"type":"Polygon","coordinates":[[[-76.4975,2.6062],[-76.4326,2.5479],[-76.3445,2.5169],[-76.2257,2.5479],[-76.2269,2.481],[-76.2881,2.4649],[-76.3236,2.393],[-76.3849,2.424],[-76.5881,2.5529],[-76.4975,2.6062]]]}},{"type":"Feature","properties":{"cve_ent":"CO19","cve_mun":"845","cvegeo":"CO19845","nombre":"Villa Rica"},"geometry":{"type":"Polygon","coordinates":[[[-76.4301,3.2135],[-76.4571,3.154],[-76.4314,3.1044],[-76.5036,3.1441],[-76.4608,3.2594],[-76.4301,3.2135]]]}}]}