{"type":"FeatureCollection","features":[{"type":"Feature","properties":{"cve_ent":"CO25","cve_mun":"001","cvegeo":"CO25001","nombre":"Agua de Dios"},"geometry":{"type":"Polygon","coordinates":[[[-74.5976,4.3588],[-74.6649,4.3402],[-74.7359,4.3811],[-74.6772,4.4158],[-74.5976,4.3588]]]}},{"type":"Feature","properties":{"cve_ent":"CO25","cve_mun":"019","cvegeo":"CO25019","nombre":"Albán"},"geometry":{"type":"Polygon","coordinates":[[[-74.403,4.8806],[-74.4201,4.8384],[-74.458,4.8322],[-74.4825,4.9388],[-74.4801,4.9525],[-74.403,4.8806]]]}},{"type":"Feature","properties":{"cve_ent":"CO25","cve_mun":"035","cvegeo":"CO25035","nombre":"Anapoima"},"geometry":{"type":"Polygon","coordinates":[[[-74.4776,4.5757],[-74.4691,4.4963],[-74.5021,4.484],[-74.5645,4.5323],[-74.5976,4.6265],[-74.5902,4.6339],[-74.5572,4.6476],[-74.4776,4.5757]]]}},{"type":"Feature","properties":{"cve_ent":"CO25","cve_mun":"040","cvegeo":"CO25040","nombre":"Anolaima"},"geometry":{"type":"Polygon","coordinates":[[[-74.4201,4.8384],[-74.3944,4.8037],[-74.4066,4.7827],[-74.5107,4.7281],[-74.5241,4.7938],[-74.5058,4.8322],[-74.458,4.8322],[-74.4201,4.8384]]]}},{"type":"Feature","properties":{"cve_ent":"CO25","cve_mun":"053","cvegeo":"CO25053","nombre":"Arbeláez"},"geometry":{"type":"Polygon","coordinates":[[[-74.3356,4.2274],[-74.2377,4.1952],[-74.2401,4.1865],[-74.2977,4.1766],[-74.4666,4.2175],[-74.5413,4.2522],[-74.4299,4.2931],[-74.3356,4.2274]]]}},{"type":"Feature","properties":{"cve_ent":"CO25","cve_mun":"086","cvegeo":"CO25086","nombre":"Beltrán"},"geometry":{"type":"Polygon","coordinates":[[[-74.6845,4.7579],[-74.7347,4.7542],[-74.7629,4.6835],[-74.7335,4.6215],[-74.7518,4.5881],[-74.7935,4.5918],[-74.8167,4.6116],[-74.7886,4.6587],[-74.8155,4.7133],[-74.7433,4.7901],[-74.769,4.8422],[-74.7016,4.836],[-74.6845,4.7579]]]}},{"type":"Feature","properties":{"cve_ent":"CO25","cve_mun":"095","cvegeo":"CO25095","nombre":"Bituima"},"geometry":{"type":"Polygon","coordinates":[[[-74.5046,4.9438],[-74.5058,4.8322],[-74.5241,4.7938],[-74.5596,4.7963],[-74.5168,4.9438],[-74.5046,4.9438]]]}},{"type":"Feature","properties":{"cve_ent":"CO25","cve_mun":"099","cvegeo":"CO25099","nombre":"Bojacá"},"geometry":{"type":"Polygon","coordinates":[[[-74.2989,4.717],[-74.272,4.6191],[-74.3062,4.6203],[-74.3932,4.6996],[-74.3981,4.717],[-74.3466,4.7628],[-74.3283,4.7653],[-74.2989,4.717]]]}},{"type":"Feature","properties":{"cve_ent":"CO25","cve_mun":"120","cvegeo":"CO25120","nombre":"Cabrera"},"geometry":{"type":"Polygon","coordinates":[[[-74.3797,4.0365],[-74.365,4.0353],[-74.3601,3.9138],[-74.4397,3.7304],[-74.4458,3.801],[-74.5401,3.8444],[-74.5131,3.9535],[-74.5315,3.9758],[-74.5241,4.0229],[-74.3797,4.0365]]]}},{"type":"Feature","properties":{"cve_ent":"CO25","cve_mun":"123","cvegeo":"CO25123","nombre":"Cachipay"},"geometry":{"type":"Polygon","coordinates":[[[-74.4372,4.7133],[-74.5095,4.6798],[-74.5107,4.7281],[-74.4066,4.7827],[-74.4372,4.7133]]]}},{"type":"Feature","properties":{"cve_ent":"CO25","cve_mun":"126","cvegeo":"CO25126","nombre":"Cajicá"},"geometry":{"type":"Polygon","coordinates":[[[-73.9978,4.9735],[-74.0063,4.9178],[-74.0773,4.9116],[-74.0333,4.9636],[-73.9978,4.9735]]]}},{"type":"Feature","properties":{"cve_ent":"CO25","cve_mun":"148","cvegeo":"CO25148","nombre":"Caparrapí"},"geometry":{"type":"Polygon","coordinates":[[[-74.4225,5.4433],[-74.4385,5.3603],[-74.4923,5.2561],[-74.5144,5.1942],[-74.6147,5.2152],[-74.589,5.3541],[-74.6147,5.3875],[-74.5902,5.4817],[-74.5401,5.5549],[-74.4531,5.5549],[-74.4225,5.4433]]]}},{"type":"Feature","properties":{"cve_ent":"CO25","cve_mun":"151","cvegeo":"CO25151","nombre":"Cáqueza"},"geometry":{"type":"Polygon","coordinates":[[[-73.9035,4.4406],[-73.8753,4.386],[-73.8962,4.3488],[-73.9916,4.355],[-73.9904,4.4183],[-73.9733,4.4579],[-73.9035,4.4406]]]}},{"type":"Feature","properties":{"cve_ent":"CO25","cve_mun":"154","cvegeo":"CO25154","nombre":"Carmen de Carupa"},"geometry":{"type":"Polygon","coordinates":[[[-73.8668,5.4619],[-73.8398,5.3677],[-73.8668,5.2822],[-73.9525,5.2053],[-73.9953,5.2586],[-73.9745,5.3194],[-73.999,5.3677],[-73.9476,5.4235],[-73.9023,5.4668],[-73.8668,5.4619]]]}},{"type":"Feature","properties":{"cve_ent":"CO25","cve_mun":"168","cvegeo":"CO25168","nombre":"Chaguaní"},"geometry":{"type":"Polygon","coordinates":[[[-74.5523,4.9649],[-74.5768,4.8893],[-74.6441,4.8967],[-74.7274,4.9773],[-74.731,4.9971],[-74.7053,5.012],[-74.5694,4.9946],[-74.5523,4.9649]]]}},{"type":"Feature","properties":{"cve_ent":"CO25","cve_mun":"175","cvegeo":"CO25175","nombre":"Chía"},"geometry":{"type":"Polygon","coordinates":[[[-74.0063,4.8236],[-74.0822,4.8347],[-74.0945,4.8484],[-74.0773,4.9116],[-74.0063,4.9178],[-74.0063,4.8236]]]}},{"type":"Feature","properties":{"cve_ent":"CO25","cve_mun":"178","cvegeo":"CO25178","nombre":"Chipaque"},"geometry":{"type":"Polygon","coordinates":[[[-74.0479,4.5125],[-73.9733,4.4579],[-73.9904,4.4183],[-74.119,4.3104],[-74.1165,4.4046],[-74.0479,4.5125]]]}},{"type":"Feature","properties":{"cve_ent":"CO25","cve_mun":"181","cvegeo":"CO25181","nombre":"Choachí"},"geometry":{"type":"Polygon","coordinates":[[[-73.7933,4.6376],[-73.9047,4.5001],[-73.9586,4.5087],[-74.0051,4.5608],[-73.988,4.6314],[-73.7933,4.6376]]]}},{"type":"Feature","properties":{"cve_ent":"CO25","cve_mun":"183","cvegeo":"CO25183","nombre":"Chocontá"},"geometry":{"type":"Polygon","coordinates":[[[-73.5363,5.1322],[-73.5375,5.1223],[-73.617,5.1322],[-73.688,4.9835],[-73.7603,5.0516],[-73.7333,5.157],[-73.6844,5.2289],[-73.6623,5.2425],[-73.6268,5.188],[-73.5363,5.1322]]]}},{"type":"Feature","properties":{"cve_ent":"CO25","cve_mun":"200","cvegeo":"CO25200","nombre":"Cogua"},"geometry":{"type":"Polygon","coordinates":[[[-73.9059,5.1334],[-73.9353,5.043],[-74.0137,5.0491],[-74.0076,5.1272],[-74.0455,5.1582],[-74.0455,5.1694],[-73.9059,5.1334]]]}},{"type":"Feature","properties":{"cve_ent":"CO25","cve_mun":"214","cvegeo":"CO25214","nombre":"Cota"},"geometry":{"type":"Polygon","coordinates":[[[-74.0822,4.8347],[-74.1569,4.7256],[-74.163,4.7504],[-74.0945,4.8484],[-74.0822,4.8347]]]}},{"type":"Feature","properties":{"cve_ent":"CO25","cve_mun":"224","cvegeo":"CO25224","nombre":"Cucunubá"},"geometry":{"type":"Polygon","coordinates":[[[-73.6844,5.2289],[-73.7493,5.219],[-73.8386,5.1644],[-73.8472,5.1942],[-73.8043,5.2586],[-73.7652,5.2983],[-73.6844,5.2289]]]}},{"type":"Feature","properties":{"cve_ent":"CO25","cve_mun":"245","cvegeo":"CO25245","nombre":"El Colegio"},"geometry":{"type":"Polygon","coordinates":[[[-74.3944,4.6228],[-74.3638,4.5571],[-74.3944,4.5001],[-74.4691,4.4963],[-74.4776,4.5757],[-74.4458,4.598],[-74.3944,4.6228]]]}},{"type":"Feature","properties":{"cve_ent":"CO25","cve_mun":"258","cvegeo":"CO25258","nombre":"El Peñón"},"geometry":{"type":"Polygon","coordinates":[[[-74.2487,5.2772],[-74.3001,5.1929],[-74.3405,5.2004],[-74.3699,5.2004],[-74.3552,5.2561],[-74.3577,5.3317],[-74.2487,5.2772]]]}},{"type":"Feature","properties":{"cve_ent":"CO25","cve_mun":"260","cvegeo":"CO25260","nombre":"El Rosal"},"geometry":{"type":"Polygon","coordinates":[[[-74.2303,4.945],[-74.201,4.857],[-74.261,4.8236],[-74.2842,4.8756],[-74.2303,4.945]]]}},{"type":"Feature","properties":{"cve_ent":"CO25","cve_mun":"269","cvegeo":"CO25269","nombre":"Facatativá"},"geometry":{"type":"Polygon","coordinates":[[[-74.3577,4.8942],[-74.2842,4.8756],[-74.261,4.8236],[-74.3283,4.7653],[-74.3466,4.7628],[-74.3944,4.8037],[-74.4201,4.8384],[-74.403,4.8806],[-74.3577,4.8942]]]}},{"type":"Feature","properties":{"cve_ent":"CO25","cve_mun":"279","cvegeo":"CO25279","nombre":"Fómeque"},"geometry":{"type":"Polygon","coordinates":[[[-73.6685,4.5397],[-73.7456,4.4554],[-73.8092,4.3959],[-73.8753,4.386],[-73.9035,4.4406],[-73.9047,4.5001],[-73.7933,4.6376],[-73.7933,4.681],[-73.7003,4.624],[-73.6685,4.5397]]]}},{"type":"Feature","properties":{"cve_ent":"CO25","cve_mun":"281","cvegeo":"CO25281","nombre":"Fosca"},"geometry":{"type":"Polygon","coordinates":[[[-73.8962,4.3488],[-73.9011,4.2708],[-73.9194,4.2646],[-74.0431,4.2968],[-73.9916,4.355],[-73.8962,4.3488]]]}},{"type":"Feature","properties":{"cve_ent":"CO25","cve_mun":"286","cvegeo":"CO25286","nombre":"Funza"},"geometry":{"type":"Polygon","coordinates":[[[-74.163,4.7504],[-74.1569,4.7256],[-74.1728,4.6959],[-74.2328,4.7368],[-74.2181,4.7938],[-74.163,4.7504]]]}},{"type":"Feature","properties":{"cve_ent":"CO25","cve_mun":"288","cvegeo":"CO25288","nombre":"Fúquene"},"geometry":{"type":"Polygon","coordinates":[[[-73.7199,5.4594],[-73.7737,5.3516],[-73.8252,5.3739],[-73.7431,5.4706],[-73.7199,5.4594]]]}},{"type":"Feature","properties":{"cve_ent":"CO25","cve_mun":"290","cvegeo":"CO25290","nombre":"Fusagasugá"},"geometry":{"type":"Polygon","coordinates":[[[-74.283,4.3798],[-74.3197,4.386],[-74.3515,4.2956],[-74.3356,4.2274],[-74.4299,4.2931],[-74.5413,4.2522],[-74.5499,4.2608],[-74.4825,4.2894],[-74.3883,4.3984],[-74.3001,4.4269],[-74.283,4.3798]]]}},{"type":"Feature","properties":{"cve_ent":"CO25","cve_mun":"293","cvegeo":"CO25293","nombre":"Gachalá"},"geometry":{"type":"Polygon","coordinates":[[[-73.3722,4.8013],[-73.3404,4.7913],[-73.3245,4.7802],[-73.3845,4.7579],[-73.404,4.6785],[-73.4689,4.6314],[-73.5681,4.5249],[-73.6415,4.5472],[-73.6158,4.6686],[-73.5681,4.6612],[-73.535,4.7157],[-73.4151,4.7517],[-73.3722,4.8013]]]}},{"type":"Feature","properties":{"cve_ent":"CO25","cve_mun":"295","cvegeo":"CO25295","nombre":"Gachancipá"},"geometry":{"type":"Polygon","coordinates":[[[-73.8704,5.0479],[-73.8558,5.0355],[-73.8558,4.9897],[-73.8741,4.9636],[-73.9121,5.0281],[-73.8704,5.0479]]]}},{"type":"Feature","properties":{"cve_ent":"CO25","cve_mun":"297","cvegeo":"CO25297","nombre":"Gachetá"},"geometry":{"type":"Polygon","coordinates":[[[-73.5424,4.914],[-73.5203,4.8793],[-73.5546,4.7913],[-73.5913,4.7789],[-73.7223,4.8422],[-73.6856,4.9339],[-73.617,4.9611],[-73.5424,4.914]]]}},{"type":"Feature","properties":{"cve_ent":"CO25","cve_mun":"299","cvegeo":"CO25299","nombre":"Gama"},"geometry":{"type":"Polygon","coordinates":[[[-73.5913,4.7789],[-73.535,4.7157],[-73.5681,4.6612],[-73.6158,4.6686],[-73.6538,4.7207],[-73.6232,4.7951],[-73.5913,4.7789]]]}},{"type":"Feature","properties":{"cve_ent":"CO25","cve_mun":"307","cvegeo":"CO25307","nombre":"Girardot"},"geometry":{"type":"Polygon","coordinates":[[[-74.7433,4.3811],[-74.7971,4.2881],[-74.8902,4.2894],[-74.8559,4.3352],[-74.7531,4.4344],[-74.7433,4.3811]]]}},{"type":"Feature","properties":{"cve_ent":"CO25","cve_mun":"312","cvegeo":"CO25312","nombre":"Granada"},"geometry":{"type":"Polygon","coordinates":[[[-74.3038,4.5546],[-74.2842,4.5125],[-74.3026,4.5038],[-74.3981,4.4914],[-74.3638,4.5571],[-74.3038,4.5546]]]}},{"type":"Feature","properties":{"cve_ent":"CO25","cve_mun":"317","cvegeo":"CO25317","nombre":"Guachetá"},"geometry":{"type":"Polygon","coordinates":[[[-73.6183,5.4049],[-73.5926,5.3987],[-73.5987,5.3788],[-73.6942,5.3293],[-73.7639,5.3243],[-73.7737,5.3516],[-73.7199,5.4594],[-73.6183,5.4049]]]}},{"type":"Feature","properties":{"cve_ent":"CO25","cve_mun":"320","cvegeo":"CO25320","nombre":"Guaduas"},"geometry":{"type":"Polygon","coordinates":[[[-74.6502,5.4421],[-74.589,5.3541],[-74.6147,5.2152],[-74.5144,5.1942],[-74.5413,5.0653],[-74.5352,4.9661],[-74.5523,4.9649],[-74.5694,4.9946],[-74.7053,5.012],[-74.731,4.9971],[-74.7298,5.0677],[-74.7347,5.2871],[-74.6502,5.4421]]]}},{"type":"Feature","properties":{"cve_ent":"CO25","cve_mun":"322","cvegeo":"CO25322","nombre":"Guasca"},"geometry":{"type":"Polygon","coordinates":[[[-73.7627,4.8236],[-73.7493,4.7281],[-73.7994,4.6835],[-73.8509,4.6872],[-73.9598,4.8124],[-73.9157,4.914],[-73.9084,4.9227],[-73.8337,4.888],[-73.7627,4.8236]]]}},{"type":"Feature","properties":{"cve_ent":"CO25","cve_mun":"324","cvegeo":"CO25324","nombre":"Guataquí"},"geometry":{"type":"Polygon","coordinates":[[[-74.7518,4.5881],[-74.7433,4.4753],[-74.8216,4.4455],[-74.7947,4.5001],[-74.7935,4.5918],[-74.7518,4.5881]]]}},{"type":"Feature","properties":{"cve_ent":"CO25","cve_mun":"326","cvegeo":"CO25326","nombre":"Guatavita"},"geometry":{"type":"Polygon","coordinates":[[[-73.7138,4.9525],[-73.6856,4.9339],[-73.7223,4.8422],[-73.7627,4.8236],[-73.8337,4.888],[-73.9084,4.9227],[-73.8558,4.9897],[-73.7138,4.9525]]]}},{"type":"Feature","properties":{"cve_ent":"CO25","cve_mun":"328","cvegeo":"CO25328","nombre":"Guayabal de Síquima"},"geometry":{"type":"Polygon","coordinates":[[[-74.4825,4.9388],[-74.458,4.8322],[-74.5058,4.8322],[-74.5046,4.9438],[-74.4825,4.9388]]]}},{"type":"Feature","properties":{"cve_ent":"CO25","cve_mun":"335","cvegeo":"CO25335","nombre":"Guayabetal"},"geometry":{"type":"Polygon","coordinates":[[[-73.7639,4.2807],[-73.7431,4.1989],[-73.8141,4.2014],[-73.8962,4.1431],[-73.9329,4.1493],[-73.8986,4.2175],[-73.9194,4.2646],[-73.9011,4.2708],[-73.8325,4.2782],[-73.7921,4.3526],[-73.7639,4.2807]]]}},{"type":"Feature","properties":{"cve_ent":"CO25","cve_mun":"339","cvegeo":"CO25339","nombre":"Gutiérrez"},"geometry":{"type":"Polygon","coordinates":[[[-73.9194,4.2646],[-73.8986,4.2175],[-73.9561,4.0997],[-74.0333,4.0675],[-74.1006,4.013],[-74.1508,4.0043],[-74.1251,4.0551],[-74.1104,4.1815],[-74.0431,4.2968],[-73.9194,4.2646]]]}},{"type":"Feature","properties":{"cve_ent":"CO25","cve_mun":"368","cvegeo":"CO25368","nombre":"Jerusalén"},"geometry":{"type":"Polygon","coordinates":[[[-74.6086,4.6513],[-74.5902,4.6339],[-74.5976,4.6265],[-74.6319,4.5608],[-74.7261,4.4604],[-74.7433,4.4753],[-74.7518,4.5881],[-74.7335,4.6215],[-74.6086,4.6513]]]}},{"type":"Feature","properties":{"cve_ent":"CO25","cve_mun":"372","cvegeo":"CO25372","nombre":"Junín"},"geometry":{"type":"Polygon","coordinates":[[[-73.6232,4.7951],[-73.6538,4.7207],[-73.6158,4.6686],[-73.6415,4.5472],[-73.6685,4.5397],[-73.7003,4.624],[-73.7994,4.6835],[-73.7493,4.7281],[-73.7627,4.8236],[-73.7223,4.8422],[-73.6232,4.7951]]]}},{"type":"Feature","properties":{"cve_ent":"CO25","cve_mun":"377","cvegeo":"CO25377","nombre":"La Calera"},"geometry":{"type":"Polygon","coordinates":[[[-73.9598,4.8124],[-73.8509,4.6872],[-73.7933,4.681],[-73.7933,4.6376],[-73.988,4.6314],[-74.0076,4.6649],[-74.0063,4.8236],[-73.9598,4.8124]]]}},{"type":"Feature","properties":{"cve_ent":"CO25","cve_mun":"386","cvegeo":"CO25386","nombre":"La Mesa"},"geometry":{"type":"Polygon","coordinates":[[[-74.3981,4.717],[-74.3932,4.6996],[-74.4458,4.598],[-74.4776,4.5757],[-74.5572,4.6476],[-74.5095,4.6798],[-74.4372,4.7133],[-74.3981,4.717]]]}},{"type":"Feature","properties":{"cve_ent":"CO25","cve_mun":"394","cvegeo":"CO25394","nombre":"La Palma"},"geometry":{"type":"Polygon","coordinates":[[[-74.365,5.4185],[-74.3577,5.3317],[-74.3552,5.2561],[-74.3981,5.2859],[-74.4568,5.2524],[-74.4923,5.2561],[-74.4385,5.3603],[-74.4225,5.4433],[-74.365,5.4185]]]}},{"type":"Feature","properties":{"cve_ent":"CO25","cve_mun":"398","cvegeo":"CO25398","nombre":"La Peña"},"geometry":{"type":"Polygon","coordinates":[[[-74.3552,5.2561],[-74.3699,5.2004],[-74.4079,5.1198],[-74.447,5.1248],[-74.4568,5.2524],[-74.3981,5.2859],[-74.3552,5.2561]]]}},{"type":"Feature","properties":{"cve_ent":"CO25","cve_mun":"402","cvegeo":"CO25402","nombre":"La Vega"},"geometry":{"type":"Polygon","coordinates":[[[-74.2781,5.0293],[-74.3209,5.0058],[-74.2928,4.9116],[-74.3222,4.8855],[-74.3577,4.8942],[-74.3956,5.0219],[-74.3038,5.0739],[-74.2781,5.0293]]]}},{"type":"Feature","properties":{"cve_ent":"CO25","cve_mun":"407","cvegeo":"CO25407","nombre":"Lenguazaque"},"geometry":{"type":"Polygon","coordinates":[[[-73.6623,5.2425],[-73.6844,5.2289],[-73.7652,5.2983],[-73.7639,5.3243],[-73.6942,5.3293],[-73.5987,5.3788],[-73.5962,5.3652],[-73.6623,5.2425]]]}},{"type":"Feature","properties":{"cve_ent":"CO25","cve_mun":"426","cvegeo":"CO25426","nombre":"Machetá"},"geometry":{"type":"Polygon","coordinates":[[[-73.5375,5.1223],[-73.5412,5.0727],[-73.617,4.9611],[-73.6856,4.9339],[-73.7138,4.9525],[-73.688,4.9835],[-73.617,5.1322],[-73.5375,5.1223]]]}},{"type":"Feature","properties":{"cve_ent":"CO25","cve_mun":"430","cvegeo":"CO25430","nombre":"Madrid"},"geometry":{"type":"Polygon","coordinates":[[[-74.1777,4.8583],[-74.2181,4.7938],[-74.2328,4.7368],[-74.2989,4.717],[-74.3283,4.7653],[-74.261,4.8236],[-74.201,4.857],[-74.1777,4.8583]]]}},{"type":"Feature","properties":{"cve_ent":"CO25","cve_mun":"436","cvegeo":"CO25436","nombre":"Manta"},"geometry":{"type":"Polygon","coordinates":[[[-73.5412,5.0727],[-73.5069,4.9959],[-73.5424,4.914],[-73.617,4.9611],[-73.5412,5.0727]]]}},{"type":"Feature","properties":{"cve_ent":"CO25","cve_mun":"438","cvegeo":"CO25438","nombre":"Medina"},"geometry":{"type":"Polygon","coordinates":[[[-73.2474,4.624],[-73.1959,4.5608],[-73.2033,4.4901],[-73.2547,4.4232],[-73.3661,4.3749],[-73.4273,4.3067],[-73.4726,4.2757],[-73.5509,4.3079],[-73.6024,4.4616],[-73.5681,4.5249],[-73.4689,4.6314],[-73.404,4.6785],[-73.2474,4.624]]]}},{"type":"Feature","properties":{"cve_ent":"CO25","cve_mun":"473","cvegeo":"CO25473","nombre":"Mosquera"},"geometry":{"type":"Polygon","coordinates":[[[-74.1728,4.6959],[-74.223,4.629],[-74.272,4.6191],[-74.2989,4.717],[-74.2328,4.7368],[-74.1728,4.6959]]]}},{"type":"Feature","properties":{"cve_ent":"CO25","cve_mun":"483","cvegeo":"CO25483","nombre":"Nariño"},"geometry":{"type":"Polygon","coordinates":[[[-74.7261,4.4604],[-74.7531,4.4344],[-74.8559,4.3352],[-74.8216,4.4455],[-74.7433,4.4753],[-74.7261,4.4604]]]}},{"type":"Feature","properties":{"cve_ent":"CO25","cve_mun":"486","cvegeo":"CO25486","nombre":"Nemocón"},"geometry":{"type":"Polygon","coordinates":[[[-73.846,5.1545],[-73.8301,5.0962],[-73.8704,5.0479],[-73.9121,5.0281],[-73.9353,5.043],[-73.9059,5.1334],[-73.846,5.1545]]]}},{"type":"Feature","properties":{"cve_ent":"CO25","cve_mun":"488","cvegeo":"CO25488","nombre":"Nilo"},"geometry":{"type":"Polygon","coordinates":[[[-74.5486,4.3637],[-74.4984,4.355],[-74.5523,4.2646],[-74.556,4.267],[-74.6392,4.2113],[-74.731,4.2447],[-74.6612,4.3055],[-74.6649,4.3402],[-74.5976,4.3588],[-74.5486,4.3637]]]}},{"type":"Feature","properties":{"cve_ent":"CO25","cve_mun":"489","cvegeo":"CO25489","nombre":"Nimaima"},"geometry":{"type":"Polygon","coordinates":[[[-74.3405,5.2004],[-74.3748,5.1049],[-74.4274,5.0653],[-74.4482,5.0727],[-74.4507,5.1235],[-74.4079,5.1198],[-74.3699,5.2004],[-74.3405,5.2004]]]}},{"type":"Feature","properties":{"cve_ent":"CO25","cve_mun":"491","cvegeo":"CO25491","nombre":"Nocaima"},"geometry":{"type":"Polygon","coordinates":[[[-74.3748,5.1049],[-74.3417,5.0516],[-74.3956,5.0219],[-74.4127,5.0206],[-74.4274,5.0653],[-74.3748,5.1049]]]}},{"type":"Feature","properties":{"cve_ent":"CO25","cve_mun":"506","cvegeo":"CO25506","nombre":"Venecia"},"geometry":{"type":"Polygon","coordinates":[[[-74.4446,4.1109],[-74.3797,4.0365],[-74.5241,4.0229],[-74.4764,4.1195],[-74.4446,4.1109]]]}},{"type":"Feature","properties":{"cve_ent":"CO25","cve_mun":"513","cvegeo":"CO25513","nombre":"Pacho"},"geometry":{"type":"Polygon","coordinates":[[[-74.1373,5.2351],[-74.0773,5.2301],[-74.0455,5.1694],[-74.0455,5.1582],[-74.0932,5.0665],[-74.1581,5.0442],[-74.3001,5.1929],[-74.2487,5.2772],[-74.2132,5.2958],[-74.2059,5.2239],[-74.1373,5.2351]]]}},{"type":"Feature","properties":{"cve_ent":"CO25","cve_mun":"518","cvegeo":"CO25518","nombre":"Paime"},"geometry":{"type":"Polygon","coordinates":[[[-74.0969,5.4706],[-74.0945,5.4359],[-74.174,5.297],[-74.2206,5.3417],[-74.234,5.3974],[-74.1753,5.4619],[-74.0969,5.4706]]]}},{"type":"Feature","properties":{"cve_ent":"CO25","cve_mun":"524","cvegeo":"CO25524","nombre":"Pandi"},"geometry":{"type":"Polygon","coordinates":[[[-74.4666,4.2175],[-74.4274,4.1518],[-74.4446,4.1109],[-74.4764,4.1195],[-74.5192,4.241],[-74.4666,4.2175]]]}},{"type":"Feature","properties":{"cve_ent":"CO25","cve_mun":"530","cvegeo":"CO25530","nombre":"Paratebueno"},"geometry":{"type":"Polygon","coordinates":[[[-73.0527,4.7368],[-73.1249,4.2571],[-73.3539,4.3216],[-73.4273,4.3067],[-73.3661,4.3749],[-73.2547,4.4232],[-73.2033,4.4901],[-73.1959,4.5608],[-73.2474,4.624],[-73.2204,4.6761],[-73.2082,4.681],[-73.1029,4.6612],[-73.0527,4.7368]]]}},{"type":"Feature","properties":{"cve_ent":"CO25","cve_mun":"535","cvegeo":"CO25535","nombre":"Pasca"},"geometry":{"type":"Polygon","coordinates":[[[-74.2365,4.4009],[-74.2144,4.3811],[-74.2377,4.1952],[-74.3356,4.2274],[-74.3515,4.2956],[-74.3197,4.386],[-74.283,4.3798],[-74.2365,4.4009]]]}},{"type":"Feature","properties":{"cve_ent":"CO25","cve_mun":"572","cvegeo":"CO25572","nombre":"Puerto Salgar"},"geometry":{"type":"Polygon","coordinates":[[[-74.4862,5.7705],[-74.4874,5.6466],[-74.5401,5.5549],[-74.5902,5.4817],[-74.6147,5.3875],[-74.6502,5.4421],[-74.6747,5.5164],[-74.627,5.6974],[-74.6612,5.7519],[-74.5927,5.747],[-74.5303,5.7904],[-74.4862,5.7705]]]}},{"type":"Feature","properties":{"cve_ent":"CO25","cve_mun":"580","cvegeo":"CO25580","nombre":"Pulí"},"geometry":{"type":"Polygon","coordinates":[[[-74.6845,4.7579],[-74.5902,4.743],[-74.6086,4.6513],[-74.7335,4.6215],[-74.7629,4.6835],[-74.7347,4.7542],[-74.6845,4.7579]]]}},{"type":"Feature","properties":{"cve_ent":"CO25","cve_mun":"592","cvegeo":"CO25592","nombre":"Quebradanegra"},"geometry":{"type":"Polygon","coordinates":[[[-74.4507,5.1235],[-74.4482,5.0727],[-74.5413,5.0653],[-74.5254,5.1347],[-74.4507,5.1235]]]}},{"type":"Feature","properties":{"cve_ent":"CO25","cve_mun":"594","cvegeo":"CO25594","nombre":"Quetame"},"geometry":{"type":"Polygon","coordinates":[[[-73.8092,4.3959],[-73.7921,4.3526],[-73.8325,4.2782],[-73.9011,4.2708],[-73.8962,4.3488],[-73.8753,4.386],[-73.8092,4.3959]]]}},{"type":"Feature","properties":{"cve_ent":"CO25","cve_mun":"596","cvegeo":"CO25596","nombre":"Quipile"},"geometry":{"type":"Polygon","coordinates":[[[-74.5241,4.7938],[-74.5107,4.7281],[-74.5095,4.6798],[-74.5572,4.6476],[-74.5902,4.6339],[-74.6086,4.6513],[-74.5902,4.743],[-74.5633,4.7963],[-74.5241,4.7938]]]}},{"type":"Feature","properties":{"cve_ent":"CO25","cve_mun":"599","cvegeo":"CO25599","nombre":"Apulo"},"geometry":{"type":"Polygon","coordinates":[[[-74.5021,4.484],[-74.5621,4.4468],[-74.6209,4.505],[-74.5976,4.6265],[-74.5645,4.5323],[-74.5021,4.484]]]}},{"type":"Feature","properties":{"cve_ent":"CO25","cve_mun":"612","cvegeo":"CO25612","nombre":"Ricaurte"},"geometry":{"type":"Polygon","coordinates":[[[-74.7359,4.3811],[-74.6649,4.3402],[-74.6612,4.3055],[-74.7445,4.2361],[-74.7445,4.2472],[-74.7812,4.2646],[-74.7971,4.2881],[-74.7433,4.3811],[-74.7359,4.3811]]]}},{"type":"Feature","properties":{"cve_ent":"CO25","cve_mun":"645","cvegeo":"CO25645","nombre":"San Antonio del Tequendama"},"geometry":{"type":"Polygon","coordinates":[[[-74.3062,4.6203],[-74.3038,4.5546],[-74.3638,4.5571],[-74.3944,4.6228],[-74.3442,4.6538],[-74.3062,4.6203]]]}},{"type":"Feature","properties":{"cve_ent":"CO25","cve_mun":"649","cvegeo":"CO25649","nombre":"San Bernardo"},"geometry":{"type":"Polygon","coordinates":[[[-74.2401,4.1865],[-74.245,4.1034],[-74.3246,4.127],[-74.365,4.0353],[-74.3797,4.0365],[-74.4446,4.1109],[-74.4274,4.1518],[-74.4666,4.2175],[-74.2977,4.1766],[-74.2401,4.1865]]]}},{"type":"Feature","properties":{"cve_ent":"CO25","cve_mun":"653","cvegeo":"CO25653","nombre":"San Cayetano"},"geometry":{"type":"Polygon","coordinates":[[[-73.999,5.3677],[-73.9745,5.3194],[-73.9953,5.2586],[-74.0773,5.2301],[-74.1373,5.2351],[-74.174,5.297],[-74.0945,5.4359],[-73.999,5.3677]]]}},{"type":"Feature","properties":{"cve_ent":"CO25","cve_mun":"658","cvegeo":"CO25658","nombre":"San Francisco"},"geometry":{"type":"Polygon","coordinates":[[[-74.2144,4.9971],[-74.2303,4.945],[-74.2842,4.8756],[-74.3222,4.8855],[-74.2928,4.9116],[-74.3209,5.0058],[-74.2781,5.0293],[-74.2144,4.9971]]]}},{"type":"Feature","properties":{"cve_ent":"CO25","cve_mun":"662","cvegeo":"CO25662","nombre":"San Juan de Rioseco"},"geometry":{"type":"Polygon","coordinates":[[[-74.5768,4.8893],[-74.5633,4.7963],[-74.5902,4.743],[-74.6845,4.7579],[-74.7016,4.836],[-74.769,4.8422],[-74.7494,4.9525],[-74.7274,4.9773],[-74.6441,4.8967],[-74.5768,4.8893]]]}},{"type":"Feature","properties":{"cve_ent":"CO25","cve_mun":"718","cvegeo":"CO25718","nombre":"Sasaima"},"geometry":{"type":"Polygon","coordinates":[[[-74.3577,4.8942],[-74.403,4.8806],[-74.4801,4.9525],[-74.4127,5.0206],[-74.3956,5.0219],[-74.3577,4.8942]]]}},{"type":"Feature","properties":{"cve_ent":"CO25","cve_mun":"736","cvegeo":"CO25736","nombre":"Sesquilé"},"geometry":{"type":"Polygon","coordinates":[[[-73.7603,5.0516],[-73.688,4.9835],[-73.7138,4.9525],[-73.8558,4.9897],[-73.8558,5.0355],[-73.8105,5.0826],[-73.7603,5.0516]]]}},{"type":"Feature","properties":{"cve_ent":"CO25","cve_mun":"740","cvegeo":"CO25740","nombre":"Sibaté"},"geometry":{"type":"Polygon","coordinates":[[[-74.2365,4.4009],[-74.283,4.3798],[-74.3001,4.4269],[-74.3026,4.5038],[-74.2842,4.5125],[-74.2181,4.5162],[-74.2365,4.4009]]]}},{"type":"Feature","properties":{"cve_ent":"CO25","cve_mun":"743","cvegeo":"CO25743","nombre":"Silvania"},"geometry":{"type":"Polygon","coordinates":[[[-74.3001,4.4269],[-74.3883,4.3984],[-74.4201,4.3588],[-74.4519,4.386],[-74.3981,4.4914],[-74.3026,4.5038],[-74.3001,4.4269]]]}},{"type":"Feature","properties":{"cve_ent":"CO25","cve_mun":"745","cvegeo":"CO25745","nombre":"Simijaca"},"geometry":{"type":"Polygon","coordinates":[[[-73.7897,5.5524],[-73.7872,5.5102],[-73.8668,5.4619],[-73.9023,5.4668],[-73.9108,5.5239],[-73.8484,5.5462],[-73.7897,5.5524]]]}},{"type":"Feature","properties":{"cve_ent":"CO25","cve_mun":"754","cvegeo":"CO25754","nombre":"Soacha"},"geometry":{"type":"Polygon","coordinates":[[[-74.223,4.629],[-74.1838,4.5967],[-74.1777,4.4864],[-74.2144,4.3811],[-74.2365,4.4009],[-74.2181,4.5162],[-74.2842,4.5125],[-74.3038,4.5546],[-74.3062,4.6203],[-74.272,4.6191],[-74.223,4.629]]]}},{"type":"Feature","properties":{"cve_ent":"CO25","cve_mun":"758","cvegeo":"CO25758","nombre":"Sopó"},"geometry":{"type":"Polygon","coordinates":[[[-73.9916,4.9723],[-73.9157,4.914],[-73.9598,4.8124],[-74.0063,4.8236],[-74.0063,4.9178],[-73.9978,4.9735],[-73.9916,4.9723]]]}},{"type":"Feature","properties":{"cve_ent":"CO25","cve_mun":"769","cvegeo":"CO25769","nombre":"Subachoque"},"geometry":{"type":"Polygon","coordinates":[[[-74.0932,5.0665],[-74.0871,5.0107],[-74.1287,4.9041],[-74.1777,4.8583],[-74.201,4.857],[-74.2303,4.945],[-74.2144,4.9971],[-74.1581,5.0442],[-74.0932,5.0665]]]}},{"type":"Feature","properties":{"cve_ent":"CO25","cve_mun":"772","cvegeo":"CO25772","nombre":"Suesca"},"geometry":{"type":"Polygon","coordinates":[[[-73.6844,5.2289],[-73.7333,5.157],[-73.7603,5.0516],[-73.8105,5.0826],[-73.8558,5.0355],[-73.8704,5.0479],[-73.8301,5.0962],[-73.846,5.1545],[-73.8386,5.1644],[-73.7493,5.219],[-73.6844,5.2289]]]}},{"type":"Feature","properties":{"cve_ent":"CO25","cve_mun":"777","cvegeo":"CO25777","nombre":"Supatá"},"geometry":{"type":"Polygon","coordinates":[[[-74.1581,5.0442],[-74.2144,4.9971],[-74.2781,5.0293],[-74.3038,5.0739],[-74.2267,5.1186],[-74.1581,5.0442]]]}},{"type":"Feature","properties":{"cve_ent":"CO25","cve_mun":"779","cvegeo":"CO25779","nombre":"Susa"},"geometry":{"type":"Polygon","coordinates":[[[-73.7431,5.4706],[-73.8252,5.3739],[-73.8398,5.3677],[-73.8668,5.4619],[-73.7872,5.5102],[-73.7431,5.4706]]]}},{"type":"Feature","properties":{"cve_ent":"CO25","cve_mun":"781","cvegeo":"CO25781","nombre":"Sutatausa"},"geometry":{"type":"Polygon","coordinates":[[[-73.8043,5.2586],[-73.8472,5.1942],[-73.8974,5.2524],[-73.8668,5.2822],[-73.8043,5.2586]]]}},{"type":"Feature","properties":{"cve_ent":"CO25","cve_mun":"785","cvegeo":"CO25785","nombre":"Tabio"},"geometry":{"type":"Polygon","coordinates":[[[-74.0333,4.9636],[-74.0773,4.9116],[-74.0822,4.893],[-74.1287,4.9041],[-74.0871,5.0107],[-74.0333,4.9636]]]}},{"type":"Feature","properties":{"cve_ent":"CO25","cve_mun":"793","cvegeo":"CO25793","nombre":"Tausa"},"geometry":{"type":"Polygon","coordinates":[[[-73.9953,5.2586],[-73.9525,5.2053],[-73.8974,5.2524],[-73.8472,5.1942],[-73.8386,5.1644],[-73.846,5.1545],[-73.9059,5.1334],[-74.0455,5.1694],[-74.0773,5.2301],[-73.9953,5.2586]]]}},{"type":"Feature","properties":{"cve_ent":"CO25","cve_mun":"797","cvegeo":"CO25797","nombre":"Tena"},"geometry":{"type":"Polygon","coordinates":[[[-74.3442,4.6538],[-74.3944,4.6228],[-74.4458,4.598],[-74.3932,4.6996],[-74.3442,4.6538]]]}},{"type":"Feature","properties":{"cve_ent":"CO25","cve_mun":"799","cvegeo":"CO25799","nombre":"Tenjo"},"geometry":{"type":"Polygon","coordinates":[[[-74.0822,4.893],[-74.0945,4.8484],[-74.163,4.7504],[-74.2181,4.7938],[-74.1777,4.8583],[-74.1287,4.9041],[-74.0822,4.893]]]}},{"type":"Feature","properties":{"cve_ent":"CO25","cve_mun":"805","cvegeo":"CO25805","nombre":"Tibacuy"},"geometry":{"type":"Polygon","coordinates":[[[-74.4201,4.3588],[-74.4825,4.2894],[-74.5499,4.2608],[-74.5523,4.2646],[-74.4984,4.355],[-74.4519,4.386],[-74.4201,4.3588]]]}},{"type":"Feature","properties":{"cve_ent":"CO25","cve_mun":"807","cvegeo":"CO25807","nombre":"Tibirita"},"geometry":{"type":"Polygon","coordinates":[[[-73.4922,5.1285],[-73.4799,5.0628],[-73.5228,5.0293],[-73.5412,5.0727],[-73.5363,5.1322],[-73.4922,5.1285]]]}},{"type":"Feature","properties":{"cve_ent":"CO25","cve_mun":"815","cvegeo":"CO25815","nombre":"Tocaima"},"geometry":{"type":"Polygon","coordinates":[[[-74.5621,4.4468],[-74.5486,4.3637],[-74.5976,4.3588],[-74.6772,4.4158],[-74.7359,4.3811],[-74.7433,4.3811],[-74.7531,4.4344],[-74.6319,4.5608],[-74.6,4.6191],[-74.6209,4.505],[-74.5621,4.4468]]]}},{"type":"Feature","properties":{"cve_ent":"CO25","cve_mun":"817","cvegeo":"CO25817","nombre":"Tocancipá"},"geometry":{"type":"Polygon","coordinates":[[[-73.8741,4.9636],[-73.9157,4.914],[-73.9916,4.9723],[-73.9121,5.0281],[-73.8741,4.9636]]]}},{"type":"Feature","properties":{"cve_ent":"CO25","cve_mun":"823","cvegeo":"CO25823","nombre":"Topaipí"},"geometry":{"type":"Polygon","coordinates":[[[-74.234,5.3974],[-74.2206,5.3417],[-74.2132,5.2958],[-74.2487,5.2772],[-74.3577,5.3317],[-74.365,5.4185],[-74.3062,5.3888],[-74.234,5.3974]]]}},{"type":"Feature","properties":{"cve_ent":"CO25","cve_mun":"839","cvegeo":"CO25839","nombre":"Ubalá"},"geometry":{"type":"MultiPolygon","coordinates":[[[[-73.2204,4.6761],[-73.2474,4.624],[-73.404,4.6785],[-73.3845,4.7579],[-73.3245,4.7802],[-73.3061,4.7318],[-73.2229,4.7331],[-73.2204,4.6761]]],[[[-73.4469,4.8893],[-73.4016,4.8793],[-73.3722,4.8013],[-73.4151,4.7517],[-73.535,4.7157],[-73.5913,4.7789],[-73.5546,4.7913],[-73.5203,4.8793],[-73.4469,4.8893]]]]}},{"type":"Feature","properties":{"cve_ent":"CO25","cve_mun":"841","cvegeo":"CO25841","nombre":"Ubaque"},"geometry":{"type":"Polygon","coordinates":[[[-74.0051,4.5608],[-73.9586,4.5087],[-73.9047,4.5001],[-73.9035,4.4406],[-73.9733,4.4579],[-74.0479,4.5125],[-74.0051,4.5608]]]}},{"type":"Feature","properties":{"cve_ent":"CO25","cve_mun":"843","cvegeo":"CO25843","nombre":"Villa de San Diego de Ubaté"},"geometry":{"type":"Polygon","coordinates":[[[-73.7737,5.3516],[-73.7639,5.3243],[-73.7652,5.2983],[-73.8043,5.2586],[-73.8668,5.2822],[-73.8398,5.3677],[-73.8252,5.3739],[-73.7737,5.3516]]]}},{"type":"Feature","properties":{"cve_ent":"CO25","cve_mun":"845","cvegeo":"CO25845","nombre":"Une"},"geometry":{"type":"Polygon","coordinates":[[[-73.9904,4.4183],[-73.9916,4.355],[-74.0431,4.2968],[-74.1104,4.1815],[-74.152,4.2559],[-74.119,4.3104],[-73.9904,4.4183]]]}},{"type":"Feature","properties":{"cve_ent":"CO25","cve_mun":"851","cvegeo":"CO25851","nombre":"Útica"},"geometry":{"type":"Polygon","coordinates":[[[-74.4568,5.2524],[-74.447,5.1248],[-74.5254,5.1347],[-74.5144,5.1942],[-74.4923,5.2561],[-74.4568,5.2524]]]}},{"type":"Feature","properties":{"cve_ent":"CO25","cve_mun":"862","cvegeo":"CO25862","nombre":"Vergara"},"geometry":{"type":"Polygon","coordinates":[[[-74.3001,5.1929],[-74.2267,5.1186],[-74.3417,5.0516],[-74.3748,5.1049],[-74.3405,5.2004],[-74.3001,5.1929]]]}},{"type":"Feature","properties":{"cve_ent":"CO25","cve_mun":"867","cvegeo":"CO25867","nombre":"Vianí"},"geometry":{"type":"Polygon","coordinates":[[[-74.5168,4.9438],[-74.5596,4.7963],[-74.5633,4.7963],[-74.5768,4.8893],[-74.5523,4.9649],[-74.5352,4.9661],[-74.5168,4.9438]]]}},{"type":"Feature","properties":{"cve_ent":"CO25","cve_mun":"871","cvegeo":"CO25871","nombre":"Villagómez"},"geometry":{"type":"Polygon","coordinates":[[[-74.174,5.297],[-74.1373,5.2351],[-74.2059,5.2239],[-74.2206,5.3417],[-74.174,5.297]]]}},{"type":"Feature","properties":{"cve_ent":"CO25","cve_mun":"873","cvegeo":"CO25873","nombre":"Villapinzón"},"geometry":{"type":"Polygon","coordinates":[[[-73.5485,5.2995],[-73.5142,5.2326],[-73.4775,5.1483],[-73.4922,5.1285],[-73.5363,5.1322],[-73.6268,5.188],[-73.6623,5.2425],[-73.5962,5.3652],[-73.5485,5.2995]]]}},{"type":"Feature","properties":{"cve_ent":"CO25","cve_mun":"875","cvegeo":"CO25875","nombre":"Villeta"},"geometry":{"type":"Polygon","coordinates":[[[-74.4274,5.0653],[-74.4127,5.0206],[-74.4801,4.9525],[-74.4825,4.9388],[-74.5168,4.9438],[-74.5352,4.9661],[-74.5413,5.0653],[-74.4482,5.0727],[-74.4274,5.0653]]]}},{"type":"Feature","properties":{"cve_ent":"CO25","cve_mun":"878","cvegeo":"CO25878","nombre":"Viotá"},"geometry":{"type":"Polygon","coordinates":[[[-74.3944,4.5001],[-74.4519,4.386],[-74.4984,4.355],[-74.5486,4.3637],[-74.5621,4.4468],[-74.5021,4.484],[-74.4691,4.4963],[-74.3944,4.5001]]]}},{"type":"Feature","properties":{"cve_ent":"CO25","cve_mun":"885","cvegeo":"CO25885","nombre":"Yacopí"},"geometry":{"type":"Polygon","coordinates":[[[-74.2965,5.7643],[-74.2805,5.6986],[-74.3062,5.6379],[-74.2916,5.5697],[-74.2401,5.5387],[-74.2548,5.4978],[-74.2157,5.4978],[-74.1777,5.4594],[-74.234,5.3974],[-74.3062,5.3888],[-74.4225,5.4433],[-74.4531,5.5549],[-74.5401,5.5549],[-74.4874,5.6466],[-74.4862,5.7705],[-74.4323,5.7581],[-74.3344,5.8275],[-74.2965,5.7643]]]}},{"type":"Feature","properties":{"cve_ent":"CO25","cve_mun":"898","cvegeo":"CO25898","nombre":"Zipacón"},"geometry":{"type":"Polygon","coordinates":[[[-74.3466,4.7628],[-74.3981,4.717],[-74.4372,4.7133],[-74.4066,4.7827],[-74.3944,4.8037],[-74.3466,4.7628]]]}},{"type":"Feature","properties":{"cve_ent":"CO25","cve_mun":"899","cvegeo":"CO25899","nombre":"Zipaquirá"},"geometry":{"type":"Polygon","coordinates":[[[-74.0455,5.1582],[-74.0076,5.1272],[-74.0137,5.0491],[-73.9353,5.043],[-73.9121,5.0281],[-73.9916,4.9723],[-73.9978,4.9735],[-74.0333,4.9636],[-74.0871,5.0107],[-74.0932,5.0665],[-74.0455,5.1582]]]}}]}