{"type":"FeatureCollection","features":[{"type":"Feature","properties":{"cve_ent":"CO47","cve_mun":"001","cvegeo":"CO47001","nombre":"Santa Marta"},"geometry":{"type":"Polygon","coordinates":[[[-73.5754,11.2601],[-73.584,11.1895],[-73.6281,11.1424],[-73.6648,10.9899],[-73.5987,10.8362],[-73.6513,10.8238],[-73.7652,10.8759],[-73.8558,10.8647],[-73.8802,10.8932],[-73.8704,10.9899],[-73.9855,11.0172],[-74.1067,11.0767],[-74.2144,11.0754],[-74.2377,11.2217],[-74.1459,11.3357],[-74.0773,11.3171],[-73.9794,11.3395],[-73.857,11.2738],[-73.6611,11.2527],[-73.5754,11.2601]]]}},{"type":"Feature","properties":{"cve_ent":"CO47","cve_mun":"030","cvegeo":"CO47030","nombre":"Algarrobo"},"geometry":{"type":"Polygon","coordinates":[[[-73.9782,10.2772],[-74.0651,10.1669],[-74.0737,10.0516],[-74.1153,10.1297],[-74.1275,10.2066],[-74.1948,10.1867],[-74.19,10.2946],[-74.1581,10.3566],[-74.1104,10.3925],[-74.0577,10.3243],[-73.9782,10.2772]]]}},{"type":"Feature","properties":{"cve_ent":"CO47","cve_mun":"053","cvegeo":"CO47053","nombre":"Aracataca"},"geometry":{"type":"Polygon","coordinates":[[[-73.5987,10.8362],[-73.562,10.7408],[-73.617,10.6454],[-73.6819,10.5921],[-73.8398,10.509],[-73.9659,10.4892],[-74.0308,10.426],[-74.2157,10.5363],[-74.1887,10.5549],[-74.2573,10.6652],[-74.2193,10.6627],[-74.152,10.6367],[-74.0883,10.6193],[-73.9855,10.7123],[-73.8986,10.7532],[-73.7652,10.8759],[-73.6513,10.8238],[-73.5987,10.8362]]]}},{"type":"Feature","properties":{"cve_ent":"CO47","cve_mun":"058","cvegeo":"CO47058","nombre":"Ariguaní"},"geometry":{"type":"Polygon","coordinates":[[[-73.8386,9.7852],[-73.8398,9.7368],[-73.9672,9.7517],[-74.0945,9.7034],[-74.1777,9.6191],[-74.1985,9.7294],[-74.2671,9.7715],[-74.2683,9.8794],[-74.2475,9.9711],[-74.1532,9.9723],[-74.0345,9.9983],[-73.9586,9.9314],[-73.8974,9.8372],[-73.8386,9.7852]]]}},{"type":"Feature","properties":{"cve_ent":"CO47","cve_mun":"161","cvegeo":"CO47161","nombre":"Cerro de San Antonio"},"geometry":{"type":"Polygon","coordinates":[[[-74.7016,10.2748],[-74.7163,10.2487],[-74.8436,10.271],[-74.8767,10.214],[-74.9159,10.2388],[-74.8681,10.3404],[-74.8632,10.3665],[-74.7494,10.3194],[-74.7016,10.2748]]]}},{"type":"Feature","properties":{"cve_ent":"CO47","cve_mun":"170","cvegeo":"CO47170","nombre":"Chivolo"},"geometry":{"type":"Polygon","coordinates":[[[-74.496,10.2326],[-74.3932,10.1384],[-74.4421,10.0169],[-74.5425,10.0293],[-74.5547,9.9475],[-74.6612,10.012],[-74.6196,10.0864],[-74.6331,10.1434],[-74.5866,10.219],[-74.496,10.2326]]]}},{"type":"Feature","properties":{"cve_ent":"CO47","cve_mun":"189","cvegeo":"CO47189","nombre":"Ciénaga"},"geometry":{"type":"Polygon","coordinates":[[[-73.7652,10.8759],[-73.8986,10.7532],[-73.9855,10.7123],[-74.0883,10.6193],[-74.152,10.6367],[-74.0871,10.7557],[-74.1092,10.8709],[-74.1667,10.9565],[-74.2267,10.928],[-74.2658,10.866],[-74.2646,11.006],[-74.2144,11.0754],[-74.1067,11.0767],[-73.9855,11.0172],[-73.8704,10.9899],[-73.8802,10.8932],[-73.8558,10.8647],[-73.7652,10.8759]]]}},{"type":"Feature","properties":{"cve_ent":"CO47","cve_mun":"205","cvegeo":"CO47205","nombre":"Concordia"},"geometry":{"type":"Polygon","coordinates":[[[-74.7163,10.2487],[-74.6931,10.2252],[-74.7543,10.1806],[-74.8277,10.2351],[-74.8767,10.214],[-74.8436,10.271],[-74.7163,10.2487]]]}},{"type":"Feature","properties":{"cve_ent":"CO47","cve_mun":"245","cvegeo":"CO47245","nombre":"El Banco"},"geometry":{"type":"Polygon","coordinates":[[[-73.7994,9.0588],[-73.868,8.9361],[-73.9782,8.9845],[-74.0039,9.0303],[-74.1006,9.0192],[-74.1753,9.0886],[-74.0945,9.1605],[-74.0871,9.2162],[-73.9892,9.3513],[-73.9427,9.2894],[-73.9623,9.1877],[-73.8913,9.1741],[-73.8643,9.1121],[-73.7994,9.0588]]]}},{"type":"Feature","properties":{"cve_ent":"CO47","cve_mun":"258","cvegeo":"CO47258","nombre":"El Piñón"},"geometry":{"type":"Polygon","coordinates":[[[-74.496,10.2326],[-74.5866,10.219],[-74.7016,10.2748],[-74.7494,10.3194],[-74.8632,10.3665],[-74.8118,10.4508],[-74.6845,10.4706],[-74.5743,10.364],[-74.496,10.2326]]]}},{"type":"Feature","properties":{"cve_ent":"CO47","cve_mun":"268","cvegeo":"CO47268","nombre":"El Retén"},"geometry":{"type":"Polygon","coordinates":[[[-74.2573,10.6652],[-74.1887,10.5549],[-74.2157,10.5363],[-74.2438,10.5574],[-74.3099,10.6243],[-74.3748,10.6218],[-74.4495,10.6714],[-74.4274,10.7234],[-74.3748,10.7445],[-74.2573,10.6652]]]}},{"type":"Feature","properties":{"cve_ent":"CO47","cve_mun":"288","cvegeo":"CO47288","nombre":"Fundación"},"geometry":{"type":"Polygon","coordinates":[[[-73.7921,10.3925],[-73.8925,10.3913],[-73.9537,10.3392],[-73.9782,10.2772],[-74.0577,10.3243],[-74.1104,10.3925],[-74.1581,10.3566],[-74.1802,10.3826],[-74.1961,10.4817],[-74.2438,10.5574],[-74.2157,10.5363],[-74.0308,10.426],[-73.9659,10.4892],[-73.8398,10.509],[-73.6819,10.5921],[-73.617,10.6454],[-73.5632,10.5041],[-73.6403,10.5003],[-73.6599,10.4557],[-73.7419,10.4346],[-73.7921,10.3925]]]}},{"type":"Feature","properties":{"cve_ent":"CO47","cve_mun":"318","cvegeo":"CO47318","nombre":"Guamal"},"geometry":{"type":"Polygon","coordinates":[[[-73.9818,9.3861],[-73.9892,9.3513],[-74.0871,9.2162],[-74.0945,9.1605],[-74.1753,9.0886],[-74.2487,9.1642],[-74.2977,9.1766],[-74.3001,9.2039],[-74.2365,9.2497],[-74.1863,9.3328],[-74.1385,9.3315],[-74.0639,9.4034],[-73.9818,9.3861]]]}},{"type":"Feature","properties":{"cve_ent":"CO47","cve_mun":"460","cvegeo":"CO47460","nombre":"Nueva Granada"},"geometry":{"type":"Polygon","coordinates":[[[-74.2683,9.8794],[-74.2671,9.7715],[-74.1985,9.7294],[-74.1777,9.6191],[-74.2169,9.5819],[-74.3013,9.5943],[-74.3503,9.5695],[-74.4507,9.6092],[-74.4115,9.7554],[-74.4801,9.8335],[-74.4103,9.9017],[-74.4005,9.9525],[-74.3283,9.9314],[-74.2683,9.8794]]]}},{"type":"Feature","properties":{"cve_ent":"CO47","cve_mun":"541","cvegeo":"CO47541","nombre":"Pedraza"},"geometry":{"type":"Polygon","coordinates":[[[-74.8767,10.214],[-74.8277,10.2351],[-74.7543,10.1806],[-74.6931,10.2252],[-74.7739,10.0975],[-74.8253,10.0591],[-74.9453,10.1285],[-74.9159,10.2388],[-74.8767,10.214]]]}},{"type":"Feature","properties":{"cve_ent":"CO47","cve_mun":"545","cvegeo":"CO47545","nombre":"Pijiño del Carmen"},"geometry":{"type":"Polygon","coordinates":[[[-73.8105,9.6736],[-73.8031,9.6364],[-73.868,9.6005],[-74.0369,9.5918],[-74.1398,9.4939],[-74.1863,9.484],[-74.2891,9.3774],[-74.4801,9.303],[-74.4752,9.4009],[-74.3919,9.4356],[-74.2928,9.4381],[-74.1973,9.5683],[-74.13,9.5794],[-74.0112,9.6637],[-73.9598,9.7319],[-73.9035,9.6711],[-73.8105,9.6736]]]}},{"type":"Feature","properties":{"cve_ent":"CO47","cve_mun":"551","cvegeo":"CO47551","nombre":"Pivijay"},"geometry":{"type":"Polygon","coordinates":[[[-74.2438,10.5574],[-74.1961,10.4817],[-74.1802,10.3826],[-74.2683,10.2698],[-74.376,10.2153],[-74.4176,10.2636],[-74.4654,10.2029],[-74.496,10.2326],[-74.5743,10.364],[-74.6845,10.4706],[-74.6686,10.5635],[-74.5609,10.54],[-74.4911,10.5635],[-74.4348,10.6292],[-74.4495,10.6714],[-74.3748,10.6218],[-74.3099,10.6243],[-74.2438,10.5574]]]}},{"type":"Feature","properties":{"cve_ent":"CO47","cve_mun":"555","cvegeo":"CO47555","nombre":"Plato"},"geometry":{"type":"Polygon","coordinates":[[[-74.4421,10.0169],[-74.4005,9.9525],[-74.4103,9.9017],[-74.4801,9.8335],[-74.4115,9.7554],[-74.4507,9.6092],[-74.5217,9.5658],[-74.5633,9.6414],[-74.6649,9.6451],[-74.6612,9.5782],[-74.7629,9.5397],[-74.7775,9.5075],[-74.8057,9.5534],[-74.7726,9.6042],[-74.791,9.6525],[-74.8057,9.7604],[-74.84,9.81],[-74.6931,9.8893],[-74.5792,9.8868],[-74.5547,9.9475],[-74.5425,10.0293],[-74.4421,10.0169]]]}},{"type":"Feature","properties":{"cve_ent":"CO47","cve_mun":"570","cvegeo":"CO47570","nombre":"Puebloviejo"},"geometry":{"type":"Polygon","coordinates":[[[-74.2646,11.006],[-74.2671,10.799],[-74.2193,10.6627],[-74.2573,10.6652],[-74.3748,10.7445],[-74.4274,10.7234],[-74.4789,10.8251],[-74.485,10.9812],[-74.3564,10.9763],[-74.2646,11.006]]]}},{"type":"Feature","properties":{"cve_ent":"CO47","cve_mun":"605","cvegeo":"CO47605","nombre":"Remolino"},"geometry":{"type":"Polygon","coordinates":[[[-74.4274,10.7234],[-74.4495,10.6714],[-74.4348,10.6292],[-74.4911,10.5635],[-74.5609,10.54],[-74.6686,10.5635],[-74.7261,10.6007],[-74.7469,10.6516],[-74.7261,10.7272],[-74.6037,10.7234],[-74.4984,10.7532],[-74.4274,10.7234]]]}},{"type":"Feature","properties":{"cve_ent":"CO47","cve_mun":"660","cvegeo":"CO47660","nombre":"Sabanas de San Ángel"},"geometry":{"type":"Polygon","coordinates":[[[-74.1802,10.3826],[-74.1581,10.3566],[-74.19,10.2946],[-74.1948,10.1867],[-74.1275,10.2066],[-74.1153,10.1297],[-74.0737,10.0516],[-74.0357,10.0045],[-74.0345,9.9983],[-74.1532,9.9723],[-74.2475,9.9711],[-74.2683,9.8794],[-74.3283,9.9314],[-74.4005,9.9525],[-74.4421,10.0169],[-74.3932,10.1384],[-74.4654,10.2029],[-74.4176,10.2636],[-74.376,10.2153],[-74.2683,10.2698],[-74.1802,10.3826]]]}},{"type":"Feature","properties":{"cve_ent":"CO47","cve_mun":"675","cvegeo":"CO47675","nombre":"Salamina"},"geometry":{"type":"Polygon","coordinates":[[[-74.6686,10.5635],[-74.6845,10.4706],[-74.8118,10.4508],[-74.8069,10.483],[-74.7445,10.5388],[-74.7261,10.6007],[-74.6686,10.5635]]]}},{"type":"Feature","properties":{"cve_ent":"CO47","cve_mun":"692","cvegeo":"CO47692","nombre":"San Sebastián de Buenavista"},"geometry":{"type":"Polygon","coordinates":[[[-74.1398,9.4939],[-73.9782,9.3898],[-73.9818,9.3861],[-74.0639,9.4034],[-74.1385,9.3315],[-74.1863,9.3328],[-74.2365,9.2497],[-74.3001,9.2039],[-74.3919,9.215],[-74.4176,9.2361],[-74.2438,9.3501],[-74.1863,9.484],[-74.1398,9.4939]]]}},{"type":"Feature","properties":{"cve_ent":"CO47","cve_mun":"703","cvegeo":"CO47703","nombre":"San Zenón"},"geometry":{"type":"Polygon","coordinates":[[[-74.4176,9.2361],[-74.4397,9.2745],[-74.5303,9.2423],[-74.5315,9.2559],[-74.4801,9.303],[-74.2891,9.3774],[-74.1863,9.484],[-74.2438,9.3501],[-74.4176,9.2361]]]}},{"type":"Feature","properties":{"cve_ent":"CO47","cve_mun":"707","cvegeo":"CO47707","nombre":"Santa Ana"},"geometry":{"type":"Polygon","coordinates":[[[-73.8398,9.7368],[-73.8105,9.6736],[-73.9035,9.6711],[-73.9598,9.7319],[-74.0112,9.6637],[-74.13,9.5794],[-74.1973,9.5683],[-74.2928,9.4381],[-74.3919,9.4356],[-74.4752,9.4009],[-74.4801,9.303],[-74.5315,9.2559],[-74.5645,9.3117],[-74.6564,9.3836],[-74.6294,9.391],[-74.5217,9.5658],[-74.4507,9.6092],[-74.3503,9.5695],[-74.3013,9.5943],[-74.2169,9.5819],[-74.0945,9.7034],[-73.9672,9.7517],[-73.8398,9.7368]]]}},{"type":"Feature","properties":{"cve_ent":"CO47","cve_mun":"720","cvegeo":"CO47720","nombre":"Santa Bárbara de Pinto"},"geometry":{"type":"Polygon","coordinates":[[[-74.5217,9.5658],[-74.6294,9.391],[-74.6564,9.3836],[-74.7396,9.4257],[-74.8008,9.4418],[-74.7775,9.5075],[-74.7629,9.5397],[-74.6612,9.5782],[-74.6649,9.6451],[-74.5633,9.6414],[-74.5217,9.5658]]]}},{"type":"Feature","properties":{"cve_ent":"CO47","cve_mun":"745","cvegeo":"CO47745","nombre":"Sitionuevo"},"geometry":{"type":"Polygon","coordinates":[[[-74.485,10.9812],[-74.4789,10.8251],[-74.4274,10.7234],[-74.4984,10.7532],[-74.6037,10.7234],[-74.7261,10.7272],[-74.7249,10.7718],[-74.7408,10.835],[-74.7384,10.8759],[-74.7567,10.9453],[-74.7641,10.9949],[-74.8436,11.0668],[-74.8522,11.1052],[-74.5988,11.0085],[-74.485,10.9812]]]}},{"type":"Feature","properties":{"cve_ent":"CO47","cve_mun":"798","cvegeo":"CO47798","nombre":"Tenerife"},"geometry":{"type":"Polygon","coordinates":[[[-74.6612,10.012],[-74.5547,9.9475],[-74.5792,9.8868],[-74.6931,9.8893],[-74.84,9.81],[-74.8828,9.8719],[-74.862,9.9438],[-74.7898,10.0132],[-74.6612,10.012]]]}},{"type":"Feature","properties":{"cve_ent":"CO47","cve_mun":"960","cvegeo":"CO47960","nombre":"Zapayán"},"geometry":{"type":"Polygon","coordinates":[[[-74.5866,10.219],[-74.6331,10.1434],[-74.6196,10.0864],[-74.6612,10.012],[-74.7898,10.0132],[-74.8253,10.0591],[-74.7739,10.0975],[-74.6931,10.2252],[-74.7163,10.2487],[-74.7016,10.2748],[-74.5866,10.219]]]}},{"type":"Feature","properties":{"cve_ent":"CO47","cve_mun":"980","cvegeo":"CO47980","nombre":"Zona Bananera"},"geometry":{"type":"Polygon","coordinates":[[[-74.152,10.6367],[-74.2193,10.6627],[-74.2671,10.799],[-74.2658,10.866],[-74.2267,10.928],[-74.1667,10.9565],[-74.1092,10.8709],[-74.0871,10.7557],[-74.152,10.6367]]]}}]}