{"type":"FeatureCollection","features":[{"type":"Feature","properties":{"cve_ent":"CO52","cve_mun":"001","cvegeo":"CO52001","nombre":"Pasto"},"geometry":{"type":"Polygon","coordinates":[[[-77.3103,1.3531],[-77.2491,1.2886],[-77.2356,1.2589],[-77.0887,1.182],[-77.0838,1.0618],[-77.0398,1.0395],[-77.0471,0.9787],[-77.0728,0.9428],[-77.1169,0.9006],[-77.1389,0.8213],[-77.2075,0.9006],[-77.3177,0.9614],[-77.2932,1.0444],[-77.3054,1.1237],[-77.3617,1.2018],[-77.3593,1.2217],[-77.3287,1.301],[-77.3752,1.306],[-77.3103,1.3531]]]}},{"type":"Feature","properties":{"cve_ent":"CO52","cve_mun":"019","cvegeo":"CO52019","nombre":"Albán"},"geometry":{"type":"Polygon","coordinates":[[[-77.019,1.4956],[-77.1047,1.4361],[-77.1108,1.4435],[-77.0814,1.4869],[-77.0716,1.5154],[-77.019,1.4956]]]}},{"type":"Feature","properties":{"cve_ent":"CO52","cve_mun":"022","cvegeo":"CO52022","nombre":"Aldana"},"geometry":{"type":"Polygon","coordinates":[[[-77.6763,0.9639],[-77.6727,0.8659],[-77.6849,0.8374],[-77.7253,0.9093],[-77.6763,0.9639]]]}},{"type":"Feature","properties":{"cve_ent":"CO52","cve_mun":"036","cvegeo":"CO52036","nombre":"Ancuya"},"geometry":{"type":"Polygon","coordinates":[[[-77.5037,1.3171],[-77.5062,1.2638],[-77.5013,1.2192],[-77.5686,1.208],[-77.538,1.3047],[-77.5037,1.3171]]]}},{"type":"Feature","properties":{"cve_ent":"CO52","cve_mun":"051","cvegeo":"CO52051","nombre":"Arboleda"},"geometry":{"type":"Polygon","coordinates":[[[-77.0814,1.4869],[-77.1108,1.4435],[-77.1842,1.4485],[-77.1451,1.5278],[-77.0814,1.4869]]]}},{"type":"Feature","properties":{"cve_ent":"CO52","cve_mun":"079","cvegeo":"CO52079","nombre":"Barbacoas"},"geometry":{"type":"Polygon","coordinates":[[[-77.9236,1.6679],[-77.8428,1.5947],[-77.8746,1.4894],[-77.9212,1.4014],[-78.0093,1.4262],[-78.0497,1.3778],[-78.0289,1.2502],[-78.1072,1.2068],[-78.2909,1.1386],[-78.3141,1.1907],[-78.4182,1.1597],[-78.51,1.1894],[-78.4867,1.3407],[-78.4659,1.384],[-78.3704,1.4125],[-78.2627,1.3902],[-78.2688,1.5476],[-78.2566,1.6282],[-78.2333,1.7311],[-78.2052,1.7013],[-78.0717,1.7348],[-78.0081,1.7261],[-77.9518,1.7794],[-77.7963,1.8538],[-77.8746,1.803],[-77.9236,1.6679]]]}},{"type":"Feature","properties":{"cve_ent":"CO52","cve_mun":"083","cvegeo":"CO52083","nombre":"Belén"},"geometry":{"type":"Polygon","coordinates":[[[-77.0141,1.6171],[-77.0116,1.5724],[-77.063,1.5538],[-77.0789,1.5935],[-77.0141,1.6171]]]}},{"type":"Feature","properties":{"cve_ent":"CO52","cve_mun":"110","cvegeo":"CO52110","nombre":"Buesaco"},"geometry":{"type":"Polygon","coordinates":[[[-77.2356,1.4522],[-77.1108,1.4435],[-77.0349,1.3754],[-76.9982,1.2998],[-76.9333,1.2849],[-77.0214,1.1956],[-77.0887,1.182],[-77.2356,1.2589],[-77.2491,1.2886],[-77.2197,1.3692],[-77.2356,1.4522]]]}},{"type":"Feature","properties":{"cve_ent":"CO52","cve_mun":"203","cvegeo":"CO52203","nombre":"Colón"},"geometry":{"type":"Polygon","coordinates":[[[-76.9847,1.6567],[-77.0141,1.6171],[-77.0789,1.5935],[-77.0692,1.6654],[-76.9847,1.6567]]]}},{"type":"Feature","properties":{"cve_ent":"CO52","cve_mun":"207","cvegeo":"CO52207","nombre":"Consacá"},"geometry":{"type":"Polygon","coordinates":[[[-77.3752,1.2303],[-77.3593,1.2217],[-77.3617,1.2018],[-77.3789,1.1919],[-77.4792,1.156],[-77.5013,1.2192],[-77.5062,1.2638],[-77.3752,1.2303]]]}},{"type":"Feature","properties":{"cve_ent":"CO52","cve_mun":"210","cvegeo":"CO52210","nombre":"Contadero"},"geometry":{"type":"Polygon","coordinates":[[[-77.4707,0.949],[-77.4805,0.9279],[-77.538,0.8957],[-77.5515,0.9031],[-77.576,0.9564],[-77.4707,0.949]]]}},{"type":"Feature","properties":{"cve_ent":"CO52","cve_mun":"215","cvegeo":"CO52215","nombre":"Córdoba"},"geometry":{"type":"Polygon","coordinates":[[[-77.5417,0.892],[-77.4866,0.8424],[-77.4058,0.8486],[-77.2283,0.7284],[-77.1769,0.6713],[-77.1867,0.6304],[-77.2638,0.6961],[-77.336,0.7011],[-77.4193,0.7817],[-77.5576,0.8411],[-77.5417,0.892]]]}},{"type":"Feature","properties":{"cve_ent":"CO52","cve_mun":"224","cvegeo":"CO52224","nombre":"Cuaspud Carlosama"},"geometry":{"type":"Polygon","coordinates":[[[-77.7253,0.9093],[-77.6849,0.8374],[-77.6849,0.8288],[-77.7584,0.8387],[-77.7743,0.918],[-77.7253,0.9093]]]}},{"type":"Feature","properties":{"cve_ent":"CO52","cve_mun":"227","cvegeo":"CO52227","nombre":"Cumbal"},"geometry":{"type":"Polygon","coordinates":[[[-77.7987,0.9986],[-77.7743,0.918],[-77.7584,0.8387],[-77.8673,0.8015],[-77.9652,0.8238],[-78.0338,0.8796],[-78.1966,0.949],[-78.2088,1.0048],[-77.9163,1.0779],[-77.7987,0.9986]]]}},{"type":"Feature","properties":{"cve_ent":"CO52","cve_mun":"233","cvegeo":"CO52233","nombre":"Cumbitara"},"geometry":{"type":"Polygon","coordinates":[[[-77.609,1.8724],[-77.5955,1.7608],[-77.5294,1.741],[-77.4805,1.6022],[-77.6004,1.6009],[-77.6115,1.6666],[-77.6592,1.7013],[-77.6531,1.8005],[-77.7131,1.8154],[-77.6812,1.8959],[-77.6714,1.9034],[-77.609,1.8724]]]}},{"type":"Feature","properties":{"cve_ent":"CO52","cve_mun":"240","cvegeo":"CO52240","nombre":"Chachagüí"},"geometry":{"type":"Polygon","coordinates":[[[-77.3017,1.5179],[-77.2356,1.4522],[-77.2197,1.3692],[-77.2491,1.2886],[-77.3103,1.3531],[-77.2981,1.4225],[-77.3226,1.5005],[-77.3017,1.5179]]]}},{"type":"Feature","properties":{"cve_ent":"CO52","cve_mun":"250","cvegeo":"CO52250","nombre":"El Charco"},"geometry":{"type":"Polygon","coordinates":[[[-78.1134,2.6433],[-78.0521,2.4339],[-77.9493,2.2975],[-77.915,2.2256],[-77.9408,2.1612],[-77.8281,2.0447],[-77.7241,1.9914],[-77.6543,2.0236],[-77.5833,2.0248],[-77.5992,2.1674],[-77.5539,2.2021],[-77.4878,2.1947],[-77.4597,2.2864],[-77.3752,2.2641],[-77.3226,2.2219],[-77.3054,2.1451],[-77.3091,2.1252],[-77.3519,2.0534],[-77.3103,1.9678],[-77.396,1.9827],[-77.4939,1.9579],[-77.5135,1.9071],[-77.6017,1.9406],[-77.6812,1.8959],[-77.6996,1.9158],[-77.8306,1.9232],[-77.904,2.0843],[-78.0913,2.0769],[-78.1831,2.1104],[-78.1587,2.4252],[-78.1868,2.5938],[-78.2248,2.6669],[-78.1427,2.6805],[-78.1134,2.6433]]]}},{"type":"Feature","properties":{"cve_ent":"CO52","cve_mun":"254","cvegeo":"CO52254","nombre":"El Peñol"},"geometry":{"type":"Polygon","coordinates":[[[-77.385,1.5278],[-77.4303,1.4435],[-77.4829,1.4547],[-77.4743,1.5055],[-77.4462,1.5873],[-77.396,1.6059],[-77.385,1.5278]]]}},{"type":"Feature","properties":{"cve_ent":"CO52","cve_mun":"256","cvegeo":"CO52256","nombre":"El Rosario"},"geometry":{"type":"Polygon","coordinates":[[[-77.396,1.9827],[-77.4107,1.8885],[-77.2944,1.8315],[-77.2944,1.7658],[-77.3299,1.6815],[-77.3544,1.6691],[-77.4413,1.8092],[-77.609,1.8724],[-77.6714,1.9034],[-77.6017,1.9406],[-77.5135,1.9071],[-77.4939,1.9579],[-77.396,1.9827]]]}},{"type":"Feature","properties":{"cve_ent":"CO52","cve_mun":"258","cvegeo":"CO52258","nombre":"El Tablón de Gómez"},"geometry":{"type":"Polygon","coordinates":[[[-77.019,1.4956],[-76.9284,1.5005],[-76.921,1.3456],[-76.9039,1.3208],[-76.9333,1.2849],[-76.9982,1.2998],[-77.0349,1.3754],[-77.1047,1.4361],[-77.019,1.4956]]]}},{"type":"Feature","properties":{"cve_ent":"CO52","cve_mun":"260","cvegeo":"CO52260","nombre":"El Tambo"},"geometry":{"type":"Polygon","coordinates":[[[-77.3226,1.5005],[-77.2981,1.4225],[-77.4009,1.332],[-77.4805,1.3692],[-77.4829,1.4547],[-77.4303,1.4435],[-77.385,1.5278],[-77.3226,1.5005]]]}},{"type":"Feature","properties":{"cve_ent":"CO52","cve_mun":"287","cvegeo":"CO52287","nombre":"Funes"},"geometry":{"type":"Polygon","coordinates":[[[-77.4278,1.0543],[-77.3177,0.9614],[-77.2075,0.9006],[-77.1389,0.8213],[-77.1597,0.7432],[-77.2112,0.7866],[-77.2295,0.8858],[-77.4364,0.8858],[-77.4805,0.9279],[-77.4707,0.949],[-77.4743,1.0221],[-77.4474,1.0556],[-77.4278,1.0543]]]}},{"type":"Feature","properties":{"cve_ent":"CO52","cve_mun":"317","cvegeo":"CO52317","nombre":"Guachucal"},"geometry":{"type":"Polygon","coordinates":[[[-77.6139,0.9948],[-77.6763,0.9639],[-77.7253,0.9093],[-77.7743,0.918],[-77.7987,0.9986],[-77.7645,1.0395],[-77.7057,0.9849],[-77.6139,0.9948]]]}},{"type":"Feature","properties":{"cve_ent":"CO52","cve_mun":"320","cvegeo":"CO52320","nombre":"Guaitarilla"},"geometry":{"type":"Polygon","coordinates":[[[-77.4792,1.156],[-77.478,1.1176],[-77.5698,1.0928],[-77.5784,1.1708],[-77.5686,1.208],[-77.5013,1.2192],[-77.4792,1.156]]]}},{"type":"Feature","properties":{"cve_ent":"CO52","cve_mun":"323","cvegeo":"CO52323","nombre":"Gualmatán"},"geometry":{"type":"Polygon","coordinates":[[[-77.576,0.9564],[-77.5515,0.9031],[-77.5698,0.8957],[-77.5894,0.975],[-77.576,0.9564]]]}},{"type":"Feature","properties":{"cve_ent":"CO52","cve_mun":"352","cvegeo":"CO52352","nombre":"Iles"},"geometry":{"type":"Polygon","coordinates":[[[-77.4743,1.0221],[-77.4707,0.949],[-77.576,0.9564],[-77.5894,0.975],[-77.5955,0.9924],[-77.4964,1.0246],[-77.4743,1.0221]]]}},{"type":"Feature","properties":{"cve_ent":"CO52","cve_mun":"354","cvegeo":"CO52354","nombre":"Imués"},"geometry":{"type":"Polygon","coordinates":[[[-77.4474,1.0556],[-77.4743,1.0221],[-77.4964,1.0246],[-77.5588,1.0717],[-77.5698,1.0928],[-77.478,1.1176],[-77.4474,1.0556]]]}},{"type":"Feature","properties":{"cve_ent":"CO52","cve_mun":"356","cvegeo":"CO52356","nombre":"Ipiales"},"geometry":{"type":"Polygon","coordinates":[[[-77.538,0.8957],[-77.5417,0.892],[-77.5576,0.8411],[-77.6384,0.7395],[-77.5931,0.7246],[-77.516,0.7556],[-77.4609,0.7432],[-77.3862,0.6267],[-77.1867,0.6304],[-77.1279,0.6019],[-77.1304,0.5251],[-77.09,0.4197],[-77.1132,0.3726],[-77.2968,0.3652],[-77.325,0.3875],[-77.5233,0.416],[-77.5221,0.5313],[-77.4854,0.6565],[-77.5637,0.6515],[-77.6971,0.7544],[-77.6849,0.8374],[-77.6727,0.8659],[-77.6151,0.856],[-77.5698,0.8957],[-77.5515,0.9031],[-77.538,0.8957]]]}},{"type":"Feature","properties":{"cve_ent":"CO52","cve_mun":"378","cvegeo":"CO52378","nombre":"La Cruz"},"geometry":{"type":"Polygon","coordinates":[[[-76.8525,1.6356],[-76.8586,1.5229],[-76.9321,1.5005],[-77.0116,1.5724],[-77.0141,1.6171],[-76.9847,1.6567],[-76.9002,1.6617],[-76.8525,1.6356]]]}},{"type":"Feature","properties":{"cve_ent":"CO52","cve_mun":"381","cvegeo":"CO52381","nombre":"La Florida"},"geometry":{"type":"Polygon","coordinates":[[[-77.3103,1.3531],[-77.3752,1.306],[-77.3593,1.2217],[-77.3752,1.2303],[-77.4523,1.3072],[-77.467,1.363],[-77.4009,1.332],[-77.2981,1.4225],[-77.3103,1.3531]]]}},{"type":"Feature","properties":{"cve_ent":"CO52","cve_mun":"385","cvegeo":"CO52385","nombre":"La Llanada"},"geometry":{"type":"Polygon","coordinates":[[[-77.5343,1.4485],[-77.5502,1.4336],[-77.5784,1.4299],[-77.6445,1.5291],[-77.7375,1.5105],[-77.8428,1.5947],[-77.8649,1.6171],[-77.8294,1.6617],[-77.6727,1.5452],[-77.598,1.5786],[-77.5919,1.5142],[-77.5343,1.4485]]]}},{"type":"Feature","properties":{"cve_ent":"CO52","cve_mun":"390","cvegeo":"CO52390","nombre":"La Tola"},"geometry":{"type":"Polygon","coordinates":[[[-78.1831,2.1104],[-78.2076,2.0348],[-78.2174,2.3669],[-78.199,2.4252],[-78.3104,2.6582],[-78.2248,2.6669],[-78.1868,2.5938],[-78.1587,2.4252],[-78.1831,2.1104]]]}},{"type":"Feature","properties":{"cve_ent":"CO52","cve_mun":"399","cvegeo":"CO52399","nombre":"La Unión"},"geometry":{"type":"Polygon","coordinates":[[[-77.1438,1.6778],[-77.0704,1.6741],[-77.0692,1.6654],[-77.0789,1.5935],[-77.063,1.5538],[-77.1475,1.5303],[-77.1781,1.6109],[-77.2381,1.658],[-77.1438,1.6778]]]}},{"type":"Feature","properties":{"cve_ent":"CO52","cve_mun":"405","cvegeo":"CO52405","nombre":"Leiva"},"geometry":{"type":"Polygon","coordinates":[[[-77.2026,1.9517],[-77.2944,1.8315],[-77.4107,1.8885],[-77.396,1.9827],[-77.3103,1.9678],[-77.3519,2.0534],[-77.3091,2.1252],[-77.3323,2.0496],[-77.2026,1.9517]]]}},{"type":"Feature","properties":{"cve_ent":"CO52","cve_mun":"411","cvegeo":"CO52411","nombre":"Linares"},"geometry":{"type":"Polygon","coordinates":[[[-77.4829,1.4547],[-77.4805,1.3692],[-77.5037,1.3171],[-77.538,1.3047],[-77.5711,1.3568],[-77.5502,1.4336],[-77.4743,1.5055],[-77.4829,1.4547]]]}},{"type":"Feature","properties":{"cve_ent":"CO52","cve_mun":"418","cvegeo":"CO52418","nombre":"Los Andes"},"geometry":{"type":"Polygon","coordinates":[[[-77.7131,1.8154],[-77.6531,1.8005],[-77.6592,1.7013],[-77.6115,1.6666],[-77.6004,1.6009],[-77.4805,1.6022],[-77.4462,1.5873],[-77.4743,1.5055],[-77.5343,1.4485],[-77.5919,1.5142],[-77.598,1.5786],[-77.6727,1.5452],[-77.8294,1.6617],[-77.8649,1.6171],[-77.9236,1.6679],[-77.8746,1.803],[-77.7963,1.8538],[-77.7339,1.8674],[-77.7131,1.8154]]]}},{"type":"Feature","properties":{"cve_ent":"CO52","cve_mun":"427","cvegeo":"CO52427","nombre":"Magüí"},"geometry":{"type":"Polygon","coordinates":[[[-77.6812,1.8959],[-77.7131,1.8154],[-77.7339,1.8674],[-77.7963,1.8538],[-77.9518,1.7794],[-78.0081,1.7261],[-78.0717,1.7348],[-78.2052,1.7013],[-78.2615,1.7658],[-78.2762,1.8972],[-78.2713,2.0174],[-78.2076,2.0348],[-78.1831,2.1104],[-78.0913,2.0769],[-77.904,2.0843],[-77.8306,1.9232],[-77.6996,1.9158],[-77.6812,1.8959]]]}},{"type":"Feature","properties":{"cve_ent":"CO52","cve_mun":"435","cvegeo":"CO52435","nombre":"Mallama"},"geometry":{"type":"Polygon","coordinates":[[[-77.7216,1.0977],[-77.7987,0.9986],[-77.9163,1.0779],[-77.9775,1.1994],[-77.9273,1.2415],[-77.8465,1.3791],[-77.8563,1.2824],[-77.7939,1.2279],[-77.7216,1.0977]]]}},{"type":"Feature","properties":{"cve_ent":"CO52","cve_mun":"473","cvegeo":"CO52473","nombre":"Mosquera"},"geometry":{"type":"Polygon","coordinates":[[[-78.3264,2.657],[-78.3055,2.5392],[-78.4255,2.2727],[-78.3851,2.1934],[-78.4696,2.2504],[-78.5002,2.2777],[-78.5589,2.3186],[-78.5638,2.4326],[-78.5504,2.4921],[-78.3264,2.657]]]}},{"type":"Feature","properties":{"cve_ent":"CO52","cve_mun":"480","cvegeo":"CO52480","nombre":"Nariño"},"geometry":{"type":"Polygon","coordinates":[[[-77.3593,1.2217],[-77.3752,1.306],[-77.3287,1.301],[-77.3593,1.2217]]]}},{"type":"Feature","properties":{"cve_ent":"CO52","cve_mun":"490","cvegeo":"CO52490","nombre":"Olaya Herrera"},"geometry":{"type":"Polygon","coordinates":[[[-78.2076,2.0348],[-78.2713,2.0174],[-78.3508,2.0881],[-78.3851,2.1934],[-78.4255,2.2727],[-78.3055,2.5392],[-78.3264,2.657],[-78.3104,2.6582],[-78.199,2.4252],[-78.2174,2.3669],[-78.2076,2.0348]]]}},{"type":"Feature","properties":{"cve_ent":"CO52","cve_mun":"506","cvegeo":"CO52506","nombre":"Ospina"},"geometry":{"type":"Polygon","coordinates":[[[-77.4964,1.0246],[-77.5955,0.9924],[-77.5809,1.0556],[-77.5588,1.0717],[-77.4964,1.0246]]]}},{"type":"Feature","properties":{"cve_ent":"CO52","cve_mun":"520","cvegeo":"CO52520","nombre":"Francisco Pizarro"},"geometry":{"type":"Polygon","coordinates":[[[-78.4696,2.2504],[-78.5296,2.1314],[-78.5173,2.0348],[-78.5516,1.8984],[-78.5871,1.9728],[-78.6716,2.031],[-78.7132,2.1649],[-78.7009,2.2145],[-78.6263,2.1872],[-78.5565,2.1934],[-78.5002,2.2777],[-78.4696,2.2504]]]}},{"type":"Feature","properties":{"cve_ent":"CO52","cve_mun":"540","cvegeo":"CO52540","nombre":"Policarpa"},"geometry":{"type":"Polygon","coordinates":[[[-77.3544,1.6691],[-77.396,1.6059],[-77.4462,1.5873],[-77.4805,1.6022],[-77.5294,1.741],[-77.5955,1.7608],[-77.609,1.8724],[-77.4413,1.8092],[-77.3544,1.6691]]]}},{"type":"Feature","properties":{"cve_ent":"CO52","cve_mun":"560","cvegeo":"CO52560","nombre":"Potosí"},"geometry":{"type":"Polygon","coordinates":[[[-77.1867,0.6304],[-77.3862,0.6267],[-77.4609,0.7432],[-77.516,0.7556],[-77.5931,0.7246],[-77.6384,0.7395],[-77.5576,0.8411],[-77.4193,0.7817],[-77.336,0.7011],[-77.2638,0.6961],[-77.1867,0.6304]]]}},{"type":"Feature","properties":{"cve_ent":"CO52","cve_mun":"565","cvegeo":"CO52565","nombre":"Providencia"},"geometry":{"type":"Polygon","coordinates":[[[-77.5735,1.1894],[-77.5784,1.1708],[-77.6225,1.2217],[-77.6139,1.2973],[-77.5735,1.1894]]]}},{"type":"Feature","properties":{"cve_ent":"CO52","cve_mun":"573","cvegeo":"CO52573","nombre":"Puerres"},"geometry":{"type":"Polygon","coordinates":[[[-77.1597,0.7432],[-77.1769,0.6713],[-77.2283,0.7284],[-77.4058,0.8486],[-77.4866,0.8424],[-77.5417,0.892],[-77.4805,0.9279],[-77.4364,0.8858],[-77.2295,0.8858],[-77.2112,0.7866],[-77.1597,0.7432]]]}},{"type":"Feature","properties":{"cve_ent":"CO52","cve_mun":"585","cvegeo":"CO52585","nombre":"Pupiales"},"geometry":{"type":"Polygon","coordinates":[[[-77.5955,0.9924],[-77.5698,0.8957],[-77.6151,0.856],[-77.6727,0.8659],[-77.6763,0.9639],[-77.6139,0.9948],[-77.5955,0.9924]]]}},{"type":"Feature","properties":{"cve_ent":"CO52","cve_mun":"612","cvegeo":"CO52612","nombre":"Ricaurte"},"geometry":{"type":"Polygon","coordinates":[[[-77.9163,1.0779],[-78.2088,1.0048],[-78.27,1.0469],[-78.2909,1.1386],[-78.1072,1.2068],[-78.0289,1.2502],[-78.0497,1.3778],[-78.0093,1.4262],[-77.9212,1.4014],[-77.8746,1.4894],[-77.8404,1.4634],[-77.8465,1.3791],[-77.9273,1.2415],[-77.9775,1.1994],[-77.9163,1.0779]]]}},{"type":"Feature","properties":{"cve_ent":"CO52","cve_mun":"621","cvegeo":"CO52621","nombre":"Roberto Payán"},"geometry":{"type":"Polygon","coordinates":[[[-78.3851,2.1934],[-78.3508,2.0881],[-78.2713,2.0174],[-78.2762,1.8972],[-78.2615,1.7658],[-78.2333,1.7311],[-78.2566,1.6282],[-78.3288,1.565],[-78.3974,1.7274],[-78.4708,1.7869],[-78.4671,1.9071],[-78.5345,1.9703],[-78.5173,2.0348],[-78.5296,2.1314],[-78.4696,2.2504],[-78.3851,2.1934]]]}},{"type":"Feature","properties":{"cve_ent":"CO52","cve_mun":"678","cvegeo":"CO52678","nombre":"Samaniego"},"geometry":{"type":"Polygon","coordinates":[[[-77.5502,1.4336],[-77.5711,1.3568],[-77.538,1.3047],[-77.5735,1.1894],[-77.6139,1.2973],[-77.6457,1.3369],[-77.7608,1.394],[-77.8404,1.4634],[-77.8746,1.4894],[-77.8428,1.5947],[-77.7375,1.5105],[-77.6445,1.5291],[-77.5784,1.4299],[-77.5502,1.4336]]]}},{"type":"Feature","properties":{"cve_ent":"CO52","cve_mun":"683","cvegeo":"CO52683","nombre":"Sandoná"},"geometry":{"type":"Polygon","coordinates":[[[-77.467,1.363],[-77.4523,1.3072],[-77.3752,1.2303],[-77.5062,1.2638],[-77.5037,1.3171],[-77.4805,1.3692],[-77.467,1.363]]]}},{"type":"Feature","properties":{"cve_ent":"CO52","cve_mun":"685","cvegeo":"CO52685","nombre":"San Bernardo"},"geometry":{"type":"Polygon","coordinates":[[[-76.9321,1.5005],[-77.019,1.4956],[-77.0716,1.5154],[-77.063,1.5538],[-77.0116,1.5724],[-76.9321,1.5005]]]}},{"type":"Feature","properties":{"cve_ent":"CO52","cve_mun":"687","cvegeo":"CO52687","nombre":"San Lorenzo"},"geometry":{"type":"Polygon","coordinates":[[[-77.2381,1.658],[-77.1781,1.6109],[-77.1451,1.5278],[-77.1842,1.4485],[-77.2356,1.4522],[-77.3017,1.5179],[-77.2589,1.5439],[-77.2699,1.6629],[-77.2381,1.658]]]}},{"type":"Feature","properties":{"cve_ent":"CO52","cve_mun":"693","cvegeo":"CO52693","nombre":"San Pablo"},"geometry":{"type":"Polygon","coordinates":[[[-76.9002,1.6617],[-76.9847,1.6567],[-77.0692,1.6654],[-77.0704,1.6741],[-77.0263,1.7137],[-76.9357,1.7286],[-76.9002,1.6617]]]}},{"type":"Feature","properties":{"cve_ent":"CO52","cve_mun":"694","cvegeo":"CO52694","nombre":"San Pedro de Cartago"},"geometry":{"type":"Polygon","coordinates":[[[-77.063,1.5538],[-77.0814,1.4869],[-77.1475,1.5303],[-77.063,1.5538]]]}},{"type":"Feature","properties":{"cve_ent":"CO52","cve_mun":"696","cvegeo":"CO52696","nombre":"Santa Bárbara"},"geometry":{"type":"Polygon","coordinates":[[[-77.9285,2.6409],[-77.9175,2.4116],[-77.8477,2.2603],[-77.8355,2.1761],[-77.7339,2.1339],[-77.5992,2.1674],[-77.5833,2.0248],[-77.6543,2.0236],[-77.7241,1.9914],[-77.8281,2.0447],[-77.9408,2.1612],[-77.915,2.2256],[-77.9493,2.2975],[-78.0521,2.4339],[-78.1134,2.6433],[-78.0583,2.6173],[-77.9726,2.6607],[-77.9285,2.6409]]]}},{"type":"Feature","properties":{"cve_ent":"CO52","cve_mun":"699","cvegeo":"CO52699","nombre":"Santacruz"},"geometry":{"type":"Polygon","coordinates":[[[-77.6139,1.2973],[-77.6151,1.2898],[-77.6519,1.2477],[-77.6616,1.1547],[-77.6996,1.094],[-77.7216,1.0977],[-77.7939,1.2279],[-77.8563,1.2824],[-77.8404,1.4634],[-77.7608,1.394],[-77.6457,1.3369],[-77.6139,1.2973]]]}},{"type":"Feature","properties":{"cve_ent":"CO52","cve_mun":"720","cvegeo":"CO52720","nombre":"Sapuyes"},"geometry":{"type":"Polygon","coordinates":[[[-77.6996,1.094],[-77.6433,1.037],[-77.5809,1.0556],[-77.5955,0.9924],[-77.6139,0.9948],[-77.7057,0.9849],[-77.7645,1.0395],[-77.7216,1.0977],[-77.6996,1.094]]]}},{"type":"Feature","properties":{"cve_ent":"CO52","cve_mun":"786","cvegeo":"CO52786","nombre":"Taminango"},"geometry":{"type":"Polygon","coordinates":[[[-77.2699,1.6629],[-77.2589,1.5439],[-77.3017,1.5179],[-77.3226,1.5005],[-77.385,1.5278],[-77.396,1.6059],[-77.3544,1.6691],[-77.3299,1.6815],[-77.2699,1.6629]]]}},{"type":"Feature","properties":{"cve_ent":"CO52","cve_mun":"788","cvegeo":"CO52788","nombre":"Tangua"},"geometry":{"type":"Polygon","coordinates":[[[-77.3177,0.9614],[-77.4278,1.0543],[-77.3642,1.1361],[-77.3789,1.1919],[-77.3617,1.2018],[-77.3054,1.1237],[-77.2932,1.0444],[-77.3177,0.9614]]]}},{"type":"Feature","properties":{"cve_ent":"CO52","cve_mun":"835","cvegeo":"CO52835","nombre":"San Andrés de Tumaco"},"geometry":{"type":"MultiPolygon","coordinates":[[[[-78.5337,1.9696],[-78.5345,1.9703],[-78.5173,2.0348],[-78.5337,1.9696]]],[[[-78.5638,2.4326],[-78.5589,2.3186],[-78.5002,2.2777],[-78.5565,2.1934],[-78.6263,2.1872],[-78.7009,2.2145],[-78.6275,2.3198],[-78.6238,2.3719],[-78.5638,2.4326]]]]}},{"type":"Feature","properties":{"cve_ent":"CO52","cve_mun":"838","cvegeo":"CO52838","nombre":"Túquerres"},"geometry":{"type":"Polygon","coordinates":[[[-77.5784,1.1708],[-77.5698,1.0928],[-77.5588,1.0717],[-77.5809,1.0556],[-77.6433,1.037],[-77.6996,1.094],[-77.6616,1.1547],[-77.6519,1.2477],[-77.6151,1.2898],[-77.6225,1.2217],[-77.5784,1.1708]]]}},{"type":"Feature","properties":{"cve_ent":"CO52","cve_mun":"885","cvegeo":"CO52885","nombre":"Yacuanquer"},"geometry":{"type":"Polygon","coordinates":[[[-77.4278,1.0543],[-77.4474,1.0556],[-77.478,1.1176],[-77.4792,1.156],[-77.3789,1.1919],[-77.3642,1.1361],[-77.4278,1.0543]]]}}]}