{"type":"FeatureCollection","features":[{"type":"Feature","properties":{"cve_ent":"CO54","cve_mun":"001","cvegeo":"CO54001","nombre":"San José de Cúcuta"},"geometry":{"type":"Polygon","coordinates":[[[-72.4725,8.4304],[-72.4272,8.3808],[-72.4394,8.3325],[-72.3868,8.278],[-72.3537,8.1565],[-72.3733,8.1044],[-72.3464,8.0375],[-72.4872,7.9458],[-72.4602,7.9012],[-72.4872,7.8578],[-72.5325,7.7549],[-72.5753,7.7214],[-72.5814,7.7611],[-72.5643,7.7871],[-72.5973,7.9669],[-72.5777,8.1082],[-72.5288,8.1639],[-72.5594,8.2135],[-72.5471,8.2866],[-72.6071,8.2829],[-72.6035,8.3226],[-72.4725,8.4304]]]}},{"type":"Feature","properties":{"cve_ent":"CO54","cve_mun":"003","cvegeo":"CO54003","nombre":"Ábrego"},"geometry":{"type":"Polygon","coordinates":[[[-72.9903,8.2854],[-72.9621,8.1875],[-73.0148,8.1491],[-73.0025,8.0995],[-73.0282,8.0425],[-73.0821,8.0276],[-73.0454,7.8677],[-73.0711,7.7871],[-73.1531,7.8094],[-73.349,7.8293],[-73.3514,7.8925],[-73.2792,7.9359],[-73.3098,8.0152],[-73.3257,8.0908],[-73.2841,8.1243],[-73.2731,8.1912],[-73.049,8.2309],[-73.0552,8.2854],[-72.9903,8.2854]]]}},{"type":"Feature","properties":{"cve_ent":"CO54","cve_mun":"051","cvegeo":"CO54051","nombre":"Arboledas"},"geometry":{"type":"Polygon","coordinates":[[[-72.6965,7.6334],[-72.743,7.6235],[-72.7993,7.6396],[-72.8446,7.5851],[-72.836,7.5392],[-72.896,7.4674],[-72.978,7.5293],[-72.9829,7.6198],[-72.9536,7.6669],[-72.8617,7.6756],[-72.8397,7.709],[-72.7467,7.7165],[-72.7246,7.7462],[-72.6965,7.6334]]]}},{"type":"Feature","properties":{"cve_ent":"CO54","cve_mun":"099","cvegeo":"CO54099","nombre":"Bochalema"},"geometry":{"type":"Polygon","coordinates":[[[-72.5814,7.7611],[-72.5753,7.7214],[-72.5863,7.7016],[-72.6292,7.6421],[-72.6365,7.5665],[-72.7075,7.5256],[-72.743,7.6235],[-72.6965,7.6334],[-72.6463,7.6805],[-72.6194,7.7537],[-72.5814,7.7611]]]}},{"type":"Feature","properties":{"cve_ent":"CO54","cve_mun":"109","cvegeo":"CO54109","nombre":"Bucarasica"},"geometry":{"type":"Polygon","coordinates":[[[-72.8556,8.0264],[-72.874,7.9978],[-72.9695,8.0226],[-73.0025,8.0995],[-73.0148,8.1491],[-72.9621,8.1875],[-72.8752,8.128],[-72.8397,8.0772],[-72.8556,8.0264]]]}},{"type":"Feature","properties":{"cve_ent":"CO54","cve_mun":"125","cvegeo":"CO54125","nombre":"Cácota"},"geometry":{"type":"Polygon","coordinates":[[[-72.5802,7.2641],[-72.6512,7.191],[-72.6989,7.2455],[-72.7259,7.2566],[-72.7026,7.3236],[-72.6157,7.3298],[-72.5802,7.2641]]]}},{"type":"Feature","properties":{"cve_ent":"CO54","cve_mun":"128","cvegeo":"CO54128","nombre":"Cáchira"},"geometry":{"type":"Polygon","coordinates":[[[-73.0454,7.8677],[-72.9536,7.6669],[-72.9829,7.6198],[-73.049,7.6062],[-73.218,7.6322],[-73.2816,7.5479],[-73.3698,7.564],[-73.2755,7.6545],[-73.2669,7.7004],[-73.1776,7.7376],[-73.1531,7.8094],[-73.0711,7.7871],[-73.0454,7.8677]]]}},{"type":"Feature","properties":{"cve_ent":"CO54","cve_mun":"172","cvegeo":"CO54172","nombre":"Chinácota"},"geometry":{"type":"Polygon","coordinates":[[[-72.5276,7.6372],[-72.5471,7.5504],[-72.5349,7.4897],[-72.5777,7.455],[-72.6365,7.5665],[-72.6292,7.6421],[-72.5863,7.7016],[-72.5276,7.6372]]]}},{"type":"Feature","properties":{"cve_ent":"CO54","cve_mun":"174","cvegeo":"CO54174","nombre":"Chitagá"},"geometry":{"type":"Polygon","coordinates":[[[-72.481,7.1587],[-72.3733,7.1104],[-72.2901,6.9964],[-72.3133,6.9319],[-72.3929,6.8724],[-72.5031,6.9084],[-72.5471,6.886],[-72.5533,6.9852],[-72.7222,7.005],[-72.7344,6.9864],[-72.7503,7.0596],[-72.6989,7.2455],[-72.6512,7.191],[-72.5802,7.2641],[-72.5777,7.2628],[-72.5765,7.1649],[-72.481,7.1587]]]}},{"type":"Feature","properties":{"cve_ent":"CO54","cve_mun":"206","cvegeo":"CO54206","nombre":"Convención"},"geometry":{"type":"Polygon","coordinates":[[[-72.9854,9.1456],[-73.0025,9.0749],[-73.1029,9.0489],[-73.1482,8.9733],[-73.1054,8.9324],[-73.2106,8.8109],[-73.2474,8.7267],[-73.24,8.6696],[-73.2988,8.625],[-73.3159,8.5655],[-73.2853,8.4899],[-73.3245,8.4069],[-73.349,8.392],[-73.3428,8.4366],[-73.4138,8.4589],[-73.4065,8.5469],[-73.2804,8.7415],[-73.3,8.8023],[-73.2388,8.8543],[-73.2523,9.0043],[-73.1409,9.1146],[-73.0637,9.1369],[-73.0711,9.2212],[-73.0037,9.2745],[-72.9646,9.2001],[-72.9854,9.1456]]]}},{"type":"Feature","properties":{"cve_ent":"CO54","cve_mun":"223","cvegeo":"CO54223","nombre":"Cucutilla"},"geometry":{"type":"Polygon","coordinates":[[[-72.743,7.6235],[-72.6904,7.4723],[-72.7393,7.4649],[-72.8177,7.3719],[-72.8385,7.3595],[-72.863,7.3831],[-72.896,7.4674],[-72.836,7.5392],[-72.8446,7.5851],[-72.7993,7.6396],[-72.743,7.6235]]]}},{"type":"Feature","properties":{"cve_ent":"CO54","cve_mun":"239","cvegeo":"CO54239","nombre":"Durania"},"geometry":{"type":"Polygon","coordinates":[[[-72.6194,7.7537],[-72.6463,7.6805],[-72.6965,7.6334],[-72.7246,7.7462],[-72.71,7.8008],[-72.6598,7.833],[-72.6194,7.7537]]]}},{"type":"Feature","properties":{"cve_ent":"CO54","cve_mun":"245","cvegeo":"CO54245","nombre":"El Carmen"},"geometry":{"type":"Polygon","coordinates":[[[-73.0037,9.2745],[-73.0711,9.2212],[-73.0637,9.1369],[-73.1409,9.1146],[-73.2523,9.0043],[-73.2388,8.8543],[-73.3,8.8023],[-73.2804,8.7415],[-73.4065,8.5469],[-73.4138,8.4589],[-73.4102,8.4304],[-73.4922,8.4217],[-73.5767,8.506],[-73.5314,8.5283],[-73.5522,8.6064],[-73.4628,8.7452],[-73.4285,8.8233],[-73.4469,8.8704],[-73.4261,8.9002],[-73.4359,8.9993],[-73.4114,9.0539],[-73.4249,9.122],[-73.3685,9.1729],[-73.2523,9.158],[-73.1764,9.1766],[-73.0699,9.2646],[-73.0037,9.2745]]]}},{"type":"Feature","properties":{"cve_ent":"CO54","cve_mun":"250","cvegeo":"CO54250","nombre":"El Tarra"},"geometry":{"type":"Polygon","coordinates":[[[-73.016,8.5457],[-73.0821,8.5035],[-73.158,8.573],[-73.1482,8.6758],[-73.0564,8.7651],[-73.0601,8.8667],[-72.9756,8.8841],[-72.9474,8.8382],[-72.9597,8.7638],[-72.9168,8.7093],[-72.9058,8.6027],[-73.016,8.5457]]]}},{"type":"Feature","properties":{"cve_ent":"CO54","cve_mun":"261","cvegeo":"CO54261","nombre":"El Zulia"},"geometry":{"type":"Polygon","coordinates":[[[-72.5875,7.9185],[-72.6561,7.9061],[-72.6904,7.9743],[-72.7601,7.9693],[-72.754,8.0177],[-72.6524,8.1491],[-72.6487,8.221],[-72.6071,8.2829],[-72.5471,8.2866],[-72.5594,8.2135],[-72.5288,8.1639],[-72.5777,8.1082],[-72.5973,7.9669],[-72.5875,7.9185]]]}},{"type":"Feature","properties":{"cve_ent":"CO54","cve_mun":"313","cvegeo":"CO54313","nombre":"Gramalote"},"geometry":{"type":"Polygon","coordinates":[[[-72.7601,7.9693],[-72.7601,7.8479],[-72.8348,7.8516],[-72.9009,7.9024],[-72.8177,7.9235],[-72.7944,8.0053],[-72.754,8.0177],[-72.7601,7.9693]]]}},{"type":"Feature","properties":{"cve_ent":"CO54","cve_mun":"344","cvegeo":"CO54344","nombre":"Hacarí"},"geometry":{"type":"Polygon","coordinates":[[[-72.9682,8.4329],[-72.9952,8.3908],[-72.9903,8.2854],[-73.0552,8.2854],[-73.1127,8.2433],[-73.1837,8.3114],[-73.1849,8.3697],[-73.1617,8.4354],[-73.1017,8.4205],[-73.0503,8.4874],[-72.9682,8.4329]]]}},{"type":"Feature","properties":{"cve_ent":"CO54","cve_mun":"347","cvegeo":"CO54347","nombre":"Herrán"},"geometry":{"type":"Polygon","coordinates":[[[-72.4553,7.5529],[-72.4786,7.4983],[-72.4162,7.4004],[-72.4541,7.4066],[-72.5349,7.4897],[-72.5471,7.5504],[-72.4553,7.5529]]]}},{"type":"Feature","properties":{"cve_ent":"CO54","cve_mun":"377","cvegeo":"CO54377","nombre":"Labateca"},"geometry":{"type":"Polygon","coordinates":[[[-72.481,7.1587],[-72.5765,7.1649],[-72.5777,7.3893],[-72.5692,7.393],[-72.5067,7.3831],[-72.4908,7.2913],[-72.4455,7.2294],[-72.481,7.1587]]]}},{"type":"Feature","properties":{"cve_ent":"CO54","cve_mun":"385","cvegeo":"CO54385","nombre":"La Esperanza"},"geometry":{"type":"Polygon","coordinates":[[[-73.1531,7.8094],[-73.1776,7.7376],[-73.2669,7.7004],[-73.2755,7.6545],[-73.3698,7.564],[-73.4628,7.5752],[-73.633,7.7487],[-73.5803,7.7388],[-73.4812,7.6768],[-73.4114,7.7165],[-73.349,7.8293],[-73.1531,7.8094]]]}},{"type":"Feature","properties":{"cve_ent":"CO54","cve_mun":"398","cvegeo":"CO54398","nombre":"La Playa"},"geometry":{"type":"Polygon","coordinates":[[[-73.0552,8.2854],[-73.049,8.2309],[-73.2731,8.1912],[-73.2694,8.3238],[-73.1849,8.3697],[-73.1837,8.3114],[-73.1127,8.2433],[-73.0552,8.2854]]]}},{"type":"Feature","properties":{"cve_ent":"CO54","cve_mun":"405","cvegeo":"CO54405","nombre":"Los Patios"},"geometry":{"type":"Polygon","coordinates":[[[-72.4872,7.8578],[-72.4884,7.7561],[-72.5214,7.6483],[-72.5276,7.6372],[-72.5863,7.7016],[-72.5753,7.7214],[-72.5325,7.7549],[-72.4872,7.8578]]]}},{"type":"Feature","properties":{"cve_ent":"CO54","cve_mun":"418","cvegeo":"CO54418","nombre":"Lourdes"},"geometry":{"type":"Polygon","coordinates":[[[-72.7944,8.0053],[-72.8177,7.9235],[-72.896,7.9049],[-72.874,7.9978],[-72.8556,8.0264],[-72.7944,8.0053]]]}},{"type":"Feature","properties":{"cve_ent":"CO54","cve_mun":"480","cvegeo":"CO54480","nombre":"Mutiscua"},"geometry":{"type":"Polygon","coordinates":[[[-72.7026,7.3236],[-72.7259,7.2566],[-72.8336,7.3037],[-72.8385,7.3595],[-72.8177,7.3719],[-72.7197,7.3756],[-72.7026,7.3236]]]}},{"type":"Feature","properties":{"cve_ent":"CO54","cve_mun":"498","cvegeo":"CO54498","nombre":"Ocaña"},"geometry":{"type":"MultiPolygon","coordinates":[[[[-73.2743,8.3895],[-73.2694,8.3238],[-73.2731,8.1912],[-73.2841,8.1243],[-73.3257,8.0908],[-73.3098,8.0152],[-73.3661,8.0226],[-73.393,8.1131],[-73.4322,8.1404],[-73.4053,8.2457],[-73.3612,8.3275],[-73.349,8.392],[-73.3245,8.4069],[-73.2743,8.3895]]],[[[-73.4114,8.3697],[-73.4567,8.361],[-73.4922,8.4217],[-73.4102,8.4304],[-73.4114,8.3697]]]]}},{"type":"Feature","properties":{"cve_ent":"CO54","cve_mun":"518","cvegeo":"CO54518","nombre":"Pamplona"},"geometry":{"type":"Polygon","coordinates":[[[-72.6904,7.4723],[-72.6463,7.4017],[-72.5777,7.3893],[-72.5777,7.2628],[-72.6157,7.3298],[-72.7026,7.3236],[-72.7197,7.3756],[-72.8177,7.3719],[-72.7393,7.4649],[-72.6904,7.4723]]]}},{"type":"Feature","properties":{"cve_ent":"CO54","cve_mun":"520","cvegeo":"CO54520","nombre":"Pamplonita"},"geometry":{"type":"Polygon","coordinates":[[[-72.5777,7.455],[-72.5692,7.393],[-72.5777,7.3893],[-72.6463,7.4017],[-72.6904,7.4723],[-72.7075,7.5256],[-72.6365,7.5665],[-72.5777,7.455]]]}},{"type":"Feature","properties":{"cve_ent":"CO54","cve_mun":"553","cvegeo":"CO54553","nombre":"Puerto Santander"},"geometry":{"type":"Polygon","coordinates":[[[-72.3868,8.278],[-72.4394,8.3325],[-72.4272,8.3808],[-72.3892,8.3486],[-72.3868,8.278]]]}},{"type":"Feature","properties":{"cve_ent":"CO54","cve_mun":"599","cvegeo":"CO54599","nombre":"Ragonvalia"},"geometry":{"type":"Polygon","coordinates":[[[-72.4749,7.6582],[-72.4553,7.5529],[-72.5471,7.5504],[-72.5276,7.6372],[-72.5214,7.6483],[-72.4749,7.6582]]]}},{"type":"Feature","properties":{"cve_ent":"CO54","cve_mun":"660","cvegeo":"CO54660","nombre":"Salazar"},"geometry":{"type":"Polygon","coordinates":[[[-72.7601,7.8479],[-72.71,7.8008],[-72.7246,7.7462],[-72.7467,7.7165],[-72.8397,7.709],[-72.8617,7.6756],[-72.9536,7.6669],[-72.9989,7.7648],[-72.9009,7.9024],[-72.8348,7.8516],[-72.7601,7.8479]]]}},{"type":"Feature","properties":{"cve_ent":"CO54","cve_mun":"670","cvegeo":"CO54670","nombre":"San Calixto"},"geometry":{"type":"Polygon","coordinates":[[[-73.016,8.5457],[-72.9695,8.4651],[-72.9682,8.4329],[-73.0503,8.4874],[-73.1017,8.4205],[-73.1617,8.4354],[-73.1849,8.3697],[-73.2694,8.3238],[-73.2743,8.3895],[-73.2718,8.454],[-73.2216,8.5271],[-73.158,8.573],[-73.0821,8.5035],[-73.016,8.5457]]]}},{"type":"Feature","properties":{"cve_ent":"CO54","cve_mun":"673","cvegeo":"CO54673","nombre":"San Cayetano"},"geometry":{"type":"Polygon","coordinates":[[[-72.5875,7.9185],[-72.5643,7.7871],[-72.5814,7.7611],[-72.6194,7.7537],[-72.6598,7.833],[-72.6561,7.9061],[-72.5875,7.9185]]]}},{"type":"Feature","properties":{"cve_ent":"CO54","cve_mun":"680","cvegeo":"CO54680","nombre":"Santiago"},"geometry":{"type":"Polygon","coordinates":[[[-72.6561,7.9061],[-72.6598,7.833],[-72.71,7.8008],[-72.7601,7.8479],[-72.7601,7.9693],[-72.6904,7.9743],[-72.6561,7.9061]]]}},{"type":"Feature","properties":{"cve_ent":"CO54","cve_mun":"720","cvegeo":"CO54720","nombre":"Sardinata"},"geometry":{"type":"Polygon","coordinates":[[[-72.6035,8.3226],[-72.6071,8.2829],[-72.6487,8.221],[-72.6524,8.1491],[-72.754,8.0177],[-72.7944,8.0053],[-72.8556,8.0264],[-72.8397,8.0772],[-72.8752,8.128],[-72.9621,8.1875],[-72.9903,8.2854],[-72.9952,8.3908],[-72.9682,8.4329],[-72.9695,8.4651],[-72.9438,8.511],[-72.8311,8.4155],[-72.6965,8.4379],[-72.6035,8.3226]]]}},{"type":"Feature","properties":{"cve_ent":"CO54","cve_mun":"743","cvegeo":"CO54743","nombre":"Silos"},"geometry":{"type":"Polygon","coordinates":[[[-72.8336,7.3037],[-72.6989,7.2455],[-72.7503,7.0596],[-72.8189,7.072],[-72.8483,7.1377],[-72.8409,7.1947],[-72.8764,7.2641],[-72.8336,7.3037]]]}},{"type":"Feature","properties":{"cve_ent":"CO54","cve_mun":"800","cvegeo":"CO54800","nombre":"Teorama"},"geometry":{"type":"Polygon","coordinates":[[[-72.9854,9.1456],[-72.9474,9.0923],[-73.065,8.9832],[-73.0564,8.7651],[-73.1482,8.6758],[-73.158,8.573],[-73.2216,8.5271],[-73.2718,8.454],[-73.2743,8.3895],[-73.3245,8.4069],[-73.2853,8.4899],[-73.3159,8.5655],[-73.2988,8.625],[-73.24,8.6696],[-73.2474,8.7267],[-73.2106,8.8109],[-73.1054,8.9324],[-73.1482,8.9733],[-73.1029,9.0489],[-73.0025,9.0749],[-72.9854,9.1456]]]}},{"type":"Feature","properties":{"cve_ent":"CO54","cve_mun":"810","cvegeo":"CO54810","nombre":"Tibú"},"geometry":{"type":"Polygon","coordinates":[[[-72.4725,8.4304],[-72.6035,8.3226],[-72.6965,8.4379],[-72.8311,8.4155],[-72.9438,8.511],[-72.9695,8.4651],[-73.016,8.5457],[-72.9058,8.6027],[-72.9168,8.7093],[-72.9597,8.7638],[-72.9474,8.8382],[-72.9756,8.8841],[-73.0601,8.8667],[-73.065,8.9832],[-72.9474,9.0923],[-72.8826,9.1307],[-72.7663,9.0997],[-72.7197,8.9411],[-72.6549,8.6151],[-72.6169,8.5953],[-72.4725,8.4304]]]}},{"type":"Feature","properties":{"cve_ent":"CO54","cve_mun":"820","cvegeo":"CO54820","nombre":"Toledo"},"geometry":{"type":"Polygon","coordinates":[[[-72.4541,7.4066],[-72.2558,7.3781],[-72.1983,7.3868],[-72.1542,7.3285],[-72.1701,7.2517],[-72.0477,7.0385],[-72.1995,7.041],[-72.2203,6.9864],[-72.2901,6.9964],[-72.3733,7.1104],[-72.481,7.1587],[-72.4455,7.2294],[-72.4908,7.2913],[-72.5067,7.3831],[-72.5692,7.393],[-72.5777,7.455],[-72.5349,7.4897],[-72.4541,7.4066]]]}},{"type":"Feature","properties":{"cve_ent":"CO54","cve_mun":"871","cvegeo":"CO54871","nombre":"Villa Caro"},"geometry":{"type":"Polygon","coordinates":[[[-72.874,7.9978],[-72.896,7.9049],[-72.9009,7.9024],[-72.9989,7.7648],[-73.0454,7.8677],[-73.0821,8.0276],[-73.0282,8.0425],[-73.0025,8.0995],[-72.9695,8.0226],[-72.874,7.9978]]]}},{"type":"Feature","properties":{"cve_ent":"CO54","cve_mun":"874","cvegeo":"CO54874","nombre":"Villa del Rosario"},"geometry":{"type":"Polygon","coordinates":[[[-72.4749,7.6582],[-72.5214,7.6483],[-72.4884,7.7561],[-72.4872,7.8578],[-72.4602,7.9012],[-72.4749,7.6582]]]}}]}