{"type":"FeatureCollection","features":[{"type":"Feature","properties":{"cve_ent":"CO63","cve_mun":"001","cvegeo":"CO63001","nombre":"Armenia"},"geometry":{"type":"Polygon","coordinates":[[[-75.6332,4.5695],[-75.7189,4.4492],[-75.774,4.3947],[-75.7973,4.479],[-75.741,4.5397],[-75.643,4.5881],[-75.6332,4.5695]]]}},{"type":"Feature","properties":{"cve_ent":"CO63","cve_mun":"111","cvegeo":"CO63111","nombre":"Buenavista"},"geometry":{"type":"Polygon","coordinates":[[[-75.7275,4.4059],[-75.7165,4.3774],[-75.7838,4.3464],[-75.7275,4.4059]]]}},{"type":"Feature","properties":{"cve_ent":"CO63","cve_mun":"130","cvegeo":"CO63130","nombre":"Calarcá"},"geometry":{"type":"Polygon","coordinates":[[[-75.5561,4.4716],[-75.583,4.4245],[-75.7275,4.4059],[-75.7924,4.3377],[-75.8034,4.3959],[-75.774,4.3947],[-75.7189,4.4492],[-75.6332,4.5695],[-75.5561,4.4716]]]}},{"type":"Feature","properties":{"cve_ent":"CO63","cve_mun":"190","cvegeo":"CO63190","nombre":"Circasia"},"geometry":{"type":"Polygon","coordinates":[[[-75.6002,4.6761],[-75.643,4.5881],[-75.741,4.5397],[-75.7348,4.5806],[-75.6002,4.6761]]]}},{"type":"Feature","properties":{"cve_ent":"CO63","cve_mun":"212","cvegeo":"CO63212","nombre":"Córdoba"},"geometry":{"type":"Polygon","coordinates":[[[-75.583,4.4245],[-75.5928,4.3612],[-75.7165,4.3774],[-75.7275,4.4059],[-75.583,4.4245]]]}},{"type":"Feature","properties":{"cve_ent":"CO63","cve_mun":"272","cvegeo":"CO63272","nombre":"Filandia"},"geometry":{"type":"Polygon","coordinates":[[[-75.5647,4.7009],[-75.6993,4.6079],[-75.741,4.655],[-75.7091,4.6798],[-75.714,4.7133],[-75.5647,4.7009]]]}},{"type":"Feature","properties":{"cve_ent":"CO63","cve_mun":"302","cvegeo":"CO63302","nombre":"Génova"},"geometry":{"type":"Polygon","coordinates":[[[-75.6589,4.2224],[-75.6969,4.1319],[-75.752,4.0774],[-75.8401,4.101],[-75.8254,4.215],[-75.7948,4.3104],[-75.7263,4.2299],[-75.6589,4.2224]]]}},{"type":"Feature","properties":{"cve_ent":"CO63","cve_mun":"401","cvegeo":"CO63401","nombre":"La Tebaida"},"geometry":{"type":"Polygon","coordinates":[[[-75.774,4.3947],[-75.8034,4.3959],[-75.867,4.4108],[-75.8781,4.4096],[-75.8952,4.4257],[-75.8695,4.4542],[-75.7973,4.479],[-75.774,4.3947]]]}},{"type":"Feature","properties":{"cve_ent":"CO63","cve_mun":"470","cvegeo":"CO63470","nombre":"Montenegro"},"geometry":{"type":"Polygon","coordinates":[[[-75.741,4.5397],[-75.7973,4.479],[-75.8695,4.4542],[-75.8805,4.5311],[-75.867,4.5757],[-75.7348,4.5806],[-75.741,4.5397]]]}},{"type":"Feature","properties":{"cve_ent":"CO63","cve_mun":"548","cvegeo":"CO63548","nombre":"Pijao"},"geometry":{"type":"Polygon","coordinates":[[[-75.5928,4.3612],[-75.5977,4.2794],[-75.6589,4.2224],[-75.7263,4.2299],[-75.7948,4.3104],[-75.7924,4.3377],[-75.7838,4.3464],[-75.7165,4.3774],[-75.5928,4.3612]]]}},{"type":"Feature","properties":{"cve_ent":"CO63","cve_mun":"594","cvegeo":"CO63594","nombre":"Quimbaya"},"geometry":{"type":"Polygon","coordinates":[[[-75.741,4.655],[-75.6993,4.6079],[-75.7348,4.5806],[-75.867,4.5757],[-75.8658,4.6129],[-75.8279,4.66],[-75.741,4.655]]]}},{"type":"Feature","properties":{"cve_ent":"CO63","cve_mun":"690","cvegeo":"CO63690","nombre":"Salento"},"geometry":{"type":"Polygon","coordinates":[[[-75.3835,4.7083],[-75.4153,4.6228],[-75.4851,4.5819],[-75.5561,4.4716],[-75.6332,4.5695],[-75.643,4.5881],[-75.6002,4.6761],[-75.5647,4.7009],[-75.4924,4.6662],[-75.3884,4.7157],[-75.3835,4.7083]]]}}]}