{"type":"FeatureCollection","features":[{"type":"Feature","properties":{"cve_ent":"CO68","cve_mun":"001","cvegeo":"CO68001","nombre":"Bucaramanga"},"geometry":{"type":"Polygon","coordinates":[[[-73.0711,7.1996],[-73.0564,7.1848],[-73.0466,7.1389],[-73.1237,7.0682],[-73.1641,7.0868],[-73.158,7.2157],[-73.0821,7.2666],[-73.0711,7.1996]]]}},{"type":"Feature","properties":{"cve_ent":"CO68","cve_mun":"013","cvegeo":"CO68013","nombre":"Aguada"},"geometry":{"type":"Polygon","coordinates":[[[-73.4812,6.1857],[-73.4812,6.1634],[-73.5424,6.1101],[-73.5767,6.2539],[-73.4812,6.1857]]]}},{"type":"Feature","properties":{"cve_ent":"CO68","cve_mun":"020","cvegeo":"CO68020","nombre":"Albania"},"geometry":{"type":"Polygon","coordinates":[[[-73.7627,5.773],[-73.7946,5.7296],[-73.8802,5.7073],[-73.8998,5.7371],[-73.9623,5.7395],[-73.8962,5.7829],[-73.8264,5.7904],[-73.7444,5.8709],[-73.7627,5.773]]]}},{"type":"Feature","properties":{"cve_ent":"CO68","cve_mun":"051","cvegeo":"CO68051","nombre":"Aratoca"},"geometry":{"type":"Polygon","coordinates":[[[-72.9389,6.6902],[-73.0001,6.6468],[-73.0809,6.6865],[-73.0674,6.7373],[-73.0037,6.8241],[-72.9829,6.7918],[-72.9389,6.6902]]]}},{"type":"Feature","properties":{"cve_ent":"CO68","cve_mun":"077","cvegeo":"CO68077","nombre":"Barbosa"},"geometry":{"type":"Polygon","coordinates":[[[-73.5877,5.9973],[-73.5938,5.9589],[-73.6354,5.9106],[-73.6636,5.9279],[-73.6195,5.9924],[-73.5877,5.9973]]]}},{"type":"Feature","properties":{"cve_ent":"CO68","cve_mun":"079","cvegeo":"CO68079","nombre":"Barichara"},"geometry":{"type":"Polygon","coordinates":[[[-73.1543,6.5997],[-73.2119,6.5588],[-73.2645,6.6295],[-73.2584,6.6952],[-73.2241,6.7336],[-73.18,6.7076],[-73.1935,6.6468],[-73.1543,6.5997]]]}},{"type":"Feature","properties":{"cve_ent":"CO68","cve_mun":"081","cvegeo":"CO68081","nombre":"Barrancabermeja"},"geometry":{"type":"Polygon","coordinates":[[[-73.5681,7.1835],[-73.5399,7.1538],[-73.7027,6.9455],[-73.7493,6.86],[-73.8117,6.8898],[-73.9488,6.8885],[-74.0945,6.8042],[-74.0112,6.9133],[-73.8974,6.9864],[-73.8876,7.0707],[-73.9292,7.1153],[-73.9231,7.2133],[-73.8864,7.1897],[-73.8178,7.2343],[-73.7199,7.2542],[-73.5681,7.1835]]]}},{"type":"Feature","properties":{"cve_ent":"CO68","cve_mun":"092","cvegeo":"CO68092","nombre":"Betulia"},"geometry":{"type":"Polygon","coordinates":[[[-73.2168,6.9257],[-73.2633,6.8575],[-73.3184,6.8811],[-73.3832,6.9988],[-73.453,6.9604],[-73.4983,6.9864],[-73.5399,7.1538],[-73.4506,7.1389],[-73.3783,7.067],[-73.2975,7.0199],[-73.2168,6.9257]]]}},{"type":"Feature","properties":{"cve_ent":"CO68","cve_mun":"101","cvegeo":"CO68101","nombre":"Bolívar"},"geometry":{"type":"Polygon","coordinates":[[[-74.1006,6.2217],[-74.0614,6.1845],[-73.9769,6.2242],[-73.9072,6.2254],[-73.846,6.1795],[-73.7688,6.1944],[-73.7284,6.1461],[-73.7517,6.0011],[-73.7676,5.9378],[-73.8582,5.9849],[-73.8509,6.0147],[-73.7639,6.042],[-73.8019,6.1287],[-73.928,6.1473],[-73.9843,6.1944],[-74.0773,6.1548],[-74.1802,5.9106],[-74.1948,5.856],[-74.2658,5.835],[-74.2218,5.9676],[-74.2867,6.0829],[-74.3785,6.0395],[-74.4519,6.099],[-74.5266,6.2737],[-74.5082,6.2861],[-74.4103,6.2192],[-74.4054,6.1287],[-74.3013,6.1114],[-74.2108,6.0705],[-74.2108,6.1671],[-74.1385,6.2366],[-74.1006,6.2217]]]}},{"type":"Feature","properties":{"cve_ent":"CO68","cve_mun":"121","cvegeo":"CO68121","nombre":"Cabrera"},"geometry":{"type":"Polygon","coordinates":[[[-73.2119,6.5588],[-73.2045,6.5427],[-73.2253,6.5266],[-73.2718,6.5105],[-73.2829,6.565],[-73.2645,6.6295],[-73.2119,6.5588]]]}},{"type":"Feature","properties":{"cve_ent":"CO68","cve_mun":"132","cvegeo":"CO68132","nombre":"California"},"geometry":{"type":"Polygon","coordinates":[[[-72.8654,7.3769],[-72.923,7.2926],[-72.9499,7.3484],[-72.8654,7.3769]]]}},{"type":"Feature","properties":{"cve_ent":"CO68","cve_mun":"147","cvegeo":"CO68147","nombre":"Capitanejo"},"geometry":{"type":"Polygon","coordinates":[[[-72.6377,6.508],[-72.6487,6.4361],[-72.661,6.4436],[-72.6793,6.4832],[-72.743,6.5663],[-72.7026,6.5948],[-72.6377,6.508]]]}},{"type":"Feature","properties":{"cve_ent":"CO68","cve_mun":"152","cvegeo":"CO68152","nombre":"Carcasí"},"geometry":{"type":"Polygon","coordinates":[[[-72.4994,6.7286],[-72.4859,6.6567],[-72.5422,6.5836],[-72.5998,6.5588],[-72.6671,6.6171],[-72.6243,6.7014],[-72.59,6.746],[-72.4994,6.7286]]]}},{"type":"Feature","properties":{"cve_ent":"CO68","cve_mun":"160","cvegeo":"CO68160","nombre":"Cepitá"},"geometry":{"type":"Polygon","coordinates":[[[-72.9095,6.6828],[-72.9083,6.6766],[-72.9389,6.6902],[-72.9829,6.7918],[-72.9376,6.8067],[-72.885,6.8142],[-72.8801,6.7175],[-72.9095,6.6828]]]}},{"type":"Feature","properties":{"cve_ent":"CO68","cve_mun":"162","cvegeo":"CO68162","nombre":"Cerrito"},"geometry":{"type":"Polygon","coordinates":[[[-72.5471,6.886],[-72.5839,6.798],[-72.7577,6.8265],[-72.7467,6.9579],[-72.7344,6.9864],[-72.7222,7.005],[-72.5533,6.9852],[-72.5471,6.886]]]}},{"type":"Feature","properties":{"cve_ent":"CO68","cve_mun":"167","cvegeo":"CO68167","nombre":"Charalá"},"geometry":{"type":"Polygon","coordinates":[[[-73.0013,6.358],[-73.0417,6.3345],[-73.1102,6.2155],[-73.136,6.2068],[-73.1727,6.1213],[-73.1396,5.9986],[-73.0821,5.9775],[-73.1751,5.9949],[-73.24,6.0544],[-73.2376,6.1275],[-73.2008,6.2762],[-73.2302,6.3072],[-73.2045,6.3295],[-73.1592,6.3555],[-73.1188,6.2886],[-73.0699,6.3828],[-73.0013,6.358]]]}},{"type":"Feature","properties":{"cve_ent":"CO68","cve_mun":"169","cvegeo":"CO68169","nombre":"Charta"},"geometry":{"type":"Polygon","coordinates":[[[-72.923,7.2926],[-72.8813,7.2566],[-73.005,7.2418],[-73.0564,7.1848],[-73.0711,7.1996],[-73.0466,7.279],[-72.978,7.3149],[-72.923,7.2926]]]}},{"type":"Feature","properties":{"cve_ent":"CO68","cve_mun":"176","cvegeo":"CO68176","nombre":"Chima"},"geometry":{"type":"Polygon","coordinates":[[[-73.3208,6.4002],[-73.3318,6.3704],[-73.3783,6.3109],[-73.464,6.3159],[-73.4763,6.3754],[-73.4653,6.4547],[-73.4383,6.4113],[-73.3208,6.4002]]]}},{"type":"Feature","properties":{"cve_ent":"CO68","cve_mun":"179","cvegeo":"CO68179","nombre":"Chipatá"},"geometry":{"type":"Polygon","coordinates":[[[-73.5791,6.0866],[-73.5962,6.0197],[-73.6942,6.0407],[-73.6366,6.1312],[-73.5791,6.0866]]]}},{"type":"Feature","properties":{"cve_ent":"CO68","cve_mun":"190","cvegeo":"CO68190","nombre":"Cimitarra"},"geometry":{"type":"Polygon","coordinates":[[[-73.9561,6.5774],[-73.8068,6.4609],[-73.8582,6.3308],[-73.9855,6.2229],[-74.1006,6.2217],[-74.1385,6.2366],[-74.2108,6.1671],[-74.2108,6.0705],[-74.3013,6.1114],[-74.4054,6.1287],[-74.4103,6.2192],[-74.5082,6.2861],[-74.4507,6.332],[-74.3968,6.4522],[-74.4091,6.5861],[-74.3601,6.632],[-74.2561,6.6753],[-74.2316,6.71],[-74.1092,6.777],[-74.0639,6.5997],[-73.9561,6.5774]]]}},{"type":"Feature","properties":{"cve_ent":"CO68","cve_mun":"207","cvegeo":"CO68207","nombre":"Concepción"},"geometry":{"type":"Polygon","coordinates":[[[-72.4774,6.8427],[-72.4994,6.7286],[-72.59,6.746],[-72.6243,6.7014],[-72.7075,6.7175],[-72.754,6.7832],[-72.7577,6.8265],[-72.5839,6.798],[-72.5471,6.886],[-72.5031,6.9084],[-72.4774,6.8427]]]}},{"type":"Feature","properties":{"cve_ent":"CO68","cve_mun":"209","cvegeo":"CO68209","nombre":"Confines"},"geometry":{"type":"Polygon","coordinates":[[[-73.2094,6.4064],[-73.2045,6.3295],[-73.2302,6.3072],[-73.3049,6.3481],[-73.2265,6.4088],[-73.2094,6.4064]]]}},{"type":"Feature","properties":{"cve_ent":"CO68","cve_mun":"211","cvegeo":"CO68211","nombre":"Contratación"},"geometry":{"type":"Polygon","coordinates":[[[-73.4763,6.3754],[-73.464,6.3159],[-73.4077,6.3109],[-73.4506,6.2316],[-73.4946,6.2688],[-73.5681,6.2675],[-73.5999,6.3208],[-73.5522,6.306],[-73.4763,6.3754]]]}},{"type":"Feature","properties":{"cve_ent":"CO68","cve_mun":"217","cvegeo":"CO68217","nombre":"Coromoro"},"geometry":{"type":"Polygon","coordinates":[[[-72.9119,6.3791],[-72.8764,6.2713],[-72.8679,6.1448],[-72.923,6.0977],[-72.9585,6.13],[-73.076,6.1498],[-73.136,6.2068],[-73.1102,6.2155],[-73.0417,6.3345],[-73.0013,6.358],[-72.9119,6.3791]]]}},{"type":"Feature","properties":{"cve_ent":"CO68","cve_mun":"229","cvegeo":"CO68229","nombre":"Curití"},"geometry":{"type":"Polygon","coordinates":[[[-73.0809,6.6865],[-73.0001,6.6468],[-72.9389,6.6902],[-72.9083,6.6766],[-72.8728,6.6307],[-72.9168,6.6493],[-73.0295,6.5378],[-73.1115,6.5849],[-73.1102,6.6493],[-73.1176,6.6865],[-73.0809,6.6865]]]}},{"type":"Feature","properties":{"cve_ent":"CO68","cve_mun":"235","cvegeo":"CO68235","nombre":"El Carmen de Chucuri"},"geometry":{"type":"Polygon","coordinates":[[[-73.3832,6.7014],[-73.3991,6.6357],[-73.4383,6.5254],[-73.677,6.5514],[-73.7346,6.6171],[-73.7309,6.7633],[-73.6354,6.772],[-73.6391,6.8327],[-73.546,6.8104],[-73.3832,6.7014]]]}},{"type":"Feature","properties":{"cve_ent":"CO68","cve_mun":"245","cvegeo":"CO68245","nombre":"El Guacamayo"},"geometry":{"type":"Polygon","coordinates":[[[-73.4506,6.2316],[-73.4812,6.1857],[-73.5767,6.2539],[-73.6366,6.2911],[-73.5999,6.3208],[-73.5681,6.2675],[-73.4946,6.2688],[-73.4506,6.2316]]]}},{"type":"Feature","properties":{"cve_ent":"CO68","cve_mun":"250","cvegeo":"CO68250","nombre":"El Peñón"},"geometry":{"type":"Polygon","coordinates":[[[-73.8509,6.0147],[-73.9463,6.0705],[-74.0345,6.0494],[-74.0773,6.1548],[-73.9843,6.1944],[-73.928,6.1473],[-73.8019,6.1287],[-73.7639,6.042],[-73.8509,6.0147]]]}},{"type":"Feature","properties":{"cve_ent":"CO68","cve_mun":"255","cvegeo":"CO68255","nombre":"El Playón"},"geometry":{"type":"Polygon","coordinates":[[[-73.049,7.6062],[-73.0882,7.5281],[-73.0454,7.4587],[-73.3061,7.4413],[-73.3257,7.4983],[-73.2816,7.5479],[-73.218,7.6322],[-73.049,7.6062]]]}},{"type":"Feature","properties":{"cve_ent":"CO68","cve_mun":"264","cvegeo":"CO68264","nombre":"Encino"},"geometry":{"type":"Polygon","coordinates":[[[-72.923,6.0977],[-72.9695,6.0197],[-73.0111,5.9626],[-73.0307,6.0209],[-73.0821,5.9775],[-73.1396,5.9986],[-73.1727,6.1213],[-73.136,6.2068],[-73.076,6.1498],[-72.9585,6.13],[-72.923,6.0977]]]}},{"type":"Feature","properties":{"cve_ent":"CO68","cve_mun":"266","cvegeo":"CO68266","nombre":"Enciso"},"geometry":{"type":"Polygon","coordinates":[[[-72.6243,6.7014],[-72.6671,6.6171],[-72.7234,6.5787],[-72.7075,6.6741],[-72.7075,6.7175],[-72.6243,6.7014]]]}},{"type":"Feature","properties":{"cve_ent":"CO68","cve_mun":"271","cvegeo":"CO68271","nombre":"Florián"},"geometry":{"type":"Polygon","coordinates":[[[-73.8264,5.7904],[-73.8962,5.7829],[-73.9623,5.7395],[-73.9818,5.7209],[-74.0259,5.8065],[-74.0798,5.8189],[-74.0786,5.8325],[-73.9965,5.8226],[-73.9145,5.8424],[-73.8264,5.7904]]]}},{"type":"Feature","properties":{"cve_ent":"CO68","cve_mun":"276","cvegeo":"CO68276","nombre":"Floridablanca"},"geometry":{"type":"Polygon","coordinates":[[[-73.005,7.0992],[-73.0368,7.0521],[-73.1176,7.0187],[-73.1237,7.0682],[-73.0466,7.1389],[-73.005,7.0992]]]}},{"type":"Feature","properties":{"cve_ent":"CO68","cve_mun":"296","cvegeo":"CO68296","nombre":"Galán"},"geometry":{"type":"Polygon","coordinates":[[[-73.2584,6.6952],[-73.2645,6.6295],[-73.2829,6.565],[-73.3037,6.5663],[-73.3991,6.6357],[-73.36,6.7832],[-73.2584,6.6952]]]}},{"type":"Feature","properties":{"cve_ent":"CO68","cve_mun":"298","cvegeo":"CO68298","nombre":"Gámbita"},"geometry":{"type":"Polygon","coordinates":[[[-73.24,6.0544],[-73.1751,5.9949],[-73.2192,5.9131],[-73.1837,5.8498],[-73.3453,5.8424],[-73.3575,5.8065],[-73.382,5.7606],[-73.4714,5.8213],[-73.464,5.8486],[-73.4334,5.8982],[-73.4016,5.9019],[-73.371,6.006],[-73.404,6.0556],[-73.3196,6.0816],[-73.24,6.0544]]]}},{"type":"Feature","properties":{"cve_ent":"CO68","cve_mun":"307","cvegeo":"CO68307","nombre":"Girón"},"geometry":{"type":"Polygon","coordinates":[[[-73.1237,7.0682],[-73.1054,6.9108],[-73.1764,6.8848],[-73.2168,6.9257],[-73.2975,7.0199],[-73.3783,7.067],[-73.4506,7.1389],[-73.5399,7.1538],[-73.5509,7.1637],[-73.4371,7.181],[-73.4175,7.15],[-73.3061,7.1215],[-73.2608,7.0534],[-73.207,7.0435],[-73.1641,7.1513],[-73.1641,7.2108],[-73.158,7.2157],[-73.1641,7.0868],[-73.1237,7.0682]]]}},{"type":"Feature","properties":{"cve_ent":"CO68","cve_mun":"318","cvegeo":"CO68318","nombre":"Guaca"},"geometry":{"type":"Polygon","coordinates":[[[-72.7503,7.0596],[-72.7344,6.9864],[-72.7467,6.9579],[-72.7614,6.9046],[-72.8262,6.8798],[-72.885,6.8142],[-72.9376,6.8067],[-72.9181,6.8476],[-72.8703,6.9294],[-72.8471,7.0422],[-72.8189,7.072],[-72.7503,7.0596]]]}},{"type":"Feature","properties":{"cve_ent":"CO68","cve_mun":"320","cvegeo":"CO68320","nombre":"Guadalupe"},"geometry":{"type":"Polygon","coordinates":[[[-73.3783,6.3109],[-73.36,6.2762],[-73.3612,6.1783],[-73.4738,6.156],[-73.4812,6.1634],[-73.4812,6.1857],[-73.4506,6.2316],[-73.4077,6.3109],[-73.3783,6.3109]]]}},{"type":"Feature","properties":{"cve_ent":"CO68","cve_mun":"322","cvegeo":"CO68322","nombre":"Guapotá"},"geometry":{"type":"Polygon","coordinates":[[[-73.3049,6.3481],[-73.278,6.3345],[-73.36,6.2762],[-73.3783,6.3109],[-73.3318,6.3704],[-73.3049,6.3481]]]}},{"type":"Feature","properties":{"cve_ent":"CO68","cve_mun":"324","cvegeo":"CO68324","nombre":"Guavatá"},"geometry":{"type":"Polygon","coordinates":[[[-73.6636,5.9279],[-73.7505,5.8932],[-73.7578,5.9044],[-73.7676,5.9378],[-73.7517,6.0011],[-73.6636,5.9279]]]}},{"type":"Feature","properties":{"cve_ent":"CO68","cve_mun":"327","cvegeo":"CO68327","nombre":"Güepsa"},"geometry":{"type":"Polygon","coordinates":[[[-73.5375,6.042],[-73.5877,5.9973],[-73.6195,5.9924],[-73.5962,6.0197],[-73.5791,6.0804],[-73.5375,6.042]]]}},{"type":"Feature","properties":{"cve_ent":"CO68","cve_mun":"344","cvegeo":"CO68344","nombre":"Hato"},"geometry":{"type":"Polygon","coordinates":[[[-73.3037,6.5663],[-73.3061,6.4907],[-73.4004,6.534],[-73.4383,6.5254],[-73.3991,6.6357],[-73.3037,6.5663]]]}},{"type":"Feature","properties":{"cve_ent":"CO68","cve_mun":"368","cvegeo":"CO68368","nombre":"Jesús María"},"geometry":{"type":"Polygon","coordinates":[[[-73.7578,5.9044],[-73.7505,5.8932],[-73.7444,5.8709],[-73.8264,5.7904],[-73.9145,5.8424],[-73.9243,5.8684],[-73.8423,5.8474],[-73.7578,5.9044]]]}},{"type":"Feature","properties":{"cve_ent":"CO68","cve_mun":"370","cvegeo":"CO68370","nombre":"Jordán"},"geometry":{"type":"Polygon","coordinates":[[[-73.0809,6.6865],[-73.1176,6.6865],[-73.1458,6.7299],[-73.0674,6.7373],[-73.0809,6.6865]]]}},{"type":"Feature","properties":{"cve_ent":"CO68","cve_mun":"377","cvegeo":"CO68377","nombre":"La Belleza"},"geometry":{"type":"Polygon","coordinates":[[[-73.9243,5.8684],[-73.9145,5.8424],[-73.9965,5.8226],[-74.0786,5.8325],[-74.1067,5.8784],[-74.1802,5.9106],[-74.1275,6.0333],[-74.0577,5.9317],[-73.9194,5.9205],[-73.9243,5.8684]]]}},{"type":"Feature","properties":{"cve_ent":"CO68","cve_mun":"385","cvegeo":"CO68385","nombre":"Landázuri"},"geometry":{"type":"Polygon","coordinates":[[[-73.7811,6.5526],[-73.7848,6.5043],[-73.6844,6.4138],[-73.7431,6.3171],[-73.726,6.2403],[-73.7688,6.1944],[-73.846,6.1795],[-73.9072,6.2254],[-73.9769,6.2242],[-74.0614,6.1845],[-74.1006,6.2217],[-73.9855,6.2229],[-73.8582,6.3308],[-73.8068,6.4609],[-73.8704,6.513],[-73.7811,6.5526]]]}},{"type":"Feature","properties":{"cve_ent":"CO68","cve_mun":"397","cvegeo":"CO68397","nombre":"La Paz"},"geometry":{"type":"Polygon","coordinates":[[[-73.6366,6.2911],[-73.5767,6.2539],[-73.5424,6.1101],[-73.5791,6.0866],[-73.6856,6.1721],[-73.6819,6.2527],[-73.7199,6.2948],[-73.6685,6.3841],[-73.6366,6.2911]]]}},{"type":"Feature","properties":{"cve_ent":"CO68","cve_mun":"406","cvegeo":"CO68406","nombre":"Lebrija"},"geometry":{"type":"Polygon","coordinates":[[[-73.1641,7.2108],[-73.1641,7.1513],[-73.207,7.0435],[-73.2608,7.0534],[-73.3061,7.1215],[-73.4175,7.15],[-73.4371,7.181],[-73.3551,7.2852],[-73.3967,7.4029],[-73.3477,7.4178],[-73.3294,7.3347],[-73.2743,7.3],[-73.2265,7.2232],[-73.1641,7.2108]]]}},{"type":"Feature","properties":{"cve_ent":"CO68","cve_mun":"418","cvegeo":"CO68418","nombre":"Los Santos"},"geometry":{"type":"Polygon","coordinates":[[[-73.1054,6.9108],[-73.0037,6.8241],[-73.0674,6.7373],[-73.1458,6.7299],[-73.1984,6.7683],[-73.1764,6.8848],[-73.1054,6.9108]]]}},{"type":"Feature","properties":{"cve_ent":"CO68","cve_mun":"425","cvegeo":"CO68425","nombre":"Macaravita"},"geometry":{"type":"Polygon","coordinates":[[[-72.5422,6.5836],[-72.5349,6.4956],[-72.5398,6.4882],[-72.5484,6.4869],[-72.623,6.4411],[-72.6487,6.4361],[-72.6377,6.508],[-72.5998,6.5588],[-72.5422,6.5836]]]}},{"type":"Feature","properties":{"cve_ent":"CO68","cve_mun":"432","cvegeo":"CO68432","nombre":"Málaga"},"geometry":{"type":"Polygon","coordinates":[[[-72.7075,6.7175],[-72.7075,6.6741],[-72.7699,6.6828],[-72.7748,6.7249],[-72.754,6.7832],[-72.7075,6.7175]]]}},{"type":"Feature","properties":{"cve_ent":"CO68","cve_mun":"444","cvegeo":"CO68444","nombre":"Matanza"},"geometry":{"type":"Polygon","coordinates":[[[-73.0454,7.4587],[-72.9989,7.4178],[-72.978,7.3149],[-73.0466,7.279],[-73.0711,7.1996],[-73.0821,7.2666],[-73.1188,7.3261],[-73.0784,7.4574],[-73.0454,7.4587]]]}},{"type":"Feature","properties":{"cve_ent":"CO68","cve_mun":"464","cvegeo":"CO68464","nombre":"Mogotes"},"geometry":{"type":"Polygon","coordinates":[[[-72.8728,6.6307],[-72.8336,6.5675],[-72.8789,6.4981],[-72.9119,6.3791],[-73.0013,6.358],[-73.0699,6.3828],[-73.0723,6.3903],[-73.0747,6.482],[-73.0295,6.5378],[-72.9168,6.6493],[-72.8728,6.6307]]]}},{"type":"Feature","properties":{"cve_ent":"CO68","cve_mun":"468","cvegeo":"CO68468","nombre":"Molagavita"},"geometry":{"type":"Polygon","coordinates":[[[-72.7699,6.6828],[-72.7699,6.5799],[-72.8116,6.5427],[-72.8189,6.5439],[-72.8728,6.6307],[-72.9083,6.6766],[-72.9095,6.6828],[-72.7748,6.7249],[-72.7699,6.6828]]]}},{"type":"Feature","properties":{"cve_ent":"CO68","cve_mun":"498","cvegeo":"CO68498","nombre":"Ocamonte"},"geometry":{"type":"Polygon","coordinates":[[[-73.0723,6.3903],[-73.0699,6.3828],[-73.1188,6.2886],[-73.1592,6.3555],[-73.1617,6.4026],[-73.0723,6.3903]]]}},{"type":"Feature","properties":{"cve_ent":"CO68","cve_mun":"500","cvegeo":"CO68500","nombre":"Oiba"},"geometry":{"type":"Polygon","coordinates":[[[-73.278,6.3345],[-73.2302,6.3072],[-73.2008,6.2762],[-73.2376,6.1275],[-73.3,6.1349],[-73.3612,6.1783],[-73.36,6.2762],[-73.278,6.3345]]]}},{"type":"Feature","properties":{"cve_ent":"CO68","cve_mun":"502","cvegeo":"CO68502","nombre":"Onzaga"},"geometry":{"type":"Polygon","coordinates":[[[-72.8116,6.5427],[-72.7357,6.4907],[-72.7381,6.4398],[-72.7259,6.3717],[-72.7455,6.275],[-72.8287,6.1523],[-72.8679,6.1448],[-72.8764,6.2713],[-72.9095,6.3741],[-72.8177,6.4002],[-72.8189,6.5439],[-72.8116,6.5427]]]}},{"type":"Feature","properties":{"cve_ent":"CO68","cve_mun":"522","cvegeo":"CO68522","nombre":"Palmar"},"geometry":{"type":"Polygon","coordinates":[[[-73.2829,6.565],[-73.2718,6.5105],[-73.2926,6.4845],[-73.3061,6.4907],[-73.3037,6.5663],[-73.2829,6.565]]]}},{"type":"Feature","properties":{"cve_ent":"CO68","cve_mun":"524","cvegeo":"CO68524","nombre":"Palmas del Socorro"},"geometry":{"type":"Polygon","coordinates":[[[-73.2265,6.4088],[-73.3049,6.3481],[-73.3318,6.3704],[-73.3159,6.4163],[-73.2265,6.4088]]]}},{"type":"Feature","properties":{"cve_ent":"CO68","cve_mun":"533","cvegeo":"CO68533","nombre":"Páramo"},"geometry":{"type":"Polygon","coordinates":[[[-73.1151,6.482],[-73.1617,6.4026],[-73.1592,6.3555],[-73.2045,6.3295],[-73.2094,6.4064],[-73.1751,6.4646],[-73.1482,6.4944],[-73.1151,6.482]]]}},{"type":"Feature","properties":{"cve_ent":"CO68","cve_mun":"547","cvegeo":"CO68547","nombre":"Piedecuesta"},"geometry":{"type":"Polygon","coordinates":[[[-72.9107,7.0819],[-72.9205,6.9951],[-72.9903,6.9369],[-72.9181,6.8476],[-72.9376,6.8067],[-72.9829,6.7918],[-73.0037,6.8241],[-73.1054,6.9108],[-73.1176,7.0187],[-73.0368,7.0521],[-73.005,7.0992],[-72.9107,7.0819]]]}},{"type":"Feature","properties":{"cve_ent":"CO68","cve_mun":"549","cvegeo":"CO68549","nombre":"Pinchote"},"geometry":{"type":"Polygon","coordinates":[[[-73.1482,6.4944],[-73.1751,6.4646],[-73.2253,6.5266],[-73.2045,6.5427],[-73.1482,6.4944]]]}},{"type":"Feature","properties":{"cve_ent":"CO68","cve_mun":"572","cvegeo":"CO68572","nombre":"Puente Nacional"},"geometry":{"type":"Polygon","coordinates":[[[-73.6354,5.9106],[-73.5999,5.8697],[-73.6256,5.778],[-73.6513,5.7123],[-73.7113,5.7767],[-73.7627,5.773],[-73.7444,5.8709],[-73.7505,5.8932],[-73.6636,5.9279],[-73.6354,5.9106]]]}},{"type":"Feature","properties":{"cve_ent":"CO68","cve_mun":"573","cvegeo":"CO68573","nombre":"Puerto Parra"},"geometry":{"type":"Polygon","coordinates":[[[-73.7615,6.5526],[-73.7811,6.5526],[-73.8704,6.513],[-73.9561,6.5774],[-74.0639,6.5997],[-74.1092,6.777],[-74.0945,6.8042],[-73.9488,6.8885],[-73.9598,6.8055],[-73.8631,6.7026],[-73.8349,6.6369],[-73.7615,6.5526]]]}},{"type":"Feature","properties":{"cve_ent":"CO68","cve_mun":"575","cvegeo":"CO68575","nombre":"Puerto Wilches"},"geometry":{"type":"Polygon","coordinates":[[[-73.7211,8.009],[-73.6709,7.8937],[-73.7505,7.8032],[-73.7529,7.7512],[-73.7652,7.6384],[-73.7248,7.5876],[-73.775,7.5293],[-73.7762,7.4227],[-73.6477,7.3422],[-73.5754,7.2728],[-73.5681,7.1835],[-73.7199,7.2542],[-73.8178,7.2343],[-73.8864,7.1897],[-73.9231,7.2133],[-73.9157,7.2951],[-73.8949,7.4302],[-73.917,7.4723],[-73.846,7.5417],[-73.7982,7.7723],[-73.8313,7.9322],[-73.8619,7.9718],[-73.868,8.0635],[-73.775,8.1453],[-73.7639,8.0635],[-73.7211,8.009]]]}},{"type":"Feature","properties":{"cve_ent":"CO68","cve_mun":"615","cvegeo":"CO68615","nombre":"Rionegro"},"geometry":{"type":"Polygon","coordinates":[[[-73.3698,7.564],[-73.2816,7.5479],[-73.3257,7.4983],[-73.3061,7.4413],[-73.0784,7.4574],[-73.1188,7.3261],[-73.0821,7.2666],[-73.1641,7.2108],[-73.2265,7.2232],[-73.2743,7.3],[-73.3294,7.3347],[-73.3477,7.4178],[-73.3967,7.4029],[-73.4775,7.5021],[-73.5265,7.5194],[-73.5669,7.5888],[-73.6403,7.6087],[-73.6954,7.6731],[-73.7603,7.6954],[-73.7529,7.7512],[-73.633,7.7487],[-73.4628,7.5752],[-73.3698,7.564]]]}},{"type":"Feature","properties":{"cve_ent":"CO68","cve_mun":"655","cvegeo":"CO68655","nombre":"Sabana de Torres"},"geometry":{"type":"Polygon","coordinates":[[[-73.3967,7.4029],[-73.3551,7.2852],[-73.4371,7.181],[-73.5509,7.1637],[-73.5681,7.1835],[-73.5754,7.2728],[-73.6477,7.3422],[-73.7762,7.4227],[-73.775,7.5293],[-73.7248,7.5876],[-73.7652,7.6384],[-73.7603,7.6954],[-73.6954,7.6731],[-73.6403,7.6087],[-73.5669,7.5888],[-73.5265,7.5194],[-73.4775,7.5021],[-73.3967,7.4029]]]}},{"type":"Feature","properties":{"cve_ent":"CO68","cve_mun":"669","cvegeo":"CO68669","nombre":"San Andrés"},"geometry":{"type":"Polygon","coordinates":[[[-72.7577,6.8265],[-72.754,6.7832],[-72.7748,6.7249],[-72.9095,6.6828],[-72.8801,6.7175],[-72.885,6.8142],[-72.8262,6.8798],[-72.7614,6.9046],[-72.7467,6.9579],[-72.7577,6.8265]]]}},{"type":"Feature","properties":{"cve_ent":"CO68","cve_mun":"673","cvegeo":"CO68673","nombre":"San Benito"},"geometry":{"type":"Polygon","coordinates":[[[-73.4812,6.1634],[-73.4738,6.156],[-73.4971,6.1077],[-73.5375,6.042],[-73.5791,6.0804],[-73.5791,6.0866],[-73.5424,6.1101],[-73.4812,6.1634]]]}},{"type":"Feature","properties":{"cve_ent":"CO68","cve_mun":"679","cvegeo":"CO68679","nombre":"San Gil"},"geometry":{"type":"Polygon","coordinates":[[[-73.1102,6.6493],[-73.1115,6.5849],[-73.0295,6.5378],[-73.0747,6.482],[-73.1151,6.482],[-73.1482,6.4944],[-73.2045,6.5427],[-73.2119,6.5588],[-73.1543,6.5997],[-73.1102,6.6493]]]}},{"type":"Feature","properties":{"cve_ent":"CO68","cve_mun":"682","cvegeo":"CO68682","nombre":"San Joaquín"},"geometry":{"type":"Polygon","coordinates":[[[-72.8189,6.5439],[-72.8177,6.4002],[-72.9095,6.3741],[-72.9119,6.3791],[-72.8789,6.4981],[-72.8336,6.5675],[-72.8189,6.5439]]]}},{"type":"Feature","properties":{"cve_ent":"CO68","cve_mun":"684","cvegeo":"CO68684","nombre":"San José de Miranda"},"geometry":{"type":"Polygon","coordinates":[[[-72.7075,6.6741],[-72.7234,6.5787],[-72.743,6.5663],[-72.7699,6.5799],[-72.7699,6.6828],[-72.7075,6.6741]]]}},{"type":"Feature","properties":{"cve_ent":"CO68","cve_mun":"686","cvegeo":"CO68686","nombre":"San Miguel"},"geometry":{"type":"Polygon","coordinates":[[[-72.5998,6.5588],[-72.6377,6.508],[-72.7026,6.5948],[-72.6671,6.6171],[-72.5998,6.5588]]]}},{"type":"Feature","properties":{"cve_ent":"CO68","cve_mun":"689","cvegeo":"CO68689","nombre":"San Vicente de Chucurí"},"geometry":{"type":"Polygon","coordinates":[[[-73.453,6.9604],[-73.3588,6.9443],[-73.333,6.8885],[-73.3832,6.7014],[-73.546,6.8104],[-73.6391,6.8327],[-73.6354,6.772],[-73.7309,6.7633],[-73.7493,6.86],[-73.7027,6.9455],[-73.5399,7.1538],[-73.4983,6.9864],[-73.453,6.9604]]]}},{"type":"Feature","properties":{"cve_ent":"CO68","cve_mun":"705","cvegeo":"CO68705","nombre":"Santa Bárbara"},"geometry":{"type":"Polygon","coordinates":[[[-72.8189,7.072],[-72.8471,7.0422],[-72.8703,6.9294],[-72.9181,6.8476],[-72.9903,6.9369],[-72.9205,6.9951],[-72.9107,7.0819],[-72.8483,7.1377],[-72.8189,7.072]]]}},{"type":"Feature","properties":{"cve_ent":"CO68","cve_mun":"720","cvegeo":"CO68720","nombre":"Santa Helena del Opón"},"geometry":{"type":"Polygon","coordinates":[[[-73.4653,6.4547],[-73.4763,6.3754],[-73.5522,6.306],[-73.5999,6.3208],[-73.6366,6.2911],[-73.6685,6.3841],[-73.6428,6.4473],[-73.6758,6.4807],[-73.6244,6.5254],[-73.4653,6.4547]]]}},{"type":"Feature","properties":{"cve_ent":"CO68","cve_mun":"745","cvegeo":"CO68745","nombre":"Simacota"},"geometry":{"type":"Polygon","coordinates":[[[-73.7493,6.86],[-73.7309,6.7633],[-73.7346,6.6171],[-73.677,6.5514],[-73.4383,6.5254],[-73.4004,6.534],[-73.2926,6.4845],[-73.3208,6.4002],[-73.4383,6.4113],[-73.4653,6.4547],[-73.6244,6.5254],[-73.6758,6.4807],[-73.7615,6.5526],[-73.8349,6.6369],[-73.8631,6.7026],[-73.9598,6.8055],[-73.9488,6.8885],[-73.8117,6.8898],[-73.7493,6.86]]]}},{"type":"Feature","properties":{"cve_ent":"CO68","cve_mun":"755","cvegeo":"CO68755","nombre":"Socorro"},"geometry":{"type":"Polygon","coordinates":[[[-73.1751,6.4646],[-73.2094,6.4064],[-73.3159,6.4163],[-73.2926,6.4845],[-73.2718,6.5105],[-73.2253,6.5266],[-73.1751,6.4646]]]}},{"type":"Feature","properties":{"cve_ent":"CO68","cve_mun":"770","cvegeo":"CO68770","nombre":"Suaita"},"geometry":{"type":"Polygon","coordinates":[[[-73.3612,6.1783],[-73.3,6.1349],[-73.2376,6.1275],[-73.24,6.0544],[-73.3196,6.0816],[-73.404,6.0556],[-73.4542,6.0791],[-73.4971,6.1077],[-73.4738,6.156],[-73.3612,6.1783]]]}},{"type":"Feature","properties":{"cve_ent":"CO68","cve_mun":"773","cvegeo":"CO68773","nombre":"Sucre"},"geometry":{"type":"Polygon","coordinates":[[[-74.0773,6.1548],[-74.0345,6.0494],[-73.9463,6.0705],[-73.8509,6.0147],[-73.8582,5.9849],[-73.7676,5.9378],[-73.7578,5.9044],[-73.8423,5.8474],[-73.9243,5.8684],[-73.9194,5.9205],[-74.0577,5.9317],[-74.1275,6.0333],[-74.0773,6.1548]]]}},{"type":"Feature","properties":{"cve_ent":"CO68","cve_mun":"780","cvegeo":"CO68780","nombre":"Suratá"},"geometry":{"type":"Polygon","coordinates":[[[-72.9829,7.6198],[-72.978,7.5293],[-72.896,7.4674],[-72.863,7.3831],[-72.8654,7.3769],[-72.9499,7.3484],[-72.923,7.2926],[-72.978,7.3149],[-72.9989,7.4178],[-73.0454,7.4587],[-73.0882,7.5281],[-73.049,7.6062],[-72.9829,7.6198]]]}},{"type":"Feature","properties":{"cve_ent":"CO68","cve_mun":"820","cvegeo":"CO68820","nombre":"Tona"},"geometry":{"type":"Polygon","coordinates":[[[-72.8483,7.1377],[-72.9107,7.0819],[-73.005,7.0992],[-73.0466,7.1389],[-73.0564,7.1848],[-73.005,7.2418],[-72.8813,7.2566],[-72.8764,7.2641],[-72.8409,7.1947],[-72.8483,7.1377]]]}},{"type":"Feature","properties":{"cve_ent":"CO68","cve_mun":"855","cvegeo":"CO68855","nombre":"Valle de San José"},"geometry":{"type":"Polygon","coordinates":[[[-73.0747,6.482],[-73.0723,6.3903],[-73.1617,6.4026],[-73.1151,6.482],[-73.0747,6.482]]]}},{"type":"Feature","properties":{"cve_ent":"CO68","cve_mun":"861","cvegeo":"CO68861","nombre":"Vélez"},"geometry":{"type":"Polygon","coordinates":[[[-73.7615,6.5526],[-73.6758,6.4807],[-73.6428,6.4473],[-73.6685,6.3841],[-73.7199,6.2948],[-73.6819,6.2527],[-73.6856,6.1721],[-73.6366,6.1312],[-73.6942,6.0407],[-73.5962,6.0197],[-73.6195,5.9924],[-73.6636,5.9279],[-73.7517,6.0011],[-73.7284,6.1461],[-73.7688,6.1944],[-73.726,6.2403],[-73.7431,6.3171],[-73.6844,6.4138],[-73.7848,6.5043],[-73.7811,6.5526],[-73.7615,6.5526]]]}},{"type":"Feature","properties":{"cve_ent":"CO68","cve_mun":"867","cvegeo":"CO68867","nombre":"Vetas"},"geometry":{"type":"Polygon","coordinates":[[[-72.8385,7.3595],[-72.8336,7.3037],[-72.8813,7.2566],[-72.923,7.2926],[-72.863,7.3831],[-72.8385,7.3595]]]}},{"type":"Feature","properties":{"cve_ent":"CO68","cve_mun":"872","cvegeo":"CO68872","nombre":"Villanueva"},"geometry":{"type":"Polygon","coordinates":[[[-73.1984,6.7683],[-73.1458,6.7299],[-73.1176,6.6865],[-73.1102,6.6493],[-73.1543,6.5997],[-73.1935,6.6468],[-73.18,6.7076],[-73.2241,6.7336],[-73.1984,6.7683]]]}},{"type":"Feature","properties":{"cve_ent":"CO68","cve_mun":"895","cvegeo":"CO68895","nombre":"Zapatoca"},"geometry":{"type":"Polygon","coordinates":[[[-73.2168,6.9257],[-73.1764,6.8848],[-73.1984,6.7683],[-73.2241,6.7336],[-73.2584,6.6952],[-73.36,6.7832],[-73.333,6.8885],[-73.3588,6.9443],[-73.453,6.9604],[-73.3832,6.9988],[-73.3184,6.8811],[-73.2633,6.8575],[-73.2168,6.9257]]]}}]}