{"type":"FeatureCollection","features":[{"type":"Feature","properties":{"cve_ent":"CO70","cve_mun":"001","cvegeo":"CO70001","nombre":"Sincelejo"},"geometry":{"type":"Polygon","coordinates":[[[-75.3982,9.396],[-75.3382,9.3142],[-75.3492,9.2262],[-75.4569,9.2373],[-75.4778,9.2472],[-75.4986,9.2857],[-75.4912,9.339],[-75.5414,9.3935],[-75.5267,9.427],[-75.4888,9.3885],[-75.3982,9.396]]]}},{"type":"Feature","properties":{"cve_ent":"CO70","cve_mun":"110","cvegeo":"CO70110","nombre":"Buenavista"},"geometry":{"type":"Polygon","coordinates":[[[-74.922,9.3885],[-74.9416,9.2919],[-74.9085,9.2051],[-74.9367,9.21],[-75.0077,9.3241],[-74.9575,9.3675],[-74.9599,9.4344],[-74.922,9.3885]]]}},{"type":"Feature","properties":{"cve_ent":"CO70","cve_mun":"124","cvegeo":"CO70124","nombre":"Caimito"},"geometry":{"type":"Polygon","coordinates":[[[-75.1864,8.9138],[-75.1007,8.8766],[-75.0138,8.8047],[-75.0309,8.6535],[-75.0726,8.713],[-75.217,8.7341],[-75.2452,8.8494],[-75.2035,8.9151],[-75.1864,8.9138]]]}},{"type":"Feature","properties":{"cve_ent":"CO70","cve_mun":"204","cvegeo":"CO70204","nombre":"Colosó"},"geometry":{"type":"Polygon","coordinates":[[[-75.3737,9.629],[-75.3504,9.536],[-75.2856,9.5038],[-75.3003,9.4728],[-75.3639,9.4443],[-75.3908,9.4691],[-75.4006,9.629],[-75.3737,9.629]]]}},{"type":"Feature","properties":{"cve_ent":"CO70","cve_mun":"215","cvegeo":"CO70215","nombre":"Corozal"},"geometry":{"type":"Polygon","coordinates":[[[-75.2366,9.3402],[-75.2721,9.2683],[-75.2709,9.21],[-75.2048,9.2113],[-75.1423,9.1592],[-75.1215,9.0997],[-75.2244,9.1059],[-75.2721,9.1382],[-75.3492,9.2262],[-75.3382,9.3142],[-75.2856,9.3526],[-75.2366,9.3402]]]}},{"type":"Feature","properties":{"cve_ent":"CO70","cve_mun":"221","cvegeo":"CO70221","nombre":"Coveñas"},"geometry":{"type":"Polygon","coordinates":[[[-75.6173,9.4059],[-75.6491,9.3625],[-75.7042,9.3724],[-75.7006,9.4121],[-75.6075,9.4691],[-75.6173,9.4059]]]}},{"type":"Feature","properties":{"cve_ent":"CO70","cve_mun":"230","cvegeo":"CO70230","nombre":"Chalán"},"geometry":{"type":"Polygon","coordinates":[[[-75.3272,9.6166],[-75.2843,9.5769],[-75.2856,9.5038],[-75.3504,9.536],[-75.3737,9.629],[-75.3272,9.6166]]]}},{"type":"Feature","properties":{"cve_ent":"CO70","cve_mun":"233","cvegeo":"CO70233","nombre":"El Roble"},"geometry":{"type":"Polygon","coordinates":[[[-75.0824,9.1097],[-75.0285,9.0477],[-75.1277,9.0105],[-75.2084,9.034],[-75.2244,9.0737],[-75.2721,9.1382],[-75.2244,9.1059],[-75.1215,9.0997],[-75.1423,9.1592],[-75.0824,9.1097]]]}},{"type":"Feature","properties":{"cve_ent":"CO70","cve_mun":"235","cvegeo":"CO70235","nombre":"Galeras"},"geometry":{"type":"Polygon","coordinates":[[[-74.9085,9.2051],[-74.8436,9.1072],[-74.911,9.1084],[-75.0285,9.0477],[-75.0824,9.1097],[-75.075,9.2014],[-74.9367,9.21],[-74.9085,9.2051]]]}},{"type":"Feature","properties":{"cve_ent":"CO70","cve_mun":"265","cvegeo":"CO70265","nombre":"Guaranda"},"geometry":{"type":"Polygon","coordinates":[[[-74.5388,8.4279],[-74.649,8.3139],[-74.7812,8.278],[-74.84,8.3945],[-74.6649,8.3821],[-74.6466,8.4428],[-74.5694,8.5097],[-74.5388,8.4279]]]}},{"type":"Feature","properties":{"cve_ent":"CO70","cve_mun":"400","cvegeo":"CO70400","nombre":"La Unión"},"geometry":{"type":"Polygon","coordinates":[[[-75.2035,8.9151],[-75.2452,8.8494],[-75.217,8.7341],[-75.3358,8.7118],[-75.3639,8.8295],[-75.2586,8.8952],[-75.2035,8.9151]]]}},{"type":"Feature","properties":{"cve_ent":"CO70","cve_mun":"418","cvegeo":"CO70418","nombre":"Los Palmitos"},"geometry":{"type":"Polygon","coordinates":[[[-75.1105,9.4406],[-75.113,9.4009],[-75.1472,9.4009],[-75.2366,9.3402],[-75.2856,9.3526],[-75.2599,9.4108],[-75.3003,9.4728],[-75.2856,9.5001],[-75.1105,9.4406]]]}},{"type":"Feature","properties":{"cve_ent":"CO70","cve_mun":"429","cvegeo":"CO70429","nombre":"Majagual"},"geometry":{"type":"Polygon","coordinates":[[[-74.6086,8.7304],[-74.5633,8.5717],[-74.5694,8.5097],[-74.6466,8.4428],[-74.6649,8.3821],[-74.84,8.3945],[-74.8987,8.4465],[-74.8461,8.5308],[-74.7873,8.6139],[-74.7482,8.6213],[-74.7188,8.7192],[-74.6086,8.7304]]]}},{"type":"Feature","properties":{"cve_ent":"CO70","cve_mun":"473","cvegeo":"CO70473","nombre":"Morroa"},"geometry":{"type":"Polygon","coordinates":[[[-75.3003,9.4728],[-75.2599,9.4108],[-75.2856,9.3526],[-75.3382,9.3142],[-75.3982,9.396],[-75.3639,9.4443],[-75.3003,9.4728]]]}},{"type":"Feature","properties":{"cve_ent":"CO70","cve_mun":"508","cvegeo":"CO70508","nombre":"Ovejas"},"geometry":{"type":"Polygon","coordinates":[[[-75.0126,9.5286],[-75.0358,9.4741],[-75.1105,9.4406],[-75.2856,9.5001],[-75.2843,9.5769],[-75.3272,9.6166],[-75.2794,9.686],[-75.1325,9.5955],[-75.0775,9.5323],[-75.0126,9.5286]]]}},{"type":"Feature","properties":{"cve_ent":"CO70","cve_mun":"523","cvegeo":"CO70523","nombre":"Palmito"},"geometry":{"type":"Polygon","coordinates":[[[-75.5414,9.3935],[-75.4912,9.339],[-75.4986,9.2857],[-75.5843,9.2733],[-75.6283,9.3526],[-75.6491,9.3625],[-75.6173,9.4059],[-75.5414,9.3935]]]}},{"type":"Feature","properties":{"cve_ent":"CO70","cve_mun":"670","cvegeo":"CO70670","nombre":"Sampués"},"geometry":{"type":"Polygon","coordinates":[[[-75.3492,9.2262],[-75.2721,9.1382],[-75.2244,9.0737],[-75.2807,9.0725],[-75.3921,9.1592],[-75.4484,9.1406],[-75.4569,9.2373],[-75.3492,9.2262]]]}},{"type":"Feature","properties":{"cve_ent":"CO70","cve_mun":"678","cvegeo":"CO70678","nombre":"San Benito Abad"},"geometry":{"type":"Polygon","coordinates":[[[-74.8436,9.1072],[-74.7751,9.0378],[-74.8375,8.9745],[-74.8694,8.9002],[-74.8755,8.7874],[-74.8498,8.6758],[-74.9171,8.63],[-74.8461,8.5308],[-74.8987,8.4465],[-74.9257,8.4998],[-75.0028,8.5221],[-74.9808,8.599],[-75.0309,8.6535],[-75.0138,8.8047],[-75.1007,8.8766],[-75.1864,8.9138],[-75.168,8.9522],[-75.2084,9.034],[-75.1277,9.0105],[-75.0285,9.0477],[-74.911,9.1084],[-74.8436,9.1072]]]}},{"type":"Feature","properties":{"cve_ent":"CO70","cve_mun":"702","cvegeo":"CO70702","nombre":"San Juan de Betulia"},"geometry":{"type":"Polygon","coordinates":[[[-75.2048,9.2113],[-75.2709,9.21],[-75.2721,9.2683],[-75.2366,9.3402],[-75.1472,9.4009],[-75.2048,9.2113]]]}},{"type":"Feature","properties":{"cve_ent":"CO70","cve_mun":"708","cvegeo":"CO70708","nombre":"San Marcos"},"geometry":{"type":"Polygon","coordinates":[[[-75.217,8.7341],[-75.0726,8.713],[-75.0309,8.6535],[-74.9808,8.599],[-75.0028,8.5221],[-75.042,8.4577],[-75.1277,8.4688],[-75.1852,8.397],[-75.2133,8.4738],[-75.2672,8.4874],[-75.3517,8.6585],[-75.3358,8.7118],[-75.217,8.7341]]]}},{"type":"Feature","properties":{"cve_ent":"CO70","cve_mun":"713","cvegeo":"CO70713","nombre":"San Onofre"},"geometry":{"type":"Polygon","coordinates":[[[-75.4876,10.0368],[-75.4667,9.9091],[-75.3933,9.8806],[-75.3382,9.8285],[-75.3713,9.7108],[-75.3737,9.629],[-75.4569,9.6352],[-75.4729,9.6687],[-75.5781,9.6377],[-75.6442,9.7567],[-75.5818,9.9513],[-75.5732,10.0864],[-75.4973,10.1458],[-75.5451,10.0467],[-75.4876,10.0368]]]}},{"type":"Feature","properties":{"cve_ent":"CO70","cve_mun":"717","cvegeo":"CO70717","nombre":"San Pedro"},"geometry":{"type":"Polygon","coordinates":[[[-75.0358,9.4741],[-74.9599,9.4344],[-74.9575,9.3675],[-75.0077,9.3241],[-75.0897,9.3414],[-75.113,9.4009],[-75.1105,9.4406],[-75.0358,9.4741]]]}},{"type":"Feature","properties":{"cve_ent":"CO70","cve_mun":"742","cvegeo":"CO70742","nombre":"San Luis de Sincé"},"geometry":{"type":"Polygon","coordinates":[[[-75.113,9.4009],[-75.0897,9.3414],[-75.0077,9.3241],[-74.9367,9.21],[-75.075,9.2014],[-75.0824,9.1097],[-75.2048,9.2113],[-75.1472,9.4009],[-75.113,9.4009]]]}},{"type":"Feature","properties":{"cve_ent":"CO70","cve_mun":"771","cvegeo":"CO70771","nombre":"Sucre"},"geometry":{"type":"Polygon","coordinates":[[[-74.5645,8.837],[-74.6086,8.7304],[-74.7188,8.7192],[-74.7482,8.6213],[-74.7873,8.6139],[-74.8461,8.5308],[-74.9171,8.63],[-74.8498,8.6758],[-74.8755,8.7874],[-74.8694,8.9002],[-74.8375,8.9745],[-74.7751,9.0378],[-74.6392,8.977],[-74.5645,8.837]]]}},{"type":"Feature","properties":{"cve_ent":"CO70","cve_mun":"820","cvegeo":"CO70820","nombre":"Santiago de Tolú"},"geometry":{"type":"Polygon","coordinates":[[[-75.4569,9.6352],[-75.4741,9.536],[-75.5414,9.3935],[-75.6173,9.4059],[-75.6075,9.4691],[-75.5732,9.5683],[-75.5781,9.6377],[-75.4729,9.6687],[-75.4569,9.6352]]]}},{"type":"Feature","properties":{"cve_ent":"CO70","cve_mun":"823","cvegeo":"CO70823","nombre":"San José de Toluviejo"},"geometry":{"type":"Polygon","coordinates":[[[-75.4006,9.629],[-75.3908,9.4691],[-75.3639,9.4443],[-75.3982,9.396],[-75.4888,9.3885],[-75.5267,9.427],[-75.4741,9.536],[-75.4569,9.6352],[-75.4006,9.629]]]}}]}