{"type":"FeatureCollection","features":[{"type":"Feature","properties":{"cve_ent":"CO73","cve_mun":"001","cvegeo":"CO73001","nombre":"Ibagué"},"geometry":{"type":"Polygon","coordinates":[[[-75.0738,4.5682],[-75.0432,4.4505],[-75.0664,4.4059],[-74.9661,4.3612],[-75.0297,4.2794],[-75.1485,4.3216],[-75.2256,4.2931],[-75.255,4.3451],[-75.3566,4.3067],[-75.4998,4.2819],[-75.5194,4.2559],[-75.4839,4.3377],[-75.3945,4.3798],[-75.37,4.4443],[-75.4545,4.5224],[-75.4851,4.5819],[-75.4153,4.6228],[-75.3859,4.7009],[-75.2831,4.6129],[-75.2892,4.5732],[-75.2158,4.5348],[-75.0738,4.5682]]]}},{"type":"Feature","properties":{"cve_ent":"CO73","cve_mun":"024","cvegeo":"CO73024","nombre":"Alpujarra"},"geometry":{"type":"Polygon","coordinates":[[[-74.8106,3.4106],[-74.8485,3.3424],[-74.9098,3.2903],[-75.0077,3.2804],[-75.0664,3.2941],[-75.0346,3.4279],[-74.9954,3.5122],[-74.9526,3.4775],[-74.8449,3.5097],[-74.851,3.454],[-74.8106,3.4106]]]}},{"type":"Feature","properties":{"cve_ent":"CO73","cve_mun":"026","cvegeo":"CO73026","nombre":"Alvarado"},"geometry":{"type":"Polygon","coordinates":[[[-74.862,4.6252],[-74.9795,4.4864],[-75.0432,4.4505],[-75.0738,4.5682],[-75.0493,4.6624],[-75.0175,4.6885],[-74.9722,4.7033],[-74.9257,4.6401],[-74.862,4.6252]]]}},{"type":"Feature","properties":{"cve_ent":"CO73","cve_mun":"030","cvegeo":"CO73030","nombre":"Ambalema"},"geometry":{"type":"Polygon","coordinates":[[[-74.769,4.8422],[-74.7433,4.7901],[-74.8155,4.7133],[-74.8718,4.774],[-74.8694,4.8198],[-74.8118,4.8868],[-74.7494,4.9525],[-74.769,4.8422]]]}},{"type":"Feature","properties":{"cve_ent":"CO73","cve_mun":"043","cvegeo":"CO73043","nombre":"Anzoátegui"},"geometry":{"type":"Polygon","coordinates":[[[-75.0505,4.6959],[-75.0175,4.6885],[-75.0493,4.6624],[-75.0738,4.5682],[-75.2158,4.5348],[-75.2892,4.5732],[-75.2831,4.6129],[-75.3859,4.7009],[-75.3835,4.7083],[-75.1876,4.712],[-75.0824,4.66],[-75.0505,4.6959]]]}},{"type":"Feature","properties":{"cve_ent":"CO73","cve_mun":"055","cvegeo":"CO73055","nombre":"Armero"},"geometry":{"type":"Polygon","coordinates":[[[-74.884,5.1471],[-74.8461,5.1012],[-74.7298,5.0677],[-74.731,4.9971],[-74.7274,4.9773],[-74.8118,4.8868],[-74.8706,4.8868],[-74.9061,4.9525],[-74.9734,4.9673],[-75.0163,4.9959],[-75.0089,5.0095],[-74.8914,5.038],[-74.9,5.1421],[-74.884,5.1471]]]}},{"type":"Feature","properties":{"cve_ent":"CO73","cve_mun":"067","cvegeo":"CO73067","nombre":"Ataco"},"geometry":{"type":"Polygon","coordinates":[[[-75.2366,3.6002],[-75.2892,3.5618],[-75.2562,3.5072],[-75.3027,3.4502],[-75.2684,3.3821],[-75.3664,3.4069],[-75.4263,3.3523],[-75.479,3.361],[-75.5769,3.2209],[-75.6112,3.299],[-75.6602,3.2792],[-75.7397,3.3226],[-75.6736,3.4626],[-75.5794,3.4639],[-75.4716,3.4849],[-75.3235,3.6634],[-75.31,3.6114],[-75.2366,3.6002]]]}},{"type":"Feature","properties":{"cve_ent":"CO73","cve_mun":"124","cvegeo":"CO73124","nombre":"Cajamarca"},"geometry":{"type":"Polygon","coordinates":[[[-75.5194,4.2559],[-75.5696,4.2385],[-75.5977,4.2794],[-75.5928,4.3612],[-75.583,4.4245],[-75.5561,4.4716],[-75.4851,4.5819],[-75.4545,4.5224],[-75.37,4.4443],[-75.3945,4.3798],[-75.4839,4.3377],[-75.5194,4.2559]]]}},{"type":"Feature","properties":{"cve_ent":"CO73","cve_mun":"148","cvegeo":"CO73148","nombre":"Carmen de Apicalá"},"geometry":{"type":"Polygon","coordinates":[[[-74.7445,4.2361],[-74.671,4.1505],[-74.6845,4.096],[-74.78,4.0142],[-74.7984,4.0266],[-74.7898,4.1753],[-74.7445,4.2472],[-74.7445,4.2361]]]}},{"type":"Feature","properties":{"cve_ent":"CO73","cve_mun":"152","cvegeo":"CO73152","nombre":"Casabianca"},"geometry":{"type":"Polygon","coordinates":[[[-75.0444,5.1223],[-75.0456,5.0541],[-75.0664,5.0318],[-75.1485,5.0169],[-75.3198,4.893],[-75.3345,4.8992],[-75.3431,4.9488],[-75.2195,4.9971],[-75.1289,5.0938],[-75.0444,5.1223]]]}},{"type":"Feature","properties":{"cve_ent":"CO73","cve_mun":"168","cvegeo":"CO73168","nombre":"Chaparral"},"geometry":{"type":"Polygon","coordinates":[[[-75.632,3.9336],[-75.5659,3.858],[-75.4594,3.8307],[-75.4398,3.8729],[-75.2733,3.7465],[-75.3235,3.6634],[-75.4716,3.4849],[-75.5794,3.4639],[-75.583,3.5667],[-75.6981,3.6523],[-75.7471,3.6473],[-75.8242,3.7242],[-75.8413,3.7775],[-75.9172,3.7489],[-75.8499,3.889],[-75.823,3.9051],[-75.7458,4.0427],[-75.7165,3.9807],[-75.632,3.9336]]]}},{"type":"Feature","properties":{"cve_ent":"CO73","cve_mun":"200","cvegeo":"CO73200","nombre":"Coello"},"geometry":{"type":"Polygon","coordinates":[[[-74.7947,4.5001],[-74.8216,4.4455],[-74.8559,4.3352],[-74.8902,4.2894],[-74.9073,4.2497],[-74.9477,4.2088],[-74.9979,4.2485],[-75.0297,4.2794],[-74.9661,4.3612],[-74.9098,4.3997],[-74.9049,4.4802],[-74.7947,4.5001]]]}},{"type":"Feature","properties":{"cve_ent":"CO73","cve_mun":"217","cvegeo":"CO73217","nombre":"Coyaima"},"geometry":{"type":"Polygon","coordinates":[[[-75.1032,3.9088],[-74.9746,3.7452],[-75.015,3.687],[-75.0542,3.6609],[-75.1338,3.6944],[-75.1852,3.6225],[-75.2366,3.6002],[-75.31,3.6114],[-75.3235,3.6634],[-75.2733,3.7465],[-75.2244,3.7651],[-75.1938,3.8419],[-75.1032,3.9088]]]}},{"type":"Feature","properties":{"cve_ent":"CO73","cve_mun":"226","cvegeo":"CO73226","nombre":"Cunday"},"geometry":{"type":"Polygon","coordinates":[[[-74.6245,4.101],[-74.5792,4.0836],[-74.5315,3.9758],[-74.6111,3.9956],[-74.6686,3.9497],[-74.7065,3.8022],[-74.7592,3.8655],[-74.8241,3.8952],[-74.78,4.0142],[-74.6845,4.096],[-74.6245,4.101]]]}},{"type":"Feature","properties":{"cve_ent":"CO73","cve_mun":"236","cvegeo":"CO73236","nombre":"Dolores"},"geometry":{"type":"Polygon","coordinates":[[[-74.5352,3.8431],[-74.5572,3.7675],[-74.6759,3.6659],[-74.7751,3.5246],[-74.7653,3.4403],[-74.8106,3.4106],[-74.851,3.454],[-74.8449,3.5097],[-74.9526,3.4775],[-74.9954,3.5122],[-74.9306,3.6176],[-74.9232,3.6498],[-74.78,3.6721],[-74.7176,3.7589],[-74.6723,3.6969],[-74.6172,3.7378],[-74.5401,3.8444],[-74.5352,3.8431]]]}},{"type":"Feature","properties":{"cve_ent":"CO73","cve_mun":"268","cvegeo":"CO73268","nombre":"Espinal"},"geometry":{"type":"Polygon","coordinates":[[[-74.8118,4.1914],[-74.8277,4.0898],[-74.9367,4.122],[-75.0065,4.2361],[-74.9979,4.2485],[-74.9477,4.2088],[-74.9073,4.2497],[-74.8118,4.1914]]]}},{"type":"Feature","properties":{"cve_ent":"CO73","cve_mun":"270","cvegeo":"CO73270","nombre":"Falan"},"geometry":{"type":"Polygon","coordinates":[[[-74.9,5.1421],[-74.8914,5.038],[-75.0089,5.0095],[-75.0664,5.0318],[-75.0456,5.0541],[-74.982,5.0777],[-74.9942,5.1458],[-74.9661,5.1706],[-74.9,5.1421]]]}},{"type":"Feature","properties":{"cve_ent":"CO73","cve_mun":"275","cvegeo":"CO73275","nombre":"Flandes"},"geometry":{"type":"Polygon","coordinates":[[[-74.7971,4.2881],[-74.7812,4.2646],[-74.8118,4.1914],[-74.9073,4.2497],[-74.8902,4.2894],[-74.7971,4.2881]]]}},{"type":"Feature","properties":{"cve_ent":"CO73","cve_mun":"283","cvegeo":"CO73283","nombre":"Fresno"},"geometry":{"type":"Polygon","coordinates":[[[-75.0003,5.2921],[-75.0089,5.2375],[-74.9661,5.1706],[-74.9942,5.1458],[-75.0444,5.1223],[-75.1289,5.0938],[-75.1497,5.1644],[-75.1166,5.1607],[-75.0603,5.271],[-75.0003,5.2921]]]}},{"type":"Feature","properties":{"cve_ent":"CO73","cve_mun":"319","cvegeo":"CO73319","nombre":"Guamo"},"geometry":{"type":"Polygon","coordinates":[[[-75.0065,4.2361],[-74.9367,4.122],[-74.8277,4.0898],[-74.8657,4.0092],[-74.9195,3.9559],[-74.9746,3.9435],[-75.0089,3.9956],[-75.0615,3.9857],[-75.0848,4.0241],[-75.0554,4.101],[-75.0824,4.1381],[-75.0346,4.246],[-75.0065,4.2361]]]}},{"type":"Feature","properties":{"cve_ent":"CO73","cve_mun":"347","cvegeo":"CO73347","nombre":"Herveo"},"geometry":{"type":"Polygon","coordinates":[[[-75.1497,5.1644],[-75.1289,5.0938],[-75.2195,4.9971],[-75.3431,4.9488],[-75.3345,4.8992],[-75.3541,4.9624],[-75.3284,5.0417],[-75.3382,5.0454],[-75.288,5.1384],[-75.2354,5.126],[-75.1668,5.1694],[-75.1497,5.1644]]]}},{"type":"Feature","properties":{"cve_ent":"CO73","cve_mun":"349","cvegeo":"CO73349","nombre":"Honda"},"geometry":{"type":"Polygon","coordinates":[[[-74.7898,5.2983],[-74.7347,5.2871],[-74.7298,5.0677],[-74.8461,5.1012],[-74.884,5.1471],[-74.7947,5.2276],[-74.8608,5.3057],[-74.7898,5.2983]]]}},{"type":"Feature","properties":{"cve_ent":"CO73","cve_mun":"352","cvegeo":"CO73352","nombre":"Icononzo"},"geometry":{"type":"Polygon","coordinates":[[[-74.5413,4.2522],[-74.5192,4.241],[-74.4764,4.1195],[-74.5241,4.0229],[-74.5315,3.9758],[-74.5792,4.0836],[-74.6245,4.101],[-74.5584,4.1927],[-74.556,4.267],[-74.5413,4.2522]]]}},{"type":"Feature","properties":{"cve_ent":"CO73","cve_mun":"408","cvegeo":"CO73408","nombre":"Lérida"},"geometry":{"type":"Polygon","coordinates":[[[-74.8118,4.8868],[-74.8694,4.8198],[-74.8718,4.774],[-75.0077,4.8112],[-74.9771,4.8496],[-74.9991,4.9401],[-74.9734,4.9673],[-74.9061,4.9525],[-74.8706,4.8868],[-74.8118,4.8868]]]}},{"type":"Feature","properties":{"cve_ent":"CO73","cve_mun":"411","cvegeo":"CO73411","nombre":"Líbano"},"geometry":{"type":"Polygon","coordinates":[[[-75.0163,4.9959],[-74.9734,4.9673],[-74.9991,4.9401],[-74.9771,4.8496],[-75.0077,4.8112],[-75.0126,4.8112],[-75.0701,4.7529],[-75.1093,4.7678],[-75.1093,4.8979],[-75.0456,4.9959],[-75.0163,4.9959]]]}},{"type":"Feature","properties":{"cve_ent":"CO73","cve_mun":"443","cvegeo":"CO73443","nombre":"San Sebastián de Mariquita"},"geometry":{"type":"Polygon","coordinates":[[[-74.8608,5.3057],[-74.7947,5.2276],[-74.884,5.1471],[-74.9,5.1421],[-74.9661,5.1706],[-75.0089,5.2375],[-75.0003,5.2921],[-74.9673,5.3008],[-74.8608,5.3057]]]}},{"type":"Feature","properties":{"cve_ent":"CO73","cve_mun":"449","cvegeo":"CO73449","nombre":"Melgar"},"geometry":{"type":"Polygon","coordinates":[[[-74.6245,4.101],[-74.6845,4.096],[-74.671,4.1505],[-74.7445,4.2361],[-74.731,4.2447],[-74.6392,4.2113],[-74.556,4.267],[-74.5584,4.1927],[-74.6245,4.101]]]}},{"type":"Feature","properties":{"cve_ent":"CO73","cve_mun":"461","cvegeo":"CO73461","nombre":"Murillo"},"geometry":{"type":"Polygon","coordinates":[[[-75.1093,4.8979],[-75.1093,4.7678],[-75.0701,4.7529],[-75.1668,4.7405],[-75.217,4.7765],[-75.3186,4.7542],[-75.3749,4.8025],[-75.3186,4.8868],[-75.1766,4.919],[-75.1093,4.8979]]]}},{"type":"Feature","properties":{"cve_ent":"CO73","cve_mun":"483","cvegeo":"CO73483","nombre":"Natagaima"},"geometry":{"type":"Polygon","coordinates":[[[-75.015,3.687],[-74.9306,3.6176],[-74.9954,3.5122],[-75.0346,3.4279],[-75.1497,3.4354],[-75.1729,3.3783],[-75.2268,3.4155],[-75.2684,3.3821],[-75.3027,3.4502],[-75.2562,3.5072],[-75.2892,3.5618],[-75.2366,3.6002],[-75.1852,3.6225],[-75.1338,3.6944],[-75.0542,3.6609],[-75.015,3.687]]]}},{"type":"Feature","properties":{"cve_ent":"CO73","cve_mun":"504","cvegeo":"CO73504","nombre":"Ortega"},"geometry":{"type":"Polygon","coordinates":[[[-75.2439,4.1072],[-75.1901,4.1084],[-75.2146,4.0328],[-75.0946,3.9708],[-75.0726,3.9373],[-75.1032,3.9088],[-75.1938,3.8419],[-75.2244,3.7651],[-75.2733,3.7465],[-75.4398,3.8729],[-75.441,3.9844],[-75.408,4.0551],[-75.3688,4.0415],[-75.2758,4.1195],[-75.2439,4.1072]]]}},{"type":"Feature","properties":{"cve_ent":"CO73","cve_mun":"520","cvegeo":"CO73520","nombre":"Palocabildo"},"geometry":{"type":"Polygon","coordinates":[[[-74.9942,5.1458],[-74.982,5.0777],[-75.0456,5.0541],[-75.0444,5.1223],[-74.9942,5.1458]]]}},{"type":"Feature","properties":{"cve_ent":"CO73","cve_mun":"547","cvegeo":"CO73547","nombre":"Piedras"},"geometry":{"type":"Polygon","coordinates":[[[-74.8167,4.6116],[-74.7935,4.5918],[-74.7947,4.5001],[-74.9049,4.4802],[-74.9098,4.3997],[-74.9661,4.3612],[-75.0664,4.4059],[-75.0432,4.4505],[-74.9795,4.4864],[-74.862,4.6252],[-74.8167,4.6116]]]}},{"type":"Feature","properties":{"cve_ent":"CO73","cve_mun":"555","cvegeo":"CO73555","nombre":"Planadas"},"geometry":{"type":"Polygon","coordinates":[[[-75.5769,3.2209],[-75.5843,3.1503],[-75.6002,3.0486],[-75.6136,3.0239],[-75.692,2.9929],[-75.7679,2.9148],[-75.8597,2.8726],[-76.0286,2.9408],[-76.0213,3.0053],[-76.0678,3.0462],[-76.1033,3.0957],[-76.0837,3.1577],[-76.0911,3.1986],[-76.058,3.1701],[-75.9148,3.1937],[-75.7397,3.3226],[-75.6602,3.2792],[-75.6112,3.299],[-75.5769,3.2209]]]}},{"type":"Feature","properties":{"cve_ent":"CO73","cve_mun":"563","cvegeo":"CO73563","nombre":"Prado"},"geometry":{"type":"Polygon","coordinates":[[[-74.7078,3.7898],[-74.7176,3.7589],[-74.78,3.6721],[-74.9232,3.6498],[-74.9306,3.6176],[-75.015,3.687],[-74.9746,3.7452],[-74.9526,3.8047],[-74.8963,3.827],[-74.7457,3.7713],[-74.7078,3.7898]]]}},{"type":"Feature","properties":{"cve_ent":"CO73","cve_mun":"585","cvegeo":"CO73585","nombre":"Purificación"},"geometry":{"type":"Polygon","coordinates":[[[-74.8706,3.915],[-74.7592,3.8655],[-74.7065,3.8022],[-74.7078,3.7898],[-74.7457,3.7713],[-74.8963,3.827],[-74.9526,3.8047],[-74.9746,3.7452],[-75.0334,3.8196],[-74.9073,3.9311],[-74.9195,3.9559],[-74.8657,4.0092],[-74.8706,3.915]]]}},{"type":"Feature","properties":{"cve_ent":"CO73","cve_mun":"616","cvegeo":"CO73616","nombre":"Rioblanco"},"geometry":{"type":"Polygon","coordinates":[[[-75.5794,3.4639],[-75.6736,3.4626],[-75.7397,3.3226],[-75.9148,3.1937],[-76.058,3.1701],[-76.0911,3.1986],[-76.0556,3.2234],[-76.0384,3.3015],[-76.0617,3.3548],[-76.0372,3.4527],[-75.9846,3.5593],[-75.9931,3.6089],[-75.9552,3.7142],[-75.9172,3.7489],[-75.8413,3.7775],[-75.8242,3.7242],[-75.7471,3.6473],[-75.6981,3.6523],[-75.583,3.5667],[-75.5794,3.4639]]]}},{"type":"Feature","properties":{"cve_ent":"CO73","cve_mun":"622","cvegeo":"CO73622","nombre":"Roncesvalles"},"geometry":{"type":"Polygon","coordinates":[[[-75.5696,4.2385],[-75.5071,4.1852],[-75.3896,4.1208],[-75.4569,4.091],[-75.4716,4.0204],[-75.6185,3.9683],[-75.632,3.9336],[-75.7165,3.9807],[-75.7458,4.0427],[-75.752,4.0774],[-75.6969,4.1319],[-75.6589,4.2224],[-75.5977,4.2794],[-75.5696,4.2385]]]}},{"type":"Feature","properties":{"cve_ent":"CO73","cve_mun":"624","cvegeo":"CO73624","nombre":"Rovira"},"geometry":{"type":"Polygon","coordinates":[[[-75.1485,4.3216],[-75.1791,4.2782],[-75.2305,4.1902],[-75.2439,4.1072],[-75.2758,4.1195],[-75.3688,4.0415],[-75.408,4.0551],[-75.3896,4.1208],[-75.5071,4.1852],[-75.5696,4.2385],[-75.5194,4.2559],[-75.4998,4.2819],[-75.3566,4.3067],[-75.255,4.3451],[-75.2256,4.2931],[-75.1485,4.3216]]]}},{"type":"Feature","properties":{"cve_ent":"CO73","cve_mun":"671","cvegeo":"CO73671","nombre":"Saldaña"},"geometry":{"type":"Polygon","coordinates":[[[-74.9195,3.9559],[-74.9073,3.9311],[-75.0334,3.8196],[-75.1032,3.9088],[-75.0726,3.9373],[-75.0615,3.9857],[-75.0089,3.9956],[-74.9746,3.9435],[-74.9195,3.9559]]]}},{"type":"Feature","properties":{"cve_ent":"CO73","cve_mun":"675","cvegeo":"CO73675","nombre":"San Antonio"},"geometry":{"type":"Polygon","coordinates":[[[-75.3896,4.1208],[-75.408,4.0551],[-75.441,3.9844],[-75.4398,3.8729],[-75.4594,3.8307],[-75.5659,3.858],[-75.632,3.9336],[-75.6185,3.9683],[-75.4716,4.0204],[-75.4569,4.091],[-75.3896,4.1208]]]}},{"type":"Feature","properties":{"cve_ent":"CO73","cve_mun":"678","cvegeo":"CO73678","nombre":"San Luis"},"geometry":{"type":"Polygon","coordinates":[[[-75.0297,4.2794],[-74.9979,4.2485],[-75.0065,4.2361],[-75.0346,4.246],[-75.0824,4.1381],[-75.0554,4.101],[-75.0848,4.0241],[-75.0615,3.9857],[-75.0726,3.9373],[-75.0946,3.9708],[-75.2146,4.0328],[-75.1901,4.1084],[-75.1105,4.1679],[-75.1791,4.2782],[-75.1485,4.3216],[-75.0297,4.2794]]]}},{"type":"Feature","properties":{"cve_ent":"CO73","cve_mun":"686","cvegeo":"CO73686","nombre":"Santa Isabel"},"geometry":{"type":"Polygon","coordinates":[[[-75.0505,4.6959],[-75.0824,4.66],[-75.1876,4.712],[-75.3835,4.7083],[-75.3884,4.7157],[-75.3749,4.8025],[-75.3186,4.7542],[-75.217,4.7765],[-75.1668,4.7405],[-75.0701,4.7529],[-75.0126,4.8112],[-75.0505,4.6959]]]}},{"type":"Feature","properties":{"cve_ent":"CO73","cve_mun":"770","cvegeo":"CO73770","nombre":"Suárez"},"geometry":{"type":"Polygon","coordinates":[[[-74.7445,4.2472],[-74.7898,4.1753],[-74.7984,4.0266],[-74.78,4.0142],[-74.8241,3.8952],[-74.8706,3.915],[-74.8657,4.0092],[-74.8277,4.0898],[-74.8118,4.1914],[-74.7812,4.2646],[-74.7445,4.2472]]]}},{"type":"Feature","properties":{"cve_ent":"CO73","cve_mun":"854","cvegeo":"CO73854","nombre":"Valle de San Juan"},"geometry":{"type":"Polygon","coordinates":[[[-75.1901,4.1084],[-75.2439,4.1072],[-75.2305,4.1902],[-75.1791,4.2782],[-75.1105,4.1679],[-75.1901,4.1084]]]}},{"type":"Feature","properties":{"cve_ent":"CO73","cve_mun":"861","cvegeo":"CO73861","nombre":"Venadillo"},"geometry":{"type":"Polygon","coordinates":[[[-75.0126,4.8112],[-74.8718,4.774],[-74.8155,4.7133],[-74.7886,4.6587],[-74.8167,4.6116],[-74.9257,4.6401],[-74.9722,4.7033],[-75.0175,4.6885],[-75.0505,4.6959],[-75.0126,4.8112]]]}},{"type":"Feature","properties":{"cve_ent":"CO73","cve_mun":"870","cvegeo":"CO73870","nombre":"Villahermosa"},"geometry":{"type":"Polygon","coordinates":[[[-75.0664,5.0318],[-75.0089,5.0095],[-75.0163,4.9959],[-75.0456,4.9959],[-75.1093,4.8979],[-75.1766,4.919],[-75.3186,4.8868],[-75.3198,4.893],[-75.1485,5.0169],[-75.0664,5.0318]]]}},{"type":"Feature","properties":{"cve_ent":"CO73","cve_mun":"873","cvegeo":"CO73873","nombre":"Villarrica"},"geometry":{"type":"Polygon","coordinates":[[[-74.5315,3.9758],[-74.5131,3.9535],[-74.5401,3.8444],[-74.6172,3.7378],[-74.6723,3.6969],[-74.7176,3.7589],[-74.6686,3.9497],[-74.6111,3.9956],[-74.5315,3.9758]]]}}]}