{"type":"FeatureCollection","features":[{"type":"Feature","properties":{"cve_ent":"CO88","cve_mun":"001","cvegeo":"CO88001","nombre":"San Andrés"},"geometry":{"type":"Polygon","coordinates":[[[-81.7038,12.595],[-81.7038,12.543],[-81.7356,12.5306],[-81.7222,12.5777],[-81.7038,12.595]]]}},{"type":"Feature","properties":{"cve_ent":"CO88","cve_mun":"564","cvegeo":"CO88564","nombre":"Providencia"},"geometry":{"type":"Polygon","coordinates":[[[-81.3647,13.3858],[-81.3598,13.335],[-81.3929,13.3561],[-81.3647,13.3858]]]}}]}